id,address_x,city,state_x,postcode,address_y,result,match_type,address_match,tiger,side,state_y,county,tract,block,lat,long
5000,20239 GLACIER PARK CIR,Anchorage,AK,99577,"20239 GLACIER PARK CIR, Anchorage, AK, 99577",Match,Non_Exact,"20239 GLACIER PARK CIR, EAGLE RIVER, AK, 99577",605336517,L,02,020,000203,3002,-149.50526000000002,61.300438
5001,20243 GLACIER PARK CIR,Anchorage,AK,99577,"20243 GLACIER PARK CIR, Anchorage, AK, 99577",Match,Non_Exact,"20243 GLACIER PARK CIR, EAGLE RIVER, AK, 99577",605336517,L,02,020,000203,3002,-149.50522,61.300422999999995
5002,20251 GLACIER PARK CIR,Anchorage,AK,99577,"20251 GLACIER PARK CIR, Anchorage, AK, 99577",Match,Non_Exact,"20251 GLACIER PARK CIR, EAGLE RIVER, AK, 99577",605336517,L,02,020,000203,3002,-149.50513,61.300396
5003,20692 DRIFTWOOD BAY DR,Anchorage,AK,99577,"20692 DRIFTWOOD BAY DR, Anchorage, AK, 99577",Match,Non_Exact,"20692 DRIFTWOOD BAY DR, EAGLE RIVER, AK, 99577",625727882,L,02,020,000203,3000,-149.49563999999998,61.300587
5004,20247 GLACIER PARK CIR,Anchorage,AK,99577,"20247 GLACIER PARK CIR, Anchorage, AK, 99577",Match,Non_Exact,"20247 GLACIER PARK CIR, EAGLE RIVER, AK, 99577",605336517,L,02,020,000203,3002,-149.50517,61.30040699999999
5005,19543 TRAIL BAY DR,Anchorage,AK,99577,"19543 TRAIL BAY DR, Anchorage, AK, 99577",Match,Non_Exact,"19543 TRAIL BAY DR, EAGLE RIVER, AK, 99577",190827417,L,02,020,000203,3023,-149.51826,61.299983999999995
5006,19712 DRIFTWOOD BAY DR,Anchorage,AK,99577,"19712 DRIFTWOOD BAY DR, Anchorage, AK, 99577",Match,Non_Exact,"19712 DRIFTWOOD BAY DR, EAGLE RIVER, AK, 99577",190827412,R,02,020,000203,3011,-149.51483000000002,61.300488
5007,20228 GLACIER PARK CIR,Anchorage,AK,99577,"20228 GLACIER PARK CIR, Anchorage, AK, 99577",Match,Non_Exact,"20228 GLACIER PARK CIR, EAGLE RIVER, AK, 99577",605336517,R,02,020,000203,3002,-149.50517,61.300396
5008,8903 MEADOW PARK CIR,Anchorage,AK,99577,"8903 MEADOW PARK CIR, Anchorage, AK, 99577",Match,Non_Exact,"8903 MEADOW PARK CIR, EAGLE RIVER, AK, 99577",605288529,R,02,020,000203,3013,-149.5104,61.300278000000006
5009,4401 UPPER KOGRU DR,Anchorage,AK,99577,"4401 UPPER KOGRU DR, Anchorage, AK, 99577",Match,Non_Exact,"4401 UPPER KOGRU DR, EAGLE RIVER, AK, 99577",190815222,R,02,020,000204,1005,-149.31671,61.26031
5010,4477 PANTHER DR,Anchorage,AK,99577,"4477 PANTHER DR, Anchorage, AK, 99577",Match,Non_Exact,"4477 PANTHER DR, EAGLE RIVER, AK, 99577",190825943,R,02,020,000204,1005,-149.31476,61.26058199999999
5011,4441 PANTHER DR,Anchorage,AK,99577,"4441 PANTHER DR, Anchorage, AK, 99577",Match,Non_Exact,"4441 PANTHER DR, EAGLE RIVER, AK, 99577",190825943,R,02,020,000204,1005,-149.31375,61.26014
5012,4407 PANTHER DR,Anchorage,AK,99577,"4407 PANTHER DR, Anchorage, AK, 99577",Match,Non_Exact,"4407 PANTHER DR, EAGLE RIVER, AK, 99577",190825943,R,02,020,000204,1005,-149.31541,61.260146999999996
5013,4387 BLYTHE WAY,Anchorage,AK,99577,"4387 BLYTHE WAY, Anchorage, AK, 99577",Match,Non_Exact,"4387 BLYTHE WAY, EAGLE RIVER, AK, 99577",190820020,R,02,020,000204,1005,-149.29373,61.259994999999996
5014,4251 MARIAH DR,Anchorage,AK,99577,"4251 MARIAH DR, Anchorage, AK, 99577",Match,Non_Exact,"4251 MARIAH DR, EAGLE RIVER, AK, 99577",190820019,L,02,020,000204,1006,-149.29237,61.258
5015,4300 LOWER KOGRU DR,Anchorage,AK,99577,"4300 LOWER KOGRU DR, Anchorage, AK, 99577",Match,Non_Exact,"4300 LOWER KOGRU DR, EAGLE RIVER, AK, 99577",190815212,L,02,020,000204,1005,-149.31816,61.2587
5016,4244 HARCA ST,Anchorage,AK,99577,"4244 HARCA ST, Anchorage, AK, 99577",Match,Non_Exact,"4244 HARCA ST, EAGLE RIVER, AK, 99577",190825526,L,02,020,000204,1005,-149.30356,61.258759999999995
5017,4272 LOWER KOGRU DR,Anchorage,AK,99577,"4272 LOWER KOGRU DR, Anchorage, AK, 99577",Match,Non_Exact,"4272 LOWER KOGRU DR, EAGLE RIVER, AK, 99577",190815212,L,02,020,000204,1005,-149.3173,61.258488
5018,7505 BOUNDARY AVE,Anchorage,AK,99504,"7505 BOUNDARY AVE, Anchorage, AK, 99504",Match,Exact,"7505 BOUNDARY AVE, ANCHORAGE, AK, 99504",605167228,L,02,020,000702,1001,-149.74295,61.224180000000004
5019,7505 BOUNDARY AVE,Anchorage,AK,99504,"7505 BOUNDARY AVE, Anchorage, AK, 99504",Match,Exact,"7505 BOUNDARY AVE, ANCHORAGE, AK, 99504",605167228,L,02,020,000702,1001,-149.74295,61.224180000000004
5020,7505 BOUNDARY AVE,Anchorage,AK,99504,"7505 BOUNDARY AVE, Anchorage, AK, 99504",Match,Exact,"7505 BOUNDARY AVE, ANCHORAGE, AK, 99504",605167228,L,02,020,000702,1001,-149.74295,61.224180000000004
5021,7505 BOUNDARY AVE,Anchorage,AK,99504,"7505 BOUNDARY AVE, Anchorage, AK, 99504",Match,Exact,"7505 BOUNDARY AVE, ANCHORAGE, AK, 99504",605167228,L,02,020,000702,1001,-149.74295,61.224180000000004
5022,7505 BOUNDARY AVE,Anchorage,AK,99504,"7505 BOUNDARY AVE, Anchorage, AK, 99504",Match,Exact,"7505 BOUNDARY AVE, ANCHORAGE, AK, 99504",605167228,L,02,020,000702,1001,-149.74295,61.224180000000004
5023,7505 BOUNDARY AVE,Anchorage,AK,99504,"7505 BOUNDARY AVE, Anchorage, AK, 99504",Match,Exact,"7505 BOUNDARY AVE, ANCHORAGE, AK, 99504",605167228,L,02,020,000702,1001,-149.74295,61.224180000000004
5024,11724 GALLOWAY LOOP,Anchorage,AK,99577,"11724 GALLOWAY LOOP, Anchorage, AK, 99577",No_Match,,,,,,,,,,
5025,11732 GALENA BAY LOOP,Anchorage,AK,99577,"11732 GALENA BAY LOOP, Anchorage, AK, 99577",No_Match,,,,,,,,,,
5026,11858 GALLOWAY LOOP,Anchorage,AK,99577,"11858 GALLOWAY LOOP, Anchorage, AK, 99577",Match,Non_Exact,"11858 GALLOWAY LOOP, EAGLE RIVER, AK, 99577",624156303,L,02,020,000201,2005,-149.57852,61.3268
5027,11727 GALLOWAY LOOP,Anchorage,AK,99577,"11727 GALLOWAY LOOP, Anchorage, AK, 99577",Match,Non_Exact,"11727 GALLOWAY LOOP, EAGLE RIVER, AK, 99577",624156300,R,02,020,000201,2001,-149.57806000000002,61.326298
5028,11860 GALLOWAY LOOP,Anchorage,AK,99577,"11860 GALLOWAY LOOP, Anchorage, AK, 99577",Match,Non_Exact,"11860 GALLOWAY LOOP, EAGLE RIVER, AK, 99577",624156303,L,02,020,000201,2005,-149.57855,61.32678000000001
5029,11726 GALENA BAY LOOP,Anchorage,AK,99577,"11726 GALENA BAY LOOP, Anchorage, AK, 99577",No_Match,,,,,,,,,,
5030,11725 GALLOWAY LOOP,Anchorage,AK,99577,"11725 GALLOWAY LOOP, Anchorage, AK, 99577",Match,Non_Exact,"11725 GALLOWAY LOOP, EAGLE RIVER, AK, 99577",624156300,R,02,020,000201,2005,-149.5781,61.326275
5031,11863 GALLOWAY LOOP,Anchorage,AK,99577,"11863 GALLOWAY LOOP, Anchorage, AK, 99577",Match,Non_Exact,"11863 GALLOWAY LOOP, EAGLE RIVER, AK, 99577",624156303,R,02,020,000201,2001,-149.57861,61.326763
5032,13950 EKLUTNA PARK DR,Anchorage,AK,99577,"13950 EKLUTNA PARK DR, Anchorage, AK, 99577",No_Match,,,,,,,,,,
5033,12305 LAKE ST,Anchorage,AK,99577,"12305 LAKE ST, Anchorage, AK, 99577",Match,Non_Exact,"12305 LAKE ST, EAGLE RIVER, AK, 99577",190792390,R,02,020,000201,1007,-149.57034,61.331256999999994
5034,12319 LAKE ST,Anchorage,AK,99577,"12319 LAKE ST, Anchorage, AK, 99577",Match,Non_Exact,"12319 LAKE ST, EAGLE RIVER, AK, 99577",190792390,R,02,020,000201,1007,-149.57034,61.331332999999994
5035,12331 LAKE ST,Anchorage,AK,99577,"12331 LAKE ST, Anchorage, AK, 99577",Match,Non_Exact,"12331 LAKE ST, EAGLE RIVER, AK, 99577",190792390,R,02,020,000201,1007,-149.57034,61.331398
5036,12303 LAKE ST,Anchorage,AK,99577,"12303 LAKE ST, Anchorage, AK, 99577",Match,Non_Exact,"12303 LAKE ST, EAGLE RIVER, AK, 99577",190792390,R,02,020,000201,1007,-149.57034,61.33125
5037,12317 LAKE ST,Anchorage,AK,99577,"12317 LAKE ST, Anchorage, AK, 99577",Match,Non_Exact,"12317 LAKE ST, EAGLE RIVER, AK, 99577",190792390,R,02,020,000201,1007,-149.57034,61.33132
5038,12329 LAKE ST,Anchorage,AK,99577,"12329 LAKE ST, Anchorage, AK, 99577",Match,Non_Exact,"12329 LAKE ST, EAGLE RIVER, AK, 99577",190792390,R,02,020,000201,1007,-149.57034,61.331387
5039,12317 CENTER ST,Anchorage,AK,99577,"12317 CENTER ST, Anchorage, AK, 99577",Match,Non_Exact,"12317 CENTER ST, EAGLE RIVER, AK, 99577",190814046,R,02,020,000201,1007,-149.57214,61.331635
5040,12315 LAKE ST,Anchorage,AK,99577,"12315 LAKE ST, Anchorage, AK, 99577",Match,Non_Exact,"12315 LAKE ST, EAGLE RIVER, AK, 99577",190792390,R,02,020,000201,1007,-149.57034,61.331309999999995
5041,12301 LAKE ST,Anchorage,AK,99577,"12301 LAKE ST, Anchorage, AK, 99577",Match,Non_Exact,"12301 LAKE ST, EAGLE RIVER, AK, 99577",190792390,R,02,020,000201,1007,-149.57034,61.331238
5042,12327 LAKE ST,Anchorage,AK,99577,"12327 LAKE ST, Anchorage, AK, 99577",Match,Non_Exact,"12327 LAKE ST, EAGLE RIVER, AK, 99577",190792390,R,02,020,000201,1007,-149.57034,61.331375
5043,12313 LAKE ST,Anchorage,AK,99577,"12313 LAKE ST, Anchorage, AK, 99577",Match,Non_Exact,"12313 LAKE ST, EAGLE RIVER, AK, 99577",190792390,R,02,020,000201,1007,-149.57034,61.331303000000005
5044,12325 LAKE ST,Anchorage,AK,99577,"12325 LAKE ST, Anchorage, AK, 99577",Match,Non_Exact,"12325 LAKE ST, EAGLE RIVER, AK, 99577",190792390,R,02,020,000201,1007,-149.57034,61.331364
5045,11720 GALLOWAY LOOP,Anchorage,AK,99577,"11720 GALLOWAY LOOP, Anchorage, AK, 99577",No_Match,,,,,,,,,,
5046,11725 LOVELAND CIR,Anchorage,AK,99577,"11725 LOVELAND CIR, Anchorage, AK, 99577",Match,Non_Exact,"11725 LOVELAND CIR, EAGLE RIVER, AK, 99577",190815457,L,02,020,000201,2013,-149.58321999999998,61.32606
5047,11710 BUSINESS BLVD,Anchorage,AK,99577,"11710 BUSINESS BLVD, Anchorage, AK, 99577",Match,Non_Exact,"11710 BUSINESS BLVD, EAGLE RIVER, AK, 99577",605266943,R,02,020,000201,2001,-149.57486,61.326168
5048,11865 GALLOWAY LOOP,Anchorage,AK,99577,"11865 GALLOWAY LOOP, Anchorage, AK, 99577",Match,Non_Exact,"11865 GALLOWAY LOOP, EAGLE RIVER, AK, 99577",624156303,R,02,020,000201,2001,-149.57863999999998,61.326736
5049,11723 LOVELAND CIR,Anchorage,AK,99577,"11723 LOVELAND CIR, Anchorage, AK, 99577",Match,Non_Exact,"11723 LOVELAND CIR, EAGLE RIVER, AK, 99577",190815457,L,02,020,000201,2013,-149.58321999999998,61.326054000000006
5050,11724 GALENA BAY LOOP,Anchorage,AK,99577,"11724 GALENA BAY LOOP, Anchorage, AK, 99577",Match,Non_Exact,"11724 GALENA BAY LOOP, EAGLE RIVER, AK, 99577",605334899,L,02,020,000201,2002,-149.58037,61.326527
5051,11718 GALLOWAY LOOP,Anchorage,AK,99577,"11718 GALLOWAY LOOP, Anchorage, AK, 99577",No_Match,,,,,,,,,,
5052,11864 GALLOWAY LOOP,Anchorage,AK,99577,"11864 GALLOWAY LOOP, Anchorage, AK, 99577",Match,Non_Exact,"11864 GALLOWAY LOOP, EAGLE RIVER, AK, 99577",624156303,L,02,020,000201,2005,-149.57861,61.326730000000005
5053,11721 GALLOWAY LOOP,Anchorage,AK,99577,"11721 GALLOWAY LOOP, Anchorage, AK, 99577",Match,Non_Exact,"11721 GALLOWAY LOOP, EAGLE RIVER, AK, 99577",624156300,R,02,020,000201,2001,-149.57811999999998,61.326225
5054,11869 GALLOWAY LOOP,Anchorage,AK,99577,"11869 GALLOWAY LOOP, Anchorage, AK, 99577",Match,Non_Exact,"11869 GALLOWAY LOOP, EAGLE RIVER, AK, 99577",624156303,R,02,020,000201,2001,-149.57869,61.326682999999996
5055,11866 GALLOWAY LOOP,Anchorage,AK,99577,"11866 GALLOWAY LOOP, Anchorage, AK, 99577",Match,Non_Exact,"11866 GALLOWAY LOOP, EAGLE RIVER, AK, 99577",624156303,L,02,020,000201,2005,-149.57863999999998,61.32670600000001
5056,11718 GALENA BAY LOOP,Anchorage,AK,99577,"11718 GALENA BAY LOOP, Anchorage, AK, 99577",Match,Non_Exact,"11718 GALENA BAY LOOP, EAGLE RIVER, AK, 99577",605334899,L,02,020,000201,2002,-149.58029,61.326443000000005
5057,20740 PTARMIGAN BLVD,Anchorage,AK,99577,"20740 PTARMIGAN BLVD, Anchorage, AK, 99577",Match,Non_Exact,"20740 PTARMIGAN BLVD, EAGLE RIVER, AK, 99577",605288341,R,02,020,000203,3000,-149.49539,61.307114
5058,9343 W KANAGA LOOP,Anchorage,AK,99577,"9343 W KANAGA LOOP, Anchorage, AK, 99577",No_Match,,,,,,,,,,
5059,9013 W PARKVIEW TERRACE LOOP,Anchorage,AK,99577,"9013 W PARKVIEW TERRACE LOOP, Anchorage, AK, 99577",Match,Non_Exact,"9013 W PARKVIEW TER LP, EAGLE RIVER, AK, 99577",190805555,R,02,020,000203,5004,-149.54216,61.302425
5060,18721 KATELYN CIR,Anchorage,AK,99577,"18721 KATELYN CIR, Anchorage, AK, 99577",Match,Non_Exact,"18721 KATELYN CIR, EAGLE RIVER, AK, 99577",190818650,R,02,020,000203,3021,-149.5333,61.302017000000006
5061,19521 HIGHLAND RIDGE DR,Anchorage,AK,99577,"19521 HIGHLAND RIDGE DR, Anchorage, AK, 99577",Match,Non_Exact,"19521 HIGHLAND RIDGE DR, EAGLE RIVER, AK, 99577",190819652,L,02,020,000203,3015,-149.51924,61.301795999999996
5062,20598 MOUNTAINSIDE DR,Anchorage,AK,99577,"20598 MOUNTAINSIDE DR, Anchorage, AK, 99577",No_Match,,,,,,,,,,
5063,18521 JUDE ISLAND CIR,Anchorage,AK,99577,"18521 JUDE ISLAND CIR, Anchorage, AK, 99577",Match,Non_Exact,"18521 JUDE ISLAND CIR, EAGLE RIVER, AK, 99577",190805567,R,02,020,000203,3014,-149.53758,61.301655000000004
5064,18711 KATELYN CIR,Anchorage,AK,99577,"18711 KATELYN CIR, Anchorage, AK, 99577",Match,Non_Exact,"18711 KATELYN CIR, EAGLE RIVER, AK, 99577",190818650,R,02,020,000203,3021,-149.53346000000002,61.302032
5065,20610 MOUNTAINSIDE DR,Anchorage,AK,99577,"20610 MOUNTAINSIDE DR, Anchorage, AK, 99577",Match,Non_Exact,"20610 MOUNTAINSIDE DR, EAGLE RIVER, AK, 99577",625731930,R,02,020,000203,3000,-149.49821,61.3021
5066,18731 KATELYN CIR,Anchorage,AK,99577,"18731 KATELYN CIR, Anchorage, AK, 99577",Match,Non_Exact,"18731 KATELYN CIR, EAGLE RIVER, AK, 99577",190818650,R,02,020,000203,3021,-149.53311000000002,61.302006000000006
5067,18531 JUDE ISLAND CIR,Anchorage,AK,99577,"18531 JUDE ISLAND CIR, Anchorage, AK, 99577",Match,Non_Exact,"18531 JUDE ISLAND CIR, EAGLE RIVER, AK, 99577",190805567,R,02,020,000203,3014,-149.5374,61.301556000000005
5068,19515 HIGHLAND RIDGE DR,Anchorage,AK,99577,"19515 HIGHLAND RIDGE DR, Anchorage, AK, 99577",Match,Non_Exact,"19515 HIGHLAND RIDGE DR, EAGLE RIVER, AK, 99577",190819652,L,02,020,000203,3015,-149.51924,61.30175799999999
5069,20622 MOUNTAINSIDE DR,Anchorage,AK,99577,"20622 MOUNTAINSIDE DR, Anchorage, AK, 99577",Match,Non_Exact,"20622 MOUNTAINSIDE DR, EAGLE RIVER, AK, 99577",625731930,R,02,020,000203,3000,-149.49802,61.302067
5070,18323 CACHE CREEK CIR,Anchorage,AK,99577,"18323 CACHE CREEK CIR, Anchorage, AK, 99577",Match,Non_Exact,"18323 CACHE CREEK CIR, EAGLE RIVER, AK, 99577",190805556,L,02,020,000203,5004,-149.54095,61.301888
5071,9003 W PARKVIEW TERRACE LOOP,Anchorage,AK,99577,"9003 W PARKVIEW TERRACE LOOP, Anchorage, AK, 99577",Match,Non_Exact,"9003 W PARKVIEW TER LP, EAGLE RIVER, AK, 99577",190805555,R,02,020,000203,5004,-149.54207,61.302387
5072,18741 KATELYN CIR,Anchorage,AK,99577,"18741 KATELYN CIR, Anchorage, AK, 99577",Match,Non_Exact,"18741 KATELYN CIR, EAGLE RIVER, AK, 99577",190818650,R,02,020,000203,3021,-149.53293,61.30199399999999
5073,18333 CACHE CREEK CIR,Anchorage,AK,99577,"18333 CACHE CREEK CIR, Anchorage, AK, 99577",Match,Non_Exact,"18333 CACHE CREEK CIR, EAGLE RIVER, AK, 99577",190805556,L,02,020,000203,5004,-149.54086,61.3019
5074,9014 W PARKVIEW TERRACE LOOP,Anchorage,AK,99577,"9014 W PARKVIEW TERRACE LOOP, Anchorage, AK, 99577",Match,Non_Exact,"9014 W PARKVIEW TER LP, EAGLE RIVER, AK, 99577",190805555,L,02,020,000203,5000,-149.5422,61.30243299999999
5075,18422 JUDE ISLAND CIR,Anchorage,AK,99577,"18422 JUDE ISLAND CIR, Anchorage, AK, 99577",Match,Non_Exact,"18422 JUDE ISLAND CIR, EAGLE RIVER, AK, 99577",190805567,L,02,020,000203,3014,-149.53772,61.301809999999996
5076,20634 MOUNTAINSIDE DR,Anchorage,AK,99577,"20634 MOUNTAINSIDE DR, Anchorage, AK, 99577",Match,Non_Exact,"20634 MOUNTAINSIDE DR, EAGLE RIVER, AK, 99577",625731930,R,02,020,000203,3000,-149.4978,61.302032
5077,18751 KATELYN CIR,Anchorage,AK,99577,"18751 KATELYN CIR, Anchorage, AK, 99577",Match,Non_Exact,"18751 KATELYN CIR, EAGLE RIVER, AK, 99577",190818650,R,02,020,000203,3021,-149.53275,61.30198299999999
5078,18313 CACHE CREEK CIR,Anchorage,AK,99577,"18313 CACHE CREEK CIR, Anchorage, AK, 99577",Match,Non_Exact,"18313 CACHE CREEK CIR, EAGLE RIVER, AK, 99577",190805556,L,02,020,000203,5004,-149.54106000000002,61.301876
5079,19509 HIGHLAND RIDGE DR,Anchorage,AK,99577,"19509 HIGHLAND RIDGE DR, Anchorage, AK, 99577",Match,Non_Exact,"19509 HIGHLAND RIDGE DR, EAGLE RIVER, AK, 99577",190819652,L,02,020,000203,3015,-149.51924,61.301722999999996
5080,20644 MOUNTAINSIDE DR,Anchorage,AK,99577,"20644 MOUNTAINSIDE DR, Anchorage, AK, 99577",Match,Non_Exact,"20644 MOUNTAINSIDE DR, EAGLE RIVER, AK, 99577",625731930,R,02,020,000203,3000,-149.49763000000002,61.302009999999996
5081,21525 RUSHING RIVER CIR,Anchorage,AK,99577,"21525 RUSHING RIVER CIR, Anchorage, AK, 99577",Match,Non_Exact,"21525 RUSHING RIVER CIR, EAGLE RIVER, AK, 99577",190814337,L,02,020,000204,2012,-149.48245,61.283913
5082,21200 RUNNING BROOK CIR,Anchorage,AK,99577,"21200 RUNNING BROOK CIR, Anchorage, AK, 99577",Match,Non_Exact,"21200 RUNNING BROOK CIR, EAGLE RIVER, AK, 99577",190822995,L,02,020,000204,2010,-149.48578,61.284027
5083,21530 RUSHING RIVER CIR,Anchorage,AK,99577,"21530 RUSHING RIVER CIR, Anchorage, AK, 99577",Match,Non_Exact,"21530 RUSHING RIVER CIR, EAGLE RIVER, AK, 99577",190814337,R,02,020,000204,2012,-149.4824,61.283894
5084,6961 WATERFALL DR,Anchorage,AK,99577,"6961 WATERFALL DR, Anchorage, AK, 99577",Match,Non_Exact,"6961 WATERFALL DR, EAGLE RIVER, AK, 99577",190814336,L,02,020,000204,2012,-149.48315,61.283215000000006
5085,6916 HILAND RD,Anchorage,AK,99577,"6916 HILAND RD, Anchorage, AK, 99577",No_Match,,,,,,,,,,
5086,6943 WATERFALL DR,Anchorage,AK,99577,"6943 WATERFALL DR, Anchorage, AK, 99577",Match,Non_Exact,"6943 WATERFALL DR, EAGLE RIVER, AK, 99577",190814336,L,02,020,000204,2012,-149.48283,61.283069999999995
5087,6900 WATERFALL DR,Anchorage,AK,99577,"6900 WATERFALL DR, Anchorage, AK, 99577",Match,Non_Exact,"6900 WATERFALL DR, EAGLE RIVER, AK, 99577",190814336,R,02,020,000204,2010,-149.48145,61.282516
5088,5308 TAKU DR,Anchorage,AK,99508,"5308 TAKU DR, Anchorage, AK, 99508",Match,Exact,"5308 TAKU DR, ANCHORAGE, AK, 99508",624091008,R,02,020,000801,3002,-149.78215,61.224169999999994
5089,5308 TAKU DR,Anchorage,AK,99508,"5308 TAKU DR, Anchorage, AK, 99508",Match,Exact,"5308 TAKU DR, ANCHORAGE, AK, 99508",624091008,R,02,020,000801,3002,-149.78215,61.224169999999994
5090,5308 TAKU DR,Anchorage,AK,99508,"5308 TAKU DR, Anchorage, AK, 99508",Match,Exact,"5308 TAKU DR, ANCHORAGE, AK, 99508",624091008,R,02,020,000801,3002,-149.78215,61.224169999999994
5091,5306 TAKU DR,Anchorage,AK,99508,"5306 TAKU DR, Anchorage, AK, 99508",Match,Exact,"5306 TAKU DR, ANCHORAGE, AK, 99508",624091008,R,02,020,000801,3002,-149.7822,61.224169999999994
5092,5306 TAKU DR,Anchorage,AK,99508,"5306 TAKU DR, Anchorage, AK, 99508",Match,Exact,"5306 TAKU DR, ANCHORAGE, AK, 99508",624091008,R,02,020,000801,3002,-149.7822,61.224169999999994
5093,5306 TAKU DR,Anchorage,AK,99508,"5306 TAKU DR, Anchorage, AK, 99508",Match,Exact,"5306 TAKU DR, ANCHORAGE, AK, 99508",624091008,R,02,020,000801,3002,-149.7822,61.224169999999994
5094,5306 TAKU DR,Anchorage,AK,99508,"5306 TAKU DR, Anchorage, AK, 99508",Match,Exact,"5306 TAKU DR, ANCHORAGE, AK, 99508",624091008,R,02,020,000801,3002,-149.7822,61.224169999999994
5095,5306 TAKU DR,Anchorage,AK,99508,"5306 TAKU DR, Anchorage, AK, 99508",Match,Exact,"5306 TAKU DR, ANCHORAGE, AK, 99508",624091008,R,02,020,000801,3002,-149.7822,61.224169999999994
5096,5306 TAKU DR,Anchorage,AK,99508,"5306 TAKU DR, Anchorage, AK, 99508",Match,Exact,"5306 TAKU DR, ANCHORAGE, AK, 99508",624091008,R,02,020,000801,3002,-149.7822,61.224169999999994
5097,5300 TAKU DR,Anchorage,AK,99508,"5300 TAKU DR, Anchorage, AK, 99508",Match,Exact,"5300 TAKU DR, ANCHORAGE, AK, 99508",624091008,R,02,020,000801,3002,-149.7823,61.224169999999994
5098,19419 HIGHLAND RIDGE DR,Anchorage,AK,99577,"19419 HIGHLAND RIDGE DR, Anchorage, AK, 99577",Match,Non_Exact,"19419 HIGHLAND RIDGE DR, EAGLE RIVER, AK, 99577",190819652,L,02,020,000203,3015,-149.51923,61.3012
5099,20459 GRANITE PARK CIR,Anchorage,AK,99577,"20459 GRANITE PARK CIR, Anchorage, AK, 99577",Match,Non_Exact,"20459 GRANITE PARK CIR, EAGLE RIVER, AK, 99577",605336471,L,02,020,000203,3002,-149.50069,61.300734999999996
5100,8933 MEADOW PARK CIR,Anchorage,AK,99577,"8933 MEADOW PARK CIR, Anchorage, AK, 99577",Match,Non_Exact,"8933 MEADOW PARK CIR, EAGLE RIVER, AK, 99577",605288530,R,02,020,000203,3022,-149.51031,61.300766
5101,20451 GRANITE PARK CIR,Anchorage,AK,99577,"20451 GRANITE PARK CIR, Anchorage, AK, 99577",Match,Non_Exact,"20451 GRANITE PARK CIR, EAGLE RIVER, AK, 99577",605336471,L,02,020,000203,3002,-149.50081,61.300724
5102,8967 EAGLE PLACE LOOP,Anchorage,AK,99577,"8967 EAGLE PLACE LOOP, Anchorage, AK, 99577",No_Match,,,,,,,,,,
5103,19418 HIGHLAND RIDGE DR,Anchorage,AK,99577,"19418 HIGHLAND RIDGE DR, Anchorage, AK, 99577",Match,Non_Exact,"19418 HIGHLAND RIDGE DR, EAGLE RIVER, AK, 99577",190819652,R,02,020,000203,3022,-149.5192,61.30125400000001
5104,8930 MEADOW PARK CIR,Anchorage,AK,99577,"8930 MEADOW PARK CIR, Anchorage, AK, 99577",Match,Non_Exact,"8930 MEADOW PARK CIR, EAGLE RIVER, AK, 99577",605288530,L,02,020,000203,3022,-149.51035,61.300796999999996
5105,8910 EAGLE PLACE LOOP,Anchorage,AK,99577,"8910 EAGLE PLACE LOOP, Anchorage, AK, 99577",No_Match,,,,,,,,,,
5106,20463 GRANITE PARK CIR,Anchorage,AK,99577,"20463 GRANITE PARK CIR, Anchorage, AK, 99577",Match,Non_Exact,"20463 GRANITE PARK CIR, EAGLE RIVER, AK, 99577",605336471,L,02,020,000203,3002,-149.50063,61.300743000000004
5107,8910 NORTHWOOD PARK CIR,Anchorage,AK,99577,"8910 NORTHWOOD PARK CIR, Anchorage, AK, 99577",Match,Non_Exact,"8910 NORTHWOOD PARK CIR, EAGLE RIVER, AK, 99577",190819645,L,02,020,000203,3022,-149.51761000000002,61.300877
5108,8913 EAGLE PLACE LOOP,Anchorage,AK,99577,"8913 EAGLE PLACE LOOP, Anchorage, AK, 99577",No_Match,,,,,,,,,,
5109,8921 BIRCH PARK CIR,Anchorage,AK,99577,"8921 BIRCH PARK CIR, Anchorage, AK, 99577",Match,Non_Exact,"8921 BIRCH PARK CIR, EAGLE RIVER, AK, 99577",190827414,R,02,020,000203,3022,-149.51192,61.300740000000005
5110,8918 BIRCH PARK CIR,Anchorage,AK,99577,"8918 BIRCH PARK CIR, Anchorage, AK, 99577",Match,Non_Exact,"8918 BIRCH PARK CIR, EAGLE RIVER, AK, 99577",190827414,L,02,020,000203,3022,-149.51195,61.30072
5111,20447 GRANITE PARK CIR,Anchorage,AK,99577,"20447 GRANITE PARK CIR, Anchorage, AK, 99577",Match,Non_Exact,"20447 GRANITE PARK CIR, EAGLE RIVER, AK, 99577",605336471,L,02,020,000203,3002,-149.50085,61.300716
5112,8908 EAGLE PLACE LOOP,Anchorage,AK,99577,"8908 EAGLE PLACE LOOP, Anchorage, AK, 99577",No_Match,,,,,,,,,,
5113,19413 HIGHLAND RIDGE DR,Anchorage,AK,99577,"19413 HIGHLAND RIDGE DR, Anchorage, AK, 99577",Match,Non_Exact,"19413 HIGHLAND RIDGE DR, EAGLE RIVER, AK, 99577",190819652,L,02,020,000203,3015,-149.51923,61.30116700000001
5114,8929 MEADOW PARK CIR,Anchorage,AK,99577,"8929 MEADOW PARK CIR, Anchorage, AK, 99577",Match,Non_Exact,"8929 MEADOW PARK CIR, EAGLE RIVER, AK, 99577",605288530,R,02,020,000203,3022,-149.51031,61.300734999999996
5115,8911 EAGLE PLACE LOOP,Anchorage,AK,99577,"8911 EAGLE PLACE LOOP, Anchorage, AK, 99577",No_Match,,,,,,,,,,
5116,8971 EAGLE PLACE LOOP,Anchorage,AK,99577,"8971 EAGLE PLACE LOOP, Anchorage, AK, 99577",No_Match,,,,,,,,,,
5117,18771 PRICE ISLAND CIR,Anchorage,AK,99577,"18771 PRICE ISLAND CIR, Anchorage, AK, 99577",Match,Non_Exact,"18771 PRICE ISLAND CIR, EAGLE RIVER, AK, 99577",190805571,L,02,020,000203,3014,-149.53323,61.301266000000005
5118,8926 MEADOW PARK CIR,Anchorage,AK,99577,"8926 MEADOW PARK CIR, Anchorage, AK, 99577",Match,Non_Exact,"8926 MEADOW PARK CIR, EAGLE RIVER, AK, 99577",605288530,L,02,020,000203,3022,-149.51035,61.300766
5119,8904 NORTHWOOD PARK CIR,Anchorage,AK,99577,"8904 NORTHWOOD PARK CIR, Anchorage, AK, 99577",Match,Non_Exact,"8904 NORTHWOOD PARK CIR, EAGLE RIVER, AK, 99577",190819645,L,02,020,000203,3022,-149.51761000000002,61.30081
5120,16601 RIVER'S EDGE LN,Anchorage,AK,99577,"16601 RIVER'S EDGE LN, Anchorage, AK, 99577",Match,Non_Exact,"16601 RIVERS EDGE LN, EAGLE RIVER, AK, 99577",605288487,L,02,020,000203,5009,-149.57246,61.31111
5121,16623 RIVER'S EDGE LN,Anchorage,AK,99577,"16623 RIVER'S EDGE LN, Anchorage, AK, 99577",Match,Non_Exact,"16623 RIVERS EDGE LN, EAGLE RIVER, AK, 99577",605288487,L,02,020,000203,5009,-149.57211,61.31111
5122,16611 RIVER'S EDGE LN,Anchorage,AK,99577,"16611 RIVER'S EDGE LN, Anchorage, AK, 99577",Match,Non_Exact,"16611 RIVERS EDGE LN, EAGLE RIVER, AK, 99577",605288487,L,02,020,000203,5009,-149.5723,61.31111
5123,16705 RIVER'S EDGE LN,Anchorage,AK,99577,"16705 RIVER'S EDGE LN, Anchorage, AK, 99577",Match,Non_Exact,"16705 RIVERS EDGE LN, EAGLE RIVER, AK, 99577",605288487,L,02,020,000203,5009,-149.57082,61.31111
5124,16642 RIVER'S EDGE LN,Anchorage,AK,99577,"16642 RIVER'S EDGE LN, Anchorage, AK, 99577",Match,Non_Exact,"16642 RIVERS EDGE LN, EAGLE RIVER, AK, 99577",605288487,R,02,020,000203,5011,-149.57207,61.3111
5125,16632 RIVER'S EDGE LN,Anchorage,AK,99577,"16632 RIVER'S EDGE LN, Anchorage, AK, 99577",Match,Non_Exact,"16632 RIVERS EDGE LN, EAGLE RIVER, AK, 99577",605288487,R,02,020,000203,5011,-149.57228,61.3111
5126,16702 RIVER'S EDGE LN,Anchorage,AK,99577,"16702 RIVER'S EDGE LN, Anchorage, AK, 99577",Match,Non_Exact,"16702 RIVERS EDGE LN, EAGLE RIVER, AK, 99577",605288496,R,02,020,000203,5000,-149.57063,61.3111
5127,16622 RIVER'S EDGE LN,Anchorage,AK,99577,"16622 RIVER'S EDGE LN, Anchorage, AK, 99577",No_Match,,,,,,,,,,
5128,16606 RIVER'S EDGE LN,Anchorage,AK,99577,"16606 RIVER'S EDGE LN, Anchorage, AK, 99577",Match,Non_Exact,"16606 RIVERS EDGE LN, EAGLE RIVER, AK, 99577",605288487,R,02,020,000203,5011,-149.57246,61.3111
5129,16616 RIVER'S EDGE LN,Anchorage,AK,99577,"16616 RIVER'S EDGE LN, Anchorage, AK, 99577",Match,Non_Exact,"16616 RIVERS EDGE LN, EAGLE RIVER, AK, 99577",605288487,R,02,020,000203,5011,-149.57129,61.3111
5130,16712 RIVER'S EDGE LN,Anchorage,AK,99577,"16712 RIVER'S EDGE LN, Anchorage, AK, 99577",Match,Non_Exact,"16712 RIVERS EDGE LN, EAGLE RIVER, AK, 99577",605288496,R,02,020,000203,5000,-149.5706,61.3111
5131,16640 RIVER'S EDGE LN,Anchorage,AK,99577,"16640 RIVER'S EDGE LN, Anchorage, AK, 99577",Match,Non_Exact,"16640 RIVERS EDGE LN, EAGLE RIVER, AK, 99577",605288487,R,02,020,000203,5011,-149.57211,61.3111
5132,16710 RIVER'S EDGE LN,Anchorage,AK,99577,"16710 RIVER'S EDGE LN, Anchorage, AK, 99577",Match,Non_Exact,"16710 RIVERS EDGE LN, EAGLE RIVER, AK, 99577",605288496,R,02,020,000203,5000,-149.5706,61.3111
5133,16700 RIVER'S EDGE LN,Anchorage,AK,99577,"16700 RIVER'S EDGE LN, Anchorage, AK, 99577",Match,Non_Exact,"16700 RIVERS EDGE LN, EAGLE RIVER, AK, 99577",605288487,R,02,020,000203,5011,-149.57082,61.3111
5134,16630 RIVER'S EDGE LN,Anchorage,AK,99577,"16630 RIVER'S EDGE LN, Anchorage, AK, 99577",Match,Non_Exact,"16630 RIVERS EDGE LN, EAGLE RIVER, AK, 99577",605288487,R,02,020,000203,5011,-149.57233,61.3111
5135,16620 RIVER'S EDGE LN,Anchorage,AK,99577,"16620 RIVER'S EDGE LN, Anchorage, AK, 99577",Match,Non_Exact,"16620 RIVERS EDGE LN, EAGLE RIVER, AK, 99577",605288487,R,02,020,000203,5011,-149.57082,61.3111
5136,16614 RIVER'S EDGE LN,Anchorage,AK,99577,"16614 RIVER'S EDGE LN, Anchorage, AK, 99577",Match,Non_Exact,"16614 RIVERS EDGE LN, EAGLE RIVER, AK, 99577",605288487,R,02,020,000203,5011,-149.57152,61.3111
5137,16604 RIVER'S EDGE LN,Anchorage,AK,99577,"16604 RIVER'S EDGE LN, Anchorage, AK, 99577",Match,Non_Exact,"16604 RIVERS EDGE LN, EAGLE RIVER, AK, 99577",605288481,R,02,020,000203,5011,-149.5726,61.311080000000004
5138,8655 ALPINE LAUREL DR,Anchorage,AK,99577,"8655 ALPINE LAUREL DR, Anchorage, AK, 99577",Match,Non_Exact,"8655 ALPINE LAUREL DR, EAGLE RIVER, AK, 99577",605288633,R,02,020,000204,1028,-149.40691999999999,61.29820600000001
5139,8675 RUTH DR,Anchorage,AK,99577,"8675 RUTH DR, Anchorage, AK, 99577",Match,Non_Exact,"8675 RUTH DR, EAGLE RIVER, AK, 99577",190826076,R,02,020,000204,1007,-149.41743,61.297405000000005
5140,8646 RUTH DR,Anchorage,AK,99577,"8646 RUTH DR, Anchorage, AK, 99577",Match,Non_Exact,"8646 RUTH DR, EAGLE RIVER, AK, 99577",190826076,L,02,020,000204,1007,-149.41801,61.29749
5141,8585 RUTH DR,Anchorage,AK,99577,"8585 RUTH DR, Anchorage, AK, 99577",Match,Non_Exact,"8585 RUTH DR, EAGLE RIVER, AK, 99577",190826076,R,02,020,000204,1007,-149.41931,61.297638
5142,8475 RUTH DR,Anchorage,AK,99577,"8475 RUTH DR, Anchorage, AK, 99577",Match,Non_Exact,"8475 RUTH DR, EAGLE RIVER, AK, 99577",190826076,R,02,020,000204,1007,-149.41881999999998,61.297104000000004
5143,8420 RUTH DR,Anchorage,AK,99577,"8420 RUTH DR, Anchorage, AK, 99577",Match,Non_Exact,"8420 RUTH DR, EAGLE RIVER, AK, 99577",190826076,L,02,020,000204,1007,-149.41817,61.296640000000004
5144,25135 CATES AVE,Anchorage,AK,99577,"25135 CATES AVE, Anchorage, AK, 99577",Match,Non_Exact,"25135 CATES AVE, EAGLE RIVER, AK, 99577",635209434,L,02,020,000204,1007,-149.41328000000001,61.296238
5145,25050 CATES AVE,Anchorage,AK,99577,"25050 CATES AVE, Anchorage, AK, 99577",Match,Non_Exact,"25050 CATES AVE, EAGLE RIVER, AK, 99577",635209434,R,02,020,000204,1005,-149.41486,61.296227
5146,25130 CATES AVE,Anchorage,AK,99577,"25130 CATES AVE, Anchorage, AK, 99577",Match,Non_Exact,"25130 CATES AVE, EAGLE RIVER, AK, 99577",635209434,R,02,020,000204,1005,-149.41371,61.296227
5147,16529 BAIRD CIR,Anchorage,AK,99577,"16529 BAIRD CIR, Anchorage, AK, 99577",Match,Non_Exact,"16529 BAIRD CIR, EAGLE RIVER, AK, 99577",614867567,L,02,020,000201,1003,-149.57465,61.340717000000005
5148,12108 BUSINESS BLVD,Anchorage,AK,99577,"12108 BUSINESS BLVD, Anchorage, AK, 99577",Match,Non_Exact,"12108 BUSINESS BLVD, EAGLE RIVER, AK, 99577",190807802,R,02,020,000201,2000,-149.5701,61.329834
5149,12056 REGENCY DR,Anchorage,AK,99577,"12056 REGENCY DR, Anchorage, AK, 99577",Match,Non_Exact,"12056 REGENCY DR, EAGLE RIVER, AK, 99577",190807806,R,02,020,000201,2002,-149.57843,61.329617000000006
5150,12130 REGENCY DR,Anchorage,AK,99577,"12130 REGENCY DR, Anchorage, AK, 99577",Match,Non_Exact,"12130 REGENCY DR, EAGLE RIVER, AK, 99577",190807804,R,02,020,000201,2000,-149.57538,61.329742
5151,12130 REGENCY DR,Anchorage,AK,99577,"12130 REGENCY DR, Anchorage, AK, 99577",Match,Non_Exact,"12130 REGENCY DR, EAGLE RIVER, AK, 99577",190807804,R,02,020,000201,2000,-149.57538,61.329742
5152,11719 GALLOWAY LOOP,Anchorage,AK,99577,"11719 GALLOWAY LOOP, Anchorage, AK, 99577",Match,Non_Exact,"11719 GALLOWAY LOOP, EAGLE RIVER, AK, 99577",624156300,R,02,020,000201,2001,-149.57816,61.3262
5153,11714 GALLOWAY LOOP,Anchorage,AK,99577,"11714 GALLOWAY LOOP, Anchorage, AK, 99577",No_Match,,,,,,,,,,
5154,11715 LOVELAND CIR,Anchorage,AK,99577,"11715 LOVELAND CIR, Anchorage, AK, 99577",Match,Non_Exact,"11715 LOVELAND CIR, EAGLE RIVER, AK, 99577",190815457,L,02,020,000201,2013,-149.58318,61.32601
5155,11871 GALLOWAY LOOP,Anchorage,AK,99577,"11871 GALLOWAY LOOP, Anchorage, AK, 99577",Match,Non_Exact,"11871 GALLOWAY LOOP, EAGLE RIVER, AK, 99577",624156303,R,02,020,000201,2001,-149.57872,61.32665600000001
5156,11716 GALENA BAY LOOP,Anchorage,AK,99577,"11716 GALENA BAY LOOP, Anchorage, AK, 99577",Match,Non_Exact,"11716 GALENA BAY LOOP, EAGLE RIVER, AK, 99577",605334899,L,02,020,000201,2002,-149.58028000000002,61.326412
5157,11712 GALLOWAY LOOP,Anchorage,AK,99577,"11712 GALLOWAY LOOP, Anchorage, AK, 99577",No_Match,,,,,,,,,,
5158,11870 GALLOWAY LOOP,Anchorage,AK,99577,"11870 GALLOWAY LOOP, Anchorage, AK, 99577",Match,Non_Exact,"11870 GALLOWAY LOOP, EAGLE RIVER, AK, 99577",624156303,L,02,020,000201,2005,-149.57869,61.326653
5159,11715 GALLOWAY LOOP,Anchorage,AK,99577,"11715 GALLOWAY LOOP, Anchorage, AK, 99577",Match,Non_Exact,"11715 GALLOWAY LOOP, EAGLE RIVER, AK, 99577",624156300,R,02,020,000201,2001,-149.5782,61.32615
5160,11872 GALLOWAY LOOP,Anchorage,AK,99577,"11872 GALLOWAY LOOP, Anchorage, AK, 99577",Match,Non_Exact,"11872 GALLOWAY LOOP, EAGLE RIVER, AK, 99577",624156303,L,02,020,000201,2005,-149.57873999999998,61.326626
5161,11713 GALLOWAY LOOP,Anchorage,AK,99577,"11713 GALLOWAY LOOP, Anchorage, AK, 99577",Match,Non_Exact,"11713 GALLOWAY LOOP, EAGLE RIVER, AK, 99577",624156300,R,02,020,000201,2001,-149.57822,61.326122
5162,11710 GALENA BAY LOOP,Anchorage,AK,99577,"11710 GALENA BAY LOOP, Anchorage, AK, 99577",Match,Non_Exact,"11710 GALENA BAY LOOP, EAGLE RIVER, AK, 99577",605334899,L,02,020,000201,2002,-149.5802,61.326324
5163,11708 GALLOWAY LOOP,Anchorage,AK,99577,"11708 GALLOWAY LOOP, Anchorage, AK, 99577",No_Match,,,,,,,,,,
5164,11708 GALENA BAY LOOP,Anchorage,AK,99577,"11708 GALENA BAY LOOP, Anchorage, AK, 99577",Match,Non_Exact,"11708 GALENA BAY LOOP, EAGLE RIVER, AK, 99577",605334899,L,02,020,000201,2002,-149.58016999999998,61.326298
5165,11706 GALLOWAY LOOP,Anchorage,AK,99577,"11706 GALLOWAY LOOP, Anchorage, AK, 99577",No_Match,,,,,,,,,,
5166,11707 LOVELAND CIR,Anchorage,AK,99577,"11707 LOVELAND CIR, Anchorage, AK, 99577",Match,Non_Exact,"11707 LOVELAND CIR, EAGLE RIVER, AK, 99577",190815457,L,02,020,000201,2013,-149.58315,61.325974
5167,11709 GALLOWAY LOOP,Anchorage,AK,99577,"11709 GALLOWAY LOOP, Anchorage, AK, 99577",Match,Non_Exact,"11709 GALLOWAY LOOP, EAGLE RIVER, AK, 99577",624156300,R,02,020,000201,2001,-149.57826,61.326073
5168,11250 WOOD RIVER WAY,Anchorage,AK,99577,"11250 WOOD RIVER WAY, Anchorage, AK, 99577",Match,Non_Exact,"11250 WOOD RIVER WAY, EAGLE RIVER, AK, 99577",190827491,L,02,020,000201,2002,-149.57474,61.322269999999996
5169,16219 SQUAW VALLEY CIR,Anchorage,AK,99577,"16219 SQUAW VALLEY CIR, Anchorage, AK, 99577",Match,Non_Exact,"16219 SQUAW VALLEY CIR, EAGLE RIVER, AK, 99577",190816287,L,02,020,000201,2013,-149.57976000000002,61.321994999999994
5170,16207 SQUAW VALLEY CIR,Anchorage,AK,99577,"16207 SQUAW VALLEY CIR, Anchorage, AK, 99577",Match,Non_Exact,"16207 SQUAW VALLEY CIR, EAGLE RIVER, AK, 99577",190816287,L,02,020,000201,2013,-149.57968,61.321994999999994
5171,16007 MAMMOTH CIR,Anchorage,AK,99577,"16007 MAMMOTH CIR, Anchorage, AK, 99577",Match,Non_Exact,"16007 MAMMOTH CIR, EAGLE RIVER, AK, 99577",190815444,R,02,020,000201,2013,-149.58356,61.32196
5172,16133 MAMMOTH CT,Anchorage,AK,99577,"16133 MAMMOTH CT, Anchorage, AK, 99577",Match,Non_Exact,"16133 MAMMOTH CT, EAGLE RIVER, AK, 99577",190816306,L,02,020,000201,2015,-149.58177,61.321957
5173,16123 MAMMOTH CT,Anchorage,AK,99577,"16123 MAMMOTH CT, Anchorage, AK, 99577",Match,Non_Exact,"16123 MAMMOTH CT, EAGLE RIVER, AK, 99577",190816306,L,02,020,000201,2015,-149.58192,61.321957
5174,16143 MAMMOTH CT,Anchorage,AK,99577,"16143 MAMMOTH CT, Anchorage, AK, 99577",Match,Non_Exact,"16143 MAMMOTH CT, EAGLE RIVER, AK, 99577",190816306,L,02,020,000201,2015,-149.58163000000002,61.321957
5175,16103 MAMMOTH CT,Anchorage,AK,99577,"16103 MAMMOTH CT, Anchorage, AK, 99577",Match,Non_Exact,"16103 MAMMOTH CT, EAGLE RIVER, AK, 99577",190816306,L,02,020,000201,2015,-149.58221,61.321957
5176,16113 MAMMOTH CT,Anchorage,AK,99577,"16113 MAMMOTH CT, Anchorage, AK, 99577",Match,Non_Exact,"16113 MAMMOTH CT, EAGLE RIVER, AK, 99577",190816306,L,02,020,000201,2015,-149.58208,61.321957
5177,16017 MAMMOTH CIR,Anchorage,AK,99577,"16017 MAMMOTH CIR, Anchorage, AK, 99577",Match,Non_Exact,"16017 MAMMOTH CIR, EAGLE RIVER, AK, 99577",190815444,R,02,020,000201,2013,-149.58345,61.32196
5178,16027 MAMMOTH CIR,Anchorage,AK,99577,"16027 MAMMOTH CIR, Anchorage, AK, 99577",Match,Non_Exact,"16027 MAMMOTH CIR, EAGLE RIVER, AK, 99577",190815444,R,02,020,000201,2013,-149.58333000000002,61.32196
5179,11221 OLD GLENN HWY,Anchorage,AK,99577,"11221 OLD GLENN HWY, Anchorage, AK, 99577",Match,Non_Exact,"11221 OLD GLENN HWY, EAGLE RIVER, AK, 99577",641299511,L,02,020,000202,1018,-149.57007,61.321728
5180,11221 OLD GLENN HWY,Anchorage,AK,99577,"11221 OLD GLENN HWY, Anchorage, AK, 99577",Match,Non_Exact,"11221 OLD GLENN HWY, EAGLE RIVER, AK, 99577",641299511,L,02,020,000202,1018,-149.57007,61.321728
5181,11221 OLD GLENN HWY,Anchorage,AK,99577,"11221 OLD GLENN HWY, Anchorage, AK, 99577",Match,Non_Exact,"11221 OLD GLENN HWY, EAGLE RIVER, AK, 99577",641299511,L,02,020,000202,1018,-149.57007,61.321728
5182,16228 SQUAW VALLEY CIR,Anchorage,AK,99577,"16228 SQUAW VALLEY CIR, Anchorage, AK, 99577",Match,Non_Exact,"16228 SQUAW VALLEY CIR, EAGLE RIVER, AK, 99577",190816287,R,02,020,000201,2013,-149.58006,61.321982999999996
5183,9806 SAINT LAWRENCE CIR,Anchorage,AK,99577,"9806 SAINT LAWRENCE CIR, Anchorage, AK, 99577",Match,Non_Exact,"9806 ST LAWRENCE CIR, EAGLE RIVER, AK, 99577",190805666,L,02,020,000203,4005,-149.5287,61.30866999999999
5184,6909 WATERFALL DR,Anchorage,AK,99577,"6909 WATERFALL DR, Anchorage, AK, 99577",Match,Non_Exact,"6909 WATERFALL DR, EAGLE RIVER, AK, 99577",190814336,L,02,020,000204,2012,-149.48215,61.28284
5185,6754 WATERFALL DR,Anchorage,AK,99577,"6754 WATERFALL DR, Anchorage, AK, 99577",Match,Non_Exact,"6754 WATERFALL DR, EAGLE RIVER, AK, 99577",190814336,R,02,020,000204,2010,-149.48413,61.282447999999995
5186,21220 RIVER VIEW DR,Anchorage,AK,99577,"21220 RIVER VIEW DR, Anchorage, AK, 99577",Match,Non_Exact,"21220 RIVER VIEW DR, EAGLE RIVER, AK, 99577",190814314,L,02,020,000204,2010,-149.49022,61.283237
5187,6728 WATERFALL DR,Anchorage,AK,99577,"6728 WATERFALL DR, Anchorage, AK, 99577",Match,Non_Exact,"6728 WATERFALL DR, EAGLE RIVER, AK, 99577",190814336,R,02,020,000204,2010,-149.48462,61.282436
5188,6859 WATERFALL DR,Anchorage,AK,99577,"6859 WATERFALL DR, Anchorage, AK, 99577",Match,Non_Exact,"6859 WATERFALL DR, EAGLE RIVER, AK, 99577",190814336,L,02,020,000204,2012,-149.48123,61.282513
5189,6825 WATERFALL DR,Anchorage,AK,99577,"6825 WATERFALL DR, Anchorage, AK, 99577",Match,Non_Exact,"6825 WATERFALL DR, EAGLE RIVER, AK, 99577",190814336,L,02,020,000204,2012,-149.48207,61.28249
5190,6741 WATERFALL DR,Anchorage,AK,99577,"6741 WATERFALL DR, Anchorage, AK, 99577",Match,Non_Exact,"6741 WATERFALL DR, EAGLE RIVER, AK, 99577",190814336,L,02,020,000204,2012,-149.48415,61.282436
5191,6850 HILAND RD,Anchorage,AK,99577,"6850 HILAND RD, Anchorage, AK, 99577",No_Match,,,,,,,,,,
5192,23222 KEN LOGAN CIR,Anchorage,AK,99577,"23222 KEN LOGAN CIR, Anchorage, AK, 99577",No_Match,,,,,,,,,,
5193,6701 HILAND RD,Anchorage,AK,99577,"6701 HILAND RD, Anchorage, AK, 99577",No_Match,,,,,,,,,,
5194,6420 HILAND RD,Anchorage,AK,99577,"6420 HILAND RD, Anchorage, AK, 99577",Match,Non_Exact,"6420 HILAND RD, EAGLE RIVER, AK, 99577",614861475,L,02,020,000204,2013,-149.47833,61.27745
5195,23288 KEN LOGAN CIR,Anchorage,AK,99577,"23288 KEN LOGAN CIR, Anchorage, AK, 99577",No_Match,,,,,,,,,,
5196,22320 KEN LOGAN CIR,Anchorage,AK,99577,"22320 KEN LOGAN CIR, Anchorage, AK, 99577",No_Match,,,,,,,,,,
5197,6124 HILAND RD,Anchorage,AK,99577,"6124 HILAND RD, Anchorage, AK, 99577",Match,Non_Exact,"6124 HILAND RD, EAGLE RIVER, AK, 99577",190827423,R,02,020,000204,2013,-149.47845,61.275234
5198,6150 WILD MOUNTAIN DR,Anchorage,AK,99577,"6150 WILD MOUNTAIN DR, Anchorage, AK, 99577",Match,Non_Exact,"6150 WILD MOUNTAIN DR, EAGLE RIVER, AK, 99577",190826839,R,02,020,000204,2012,-149.47581,61.275794999999995
5199,6121 HILAND RD,Anchorage,AK,99577,"6121 HILAND RD, Anchorage, AK, 99577",Match,Non_Exact,"6121 HILAND RD, EAGLE RIVER, AK, 99577",190827423,L,02,020,000204,2012,-149.47843999999998,61.275204
5200,6000 HILAND RD,Anchorage,AK,99577,"6000 HILAND RD, Anchorage, AK, 99577",Match,Non_Exact,"6000 HILAND RD, EAGLE RIVER, AK, 99577",190827423,R,02,020,000204,2013,-149.47812,61.274280000000005
5201,5941 HILAND RD,Anchorage,AK,99577,"5941 HILAND RD, Anchorage, AK, 99577",Match,Non_Exact,"5941 HILAND RD, EAGLE RIVER, AK, 99577",190827423,L,02,020,000204,2012,-149.47806,61.273815
5202,9611 NOAYA CIR,Anchorage,AK,99577,"9611 NOAYA CIR, Anchorage, AK, 99577",Match,Non_Exact,"9611 NOAYA CIR, EAGLE RIVER, AK, 99577",190805539,L,02,020,000203,5005,-149.55508,61.30729300000001
5203,9608 DINAAKA DR,Anchorage,AK,99577,"9608 DINAAKA DR, Anchorage, AK, 99577",Match,Non_Exact,"9608 DINAAKA DR, EAGLE RIVER, AK, 99577",190805534,L,02,020,000203,5005,-149.55284,61.307514000000005
5204,18716 N LOWRIE LOOP,Anchorage,AK,99577,"18716 N LOWRIE LOOP, Anchorage, AK, 99577",Match,Non_Exact,"18716 N LOWRIE LOOP, EAGLE RIVER, AK, 99577",190826070,L,02,020,000203,4008,-149.53331,61.307190000000006
5205,17450 TOAKOANA DR,Anchorage,AK,99577,"17450 TOAKOANA DR, Anchorage, AK, 99577",Match,Non_Exact,"17450 TOAKOANA DR, EAGLE RIVER, AK, 99577",190805525,R,02,020,000203,5000,-149.55664,61.308032999999995
5206,18858 ANDREANOF DR,Anchorage,AK,99577,"18858 ANDREANOF DR, Anchorage, AK, 99577",Match,Non_Exact,"18858 ANDREANOF DR, EAGLE RIVER, AK, 99577",190805643,R,02,020,000203,4006,-149.53153999999998,61.30735
5207,18735 N LOWRIE LOOP,Anchorage,AK,99577,"18735 N LOWRIE LOOP, Anchorage, AK, 99577",Match,Non_Exact,"18735 N LOWRIE LOOP, EAGLE RIVER, AK, 99577",190826070,R,02,020,000203,4006,-149.53333999999998,61.30733000000001
5208,18627 NEVA CIR,Anchorage,AK,99577,"18627 NEVA CIR, Anchorage, AK, 99577",Match,Non_Exact,"18627 NEVA CIR, EAGLE RIVER, AK, 99577",190805594,L,02,020,000203,4008,-149.53552,61.307297
5209,18537 NEUMANN CIR,Anchorage,AK,99577,"18537 NEUMANN CIR, Anchorage, AK, 99577",Match,Non_Exact,"18537 NEUMANN CIR, EAGLE RIVER, AK, 99577",190811016,R,02,020,000203,3015,-149.5373,61.30729300000001
5210,18527 NEUMANN CIR,Anchorage,AK,99577,"18527 NEUMANN CIR, Anchorage, AK, 99577",Match,Non_Exact,"18527 NEUMANN CIR, EAGLE RIVER, AK, 99577",190811016,R,02,020,000203,3015,-149.53749,61.307274
5211,18539 NEUMANN CIR,Anchorage,AK,99577,"18539 NEUMANN CIR, Anchorage, AK, 99577",Match,Non_Exact,"18539 NEUMANN CIR, EAGLE RIVER, AK, 99577",190811016,R,02,020,000203,3015,-149.53726,61.307297
5212,18549 NEUMANN CIR,Anchorage,AK,99577,"18549 NEUMANN CIR, Anchorage, AK, 99577",Match,Non_Exact,"18549 NEUMANN CIR, EAGLE RIVER, AK, 99577",190811016,R,02,020,000203,3015,-149.53706,61.307316
5213,20613 PTARMIGAN BLVD,Anchorage,AK,99577,"20613 PTARMIGAN BLVD, Anchorage, AK, 99577",Match,Non_Exact,"20613 PTARMIGAN BLVD, EAGLE RIVER, AK, 99577",190793457,L,02,020,000203,3005,-149.49997,61.307117000000005
5214,18521 NEUMANN CIR,Anchorage,AK,99577,"18521 NEUMANN CIR, Anchorage, AK, 99577",Match,Non_Exact,"18521 NEUMANN CIR, EAGLE RIVER, AK, 99577",190811016,R,02,020,000203,3015,-149.53761,61.307255000000005
5215,20441 PTARMIGAN BLVD,Anchorage,AK,99577,"20441 PTARMIGAN BLVD, Anchorage, AK, 99577",Match,Non_Exact,"20441 PTARMIGAN BLVD, EAGLE RIVER, AK, 99577",190793457,L,02,020,000203,3005,-149.50156,61.307117000000005
5216,18631 NEVA CIR,Anchorage,AK,99577,"18631 NEVA CIR, Anchorage, AK, 99577",Match,Non_Exact,"18631 NEVA CIR, EAGLE RIVER, AK, 99577",190805594,L,02,020,000203,4008,-149.53548999999998,61.30729300000001
5217,18823 MILLS BAY DR,Anchorage,AK,99577,"18823 MILLS BAY DR, Anchorage, AK, 99577",Match,Non_Exact,"18823 MILLS BAY DR, EAGLE RIVER, AK, 99577",190792844,L,02,020,000203,3011,-149.53215,61.299009999999996
5218,19020 TRAIL BAY DR,Anchorage,AK,99577,"19020 TRAIL BAY DR, Anchorage, AK, 99577",Match,Non_Exact,"19020 TRAIL BAY DR, EAGLE RIVER, AK, 99577",190818858,R,02,020,000203,3011,-149.5285,61.299126
5219,8703 ACADIA DR,Anchorage,AK,99577,"8703 ACADIA DR, Anchorage, AK, 99577",Match,Non_Exact,"8703 ACADIA DR, EAGLE RIVER, AK, 99577",605336267,R,02,020,000204,2038,-149.56813,61.299240000000005
5220,19010 TRAIL BAY DR,Anchorage,AK,99577,"19010 TRAIL BAY DR, Anchorage, AK, 99577",Match,Non_Exact,"19010 TRAIL BAY DR, EAGLE RIVER, AK, 99577",190818858,R,02,020,000203,3011,-149.52872,61.299071999999995
5221,18829 MILLS BAY DR,Anchorage,AK,99577,"18829 MILLS BAY DR, Anchorage, AK, 99577",Match,Non_Exact,"18829 MILLS BAY DR, EAGLE RIVER, AK, 99577",190792844,L,02,020,000203,3011,-149.53206,61.298984999999995
5222,8717 INYO CIR,Anchorage,AK,99577,"8717 INYO CIR, Anchorage, AK, 99577",Match,Non_Exact,"8717 INYO CIR, EAGLE RIVER, AK, 99577",190822981,L,02,020,000204,2038,-149.56642,61.299293999999996
5223,8716 INYO CIR,Anchorage,AK,99577,"8716 INYO CIR, Anchorage, AK, 99577",Match,Non_Exact,"8716 INYO CIR, EAGLE RIVER, AK, 99577",190822981,R,02,020,000204,2038,-149.56645,61.299293999999996
5224,2301 HILAND RD,Anchorage,AK,99577,"2301 HILAND RD, Anchorage, AK, 99577",Match,Non_Exact,"2301 HILAND RD, EAGLE RIVER, AK, 99577",190827429,R,02,020,000204,2004,-149.45421000000002,61.240840000000006
5225,2290 NORTH RIVER CIR,Anchorage,AK,99577,"2290 NORTH RIVER CIR, Anchorage, AK, 99577",Match,Non_Exact,"2290 N RIVER CIR, EAGLE RIVER, AK, 99577",190815075,L,02,020,000204,2043,-149.45793,61.240463
5226,2205 HILAND RD,Anchorage,AK,99577,"2205 HILAND RD, Anchorage, AK, 99577",Match,Non_Exact,"2205 HILAND RD, EAGLE RIVER, AK, 99577",190827429,R,02,020,000204,2004,-149.45311,61.240204000000006
5227,2181 HILAND RD,Anchorage,AK,99577,"2181 HILAND RD, Anchorage, AK, 99577",Match,Non_Exact,"2181 HILAND RD, EAGLE RIVER, AK, 99577",190827429,R,02,020,000204,2004,-149.4528,61.24006
5228,2131 SOUTH RIVER DR,Anchorage,AK,99577,"2131 SOUTH RIVER DR, Anchorage, AK, 99577",Match,Non_Exact,"2131 S RIVER DR, EAGLE RIVER, AK, 99577",190815072,L,02,020,000204,2043,-149.4548,61.239506000000006
5229,2020 WEST RIVER DR,Anchorage,AK,99577,"2020 WEST RIVER DR, Anchorage, AK, 99577",Match,Non_Exact,"2020 W RIVER DR, EAGLE RIVER, AK, 99577",605288185,L,02,020,000204,2013,-149.46286,61.240733999999996
5230,2047 HILAND RD,Anchorage,AK,99577,"2047 HILAND RD, Anchorage, AK, 99577",Match,Non_Exact,"2047 HILAND RD, EAGLE RIVER, AK, 99577",190827429,R,02,020,000204,2004,-149.45181000000002,61.239006
5231,18800 ARCTIC VALLEY RD,Anchorage,AK,99577,"18800 ARCTIC VALLEY RD, Anchorage, AK, 99577",No_Match,,,,,,,,,,
5232,2200 TERMINAL RD,Anchorage,AK,99501,"2200 TERMINAL RD, Anchorage, AK, 99501",No_Match,,,,,,,,,,
5233,2040 TIDEWATER RD,Anchorage,AK,99501,"2040 TIDEWATER RD, Anchorage, AK, 99501",Match,Exact,"2040 TIDEWATER RD, ANCHORAGE, AK, 99501",190816371,L,02,020,000500,1019,-149.88521,61.23911999999999
5234,2000 ANCHORAGE PORT RD,Anchorage,AK,99501,"2000 ANCHORAGE PORT RD, Anchorage, AK, 99501",Match,Exact,"2000 ANCHORAGE PORT RD, ANCHORAGE, AK, 99501",190796074,L,02,020,000500,1019,-149.88821000000002,61.23761700000001
5235,1980 ANCHORAGE PORT RD,Anchorage,AK,99501,"1980 ANCHORAGE PORT RD, Anchorage, AK, 99501",Match,Exact,"1980 ANCHORAGE PORT RD, ANCHORAGE, AK, 99501",190796074,L,02,020,000500,1019,-149.8882,61.237602
5236,32717 EAGLE RIVER RD,Anchorage,AK,99577,"32717 EAGLE RIVER RD, Anchorage, AK, 99577",Match,Non_Exact,"32717 EAGLE RIVER RD, EAGLE RIVER, AK, 99577",190825944,R,02,020,000204,1003,-149.2744,61.237553000000005
5237,5300 TAKU DR,Anchorage,AK,99508,"5300 TAKU DR, Anchorage, AK, 99508",Match,Exact,"5300 TAKU DR, ANCHORAGE, AK, 99508",624091008,R,02,020,000801,3002,-149.7823,61.224169999999994
5238,5300 TAKU DR,Anchorage,AK,99508,"5300 TAKU DR, Anchorage, AK, 99508",Match,Exact,"5300 TAKU DR, ANCHORAGE, AK, 99508",624091008,R,02,020,000801,3002,-149.7823,61.224169999999994
5239,5300 TAKU DR,Anchorage,AK,99508,"5300 TAKU DR, Anchorage, AK, 99508",Match,Exact,"5300 TAKU DR, ANCHORAGE, AK, 99508",624091008,R,02,020,000801,3002,-149.7823,61.224169999999994
5240,5300 TAKU DR,Anchorage,AK,99508,"5300 TAKU DR, Anchorage, AK, 99508",Match,Exact,"5300 TAKU DR, ANCHORAGE, AK, 99508",624091008,R,02,020,000801,3002,-149.7823,61.224169999999994
5241,5300 TAKU DR,Anchorage,AK,99508,"5300 TAKU DR, Anchorage, AK, 99508",Match,Exact,"5300 TAKU DR, ANCHORAGE, AK, 99508",624091008,R,02,020,000801,3002,-149.7823,61.224169999999994
5242,5300 TAKU DR,Anchorage,AK,99508,"5300 TAKU DR, Anchorage, AK, 99508",Match,Exact,"5300 TAKU DR, ANCHORAGE, AK, 99508",624091008,R,02,020,000801,3002,-149.7823,61.224169999999994
5243,5300 TAKU DR,Anchorage,AK,99508,"5300 TAKU DR, Anchorage, AK, 99508",Match,Exact,"5300 TAKU DR, ANCHORAGE, AK, 99508",624091008,R,02,020,000801,3002,-149.7823,61.224169999999994
5244,5300 TAKU DR,Anchorage,AK,99508,"5300 TAKU DR, Anchorage, AK, 99508",Match,Exact,"5300 TAKU DR, ANCHORAGE, AK, 99508",624091008,R,02,020,000801,3002,-149.7823,61.224169999999994
5245,5300 TAKU DR,Anchorage,AK,99508,"5300 TAKU DR, Anchorage, AK, 99508",Match,Exact,"5300 TAKU DR, ANCHORAGE, AK, 99508",624091008,R,02,020,000801,3002,-149.7823,61.224169999999994
5246,5218 TAKU DR,Anchorage,AK,99508,"5218 TAKU DR, Anchorage, AK, 99508",Match,Exact,"5218 TAKU DR, ANCHORAGE, AK, 99508",190801940,R,02,020,000801,3004,-149.78409,61.224167
5247,5218 TAKU DR,Anchorage,AK,99508,"5218 TAKU DR, Anchorage, AK, 99508",Match,Exact,"5218 TAKU DR, ANCHORAGE, AK, 99508",190801940,R,02,020,000801,3004,-149.78409,61.224167
5248,5218 TAKU DR,Anchorage,AK,99508,"5218 TAKU DR, Anchorage, AK, 99508",Match,Exact,"5218 TAKU DR, ANCHORAGE, AK, 99508",190801940,R,02,020,000801,3004,-149.78409,61.224167
5249,5218 TAKU DR,Anchorage,AK,99508,"5218 TAKU DR, Anchorage, AK, 99508",Match,Exact,"5218 TAKU DR, ANCHORAGE, AK, 99508",190801940,R,02,020,000801,3004,-149.78409,61.224167
5250,12130 REGENCY DR,Anchorage,AK,99577,"12130 REGENCY DR, Anchorage, AK, 99577",Match,Non_Exact,"12130 REGENCY DR, EAGLE RIVER, AK, 99577",190807804,R,02,020,000201,2000,-149.57538,61.329742
5251,12131 REGENCY DR,Anchorage,AK,99577,"12131 REGENCY DR, Anchorage, AK, 99577",Match,Non_Exact,"12131 REGENCY DR, EAGLE RIVER, AK, 99577",190807804,L,02,020,000201,2001,-149.57538,61.329730000000005
5252,12043 TOWN PARK CIR,Anchorage,AK,99577,"12043 TOWN PARK CIR, Anchorage, AK, 99577",Match,Non_Exact,"12043 TOWN PARK CIR, EAGLE RIVER, AK, 99577",190819998,L,02,020,000201,2001,-149.57742,61.329285
5253,12041 TOWN PARK CIR,Anchorage,AK,99577,"12041 TOWN PARK CIR, Anchorage, AK, 99577",Match,Non_Exact,"12041 TOWN PARK CIR, EAGLE RIVER, AK, 99577",190819998,L,02,020,000201,2001,-149.57742,61.329273
5254,11417 MARKET ST,Anchorage,AK,99577,"11417 MARKET ST, Anchorage, AK, 99577",Match,Non_Exact,"11417 MARKET ST, EAGLE RIVER, AK, 99577",190792451,R,02,020,000202,1018,-149.56967,61.324028000000006
5255,11429 HERITAGE CT,Anchorage,AK,99577,"11429 HERITAGE CT, Anchorage, AK, 99577",Match,Non_Exact,"11429 HERITAGE CT, EAGLE RIVER, AK, 99577",190814054,L,02,020,000201,2002,-149.57762,61.32356600000001
5256,11429 HERITAGE CT,Anchorage,AK,99577,"11429 HERITAGE CT, Anchorage, AK, 99577",Match,Non_Exact,"11429 HERITAGE CT, EAGLE RIVER, AK, 99577",190814054,L,02,020,000201,2002,-149.57762,61.32356600000001
5257,11429 HERITAGE CT,Anchorage,AK,99577,"11429 HERITAGE CT, Anchorage, AK, 99577",Match,Non_Exact,"11429 HERITAGE CT, EAGLE RIVER, AK, 99577",190814054,L,02,020,000201,2002,-149.57762,61.32356600000001
5258,11429 HERITAGE CT,Anchorage,AK,99577,"11429 HERITAGE CT, Anchorage, AK, 99577",Match,Non_Exact,"11429 HERITAGE CT, EAGLE RIVER, AK, 99577",190814054,L,02,020,000201,2002,-149.57762,61.32356600000001
5259,11429 HERITAGE CT,Anchorage,AK,99577,"11429 HERITAGE CT, Anchorage, AK, 99577",Match,Non_Exact,"11429 HERITAGE CT, EAGLE RIVER, AK, 99577",190814054,L,02,020,000201,2002,-149.57762,61.32356600000001
5260,11429 HERITAGE CT,Anchorage,AK,99577,"11429 HERITAGE CT, Anchorage, AK, 99577",Match,Non_Exact,"11429 HERITAGE CT, EAGLE RIVER, AK, 99577",190814054,L,02,020,000201,2002,-149.57762,61.32356600000001
5261,11429 HERITAGE CT,Anchorage,AK,99577,"11429 HERITAGE CT, Anchorage, AK, 99577",Match,Non_Exact,"11429 HERITAGE CT, EAGLE RIVER, AK, 99577",190814054,L,02,020,000201,2002,-149.57762,61.32356600000001
5262,11429 HERITAGE CT,Anchorage,AK,99577,"11429 HERITAGE CT, Anchorage, AK, 99577",Match,Non_Exact,"11429 HERITAGE CT, EAGLE RIVER, AK, 99577",190814054,L,02,020,000201,2002,-149.57762,61.32356600000001
5263,11429 HERITAGE CT,Anchorage,AK,99577,"11429 HERITAGE CT, Anchorage, AK, 99577",Match,Non_Exact,"11429 HERITAGE CT, EAGLE RIVER, AK, 99577",190814054,L,02,020,000201,2002,-149.57762,61.32356600000001
5264,25310 EAGLE RIVER RD,Anchorage,AK,99577,"25310 EAGLE RIVER RD, Anchorage, AK, 99577",Match,Non_Exact,"25310 EAGLE RIVER RD, EAGLE RIVER, AK, 99577",190793579,L,02,020,000204,1009,-149.40982,61.29243
5265,24850 HAMANN RD,Anchorage,AK,99577,"24850 HAMANN RD, Anchorage, AK, 99577",Match,Non_Exact,"24850 HAMANN RD, EAGLE RIVER, AK, 99577",626838848,R,02,020,000204,1009,-149.41896,61.294167
5266,25805 WILDFLOWER CIR,Anchorage,AK,99577,"25805 WILDFLOWER CIR, Anchorage, AK, 99577",Match,Non_Exact,"25805 WILDFLOWER CIR, EAGLE RIVER, AK, 99577",190814928,L,02,020,000204,1005,-149.40051,61.291709999999995
5267,25853 WILDFLOWER CIR,Anchorage,AK,99577,"25853 WILDFLOWER CIR, Anchorage, AK, 99577",Match,Non_Exact,"25853 WILDFLOWER CIR, EAGLE RIVER, AK, 99577",190814928,L,02,020,000204,1005,-149.39983,61.291637
5268,25875 WILDFLOWER CIR,Anchorage,AK,99577,"25875 WILDFLOWER CIR, Anchorage, AK, 99577",Match,Non_Exact,"25875 WILDFLOWER CIR, EAGLE RIVER, AK, 99577",190814928,L,02,020,000204,1005,-149.3995,61.29159
5269,25320 EAGLE RIVER RD,Anchorage,AK,99577,"25320 EAGLE RIVER RD, Anchorage, AK, 99577",Match,Non_Exact,"25320 EAGLE RIVER RD, EAGLE RIVER, AK, 99577",190793579,L,02,020,000204,1009,-149.40974,61.292359999999995
5270,25800 WILDFLOWER CIR,Anchorage,AK,99577,"25800 WILDFLOWER CIR, Anchorage, AK, 99577",Match,Non_Exact,"25800 WILDFLOWER CIR, EAGLE RIVER, AK, 99577",190814934,L,02,020,000204,1005,-149.4009,61.291594999999994
5271,25745 WILDFLOWER CIR,Anchorage,AK,99577,"25745 WILDFLOWER CIR, Anchorage, AK, 99577",Match,Non_Exact,"25745 WILDFLOWER CIR, EAGLE RIVER, AK, 99577",190814934,R,02,020,000204,1005,-149.40004,61.29095
5272,25408 EAGLE RIVER RD,Anchorage,AK,99577,"25408 EAGLE RIVER RD, Anchorage, AK, 99577",Match,Non_Exact,"25408 EAGLE RIVER RD, EAGLE RIVER, AK, 99577",190826924,L,02,020,000204,1009,-149.40816,61.29091
5273,25408 EAGLE RIVER RD,Anchorage,AK,99577,"25408 EAGLE RIVER RD, Anchorage, AK, 99577",Match,Non_Exact,"25408 EAGLE RIVER RD, EAGLE RIVER, AK, 99577",190826924,L,02,020,000204,1009,-149.40816,61.29091
5274,25418 EAGLE RIVER RD,Anchorage,AK,99577,"25418 EAGLE RIVER RD, Anchorage, AK, 99577",Match,Non_Exact,"25418 EAGLE RIVER RD, EAGLE RIVER, AK, 99577",190826924,L,02,020,000204,1009,-149.40793,61.290780000000005
5275,25534 BERRYHILL RD,Anchorage,AK,99577,"25534 BERRYHILL RD, Anchorage, AK, 99577",Match,Non_Exact,"25534 BERRYHILL RD, EAGLE RIVER, AK, 99577",190793594,R,02,020,000204,1005,-149.40717,61.29129399999999
5276,26034 WILDFLOWER CIR,Anchorage,AK,99577,"26034 WILDFLOWER CIR, Anchorage, AK, 99577",Match,Non_Exact,"26034 WILDFLOWER CIR, EAGLE RIVER, AK, 99577",190814928,R,02,020,000204,1005,-149.39806000000002,61.291343999999995
5277,26126 WILDFLOWER CIR,Anchorage,AK,99577,"26126 WILDFLOWER CIR, Anchorage, AK, 99577",Match,Non_Exact,"26126 WILDFLOWER CIR, EAGLE RIVER, AK, 99577",190814928,R,02,020,000204,1005,-149.39633,61.291059999999995
5278,25460 EAGLE RIVER RD,Anchorage,AK,99577,"25460 EAGLE RIVER RD, Anchorage, AK, 99577",Match,Non_Exact,"25460 EAGLE RIVER RD, EAGLE RIVER, AK, 99577",190826924,L,02,020,000204,1009,-149.40697,61.290234
5279,25642 BERRYHILL RD,Anchorage,AK,99577,"25642 BERRYHILL RD, Anchorage, AK, 99577",Match,Non_Exact,"25642 BERRYHILL RD, EAGLE RIVER, AK, 99577",190814932,R,02,020,000204,1005,-149.40321,61.290659999999995
5280,25740 BERRYHILL RD,Anchorage,AK,99577,"25740 BERRYHILL RD, Anchorage, AK, 99577",Match,Non_Exact,"25740 BERRYHILL RD, EAGLE RIVER, AK, 99577",190814932,R,02,020,000204,1005,-149.40175,61.290496999999995
5281,26007 BERRYHILL RD,Anchorage,AK,99577,"26007 BERRYHILL RD, Anchorage, AK, 99577",Match,Non_Exact,"26007 BERRYHILL RD, EAGLE RIVER, AK, 99577",614862057,L,02,020,000204,1005,-149.39687,61.290115
5282,9808 E CHICHAGOF LOOP,Anchorage,AK,99577,"9808 E CHICHAGOF LOOP, Anchorage, AK, 99577",Match,Non_Exact,"9808 E CHICHAGOF LOOP, EAGLE RIVER, AK, 99577",190805669,L,02,020,000203,4005,-149.52669,61.309002
5283,9802 CHATHAM CIR,Anchorage,AK,99577,"9802 CHATHAM CIR, Anchorage, AK, 99577",Match,Non_Exact,"9802 CHATHAM CIR, EAGLE RIVER, AK, 99577",190805664,L,02,020,000203,4001,-149.53024,61.308772999999995
5284,17547 KILOANA CT,Anchorage,AK,99577,"17547 KILOANA CT, Anchorage, AK, 99577",Match,Non_Exact,"17547 KILOANA CT, EAGLE RIVER, AK, 99577",643782038,L,02,020,000203,5007,-149.55446,61.308712
5285,17743 KILOANA CIR,Anchorage,AK,99577,"17743 KILOANA CIR, Anchorage, AK, 99577",Match,Non_Exact,"17743 KILOANA CIR, EAGLE RIVER, AK, 99577",190805533,L,02,020,000203,5000,-149.55206,61.308719999999994
5286,9800 CHATHAM CIR,Anchorage,AK,99577,"9800 CHATHAM CIR, Anchorage, AK, 99577",Match,Non_Exact,"9800 CHATHAM CIR, EAGLE RIVER, AK, 99577",190805664,L,02,020,000203,4001,-149.53023000000002,61.308769999999996
5287,9601 LEE ST,Anchorage,AK,99577,"9601 LEE ST, Anchorage, AK, 99577",Match,Non_Exact,"9601 LEE ST, EAGLE RIVER, AK, 99577",190808440,L,02,020,000203,5000,-149.55013,61.308975
5288,17612 TOAKOANA WAY,Anchorage,AK,99577,"17612 TOAKOANA WAY, Anchorage, AK, 99577",Match,Non_Exact,"17612 TOAKOANA WAY, EAGLE RIVER, AK, 99577",190805532,R,02,020,000203,5000,-149.55348,61.30647
5289,9502 DINAAKA CIR,Anchorage,AK,99577,"9502 DINAAKA CIR, Anchorage, AK, 99577",Match,Non_Exact,"9502 DINAAKA CIR, EAGLE RIVER, AK, 99577",190808438,R,02,020,000203,5000,-149.55405,61.30644
5290,17712 TOAKOANA WAY,Anchorage,AK,99577,"17712 TOAKOANA WAY, Anchorage, AK, 99577",Match,Non_Exact,"17712 TOAKOANA WAY, EAGLE RIVER, AK, 99577",190805532,R,02,020,000203,5000,-149.55241,61.306328
5291,17628 TOAKOANA WAY,Anchorage,AK,99577,"17628 TOAKOANA WAY, Anchorage, AK, 99577",Match,Non_Exact,"17628 TOAKOANA WAY, EAGLE RIVER, AK, 99577",190805532,R,02,020,000203,5000,-149.55333000000002,61.306422999999995
5292,17650 TOAKOANA WAY,Anchorage,AK,99577,"17650 TOAKOANA WAY, Anchorage, AK, 99577",Match,Non_Exact,"17650 TOAKOANA WAY, EAGLE RIVER, AK, 99577",190805532,R,02,020,000203,5000,-149.5531,61.306377000000005
5293,18226 N PARKVIEW TERRACE LOOP,Anchorage,AK,99577,"18226 N PARKVIEW TERRACE LOOP, Anchorage, AK, 99577",Match,Non_Exact,"18226 N PARKVIEW TER LP, EAGLE RIVER, AK, 99577",190820860,R,02,020,000203,5006,-149.54222,61.306419999999996
5294,17706 TOAKOANA WAY,Anchorage,AK,99577,"17706 TOAKOANA WAY, Anchorage, AK, 99577",Match,Non_Exact,"17706 TOAKOANA WAY, EAGLE RIVER, AK, 99577",190805532,R,02,020,000203,5000,-149.55248999999998,61.306328
5295,17642 TOAKOANA WAY,Anchorage,AK,99577,"17642 TOAKOANA WAY, Anchorage, AK, 99577",Match,Non_Exact,"17642 TOAKOANA WAY, EAGLE RIVER, AK, 99577",190805532,R,02,020,000203,5000,-149.55318,61.30639300000001
5296,18245 N PARKVIEW TERRACE LOOP,Anchorage,AK,99577,"18245 N PARKVIEW TERRACE LOOP, Anchorage, AK, 99577",Match,Non_Exact,"18245 N PARKVIEW TER LP, EAGLE RIVER, AK, 99577",190820860,L,02,020,000203,5000,-149.54207,61.306286
5297,17710 TOAKOANA WAY,Anchorage,AK,99577,"17710 TOAKOANA WAY, Anchorage, AK, 99577",Match,Non_Exact,"17710 TOAKOANA WAY, EAGLE RIVER, AK, 99577",190805532,R,02,020,000203,5000,-149.55244,61.306328
5298,20650 PTARMIGAN BLVD,Anchorage,AK,99577,"20650 PTARMIGAN BLVD, Anchorage, AK, 99577",Match,Non_Exact,"20650 PTARMIGAN BLVD, EAGLE RIVER, AK, 99577",605288341,R,02,020,000203,3000,-149.49617,61.307109999999994
5299,17708 TOAKOANA WAY,Anchorage,AK,99577,"17708 TOAKOANA WAY, Anchorage, AK, 99577",Match,Non_Exact,"17708 TOAKOANA WAY, EAGLE RIVER, AK, 99577",190805532,R,02,020,000203,5000,-149.55246,61.306328
5300,18134 HARBOR POINT LOOP,Anchorage,AK,99577,"18134 HARBOR POINT LOOP, Anchorage, AK, 99577",Match,Non_Exact,"18134 HARBOR PT LP, EAGLE RIVER, AK, 99577",190805554,R,02,020,000203,5008,-149.54417,61.30449
5301,18210 HARBOR POINT LOOP,Anchorage,AK,99577,"18210 HARBOR POINT LOOP, Anchorage, AK, 99577",Match,Non_Exact,"18210 HARBOR PT LP, EAGLE RIVER, AK, 99577",190805554,R,02,020,000203,5008,-149.54343,61.304030000000004
5302,18138 HARBOR POINT LOOP,Anchorage,AK,99577,"18138 HARBOR POINT LOOP, Anchorage, AK, 99577",Match,Non_Exact,"18138 HARBOR PT LP, EAGLE RIVER, AK, 99577",190805554,R,02,020,000203,5008,-149.54417,61.30445
5303,20226 HIGHLAND RIDGE DR,Anchorage,AK,99577,"20226 HIGHLAND RIDGE DR, Anchorage, AK, 99577",Match,Non_Exact,"20226 HIGHLAND RIDGE DR, EAGLE RIVER, AK, 99577",625718494,L,02,020,000203,3002,-149.5063,61.30333
5304,18156 HARBOR POINT LOOP,Anchorage,AK,99577,"18156 HARBOR POINT LOOP, Anchorage, AK, 99577",Match,Non_Exact,"18156 HARBOR PT LP, EAGLE RIVER, AK, 99577",190805554,R,02,020,000203,5008,-149.54411000000002,61.304283
5305,18206 HARBOR POINT LOOP,Anchorage,AK,99577,"18206 HARBOR POINT LOOP, Anchorage, AK, 99577",Match,Non_Exact,"18206 HARBOR PT LP, EAGLE RIVER, AK, 99577",190805554,R,02,020,000203,5008,-149.5435,61.304035
5306,20850 MOUNTAINSIDE DR,Anchorage,AK,99577,"20850 MOUNTAINSIDE DR, Anchorage, AK, 99577",Match,Non_Exact,"20850 MOUNTAINSIDE DR, EAGLE RIVER, AK, 99577",625731930,R,02,020,000203,3000,-149.49399,61.301743
5307,20838 MOUNTAINSIDE DR,Anchorage,AK,99577,"20838 MOUNTAINSIDE DR, Anchorage, AK, 99577",Match,Non_Exact,"20838 MOUNTAINSIDE DR, EAGLE RIVER, AK, 99577",625731930,R,02,020,000203,3000,-149.4942,61.301727
5308,20874 MOUNTAINSIDE DR,Anchorage,AK,99577,"20874 MOUNTAINSIDE DR, Anchorage, AK, 99577",Match,Non_Exact,"20874 MOUNTAINSIDE DR, EAGLE RIVER, AK, 99577",625731930,R,02,020,000203,3000,-149.49355,61.301735
5309,20826 MOUNTAINSIDE DR,Anchorage,AK,99577,"20826 MOUNTAINSIDE DR, Anchorage, AK, 99577",Match,Non_Exact,"20826 MOUNTAINSIDE DR, EAGLE RIVER, AK, 99577",625731930,R,02,020,000203,3000,-149.49442,61.301716000000006
5310,22707 COLUMBIA GLACIER LOOP,Anchorage,AK,99577,"22707 COLUMBIA GLACIER LOOP, Anchorage, AK, 99577",Match,Non_Exact,"22707 COLUMBIA GLACIER LOOP, EAGLE RIVER, AK, 99577",190808404,L,02,020,000203,3001,-149.4603,61.301792000000006
5311,23452 LOWER TERRACE ST,Anchorage,AK,99577,"23452 LOWER TERRACE ST, Anchorage, AK, 99577",Match,Non_Exact,"23452 LOWER TERRACE ST, EAGLE RIVER, AK, 99577",190793552,L,02,020,000204,1007,-149.44423,61.30151
5312,23529 LOWER TERRACE ST,Anchorage,AK,99577,"23529 LOWER TERRACE ST, Anchorage, AK, 99577",Match,Non_Exact,"23529 LOWER TERRACE ST, EAGLE RIVER, AK, 99577",190793552,R,02,020,000204,1007,-149.44296,61.301230000000004
5313,20511 PTARMIGAN BLVD,Anchorage,AK,99577,"20511 PTARMIGAN BLVD, Anchorage, AK, 99577",Match,Non_Exact,"20511 PTARMIGAN BLVD, EAGLE RIVER, AK, 99577",190793457,L,02,020,000203,3005,-149.50092,61.307117000000005
5314,18515 NEUMANN CIR,Anchorage,AK,99577,"18515 NEUMANN CIR, Anchorage, AK, 99577",Match,Non_Exact,"18515 NEUMANN CIR, EAGLE RIVER, AK, 99577",190811016,R,02,020,000203,3015,-149.5377,61.307224
5315,18609 NEVA CIR,Anchorage,AK,99577,"18609 NEVA CIR, Anchorage, AK, 99577",Match,Non_Exact,"18609 NEVA CIR, EAGLE RIVER, AK, 99577",190805594,L,02,020,000203,4008,-149.53568,61.307311999999996
5316,18623 NEVA CIR,Anchorage,AK,99577,"18623 NEVA CIR, Anchorage, AK, 99577",Match,Non_Exact,"18623 NEVA CIR, EAGLE RIVER, AK, 99577",190805594,L,02,020,000203,4008,-149.53557,61.3073
5317,18030 HIDDEN FALLS AVE,Anchorage,AK,99577,"18030 HIDDEN FALLS AVE, Anchorage, AK, 99577",Match,Non_Exact,"18030 HIDDEN FALLS AVE, EAGLE RIVER, AK, 99577",190805551,R,02,020,000203,5008,-149.54521,61.305243999999995
5318,9341 W KANAGA LOOP,Anchorage,AK,99577,"9341 W KANAGA LOOP, Anchorage, AK, 99577",No_Match,,,,,,,,,,
5319,18040 HIDDEN FALLS AVE,Anchorage,AK,99577,"18040 HIDDEN FALLS AVE, Anchorage, AK, 99577",Match,Non_Exact,"18040 HIDDEN FALLS AVE, EAGLE RIVER, AK, 99577",190805551,R,02,020,000203,5008,-149.54506999999998,61.305232999999994
5320,18106 HIDDEN FALLS AVE,Anchorage,AK,99577,"18106 HIDDEN FALLS AVE, Anchorage, AK, 99577",Match,Non_Exact,"18106 HIDDEN FALLS AVE, EAGLE RIVER, AK, 99577",190805551,R,02,020,000203,5008,-149.54426999999998,61.305054000000005
5321,18535 WALRUS CIR,Anchorage,AK,99577,"18535 WALRUS CIR, Anchorage, AK, 99577",Match,Non_Exact,"18535 WALRUS CIR, EAGLE RIVER, AK, 99577",190805588,L,02,020,000203,3017,-149.53714,61.30489
5322,19909 HIGHLAND RIDGE DR,Anchorage,AK,99577,"19909 HIGHLAND RIDGE DR, Anchorage, AK, 99577",Match,Non_Exact,"19909 HIGHLAND RIDGE DR, EAGLE RIVER, AK, 99577",190819652,L,02,020,000203,3015,-149.5151,61.302284
5323,19918 HIGHLAND RIDGE DR,Anchorage,AK,99577,"19918 HIGHLAND RIDGE DR, Anchorage, AK, 99577",Match,Non_Exact,"19918 HIGHLAND RIDGE DR, EAGLE RIVER, AK, 99577",190819652,R,02,020,000203,3022,-149.51183999999998,61.302319999999995
5324,9106 W PARKVIEW TERRACE LOOP,Anchorage,AK,99577,"9106 W PARKVIEW TERRACE LOOP, Anchorage, AK, 99577",Match,Non_Exact,"9106 W PARKVIEW TER LP, EAGLE RIVER, AK, 99577",190805555,L,02,020,000203,5000,-149.54306,61.302746
5325,19887 HIGHLAND RIDGE DR,Anchorage,AK,99577,"19887 HIGHLAND RIDGE DR, Anchorage, AK, 99577",Match,Non_Exact,"19887 HIGHLAND RIDGE DR, EAGLE RIVER, AK, 99577",190819652,L,02,020,000203,3015,-149.51537,61.30230699999999
5326,19861 HIGHLAND RIDGE DR,Anchorage,AK,99577,"19861 HIGHLAND RIDGE DR, Anchorage, AK, 99577",Match,Non_Exact,"19861 HIGHLAND RIDGE DR, EAGLE RIVER, AK, 99577",190819652,L,02,020,000203,3015,-149.51567,61.302338
5327,19912 HIGHLAND RIDGE DR,Anchorage,AK,99577,"19912 HIGHLAND RIDGE DR, Anchorage, AK, 99577",Match,Non_Exact,"19912 HIGHLAND RIDGE DR, EAGLE RIVER, AK, 99577",190819652,R,02,020,000203,3022,-149.51195,61.30230699999999
5328,9931 WREN LN,Anchorage,AK,99577,"9931 WREN LN, Anchorage, AK, 99577",Match,Non_Exact,"9931 WREN LN, EAGLE RIVER, AK, 99577",190793449,R,02,020,000203,3007,-149.50226,61.310066000000006
5329,18480 EAGLE RIVER RD,Anchorage,AK,99577,"18480 EAGLE RIVER RD, Anchorage, AK, 99577",No_Match,,,,,,,,,,
5330,9936 ANNETTE CIR,Anchorage,AK,99577,"9936 ANNETTE CIR, Anchorage, AK, 99577",Match,Non_Exact,"9936 ANNETTE CIR, EAGLE RIVER, AK, 99577",190805705,L,02,020,000203,4000,-149.51137,61.309822
5331,18600 EAGLE RIVER RD,Anchorage,AK,99577,"18600 EAGLE RIVER RD, Anchorage, AK, 99577",Match,Non_Exact,"18600 EAGLE RIVER RD, EAGLE RIVER, AK, 99577",190814235,R,02,020,000203,4001,-149.5355,61.310658
5332,9930 ANNETTE CIR,Anchorage,AK,99577,"9930 ANNETTE CIR, Anchorage, AK, 99577",Match,Non_Exact,"9930 ANNETTE CIR, EAGLE RIVER, AK, 99577",190805705,L,02,020,000203,4000,-149.51138,61.309803
5333,19131 ATTU CIR,Anchorage,AK,99577,"19131 ATTU CIR, Anchorage, AK, 99577",Match,Non_Exact,"19131 ATTU CIR, EAGLE RIVER, AK, 99577",190805692,L,02,020,000203,4001,-149.52664,61.310069999999996
5334,18344 EAGLE RIVER RD,Anchorage,AK,99577,"18344 EAGLE RIVER RD, Anchorage, AK, 99577",Match,Non_Exact,"18344 EAGLE RIVER RD, EAGLE RIVER, AK, 99577",190792758,R,02,020,000203,5000,-149.5438,61.31063
5335,16925 KIYONA CIR,Anchorage,AK,99577,"16925 KIYONA CIR, Anchorage, AK, 99577",Match,Non_Exact,"16925 KIYONA CIR, EAGLE RIVER, AK, 99577",190805518,R,02,020,000203,5000,-149.5658,61.310157999999994
5336,19505 PRIBILOF LOOP,Anchorage,AK,99577,"19505 PRIBILOF LOOP, Anchorage, AK, 99577",Match,Non_Exact,"19505 PRIBILOF LOOP, EAGLE RIVER, AK, 99577",190805687,L,02,020,000203,4000,-149.51904,61.310055000000006
5337,19529 PRIBILOF LOOP,Anchorage,AK,99577,"19529 PRIBILOF LOOP, Anchorage, AK, 99577",Match,Non_Exact,"19529 PRIBILOF LOOP, EAGLE RIVER, AK, 99577",190805710,L,02,020,000203,4000,-149.5182,61.310055000000006
5338,16921 KIYONA CIR,Anchorage,AK,99577,"16921 KIYONA CIR, Anchorage, AK, 99577",Match,Non_Exact,"16921 KIYONA CIR, EAGLE RIVER, AK, 99577",190805518,R,02,020,000203,5000,-149.56583,61.310165000000005
5339,18615 NEVA CIR,Anchorage,AK,99577,"18615 NEVA CIR, Anchorage, AK, 99577",Match,Non_Exact,"18615 NEVA CIR, EAGLE RIVER, AK, 99577",190805594,L,02,020,000203,4008,-149.53563,61.307304
5340,20251 PTARMIGAN BLVD,Anchorage,AK,99577,"20251 PTARMIGAN BLVD, Anchorage, AK, 99577",Match,Non_Exact,"20251 PTARMIGAN BLVD, EAGLE RIVER, AK, 99577",605287909,L,02,020,000203,3004,-149.50508,61.307117000000005
5341,20227 PTARMIGAN BLVD,Anchorage,AK,99577,"20227 PTARMIGAN BLVD, Anchorage, AK, 99577",Match,Non_Exact,"20227 PTARMIGAN BLVD, EAGLE RIVER, AK, 99577",605287909,L,02,020,000203,3004,-149.50546,61.307117000000005
5342,18509 NEUMANN CIR,Anchorage,AK,99577,"18509 NEUMANN CIR, Anchorage, AK, 99577",Match,Non_Exact,"18509 NEUMANN CIR, EAGLE RIVER, AK, 99577",190811016,R,02,020,000203,3015,-149.5378,61.307182
5343,20137 PTARMIGAN BLVD,Anchorage,AK,99577,"20137 PTARMIGAN BLVD, Anchorage, AK, 99577",Match,Non_Exact,"20137 PTARMIGAN BLVD, EAGLE RIVER, AK, 99577",605287909,L,02,020,000203,3004,-149.50688,61.307117000000005
5344,18718 N LOWRIE LOOP,Anchorage,AK,99577,"18718 N LOWRIE LOOP, Anchorage, AK, 99577",Match,Non_Exact,"18718 N LOWRIE LOOP, EAGLE RIVER, AK, 99577",190826070,L,02,020,000203,4008,-149.5333,61.307163
5345,5208 TAKU DR,Anchorage,AK,99508,"5208 TAKU DR, Anchorage, AK, 99508",Match,Exact,"5208 TAKU DR, ANCHORAGE, AK, 99508",190801940,R,02,020,000801,3004,-149.78423,61.224167
5346,5208 TAKU DR,Anchorage,AK,99508,"5208 TAKU DR, Anchorage, AK, 99508",Match,Exact,"5208 TAKU DR, ANCHORAGE, AK, 99508",190801940,R,02,020,000801,3004,-149.78423,61.224167
5347,5208 TAKU DR,Anchorage,AK,99508,"5208 TAKU DR, Anchorage, AK, 99508",Match,Exact,"5208 TAKU DR, ANCHORAGE, AK, 99508",190801940,R,02,020,000801,3004,-149.78423,61.224167
5348,5208 TAKU DR,Anchorage,AK,99508,"5208 TAKU DR, Anchorage, AK, 99508",Match,Exact,"5208 TAKU DR, ANCHORAGE, AK, 99508",190801940,R,02,020,000801,3004,-149.78423,61.224167
5349,5208 TAKU DR,Anchorage,AK,99508,"5208 TAKU DR, Anchorage, AK, 99508",Match,Exact,"5208 TAKU DR, ANCHORAGE, AK, 99508",190801940,R,02,020,000801,3004,-149.78423,61.224167
5350,5208 TAKU DR,Anchorage,AK,99508,"5208 TAKU DR, Anchorage, AK, 99508",Match,Exact,"5208 TAKU DR, ANCHORAGE, AK, 99508",190801940,R,02,020,000801,3004,-149.78423,61.224167
5351,18789 PRICE ISLAND CIR,Anchorage,AK,99577,"18789 PRICE ISLAND CIR, Anchorage, AK, 99577",Match,Non_Exact,"18789 PRICE ISLAND CIR, EAGLE RIVER, AK, 99577",190805571,L,02,020,000203,3014,-149.53319,61.301359999999995
5352,8952 W PARKVIEW TERRACE LOOP,Anchorage,AK,99577,"8952 W PARKVIEW TERRACE LOOP, Anchorage, AK, 99577",Match,Non_Exact,"8952 W PARKVIEW TER LP, EAGLE RIVER, AK, 99577",190805555,L,02,020,000203,5000,-149.54169,61.30219
5353,8961 EAGLE PLACE LOOP,Anchorage,AK,99577,"8961 EAGLE PLACE LOOP, Anchorage, AK, 99577",No_Match,,,,,,,,,,
5354,8931 BIRCH PARK CIR,Anchorage,AK,99577,"8931 BIRCH PARK CIR, Anchorage, AK, 99577",Match,Non_Exact,"8931 BIRCH PARK CIR, EAGLE RIVER, AK, 99577",190827414,R,02,020,000203,3022,-149.51195,61.300830000000005
5355,19425 HIGHLAND RIDGE DR,Anchorage,AK,99577,"19425 HIGHLAND RIDGE DR, Anchorage, AK, 99577",Match,Non_Exact,"19425 HIGHLAND RIDGE DR, EAGLE RIVER, AK, 99577",190819652,L,02,020,000203,3015,-149.51923,61.301235
5356,8920 NORTHWOOD PARK CIR,Anchorage,AK,99577,"8920 NORTHWOOD PARK CIR, Anchorage, AK, 99577",Match,Non_Exact,"8920 NORTHWOOD PARK CIR, EAGLE RIVER, AK, 99577",190819645,L,02,020,000203,3022,-149.51762,61.30098
5357,8920 EAGLE PLACE LOOP,Anchorage,AK,99577,"8920 EAGLE PLACE LOOP, Anchorage, AK, 99577",No_Match,,,,,,,,,,
5358,8919 EAGLE PLACE LOOP,Anchorage,AK,99577,"8919 EAGLE PLACE LOOP, Anchorage, AK, 99577",No_Match,,,,,,,,,,
5359,8939 MEADOW PARK CIR,Anchorage,AK,99577,"8939 MEADOW PARK CIR, Anchorage, AK, 99577",Match,Non_Exact,"8939 MEADOW PARK CIR, EAGLE RIVER, AK, 99577",605288530,R,02,020,000203,3022,-149.51033,61.300807999999996
5360,19424 HIGHLAND RIDGE DR,Anchorage,AK,99577,"19424 HIGHLAND RIDGE DR, Anchorage, AK, 99577",Match,Non_Exact,"19424 HIGHLAND RIDGE DR, EAGLE RIVER, AK, 99577",190819652,R,02,020,000203,3022,-149.5192,61.301308
5361,8936 MEADOW PARK CIR,Anchorage,AK,99577,"8936 MEADOW PARK CIR, Anchorage, AK, 99577",Match,Non_Exact,"8936 MEADOW PARK CIR, EAGLE RIVER, AK, 99577",605288530,L,02,020,000203,3022,-149.51036000000002,61.300835
5362,8917 EAGLE PLACE LOOP,Anchorage,AK,99577,"8917 EAGLE PLACE LOOP, Anchorage, AK, 99577",No_Match,,,,,,,,,,
5363,8965 EAGLE PLACE LOOP,Anchorage,AK,99577,"8965 EAGLE PLACE LOOP, Anchorage, AK, 99577",No_Match,,,,,,,,,,
5364,8914 NORTHWOOD PARK CIR,Anchorage,AK,99577,"8914 NORTHWOOD PARK CIR, Anchorage, AK, 99577",Match,Non_Exact,"8914 NORTHWOOD PARK CIR, EAGLE RIVER, AK, 99577",190819645,L,02,020,000203,3022,-149.51762,61.30092
5365,8925 BIRCH PARK CIR,Anchorage,AK,99577,"8925 BIRCH PARK CIR, Anchorage, AK, 99577",Match,Non_Exact,"8925 BIRCH PARK CIR, EAGLE RIVER, AK, 99577",190827414,R,02,020,000203,3022,-149.51193,61.300777000000004
5366,20455 GRANITE PARK CIR,Anchorage,AK,99577,"20455 GRANITE PARK CIR, Anchorage, AK, 99577",Match,Non_Exact,"20455 GRANITE PARK CIR, EAGLE RIVER, AK, 99577",605336471,L,02,020,000203,3002,-149.50075,61.30073
5367,18779 PRICE ISLAND CIR,Anchorage,AK,99577,"18779 PRICE ISLAND CIR, Anchorage, AK, 99577",Match,Non_Exact,"18779 PRICE ISLAND CIR, EAGLE RIVER, AK, 99577",190805571,L,02,020,000203,3014,-149.53322,61.301308
5368,18835 MILLS BAY DR,Anchorage,AK,99577,"18835 MILLS BAY DR, Anchorage, AK, 99577",Match,Non_Exact,"18835 MILLS BAY DR, EAGLE RIVER, AK, 99577",190792844,L,02,020,000203,3011,-149.53197,61.29896
5369,19000 TRAIL BAY DR,Anchorage,AK,99577,"19000 TRAIL BAY DR, Anchorage, AK, 99577",Match,Non_Exact,"19000 TRAIL BAY DR, EAGLE RIVER, AK, 99577",190818858,R,02,020,000203,3011,-149.52893,61.299015000000004
5370,18841 MILLS BAY DR,Anchorage,AK,99577,"18841 MILLS BAY DR, Anchorage, AK, 99577",Match,Non_Exact,"18841 MILLS BAY DR, EAGLE RIVER, AK, 99577",190792844,L,02,020,000203,3011,-149.53188,61.29894
5371,18853 MILLS BAY DR,Anchorage,AK,99577,"18853 MILLS BAY DR, Anchorage, AK, 99577",Match,Non_Exact,"18853 MILLS BAY DR, EAGLE RIVER, AK, 99577",190792844,L,02,020,000203,3011,-149.5317,61.2989
5372,8707 INYO CIR,Anchorage,AK,99577,"8707 INYO CIR, Anchorage, AK, 99577",Match,Non_Exact,"8707 INYO CIR, EAGLE RIVER, AK, 99577",190822981,L,02,020,000204,2038,-149.56642,61.29922
5373,8706 INYO CIR,Anchorage,AK,99577,"8706 INYO CIR, Anchorage, AK, 99577",Match,Non_Exact,"8706 INYO CIR, EAGLE RIVER, AK, 99577",190822981,R,02,020,000204,2038,-149.56645,61.29922
5374,8700 ACADIA DR,Anchorage,AK,99577,"8700 ACADIA DR, Anchorage, AK, 99577",Match,Non_Exact,"8700 ACADIA DR, EAGLE RIVER, AK, 99577",605336267,L,02,020,000204,2036,-149.56815,61.29929
5375,8631 ACADIA DR,Anchorage,AK,99577,"8631 ACADIA DR, Anchorage, AK, 99577",Match,Non_Exact,"8631 ACADIA DR, EAGLE RIVER, AK, 99577",605336267,R,02,020,000204,2038,-149.56799999999998,61.298823999999996
5376,18859 MILLS BAY DR,Anchorage,AK,99577,"18859 MILLS BAY DR, Anchorage, AK, 99577",Match,Non_Exact,"18859 MILLS BAY DR, EAGLE RIVER, AK, 99577",190792844,L,02,020,000203,3011,-149.5316,61.298885
5377,26123 IMPERIAL DR,Anchorage,AK,99577,"26123 IMPERIAL DR, Anchorage, AK, 99577",Match,Non_Exact,"26123 IMPERIAL DR, EAGLE RIVER, AK, 99577",614874084,R,02,020,000204,1005,-149.39569,61.286747
5378,25629 BENDILENT CIR,Anchorage,AK,99577,"25629 BENDILENT CIR, Anchorage, AK, 99577",Match,Non_Exact,"25629 BENDILENT CIR, EAGLE RIVER, AK, 99577",190827407,L,02,020,000204,1009,-149.40403999999998,61.286736
5379,26008 IMPERIAL DR,Anchorage,AK,99577,"26008 IMPERIAL DR, Anchorage, AK, 99577",Match,Non_Exact,"26008 IMPERIAL DR, EAGLE RIVER, AK, 99577",614874085,L,02,020,000204,1005,-149.39777,61.286983
5380,26153 IMPERIAL DR,Anchorage,AK,99577,"26153 IMPERIAL DR, Anchorage, AK, 99577",Match,Non_Exact,"26153 IMPERIAL DR, EAGLE RIVER, AK, 99577",614874084,R,02,020,000204,1005,-149.39536999999999,61.28671
5381,25628 BENDILENT CIR,Anchorage,AK,99577,"25628 BENDILENT CIR, Anchorage, AK, 99577",Match,Non_Exact,"25628 BENDILENT CIR, EAGLE RIVER, AK, 99577",190827407,R,02,020,000204,1009,-149.40405,61.286728000000004
5382,26130 IMPERIAL DR,Anchorage,AK,99577,"26130 IMPERIAL DR, Anchorage, AK, 99577",Match,Non_Exact,"26130 IMPERIAL DR, EAGLE RIVER, AK, 99577",614874084,L,02,020,000204,1005,-149.39528,61.28669
5383,26138 IMPERIAL DR,Anchorage,AK,99577,"26138 IMPERIAL DR, Anchorage, AK, 99577",Match,Non_Exact,"26138 IMPERIAL DR, EAGLE RIVER, AK, 99577",614874084,L,02,020,000204,1005,-149.39511000000002,61.286667
5384,25651 BENDILENT CIR,Anchorage,AK,99577,"25651 BENDILENT CIR, Anchorage, AK, 99577",Match,Non_Exact,"25651 BENDILENT CIR, EAGLE RIVER, AK, 99577",190827407,L,02,020,000204,1009,-149.40348999999998,61.286533
5385,26202 IMPERIAL DR,Anchorage,AK,99577,"26202 IMPERIAL DR, Anchorage, AK, 99577",Match,Non_Exact,"26202 IMPERIAL DR, EAGLE RIVER, AK, 99577",614874084,L,02,020,000204,1005,-149.39369,61.286503
5386,25524 DENAINA DR,Anchorage,AK,99577,"25524 DENAINA DR, Anchorage, AK, 99577",Match,Non_Exact,"25524 DENAINA DR, EAGLE RIVER, AK, 99577",190827461,R,02,020,000204,1009,-149.40422,61.285522
5387,26301 WHITE SPRUCE DR,Anchorage,AK,99577,"26301 WHITE SPRUCE DR, Anchorage, AK, 99577",Match,Non_Exact,"26301 WHITE SPRUCE DR, EAGLE RIVER, AK, 99577",190814922,L,02,020,000204,1005,-149.39076,61.28612
5388,26232 IMPERIAL DR,Anchorage,AK,99577,"26232 IMPERIAL DR, Anchorage, AK, 99577",Match,Non_Exact,"26232 IMPERIAL DR, EAGLE RIVER, AK, 99577",614874084,L,02,020,000204,1005,-149.39303999999998,61.286423
5389,25765 EAGLE RIVER RD,Anchorage,AK,99577,"25765 EAGLE RIVER RD, Anchorage, AK, 99577",Match,Non_Exact,"25765 EAGLE RIVER RD, EAGLE RIVER, AK, 99577",190826924,R,02,020,000204,1005,-149.40118,61.286716000000006
5390,25656 BENDILENT CIR,Anchorage,AK,99577,"25656 BENDILENT CIR, Anchorage, AK, 99577",Match,Non_Exact,"25656 BENDILENT CIR, EAGLE RIVER, AK, 99577",190827407,R,02,020,000204,1009,-149.40337,61.286465
5391,25673 BENDILENT CIR,Anchorage,AK,99577,"25673 BENDILENT CIR, Anchorage, AK, 99577",Match,Non_Exact,"25673 BENDILENT CIR, EAGLE RIVER, AK, 99577",190827407,L,02,020,000204,1009,-149.40298,61.286312
5392,25542 DENAINA DR,Anchorage,AK,99577,"25542 DENAINA DR, Anchorage, AK, 99577",Match,Non_Exact,"25542 DENAINA DR, EAGLE RIVER, AK, 99577",190827461,R,02,020,000204,1009,-149.40407,61.285442
5393,25680 BENDILENT CIR,Anchorage,AK,99577,"25680 BENDILENT CIR, Anchorage, AK, 99577",Match,Non_Exact,"25680 BENDILENT CIR, EAGLE RIVER, AK, 99577",190827407,R,02,020,000204,1009,-149.4028,61.28621999999999
5394,25805 LOUINDA CIR,Anchorage,AK,99577,"25805 LOUINDA CIR, Anchorage, AK, 99577",Match,Non_Exact,"25805 LOUINDA CIR, EAGLE RIVER, AK, 99577",190818664,L,02,020,000204,1005,-149.4,61.28576700000001
5395,25839 LOUINDA CIR,Anchorage,AK,99577,"25839 LOUINDA CIR, Anchorage, AK, 99577",Match,Non_Exact,"25839 LOUINDA CIR, EAGLE RIVER, AK, 99577",190818664,L,02,020,000204,1005,-149.39917,61.28553
5396,16540 ELEONORA ST,Anchorage,AK,99577,"16540 ELEONORA ST, Anchorage, AK, 99577",Match,Non_Exact,"16540 ELEONORA ST, EAGLE RIVER, AK, 99577",190792389,L,02,020,000201,1008,-149.57358,61.336493999999995
5397,16506 ELEONORA ST,Anchorage,AK,99577,"16506 ELEONORA ST, Anchorage, AK, 99577",Match,Non_Exact,"16506 ELEONORA ST, EAGLE RIVER, AK, 99577",190792389,L,02,020,000201,1008,-149.57411000000002,61.336493999999995
5398,16516 ELEONORA ST,Anchorage,AK,99577,"16516 ELEONORA ST, Anchorage, AK, 99577",Match,Non_Exact,"16516 ELEONORA ST, EAGLE RIVER, AK, 99577",190792389,L,02,020,000201,1008,-149.57394,61.336493999999995
5399,16444 ELEONORA ST,Anchorage,AK,99577,"16444 ELEONORA ST, Anchorage, AK, 99577",Match,Non_Exact,"16444 ELEONORA ST, EAGLE RIVER, AK, 99577",190792389,L,02,020,000201,1008,-149.57506999999998,61.336493999999995
5400,16434 ELEONORA ST,Anchorage,AK,99577,"16434 ELEONORA ST, Anchorage, AK, 99577",Match,Non_Exact,"16434 ELEONORA ST, EAGLE RIVER, AK, 99577",190792389,L,02,020,000201,1008,-149.57523,61.336493999999995
5401,16416 ELEONORA ST,Anchorage,AK,99577,"16416 ELEONORA ST, Anchorage, AK, 99577",Match,Non_Exact,"16416 ELEONORA ST, EAGLE RIVER, AK, 99577",190792389,L,02,020,000201,1008,-149.5755,61.336493999999995
5402,12762 BRECKENRIDGE CIR,Anchorage,AK,99577,"12762 BRECKENRIDGE CIR, Anchorage, AK, 99577",Match,Non_Exact,"12762 BRECKENRIDGE CIR, EAGLE RIVER, AK, 99577",190794337,L,02,020,000201,1007,-149.57706000000002,61.335617000000006
5403,12758 BRECKENRIDGE CIR,Anchorage,AK,99577,"12758 BRECKENRIDGE CIR, Anchorage, AK, 99577",Match,Non_Exact,"12758 BRECKENRIDGE CIR, EAGLE RIVER, AK, 99577",190794337,L,02,020,000201,1007,-149.57709,61.335606000000006
5404,16505 MARCUS ST,Anchorage,AK,99577,"16505 MARCUS ST, Anchorage, AK, 99577",Match,Non_Exact,"16505 MARCUS ST, EAGLE RIVER, AK, 99577",190826843,R,02,020,000201,1008,-149.57419,61.33557
5405,16445 MARCUS ST,Anchorage,AK,99577,"16445 MARCUS ST, Anchorage, AK, 99577",Match,Non_Exact,"16445 MARCUS ST, EAGLE RIVER, AK, 99577",190826843,R,02,020,000201,1008,-149.57513,61.33557
5406,16433 MARCUS ST,Anchorage,AK,99577,"16433 MARCUS ST, Anchorage, AK, 99577",Match,Non_Exact,"16433 MARCUS ST, EAGLE RIVER, AK, 99577",190826843,R,02,020,000201,1008,-149.57533,61.33557
5407,16419 MARCUS ST,Anchorage,AK,99577,"16419 MARCUS ST, Anchorage, AK, 99577",Match,Non_Exact,"16419 MARCUS ST, EAGLE RIVER, AK, 99577",190826843,R,02,020,000201,1008,-149.57555,61.33557
5408,12013 TOWN PARK CIR,Anchorage,AK,99577,"12013 TOWN PARK CIR, Anchorage, AK, 99577",Match,Non_Exact,"12013 TOWN PARK CIR, EAGLE RIVER, AK, 99577",190819998,L,02,020,000201,2001,-149.57747,61.329094
5409,12011 TOWN PARK CIR,Anchorage,AK,99577,"12011 TOWN PARK CIR, Anchorage, AK, 99577",Match,Non_Exact,"12011 TOWN PARK CIR, EAGLE RIVER, AK, 99577",190819998,L,02,020,000201,2001,-149.57747,61.32908199999999
5410,23023 EAGLE GLACIER LOOP,Anchorage,AK,99577,"23023 EAGLE GLACIER LOOP, Anchorage, AK, 99577",Match,Non_Exact,"23023 EAGLE GLACIER LOOP, EAGLE RIVER, AK, 99577",190808400,R,02,020,000203,3003,-149.45282,61.30133000000001
5411,23000 EAGLE GLACIER LOOP,Anchorage,AK,99577,"23000 EAGLE GLACIER LOOP, Anchorage, AK, 99577",Match,Non_Exact,"23000 EAGLE GLACIER LOOP, EAGLE RIVER, AK, 99577",190808400,L,02,020,000203,3000,-149.45226,61.301266000000005
5412,23510 LOWER TERRACE ST,Anchorage,AK,99577,"23510 LOWER TERRACE ST, Anchorage, AK, 99577",Match,Non_Exact,"23510 LOWER TERRACE ST, EAGLE RIVER, AK, 99577",190793552,L,02,020,000204,1007,-149.44326999999998,61.30129
5413,23231 EAGLE RIVER RD,Anchorage,AK,99577,"23231 EAGLE RIVER RD, Anchorage, AK, 99577",Match,Non_Exact,"23231 EAGLE RIVER RD, EAGLE RIVER, AK, 99577",190793546,L,02,020,000204,1007,-149.44783,61.30076999999999
5414,23553 LOWER TERRACE ST,Anchorage,AK,99577,"23553 LOWER TERRACE ST, Anchorage, AK, 99577",Match,Non_Exact,"23553 LOWER TERRACE ST, EAGLE RIVER, AK, 99577",190793552,R,02,020,000204,1007,-149.44255,61.301140000000004
5415,24637 O'RIEDNER RD,Anchorage,AK,99577,"24637 O'RIEDNER RD, Anchorage, AK, 99577",Match,Non_Exact,"24637 ORIEDNER RD, EAGLE RIVER, AK, 99577",190825509,L,02,020,000204,1007,-149.42961,61.30101
5416,23014 EAGLE GLACIER LOOP,Anchorage,AK,99577,"23014 EAGLE GLACIER LOOP, Anchorage, AK, 99577",Match,Non_Exact,"23014 EAGLE GLACIER LOOP, EAGLE RIVER, AK, 99577",190808400,L,02,020,000203,3000,-149.45192,61.301235
5417,22753 COLUMBIA GLACIER LOOP,Anchorage,AK,99577,"22753 COLUMBIA GLACIER LOOP, Anchorage, AK, 99577",Match,Non_Exact,"22753 COLUMBIA GLACIER LOOP, EAGLE RIVER, AK, 99577",190808404,L,02,020,000203,3001,-149.45953,61.301533
5418,23100 EAGLE GLACIER LOOP,Anchorage,AK,99577,"23100 EAGLE GLACIER LOOP, Anchorage, AK, 99577",No_Match,,,,,,,,,,
5419,23307 EAGLE RIVER RD,Anchorage,AK,99577,"23307 EAGLE RIVER RD, Anchorage, AK, 99577",Match,Non_Exact,"23307 EAGLE RIVER RD, EAGLE RIVER, AK, 99577",190793546,L,02,020,000204,1007,-149.4467,61.300564
5420,23603 LOWER TERRACE ST,Anchorage,AK,99577,"23603 LOWER TERRACE ST, Anchorage, AK, 99577",Match,Non_Exact,"23603 LOWER TERRACE ST, EAGLE RIVER, AK, 99577",190793552,R,02,020,000204,1007,-149.44173999999998,61.300938
5421,23554 LOWER TERRACE ST,Anchorage,AK,99577,"23554 LOWER TERRACE ST, Anchorage, AK, 99577",Match,Non_Exact,"23554 LOWER TERRACE ST, EAGLE RIVER, AK, 99577",190793552,L,02,020,000204,1007,-149.44253999999998,61.30112
5422,23910 UPPER TERRACE ST,Anchorage,AK,99577,"23910 UPPER TERRACE ST, Anchorage, AK, 99577",Match,Non_Exact,"23910 UPPER TERRACE ST, EAGLE RIVER, AK, 99577",190793553,L,02,020,000204,1007,-149.43668,61.300465
5423,23627 LOWER TERRACE ST,Anchorage,AK,99577,"23627 LOWER TERRACE ST, Anchorage, AK, 99577",Match,Non_Exact,"23627 LOWER TERRACE ST, EAGLE RIVER, AK, 99577",190793552,R,02,020,000204,1007,-149.44138,61.30081
5424,23341 EAGLE RIVER RD,Anchorage,AK,99577,"23341 EAGLE RIVER RD, Anchorage, AK, 99577",Match,Non_Exact,"23341 EAGLE RIVER RD, EAGLE RIVER, AK, 99577",190793546,L,02,020,000204,1007,-149.4462,61.300484
5425,17617 KILOANA CT,Anchorage,AK,99577,"17617 KILOANA CT, Anchorage, AK, 99577",Match,Non_Exact,"17617 KILOANA CT, EAGLE RIVER, AK, 99577",643782038,L,02,020,000203,5007,-149.55377,61.308716000000004
5426,17725 KILOANA CIR,Anchorage,AK,99577,"17725 KILOANA CIR, Anchorage, AK, 99577",Match,Non_Exact,"17725 KILOANA CIR, EAGLE RIVER, AK, 99577",190805533,L,02,020,000203,5000,-149.55232,61.308719999999994
5427,17707 KILOANA CIR,Anchorage,AK,99577,"17707 KILOANA CIR, Anchorage, AK, 99577",Match,Non_Exact,"17707 KILOANA CIR, EAGLE RIVER, AK, 99577",190805533,L,02,020,000203,5000,-149.5526,61.308719999999994
5428,9746 NILTINA LN,Anchorage,AK,99577,"9746 NILTINA LN, Anchorage, AK, 99577",Match,Non_Exact,"9746 NILTINA LN, EAGLE RIVER, AK, 99577",190805527,L,02,020,000203,5002,-149.55626999999998,61.30862
5429,9742 SAINT LAWRENCE CIR,Anchorage,AK,99577,"9742 SAINT LAWRENCE CIR, Anchorage, AK, 99577",Match,Non_Exact,"9742 ST LAWRENCE CIR, EAGLE RIVER, AK, 99577",190805666,L,02,020,000203,4005,-149.52899,61.308376
5430,17749 KILOANA CIR,Anchorage,AK,99577,"17749 KILOANA CIR, Anchorage, AK, 99577",Match,Non_Exact,"17749 KILOANA CIR, EAGLE RIVER, AK, 99577",190805533,L,02,020,000203,5000,-149.55196999999998,61.308719999999994
5431,20705 RAVEN DR,Anchorage,AK,99577,"20705 RAVEN DR, Anchorage, AK, 99577",Match,Non_Exact,"20705 RAVEN DR, EAGLE RIVER, AK, 99577",190815426,L,02,020,000203,3000,-149.49661,61.308209999999995
5432,9738 E CHICHAGOF LOOP,Anchorage,AK,99577,"9738 E CHICHAGOF LOOP, Anchorage, AK, 99577",Match,Non_Exact,"9738 E CHICHAGOF LOOP, EAGLE RIVER, AK, 99577",190805668,L,02,020,000203,4001,-149.5274,61.308384
5433,17404 TOAKOANA DR,Anchorage,AK,99577,"17404 TOAKOANA DR, Anchorage, AK, 99577",Match,Non_Exact,"17404 TOAKOANA DR, EAGLE RIVER, AK, 99577",190805523,R,02,020,000203,5000,-149.5575,61.308792000000004
5434,9735 NILTINA LN,Anchorage,AK,99577,"9735 NILTINA LN, Anchorage, AK, 99577",Match,Non_Exact,"9735 NILTINA LN, EAGLE RIVER, AK, 99577",190805527,R,02,020,000203,5005,-149.5564,61.308569999999996
5435,17750 KILOANA CIR,Anchorage,AK,99577,"17750 KILOANA CIR, Anchorage, AK, 99577",Match,Non_Exact,"17750 KILOANA CIR, EAGLE RIVER, AK, 99577",190805533,R,02,020,000203,5000,-149.55194,61.30871
5436,9449 DINAAKA CIR,Anchorage,AK,99577,"9449 DINAAKA CIR, Anchorage, AK, 99577",Match,Non_Exact,"9449 DINAAKA CIR, EAGLE RIVER, AK, 99577",190808438,L,02,020,000203,5000,-149.55391,61.306488
5437,9450 EAGLE RIVER LN,Anchorage,AK,99577,"9450 EAGLE RIVER LN, Anchorage, AK, 99577",Match,Non_Exact,"9450 EAGLE RIVER LN, EAGLE RIVER, AK, 99577",190792851,L,02,020,000203,3015,-149.50975,61.30614
5438,18257 N PARKVIEW TERRACE LOOP,Anchorage,AK,99577,"18257 N PARKVIEW TERRACE LOOP, Anchorage, AK, 99577",Match,Non_Exact,"18257 N PARKVIEW TER LP, EAGLE RIVER, AK, 99577",190820860,L,02,020,000203,5000,-149.54196000000002,61.306202
5439,18236 N PARKVIEW TERRACE LOOP,Anchorage,AK,99577,"18236 N PARKVIEW TERRACE LOOP, Anchorage, AK, 99577",Match,Non_Exact,"18236 N PARKVIEW TER LP, EAGLE RIVER, AK, 99577",190820860,R,02,020,000203,5006,-149.54214,61.306343000000005
5440,20660 PTARMIGAN BLVD,Anchorage,AK,99577,"20660 PTARMIGAN BLVD, Anchorage, AK, 99577",Match,Non_Exact,"20660 PTARMIGAN BLVD, EAGLE RIVER, AK, 99577",605288341,R,02,020,000203,3000,-149.49608,61.307109999999994
5441,18635 NEVA CIR,Anchorage,AK,99577,"18635 NEVA CIR, Anchorage, AK, 99577",Match,Non_Exact,"18635 NEVA CIR, EAGLE RIVER, AK, 99577",190805594,L,02,020,000203,4008,-149.53546,61.30729
5442,18503 NEUMANN CIR,Anchorage,AK,99577,"18503 NEUMANN CIR, Anchorage, AK, 99577",Match,Non_Exact,"18503 NEUMANN CIR, EAGLE RIVER, AK, 99577",190811016,R,02,020,000203,3015,-149.53786000000002,61.30713000000001
5443,18737 N LOWRIE LOOP,Anchorage,AK,99577,"18737 N LOWRIE LOOP, Anchorage, AK, 99577",Match,Non_Exact,"18737 N LOWRIE LOOP, EAGLE RIVER, AK, 99577",190826070,R,02,020,000203,4006,-149.53333,61.30731
5444,17508 TOAKOANA DR,Anchorage,AK,99577,"17508 TOAKOANA DR, Anchorage, AK, 99577",Match,Non_Exact,"17508 TOAKOANA DR, EAGLE RIVER, AK, 99577",190805525,R,02,020,000203,5000,-149.55562,61.30746
5445,18637 NEVA CIR,Anchorage,AK,99577,"18637 NEVA CIR, Anchorage, AK, 99577",Match,Non_Exact,"18637 NEVA CIR, EAGLE RIVER, AK, 99577",190805594,L,02,020,000203,4008,-149.53545,61.30729
5446,18608 NEVA CIR,Anchorage,AK,99577,"18608 NEVA CIR, Anchorage, AK, 99577",Match,Non_Exact,"18608 NEVA CIR, EAGLE RIVER, AK, 99577",190805594,R,02,020,000203,4008,-149.53569,61.3073
5447,18614 NEVA CIR,Anchorage,AK,99577,"18614 NEVA CIR, Anchorage, AK, 99577",Match,Non_Exact,"18614 NEVA CIR, EAGLE RIVER, AK, 99577",190805594,R,02,020,000203,4008,-149.53563,61.307297
5448,18638 NEVA CIR,Anchorage,AK,99577,"18638 NEVA CIR, Anchorage, AK, 99577",Match,Non_Exact,"18638 NEVA CIR, EAGLE RIVER, AK, 99577",190805594,R,02,020,000203,4008,-149.53543,61.307274
5449,18620 NEVA CIR,Anchorage,AK,99577,"18620 NEVA CIR, Anchorage, AK, 99577",Match,Non_Exact,"18620 NEVA CIR, EAGLE RIVER, AK, 99577",190805594,R,02,020,000203,4008,-149.53558,61.30729
5450,18720 N LOWRIE LOOP,Anchorage,AK,99577,"18720 N LOWRIE LOOP, Anchorage, AK, 99577",Match,Non_Exact,"18720 N LOWRIE LOOP, EAGLE RIVER, AK, 99577",190826070,L,02,020,000203,4008,-149.5333,61.307137
5451,9331 W KANAGA LOOP,Anchorage,AK,99577,"9331 W KANAGA LOOP, Anchorage, AK, 99577",No_Match,,,,,,,,,,
5452,18533 WALRUS CIR,Anchorage,AK,99577,"18533 WALRUS CIR, Anchorage, AK, 99577",Match,Non_Exact,"18533 WALRUS CIR, EAGLE RIVER, AK, 99577",190805588,L,02,020,000203,3017,-149.53717,61.304885999999996
5453,18541 WALRUS CIR,Anchorage,AK,99577,"18541 WALRUS CIR, Anchorage, AK, 99577",Match,Non_Exact,"18541 WALRUS CIR, EAGLE RIVER, AK, 99577",190805588,L,02,020,000203,3017,-149.53705,61.30489300000001
5454,18521 WALRUS CIR,Anchorage,AK,99577,"18521 WALRUS CIR, Anchorage, AK, 99577",Match,Non_Exact,"18521 WALRUS CIR, EAGLE RIVER, AK, 99577",190805588,L,02,020,000203,3017,-149.53736999999998,61.304869999999994
5455,18543 WALRUS CIR,Anchorage,AK,99577,"18543 WALRUS CIR, Anchorage, AK, 99577",Match,Non_Exact,"18543 WALRUS CIR, EAGLE RIVER, AK, 99577",190805588,L,02,020,000203,3017,-149.537,61.304897
5456,19856 HIGHLAND RIDGE DR,Anchorage,AK,99577,"19856 HIGHLAND RIDGE DR, Anchorage, AK, 99577",Match,Non_Exact,"19856 HIGHLAND RIDGE DR, EAGLE RIVER, AK, 99577",190819652,R,02,020,000203,3022,-149.51297,61.30226999999999
5457,9023 W PARKVIEW TERRACE LOOP,Anchorage,AK,99577,"9023 W PARKVIEW TERRACE LOOP, Anchorage, AK, 99577",Match,Non_Exact,"9023 W PARKVIEW TER LP, EAGLE RIVER, AK, 99577",190805555,R,02,020,000203,5004,-149.54224,61.302464
5458,9034 W PARKVIEW TERRACE LOOP,Anchorage,AK,99577,"9034 W PARKVIEW TERRACE LOOP, Anchorage, AK, 99577",Match,Non_Exact,"9034 W PARKVIEW TER LP, EAGLE RIVER, AK, 99577",190805555,L,02,020,000203,5000,-149.54237,61.302513
5459,19527 HIGHLAND RIDGE DR,Anchorage,AK,99577,"19527 HIGHLAND RIDGE DR, Anchorage, AK, 99577",Match,Non_Exact,"19527 HIGHLAND RIDGE DR, EAGLE RIVER, AK, 99577",190819652,L,02,020,000203,3015,-149.51923,61.30183
5460,20586 MOUNTAINSIDE DR,Anchorage,AK,99577,"20586 MOUNTAINSIDE DR, Anchorage, AK, 99577",No_Match,,,,,,,,,,
5461,9024 W PARKVIEW TERRACE LOOP,Anchorage,AK,99577,"9024 W PARKVIEW TERRACE LOOP, Anchorage, AK, 99577",Match,Non_Exact,"9024 W PARKVIEW TER LP, EAGLE RIVER, AK, 99577",190805555,L,02,020,000203,5000,-149.54228,61.302475
5462,19033 N CHICHAGOF LOOP,Anchorage,AK,99577,"19033 N CHICHAGOF LOOP, Anchorage, AK, 99577",Match,Non_Exact,"19033 N CHICHAGOF LOOP, EAGLE RIVER, AK, 99577",190805691,L,02,020,000203,4001,-149.52786,61.310005000000004
5463,18845 SUTWIK CIR,Anchorage,AK,99577,"18845 SUTWIK CIR, Anchorage, AK, 99577",Match,Non_Exact,"18845 SUTWIK CIR, EAGLE RIVER, AK, 99577",190805690,L,02,020,000203,4001,-149.53041000000002,61.310062
5464,19005 N CHICHAGOF LOOP,Anchorage,AK,99577,"19005 N CHICHAGOF LOOP, Anchorage, AK, 99577",Match,Non_Exact,"19005 N CHICHAGOF LOOP, EAGLE RIVER, AK, 99577",190805691,L,02,020,000203,4001,-149.52823,61.310005000000004
5465,19021 N CHICHAGOF LOOP,Anchorage,AK,99577,"19021 N CHICHAGOF LOOP, Anchorage, AK, 99577",Match,Non_Exact,"19021 N CHICHAGOF LOOP, EAGLE RIVER, AK, 99577",190805691,L,02,020,000203,4001,-149.52802,61.310005000000004
5466,18949 N CHICHAGOF LOOP,Anchorage,AK,99577,"18949 N CHICHAGOF LOOP, Anchorage, AK, 99577",Match,Non_Exact,"18949 N CHICHAGOF LOOP, EAGLE RIVER, AK, 99577",190805691,L,02,020,000203,4001,-149.52895,61.310005000000004
5467,18921 SUTWIK CIR,Anchorage,AK,99577,"18921 SUTWIK CIR, Anchorage, AK, 99577",Match,Non_Exact,"18921 SUTWIK CIR, EAGLE RIVER, AK, 99577",190805690,L,02,020,000203,4001,-149.52992,61.310055000000006
5468,18937 N CHICHAGOF LOOP,Anchorage,AK,99577,"18937 N CHICHAGOF LOOP, Anchorage, AK, 99577",Match,Non_Exact,"18937 N CHICHAGOF LOOP, EAGLE RIVER, AK, 99577",190805691,L,02,020,000203,4001,-149.5291,61.310005000000004
5469,9926 TEEKOANA CIR,Anchorage,AK,99577,"9926 TEEKOANA CIR, Anchorage, AK, 99577",Match,Non_Exact,"9926 TEE KOANA CIR, EAGLE RIVER, AK, 99577",190805734,L,02,020,000203,5007,-149.5516,61.309864000000005
5470,9907 WREN LN,Anchorage,AK,99577,"9907 WREN LN, Anchorage, AK, 99577",Match,Non_Exact,"9907 WREN LN, EAGLE RIVER, AK, 99577",190793449,R,02,020,000203,3007,-149.50226,61.30988000000001
5471,16922 KIYONA CIR,Anchorage,AK,99577,"16922 KIYONA CIR, Anchorage, AK, 99577",Match,Non_Exact,"16922 KIYONA CIR, EAGLE RIVER, AK, 99577",190805518,L,02,020,000203,5000,-149.56581,61.31015
5472,9550 DINAAKA DR,Anchorage,AK,99577,"9550 DINAAKA DR, Anchorage, AK, 99577",Match,Non_Exact,"9550 DINAAKA DR, EAGLE RIVER, AK, 99577",190805534,L,02,020,000203,5005,-149.55302,61.307003
5473,9549 DINAAKA DR,Anchorage,AK,99577,"9549 DINAAKA DR, Anchorage, AK, 99577",Match,Non_Exact,"9549 DINAAKA DR, EAGLE RIVER, AK, 99577",190805534,R,02,020,000203,5000,-149.55303999999998,61.30696
5474,8700 INYO CIR,Anchorage,AK,99577,"8700 INYO CIR, Anchorage, AK, 99577",Match,Non_Exact,"8700 INYO CIR, EAGLE RIVER, AK, 99577",190822981,R,02,020,000204,2038,-149.56645,61.29918000000001
5475,18842 MILLS BAY DR,Anchorage,AK,99577,"18842 MILLS BAY DR, Anchorage, AK, 99577",Match,Non_Exact,"18842 MILLS BAY DR, EAGLE RIVER, AK, 99577",190792844,R,02,020,000203,3011,-149.53168,61.29889
5476,32909 CUMULUS RD,Anchorage,AK,99577,"32909 CUMULUS RD, Anchorage, AK, 99577",Match,Non_Exact,"32909 CUMULUS RD, EAGLE RIVER, AK, 99577",614861627,L,02,020,000204,1000,-149.26888,61.23076
5477,32930 CIRRUS WAY,Anchorage,AK,99577,"32930 CIRRUS WAY, Anchorage, AK, 99577",No_Match,,,,,,,,,,
5478,33017 CUMULUS RD,Anchorage,AK,99577,"33017 CUMULUS RD, Anchorage, AK, 99577",Match,Non_Exact,"33017 CUMULUS RD, EAGLE RIVER, AK, 99577",614861627,L,02,020,000204,1000,-149.26717,61.22916
5479,33151 CUMULUS RD,Anchorage,AK,99577,"33151 CUMULUS RD, Anchorage, AK, 99577",Match,Non_Exact,"33151 CUMULUS RD, EAGLE RIVER, AK, 99577",614861628,L,02,020,000204,1000,-149.2631,61.22466
5480,5200 TAKU DR,Anchorage,AK,99508,"5200 TAKU DR, Anchorage, AK, 99508",Match,Exact,"5200 TAKU DR, ANCHORAGE, AK, 99508",190801940,R,02,020,000801,3004,-149.78435,61.224167
5481,5200 TAKU DR,Anchorage,AK,99508,"5200 TAKU DR, Anchorage, AK, 99508",Match,Exact,"5200 TAKU DR, ANCHORAGE, AK, 99508",190801940,R,02,020,000801,3004,-149.78435,61.224167
5482,5200 TAKU DR,Anchorage,AK,99508,"5200 TAKU DR, Anchorage, AK, 99508",Match,Exact,"5200 TAKU DR, ANCHORAGE, AK, 99508",190801940,R,02,020,000801,3004,-149.78435,61.224167
5483,5200 TAKU DR,Anchorage,AK,99508,"5200 TAKU DR, Anchorage, AK, 99508",Match,Exact,"5200 TAKU DR, ANCHORAGE, AK, 99508",190801940,R,02,020,000801,3004,-149.78435,61.224167
5484,5200 TAKU DR,Anchorage,AK,99508,"5200 TAKU DR, Anchorage, AK, 99508",Match,Exact,"5200 TAKU DR, ANCHORAGE, AK, 99508",190801940,R,02,020,000801,3004,-149.78435,61.224167
5485,5200 TAKU DR,Anchorage,AK,99508,"5200 TAKU DR, Anchorage, AK, 99508",Match,Exact,"5200 TAKU DR, ANCHORAGE, AK, 99508",190801940,R,02,020,000801,3004,-149.78435,61.224167
5486,100 OKLAHOMA ST,Anchorage,AK,99504,"100 OKLAHOMA ST, Anchorage, AK, 99504",Match,Exact,"100 OKLAHOMA ST, ANCHORAGE, AK, 99504",190802852,R,02,020,000702,1005,-149.7448,61.224106000000006
5487,100 OKLAHOMA ST,Anchorage,AK,99504,"100 OKLAHOMA ST, Anchorage, AK, 99504",Match,Exact,"100 OKLAHOMA ST, ANCHORAGE, AK, 99504",190802852,R,02,020,000702,1005,-149.7448,61.224106000000006
5488,100 OKLAHOMA ST,Anchorage,AK,99504,"100 OKLAHOMA ST, Anchorage, AK, 99504",Match,Exact,"100 OKLAHOMA ST, ANCHORAGE, AK, 99504",190802852,R,02,020,000702,1005,-149.7448,61.224106000000006
5489,100 OKLAHOMA ST,Anchorage,AK,99504,"100 OKLAHOMA ST, Anchorage, AK, 99504",Match,Exact,"100 OKLAHOMA ST, ANCHORAGE, AK, 99504",190802852,R,02,020,000702,1005,-149.7448,61.224106000000006
5490,100 OKLAHOMA ST,Anchorage,AK,99504,"100 OKLAHOMA ST, Anchorage, AK, 99504",Match,Exact,"100 OKLAHOMA ST, ANCHORAGE, AK, 99504",190802852,R,02,020,000702,1005,-149.7448,61.224106000000006
5491,100 OKLAHOMA ST,Anchorage,AK,99504,"100 OKLAHOMA ST, Anchorage, AK, 99504",Match,Exact,"100 OKLAHOMA ST, ANCHORAGE, AK, 99504",190802852,R,02,020,000702,1005,-149.7448,61.224106000000006
5492,100 OKLAHOMA ST,Anchorage,AK,99504,"100 OKLAHOMA ST, Anchorage, AK, 99504",Match,Exact,"100 OKLAHOMA ST, ANCHORAGE, AK, 99504",190802852,R,02,020,000702,1005,-149.7448,61.224106000000006
5493,100 OKLAHOMA ST,Anchorage,AK,99504,"100 OKLAHOMA ST, Anchorage, AK, 99504",Match,Exact,"100 OKLAHOMA ST, ANCHORAGE, AK, 99504",190802852,R,02,020,000702,1005,-149.7448,61.224106000000006
5494,100 OKLAHOMA ST,Anchorage,AK,99504,"100 OKLAHOMA ST, Anchorage, AK, 99504",Match,Exact,"100 OKLAHOMA ST, ANCHORAGE, AK, 99504",190802852,R,02,020,000702,1005,-149.7448,61.224106000000006
5495,100 OKLAHOMA ST,Anchorage,AK,99504,"100 OKLAHOMA ST, Anchorage, AK, 99504",Match,Exact,"100 OKLAHOMA ST, ANCHORAGE, AK, 99504",190802852,R,02,020,000702,1005,-149.7448,61.224106000000006
5496,100 OKLAHOMA ST,Anchorage,AK,99504,"100 OKLAHOMA ST, Anchorage, AK, 99504",Match,Exact,"100 OKLAHOMA ST, ANCHORAGE, AK, 99504",190802852,R,02,020,000702,1005,-149.7448,61.224106000000006
5497,100 OKLAHOMA ST,Anchorage,AK,99504,"100 OKLAHOMA ST, Anchorage, AK, 99504",Match,Exact,"100 OKLAHOMA ST, ANCHORAGE, AK, 99504",190802852,R,02,020,000702,1005,-149.7448,61.224106000000006
5498,100 OKLAHOMA ST,Anchorage,AK,99504,"100 OKLAHOMA ST, Anchorage, AK, 99504",Match,Exact,"100 OKLAHOMA ST, ANCHORAGE, AK, 99504",190802852,R,02,020,000702,1005,-149.7448,61.224106000000006
5499,100 OKLAHOMA ST,Anchorage,AK,99504,"100 OKLAHOMA ST, Anchorage, AK, 99504",Match,Exact,"100 OKLAHOMA ST, ANCHORAGE, AK, 99504",190802852,R,02,020,000702,1005,-149.7448,61.224106000000006
5500,100 OKLAHOMA ST,Anchorage,AK,99504,"100 OKLAHOMA ST, Anchorage, AK, 99504",Match,Exact,"100 OKLAHOMA ST, ANCHORAGE, AK, 99504",190802852,R,02,020,000702,1005,-149.7448,61.224106000000006
5501,100 OKLAHOMA ST,Anchorage,AK,99504,"100 OKLAHOMA ST, Anchorage, AK, 99504",Match,Exact,"100 OKLAHOMA ST, ANCHORAGE, AK, 99504",190802852,R,02,020,000702,1005,-149.7448,61.224106000000006
5502,100 OKLAHOMA ST,Anchorage,AK,99504,"100 OKLAHOMA ST, Anchorage, AK, 99504",Match,Exact,"100 OKLAHOMA ST, ANCHORAGE, AK, 99504",190802852,R,02,020,000702,1005,-149.7448,61.224106000000006
5503,100 OKLAHOMA ST,Anchorage,AK,99504,"100 OKLAHOMA ST, Anchorage, AK, 99504",Match,Exact,"100 OKLAHOMA ST, ANCHORAGE, AK, 99504",190802852,R,02,020,000702,1005,-149.7448,61.224106000000006
5504,100 OKLAHOMA ST,Anchorage,AK,99504,"100 OKLAHOMA ST, Anchorage, AK, 99504",Match,Exact,"100 OKLAHOMA ST, ANCHORAGE, AK, 99504",190802852,R,02,020,000702,1005,-149.7448,61.224106000000006
5505,100 OKLAHOMA ST,Anchorage,AK,99504,"100 OKLAHOMA ST, Anchorage, AK, 99504",Match,Exact,"100 OKLAHOMA ST, ANCHORAGE, AK, 99504",190802852,R,02,020,000702,1005,-149.7448,61.224106000000006
5506,100 OKLAHOMA ST,Anchorage,AK,99504,"100 OKLAHOMA ST, Anchorage, AK, 99504",Match,Exact,"100 OKLAHOMA ST, ANCHORAGE, AK, 99504",190802852,R,02,020,000702,1005,-149.7448,61.224106000000006
5507,100 OKLAHOMA ST,Anchorage,AK,99504,"100 OKLAHOMA ST, Anchorage, AK, 99504",Match,Exact,"100 OKLAHOMA ST, ANCHORAGE, AK, 99504",190802852,R,02,020,000702,1005,-149.7448,61.224106000000006
5508,25822 BERRYHILL RD,Anchorage,AK,99577,"25822 BERRYHILL RD, Anchorage, AK, 99577",Match,Non_Exact,"25822 BERRYHILL RD, EAGLE RIVER, AK, 99577",190814932,R,02,020,000204,1005,-149.4005,61.29045
5509,16539 ELEONORA ST,Anchorage,AK,99577,"16539 ELEONORA ST, Anchorage, AK, 99577",Match,Non_Exact,"16539 ELEONORA ST, EAGLE RIVER, AK, 99577",190792389,R,02,020,000201,1007,-149.57361,61.33650600000001
5510,16549 ELEONORA ST,Anchorage,AK,99577,"16549 ELEONORA ST, Anchorage, AK, 99577",Match,Non_Exact,"16549 ELEONORA ST, EAGLE RIVER, AK, 99577",190792389,R,02,020,000201,1007,-149.57346,61.33650600000001
5511,16527 ELEONORA ST,Anchorage,AK,99577,"16527 ELEONORA ST, Anchorage, AK, 99577",Match,Non_Exact,"16527 ELEONORA ST, EAGLE RIVER, AK, 99577",190792389,R,02,020,000201,1007,-149.57379,61.33650600000001
5512,16515 ELEONORA ST,Anchorage,AK,99577,"16515 ELEONORA ST, Anchorage, AK, 99577",Match,Non_Exact,"16515 ELEONORA ST, EAGLE RIVER, AK, 99577",190792389,R,02,020,000201,1007,-149.57398999999998,61.33650600000001
5513,16505 ELEONORA ST,Anchorage,AK,99577,"16505 ELEONORA ST, Anchorage, AK, 99577",Match,Non_Exact,"16505 ELEONORA ST, EAGLE RIVER, AK, 99577",190792389,R,02,020,000201,1007,-149.57414,61.33650600000001
5514,16445 ELEONORA ST,Anchorage,AK,99577,"16445 ELEONORA ST, Anchorage, AK, 99577",Match,Non_Exact,"16445 ELEONORA ST, EAGLE RIVER, AK, 99577",190792389,R,02,020,000201,1007,-149.57506999999998,61.33650600000001
5515,16433 ELEONORA ST,Anchorage,AK,99577,"16433 ELEONORA ST, Anchorage, AK, 99577",Match,Non_Exact,"16433 ELEONORA ST, EAGLE RIVER, AK, 99577",190792389,R,02,020,000201,1007,-149.57526000000001,61.33650600000001
5516,16421 ELEONORA ST,Anchorage,AK,99577,"16421 ELEONORA ST, Anchorage, AK, 99577",Match,Non_Exact,"16421 ELEONORA ST, EAGLE RIVER, AK, 99577",190792389,R,02,020,000201,1007,-149.57544,61.33650600000001
5517,12033 TOWN PARK CIR,Anchorage,AK,99577,"12033 TOWN PARK CIR, Anchorage, AK, 99577",Match,Non_Exact,"12033 TOWN PARK CIR, EAGLE RIVER, AK, 99577",190819998,L,02,020,000201,2001,-149.57745,61.329223999999996
5518,12031 TOWN PARK CIR,Anchorage,AK,99577,"12031 TOWN PARK CIR, Anchorage, AK, 99577",Match,Non_Exact,"12031 TOWN PARK CIR, EAGLE RIVER, AK, 99577",190819998,L,02,020,000201,2001,-149.57745,61.329212
5519,12023 TOWN PARK CIR,Anchorage,AK,99577,"12023 TOWN PARK CIR, Anchorage, AK, 99577",Match,Non_Exact,"12023 TOWN PARK CIR, EAGLE RIVER, AK, 99577",190819998,L,02,020,000201,2001,-149.57747,61.329159999999995
5520,11427 HERITAGE CT,Anchorage,AK,99577,"11427 HERITAGE CT, Anchorage, AK, 99577",Match,Non_Exact,"11427 HERITAGE CT, EAGLE RIVER, AK, 99577",190814054,L,02,020,000201,2002,-149.5776,61.323555000000006
5521,11427 HERITAGE CT,Anchorage,AK,99577,"11427 HERITAGE CT, Anchorage, AK, 99577",Match,Non_Exact,"11427 HERITAGE CT, EAGLE RIVER, AK, 99577",190814054,L,02,020,000201,2002,-149.5776,61.323555000000006
5522,11427 HERITAGE CT,Anchorage,AK,99577,"11427 HERITAGE CT, Anchorage, AK, 99577",Match,Non_Exact,"11427 HERITAGE CT, EAGLE RIVER, AK, 99577",190814054,L,02,020,000201,2002,-149.5776,61.323555000000006
5523,11427 HERITAGE CT,Anchorage,AK,99577,"11427 HERITAGE CT, Anchorage, AK, 99577",Match,Non_Exact,"11427 HERITAGE CT, EAGLE RIVER, AK, 99577",190814054,L,02,020,000201,2002,-149.5776,61.323555000000006
5524,11427 HERITAGE CT,Anchorage,AK,99577,"11427 HERITAGE CT, Anchorage, AK, 99577",Match,Non_Exact,"11427 HERITAGE CT, EAGLE RIVER, AK, 99577",190814054,L,02,020,000201,2002,-149.5776,61.323555000000006
5525,11427 HERITAGE CT,Anchorage,AK,99577,"11427 HERITAGE CT, Anchorage, AK, 99577",Match,Non_Exact,"11427 HERITAGE CT, EAGLE RIVER, AK, 99577",190814054,L,02,020,000201,2002,-149.5776,61.323555000000006
5526,11427 HERITAGE CT,Anchorage,AK,99577,"11427 HERITAGE CT, Anchorage, AK, 99577",Match,Non_Exact,"11427 HERITAGE CT, EAGLE RIVER, AK, 99577",190814054,L,02,020,000201,2002,-149.5776,61.323555000000006
5527,11427 HERITAGE CT,Anchorage,AK,99577,"11427 HERITAGE CT, Anchorage, AK, 99577",Match,Non_Exact,"11427 HERITAGE CT, EAGLE RIVER, AK, 99577",190814054,L,02,020,000201,2002,-149.5776,61.323555000000006
5528,11427 HERITAGE CT,Anchorage,AK,99577,"11427 HERITAGE CT, Anchorage, AK, 99577",Match,Non_Exact,"11427 HERITAGE CT, EAGLE RIVER, AK, 99577",190814054,L,02,020,000201,2002,-149.5776,61.323555000000006
5529,26245 VALLIHI CIR,Anchorage,AK,99577,"26245 VALLIHI CIR, Anchorage, AK, 99577",Match,Non_Exact,"26245 VALLIHI CIR, EAGLE RIVER, AK, 99577",190818971,L,02,020,000204,1005,-149.39258,61.287693000000004
5530,25844 IMPERIAL DR,Anchorage,AK,99577,"25844 IMPERIAL DR, Anchorage, AK, 99577",Match,Non_Exact,"25844 IMPERIAL DR, EAGLE RIVER, AK, 99577",614874085,L,02,020,000204,1005,-149.39935,61.28745
5531,25865 IMPERIAL DR,Anchorage,AK,99577,"25865 IMPERIAL DR, Anchorage, AK, 99577",Match,Non_Exact,"25865 IMPERIAL DR, EAGLE RIVER, AK, 99577",614874085,R,02,020,000204,1005,-149.3999,61.287636
5532,26226 VALLIHI CIR,Anchorage,AK,99577,"26226 VALLIHI CIR, Anchorage, AK, 99577",Match,Non_Exact,"26226 VALLIHI CIR, EAGLE RIVER, AK, 99577",190818971,R,02,020,000204,1005,-149.39299,61.287724
5533,26266 VALLIHI CIR,Anchorage,AK,99577,"26266 VALLIHI CIR, Anchorage, AK, 99577",Match,Non_Exact,"26266 VALLIHI CIR, EAGLE RIVER, AK, 99577",190818971,R,02,020,000204,1005,-149.39207,61.28763000000001
5534,25621 BENDILENT CIR,Anchorage,AK,99577,"25621 BENDILENT CIR, Anchorage, AK, 99577",Match,Non_Exact,"25621 BENDILENT CIR, EAGLE RIVER, AK, 99577",190827407,L,02,020,000204,1009,-149.40427,61.286793
5535,25852 IMPERIAL DR,Anchorage,AK,99577,"25852 IMPERIAL DR, Anchorage, AK, 99577",Match,Non_Exact,"25852 IMPERIAL DR, EAGLE RIVER, AK, 99577",614874085,L,02,020,000204,1005,-149.39928,61.287426
5536,25935 IMPERIAL DR,Anchorage,AK,99577,"25935 IMPERIAL DR, Anchorage, AK, 99577",Match,Non_Exact,"25935 IMPERIAL DR, EAGLE RIVER, AK, 99577",614874085,R,02,020,000204,1005,-149.39902,61.287354
5537,26240 WHITE SPRUCE DR,Anchorage,AK,99577,"26240 WHITE SPRUCE DR, Anchorage, AK, 99577",Match,Non_Exact,"26240 WHITE SPRUCE DR, EAGLE RIVER, AK, 99577",190818974,R,02,020,000204,1005,-149.39328,61.287426
5538,26019 IMPERIAL DR,Anchorage,AK,99577,"26019 IMPERIAL DR, Anchorage, AK, 99577",Match,Non_Exact,"26019 IMPERIAL DR, EAGLE RIVER, AK, 99577",614874085,R,02,020,000204,1005,-149.39793,61.287025
5539,25928 IMPERIAL DR,Anchorage,AK,99577,"25928 IMPERIAL DR, Anchorage, AK, 99577",Match,Non_Exact,"25928 IMPERIAL DR, EAGLE RIVER, AK, 99577",614874085,L,02,020,000204,1005,-149.39856,61.287197
5540,18265 N PARKVIEW TERRACE LOOP,Anchorage,AK,99577,"18265 N PARKVIEW TERRACE LOOP, Anchorage, AK, 99577",Match,Non_Exact,"18265 N PARKVIEW TER LP, EAGLE RIVER, AK, 99577",190820860,L,02,020,000203,5000,-149.54185,61.306152000000004
5541,18037 MISTY FALLS CIR,Anchorage,AK,99577,"18037 MISTY FALLS CIR, Anchorage, AK, 99577",Match,Non_Exact,"18037 MISTY FALLS CIR, EAGLE RIVER, AK, 99577",190805549,L,02,020,000203,5006,-149.54506999999998,61.305958
5542,18133 MISTY FALLS CIR,Anchorage,AK,99577,"18133 MISTY FALLS CIR, Anchorage, AK, 99577",Match,Non_Exact,"18133 MISTY FALLS CIR, EAGLE RIVER, AK, 99577",190805549,L,02,020,000203,5006,-149.54428000000001,61.305923
5543,18244 N PARKVIEW TERRACE LOOP,Anchorage,AK,99577,"18244 N PARKVIEW TERRACE LOOP, Anchorage, AK, 99577",Match,Non_Exact,"18244 N PARKVIEW TER LP, EAGLE RIVER, AK, 99577",190820860,R,02,020,000203,5006,-149.54208,61.306281999999996
5544,18125 MISTY FALLS CIR,Anchorage,AK,99577,"18125 MISTY FALLS CIR, Anchorage, AK, 99577",Match,Non_Exact,"18125 MISTY FALLS CIR, EAGLE RIVER, AK, 99577",190805549,L,02,020,000203,5006,-149.54436,61.305927000000004
5545,20133 HIGHLAND RIDGE DR,Anchorage,AK,99577,"20133 HIGHLAND RIDGE DR, Anchorage, AK, 99577",Match,Non_Exact,"20133 HIGHLAND RIDGE DR, EAGLE RIVER, AK, 99577",190819652,L,02,020,000203,3015,-149.51238999999998,61.30229
5546,20139 HIGHLAND RIDGE DR,Anchorage,AK,99577,"20139 HIGHLAND RIDGE DR, Anchorage, AK, 99577",Match,Non_Exact,"20139 HIGHLAND RIDGE DR, EAGLE RIVER, AK, 99577",190819652,L,02,020,000203,3015,-149.51231,61.30229
5547,20218 HIGHLAND RIDGE DR,Anchorage,AK,99577,"20218 HIGHLAND RIDGE DR, Anchorage, AK, 99577",Match,Non_Exact,"20218 HIGHLAND RIDGE DR, EAGLE RIVER, AK, 99577",625718494,L,02,020,000203,3002,-149.50641000000002,61.303314
5548,20145 HIGHLAND RIDGE DR,Anchorage,AK,99577,"20145 HIGHLAND RIDGE DR, Anchorage, AK, 99577",Match,Non_Exact,"20145 HIGHLAND RIDGE DR, EAGLE RIVER, AK, 99577",190819652,L,02,020,000203,3015,-149.51225,61.302296
5549,20203 HIGHLAND RIDGE DR,Anchorage,AK,99577,"20203 HIGHLAND RIDGE DR, Anchorage, AK, 99577",Match,Non_Exact,"20203 HIGHLAND RIDGE DR, EAGLE RIVER, AK, 99577",190819652,L,02,020,000203,3015,-149.51157,61.302372
5550,20151 HIGHLAND RIDGE DR,Anchorage,AK,99577,"20151 HIGHLAND RIDGE DR, Anchorage, AK, 99577",Match,Non_Exact,"20151 HIGHLAND RIDGE DR, EAGLE RIVER, AK, 99577",190819652,L,02,020,000203,3015,-149.51218,61.302296
5551,9212 CAM ISLAND CIR,Anchorage,AK,99577,"9212 CAM ISLAND CIR, Anchorage, AK, 99577",Match,Non_Exact,"9212 CAM ISLAND CIR, EAGLE RIVER, AK, 99577",190805561,L,02,020,000203,5008,-149.541,61.303540000000005
5552,9216 CAM ISLAND CIR,Anchorage,AK,99577,"9216 CAM ISLAND CIR, Anchorage, AK, 99577",Match,Non_Exact,"9216 CAM ISLAND CIR, EAGLE RIVER, AK, 99577",190805561,L,02,020,000203,5008,-149.54095,61.303540000000005
5553,20210 HIGHLAND RIDGE DR,Anchorage,AK,99577,"20210 HIGHLAND RIDGE DR, Anchorage, AK, 99577",Match,Non_Exact,"20210 HIGHLAND RIDGE DR, EAGLE RIVER, AK, 99577",625718494,L,02,020,000203,3002,-149.50652,61.303295
5554,9208 CAM ISLAND CIR,Anchorage,AK,99577,"9208 CAM ISLAND CIR, Anchorage, AK, 99577",Match,Non_Exact,"9208 CAM ISLAND CIR, EAGLE RIVER, AK, 99577",190805561,L,02,020,000203,5008,-149.54103,61.303535
5555,22740 EAGLE GLACIER LOOP,Anchorage,AK,99577,"22740 EAGLE GLACIER LOOP, Anchorage, AK, 99577",Match,Non_Exact,"22740 EAGLE GLACIER LOOP, EAGLE RIVER, AK, 99577",190808403,L,02,020,000203,3001,-149.45801,61.302937
5556,23244 LOWER TERRACE ST,Anchorage,AK,99577,"23244 LOWER TERRACE ST, Anchorage, AK, 99577",Match,Non_Exact,"23244 LOWER TERRACE ST, EAGLE RIVER, AK, 99577",190793552,L,02,020,000204,1007,-149.44756999999998,61.302395
5557,22527 COLUMBIA GLACIER LOOP,Anchorage,AK,99577,"22527 COLUMBIA GLACIER LOOP, Anchorage, AK, 99577",Match,Non_Exact,"22527 COLUMBIA GLACIER LOOP, EAGLE RIVER, AK, 99577",190808404,L,02,020,000203,3001,-149.46296999999998,61.302986
5558,22953 EAGLE RIVER RD,Anchorage,AK,99577,"22953 EAGLE RIVER RD, Anchorage, AK, 99577",Match,Non_Exact,"22953 EAGLE RIVER RD, EAGLE RIVER, AK, 99577",190826142,L,02,020,000204,1007,-149.45428,61.302657999999994
5559,22813 EAGLE GLACIER LOOP,Anchorage,AK,99577,"22813 EAGLE GLACIER LOOP, Anchorage, AK, 99577",Match,Non_Exact,"22813 EAGLE GLACIER LOOP, EAGLE RIVER, AK, 99577",190808403,R,02,020,000203,3003,-149.45731999999998,61.30268
5560,23009 EAGLE RIVER RD,Anchorage,AK,99577,"23009 EAGLE RIVER RD, Anchorage, AK, 99577",Match,Non_Exact,"23009 EAGLE RIVER RD, EAGLE RIVER, AK, 99577",190826142,L,02,020,000204,1007,-149.45349,61.302376
5561,22808 EAGLE GLACIER LOOP,Anchorage,AK,99577,"22808 EAGLE GLACIER LOOP, Anchorage, AK, 99577",Match,Non_Exact,"22808 EAGLE GLACIER LOOP, EAGLE RIVER, AK, 99577",190808403,L,02,020,000203,3001,-149.45685,61.302493999999996
5562,23314 LOWER TERRACE ST,Anchorage,AK,99577,"23314 LOWER TERRACE ST, Anchorage, AK, 99577",Match,Non_Exact,"23314 LOWER TERRACE ST, EAGLE RIVER, AK, 99577",190793552,L,02,020,000204,1007,-149.44652,61.302036
5563,9024 WALLACE ST,Anchorage,AK,99577,"9024 WALLACE ST, Anchorage, AK, 99577",Match,Non_Exact,"9024 WALLACE ST, EAGLE RIVER, AK, 99577",190793542,L,02,020,000204,1007,-149.44963,61.301826
5564,23033 EAGLE RIVER RD,Anchorage,AK,99577,"23033 EAGLE RIVER RD, Anchorage, AK, 99577",Match,Non_Exact,"23033 EAGLE RIVER RD, EAGLE RIVER, AK, 99577",190826142,L,02,020,000204,1007,-149.45316,61.302254000000005
5565,22825 EAGLE GLACIER LOOP,Anchorage,AK,99577,"22825 EAGLE GLACIER LOOP, Anchorage, AK, 99577",Match,Non_Exact,"22825 EAGLE GLACIER LOOP, EAGLE RIVER, AK, 99577",190808403,R,02,020,000203,3003,-149.45713999999998,61.302616
5566,23637 UPPER TERRACE ST,Anchorage,AK,99577,"23637 UPPER TERRACE ST, Anchorage, AK, 99577",Match,Non_Exact,"23637 UPPER TERRACE ST, EAGLE RIVER, AK, 99577",190793553,R,02,020,000204,1007,-149.441,61.30198299999999
5567,23405 LOWER TERRACE ST,Anchorage,AK,99577,"23405 LOWER TERRACE ST, Anchorage, AK, 99577",Match,Non_Exact,"23405 LOWER TERRACE ST, EAGLE RIVER, AK, 99577",190793552,R,02,020,000204,1007,-149.44502,61.301704
5568,22830 EAGLE GLACIER LOOP,Anchorage,AK,99577,"22830 EAGLE GLACIER LOOP, Anchorage, AK, 99577",Match,Non_Exact,"22830 EAGLE GLACIER LOOP, EAGLE RIVER, AK, 99577",190808403,L,02,020,000203,3001,-149.45647,61.30236
5569,23055 EAGLE RIVER RD,Anchorage,AK,99577,"23055 EAGLE RIVER RD, Anchorage, AK, 99577",Match,Non_Exact,"23055 EAGLE RIVER RD, EAGLE RIVER, AK, 99577",190826142,L,02,020,000204,1007,-149.45283999999998,61.302147
5570,20510 PTARMIGAN BLVD,Anchorage,AK,99577,"20510 PTARMIGAN BLVD, Anchorage, AK, 99577",Match,Non_Exact,"20510 PTARMIGAN BLVD, EAGLE RIVER, AK, 99577",190793457,R,02,020,000203,3000,-149.4999,61.307106000000005
5571,20442 PTARMIGAN BLVD,Anchorage,AK,99577,"20442 PTARMIGAN BLVD, Anchorage, AK, 99577",Match,Non_Exact,"20442 PTARMIGAN BLVD, EAGLE RIVER, AK, 99577",190793457,R,02,020,000203,3000,-149.50114,61.307106000000005
5572,18636 NEVA CIR,Anchorage,AK,99577,"18636 NEVA CIR, Anchorage, AK, 99577",Match,Non_Exact,"18636 NEVA CIR, EAGLE RIVER, AK, 99577",190805594,R,02,020,000203,4008,-149.53545,61.307278000000004
5573,18626 NEVA CIR,Anchorage,AK,99577,"18626 NEVA CIR, Anchorage, AK, 99577",Match,Non_Exact,"18626 NEVA CIR, EAGLE RIVER, AK, 99577",190805594,R,02,020,000203,4008,-149.53554,61.307285
5574,17516 TOAKOANA DR,Anchorage,AK,99577,"17516 TOAKOANA DR, Anchorage, AK, 99577",Match,Non_Exact,"17516 TOAKOANA DR, EAGLE RIVER, AK, 99577",190805525,R,02,020,000203,5000,-149.55546999999999,61.307384
5575,20026 PTARMIGAN BLVD,Anchorage,AK,99577,"20026 PTARMIGAN BLVD, Anchorage, AK, 99577",Match,Non_Exact,"20026 PTARMIGAN BLVD, EAGLE RIVER, AK, 99577",605287908,R,02,020,000203,3000,-149.5092,61.307109999999994
5576,20026 PTARMIGAN BLVD,Anchorage,AK,99577,"20026 PTARMIGAN BLVD, Anchorage, AK, 99577",Match,Non_Exact,"20026 PTARMIGAN BLVD, EAGLE RIVER, AK, 99577",605287908,R,02,020,000203,3000,-149.5092,61.307109999999994
5577,18630 NEVA CIR,Anchorage,AK,99577,"18630 NEVA CIR, Anchorage, AK, 99577",Match,Non_Exact,"18630 NEVA CIR, EAGLE RIVER, AK, 99577",190805594,R,02,020,000203,4008,-149.53548999999998,61.307280000000006
5578,17531 TOAKOANA DR,Anchorage,AK,99577,"17531 TOAKOANA DR, Anchorage, AK, 99577",Match,Non_Exact,"17531 TOAKOANA DR, EAGLE RIVER, AK, 99577",190824162,L,02,020,000203,5005,-149.55504,61.3072
5579,20610 PTARMIGAN BLVD,Anchorage,AK,99577,"20610 PTARMIGAN BLVD, Anchorage, AK, 99577",Match,Non_Exact,"20610 PTARMIGAN BLVD, EAGLE RIVER, AK, 99577",605288333,R,02,020,000203,3000,-149.49768,61.307106000000005
5580,18722 N LOWRIE LOOP,Anchorage,AK,99577,"18722 N LOWRIE LOOP, Anchorage, AK, 99577",Match,Non_Exact,"18722 N LOWRIE LOOP, EAGLE RIVER, AK, 99577",190826070,L,02,020,000203,4008,-149.5333,61.307109999999994
5581,9546 KIGUL CIR,Anchorage,AK,99577,"9546 KIGUL CIR, Anchorage, AK, 99577",Match,Non_Exact,"9546 KIGUL CIR, EAGLE RIVER, AK, 99577",190805652,R,02,020,000203,4006,-149.53127,61.306965000000005
5582,20630 PTARMIGAN BLVD,Anchorage,AK,99577,"20630 PTARMIGAN BLVD, Anchorage, AK, 99577",Match,Non_Exact,"20630 PTARMIGAN BLVD, EAGLE RIVER, AK, 99577",605288341,R,02,020,000203,3000,-149.49634,61.307109999999994
5583,18551 WALRUS CIR,Anchorage,AK,99577,"18551 WALRUS CIR, Anchorage, AK, 99577",Match,Non_Exact,"18551 WALRUS CIR, EAGLE RIVER, AK, 99577",190805588,L,02,020,000203,3017,-149.53688,61.30489300000001
5584,9320 EAGLE RIVER LN,Anchorage,AK,99577,"9320 EAGLE RIVER LN, Anchorage, AK, 99577",Match,Non_Exact,"9320 EAGLE RIVER LN, EAGLE RIVER, AK, 99577",641314854,L,02,020,000203,3000,-149.50542,61.303776
5585,18110 HARBOR POINT LOOP,Anchorage,AK,99577,"18110 HARBOR POINT LOOP, Anchorage, AK, 99577",Match,Non_Exact,"18110 HARBOR PT LP, EAGLE RIVER, AK, 99577",190805554,R,02,020,000203,5008,-149.54419,61.304714000000004
5586,18805 FIRST ST,Anchorage,AK,99577,"18805 FIRST ST, Anchorage, AK, 99577",Match,Non_Exact,"18805 1ST ST, EAGLE RIVER, AK, 99577",190814229,L,02,020,000203,1015,-149.53185,61.311657
5587,18739 FIRST ST,Anchorage,AK,99577,"18739 FIRST ST, Anchorage, AK, 99577",Match,Non_Exact,"18739 1ST ST, EAGLE RIVER, AK, 99577",190814229,L,02,020,000203,1015,-149.53304,61.311657
5588,18749 FIRST ST,Anchorage,AK,99577,"18749 FIRST ST, Anchorage, AK, 99577",Match,Non_Exact,"18749 1ST ST, EAGLE RIVER, AK, 99577",190814229,L,02,020,000203,1015,-149.53285,61.311657
5589,18727 FIRST ST,Anchorage,AK,99577,"18727 FIRST ST, Anchorage, AK, 99577",Match,Non_Exact,"18727 1ST ST, EAGLE RIVER, AK, 99577",190814229,L,02,020,000203,1015,-149.53325,61.311657
5590,18705 FIRST ST,Anchorage,AK,99577,"18705 FIRST ST, Anchorage, AK, 99577",Match,Non_Exact,"18705 1ST ST, EAGLE RIVER, AK, 99577",190814229,L,02,020,000203,1015,-149.53365,61.311657
5591,18717 FIRST ST,Anchorage,AK,99577,"18717 FIRST ST, Anchorage, AK, 99577",Match,Non_Exact,"18717 1ST ST, EAGLE RIVER, AK, 99577",190814229,L,02,020,000203,1015,-149.53343,61.311657
5592,18643 FIRST ST,Anchorage,AK,99577,"18643 FIRST ST, Anchorage, AK, 99577",Match,Non_Exact,"18643 1ST ST, EAGLE RIVER, AK, 99577",190814229,L,02,020,000203,1015,-149.53477,61.311653
5593,18633 FIRST ST,Anchorage,AK,99577,"18633 FIRST ST, Anchorage, AK, 99577",Match,Non_Exact,"18633 1ST ST, EAGLE RIVER, AK, 99577",190814229,L,02,020,000203,1015,-149.53496,61.311653
5594,18621 FIRST ST,Anchorage,AK,99577,"18621 FIRST ST, Anchorage, AK, 99577",Match,Non_Exact,"18621 1ST ST, EAGLE RIVER, AK, 99577",190814229,L,02,020,000203,1015,-149.53517,61.311653
5595,10046 CARIBOU ST,Anchorage,AK,99577,"10046 CARIBOU ST, Anchorage, AK, 99577",Match,Non_Exact,"10046 CARIBOU ST, EAGLE RIVER, AK, 99577",190792669,L,02,020,000202,4016,-149.54655,61.311294999999994
5596,20611 MELODY LN,Anchorage,AK,99577,"20611 MELODY LN, Anchorage, AK, 99577",Match,Non_Exact,"20611 MELODY LN, EAGLE RIVER, AK, 99577",190826913,R,02,020,000203,3007,-149.49722,61.309692000000005
5597,9919 TEEKOANA CIR,Anchorage,AK,99577,"9919 TEEKOANA CIR, Anchorage, AK, 99577",Match,Non_Exact,"9919 TEE KOANA CIR, EAGLE RIVER, AK, 99577",190805734,R,02,020,000203,5007,-149.55159,61.309844999999996
5598,9920 TEEKOANA CIR,Anchorage,AK,99577,"9920 TEEKOANA CIR, Anchorage, AK, 99577",Match,Non_Exact,"9920 TEE KOANA CIR, EAGLE RIVER, AK, 99577",190805734,L,02,020,000203,5007,-149.55161999999999,61.30985
5599,18838 SUTWIK CIR,Anchorage,AK,99577,"18838 SUTWIK CIR, Anchorage, AK, 99577",Match,Non_Exact,"18838 SUTWIK CIR, EAGLE RIVER, AK, 99577",190805690,R,02,020,000203,4001,-149.53044,61.310055000000006
5600,16924 KIYONA CIR,Anchorage,AK,99577,"16924 KIYONA CIR, Anchorage, AK, 99577",Match,Non_Exact,"16924 KIYONA CIR, EAGLE RIVER, AK, 99577",190805518,L,02,020,000203,5000,-149.5658,61.31015
5601,16938 KIYONA CIR,Anchorage,AK,99577,"16938 KIYONA CIR, Anchorage, AK, 99577",Match,Non_Exact,"16938 KIYONA CIR, EAGLE RIVER, AK, 99577",190805518,L,02,020,000203,5000,-149.5657,61.31013000000001
5602,20715 MELODY LN,Anchorage,AK,99577,"20715 MELODY LN, Anchorage, AK, 99577",Match,Non_Exact,"20715 MELODY LN, EAGLE RIVER, AK, 99577",190826913,R,02,020,000203,3007,-149.49504,61.30973
5603,100 OKLAHOMA ST,Anchorage,AK,99504,"100 OKLAHOMA ST, Anchorage, AK, 99504",Match,Exact,"100 OKLAHOMA ST, ANCHORAGE, AK, 99504",190802852,R,02,020,000702,1005,-149.7448,61.224106000000006
5604,8915 BIRCH PARK CIR,Anchorage,AK,99577,"8915 BIRCH PARK CIR, Anchorage, AK, 99577",Match,Non_Exact,"8915 BIRCH PARK CIR, EAGLE RIVER, AK, 99577",190827414,R,02,020,000203,3022,-149.51192,61.300681999999995
5605,19412 HIGHLAND RIDGE DR,Anchorage,AK,99577,"19412 HIGHLAND RIDGE DR, Anchorage, AK, 99577",Match,Non_Exact,"19412 HIGHLAND RIDGE DR, EAGLE RIVER, AK, 99577",190819652,R,02,020,000203,3022,-149.5192,61.3012
5606,20211 GLACIER PARK CIR,Anchorage,AK,99577,"20211 GLACIER PARK CIR, Anchorage, AK, 99577",Match,Non_Exact,"20211 GLACIER PARK CIR, EAGLE RIVER, AK, 99577",605336517,L,02,020,000203,3002,-149.50552,61.30055600000001
5607,20464 GRANITE PARK CIR,Anchorage,AK,99577,"20464 GRANITE PARK CIR, Anchorage, AK, 99577",Match,Non_Exact,"20464 GRANITE PARK CIR, EAGLE RIVER, AK, 99577",605336471,R,02,020,000203,3002,-149.5011,61.300667000000004
5608,8843 DOME CIR,Anchorage,AK,99577,"8843 DOME CIR, Anchorage, AK, 99577",Match,Non_Exact,"8843 DOME CIR, EAGLE RIVER, AK, 99577",190805577,R,02,020,000203,3014,-149.53513999999998,61.3005
5609,8973 EAGLE PLACE LOOP,Anchorage,AK,99577,"8973 EAGLE PLACE LOOP, Anchorage, AK, 99577",No_Match,,,,,,,,,,
5610,20207 GLACIER PARK CIR,Anchorage,AK,99577,"20207 GLACIER PARK CIR, Anchorage, AK, 99577",Match,Non_Exact,"20207 GLACIER PARK CIR, EAGLE RIVER, AK, 99577",605336517,L,02,020,000203,3002,-149.50555,61.300575
5611,8914 BIRCH PARK CIR,Anchorage,AK,99577,"8914 BIRCH PARK CIR, Anchorage, AK, 99577",Match,Non_Exact,"8914 BIRCH PARK CIR, EAGLE RIVER, AK, 99577",190827414,L,02,020,000203,3022,-149.51195,61.300681999999995
5612,19201 DRIFTWOOD BAY DR,Anchorage,AK,99577,"19201 DRIFTWOOD BAY DR, Anchorage, AK, 99577",Match,Non_Exact,"19201 DRIFTWOOD BAY DR, EAGLE RIVER, AK, 99577",190819683,L,02,020,000203,3015,-149.52202,61.300456999999994
5613,20215 GLACIER PARK CIR,Anchorage,AK,99577,"20215 GLACIER PARK CIR, Anchorage, AK, 99577",Match,Non_Exact,"20215 GLACIER PARK CIR, EAGLE RIVER, AK, 99577",605336517,L,02,020,000203,3002,-149.5055,61.300537
5614,8923 MEADOW PARK CIR,Anchorage,AK,99577,"8923 MEADOW PARK CIR, Anchorage, AK, 99577",Match,Non_Exact,"8923 MEADOW PARK CIR, EAGLE RIVER, AK, 99577",605288530,R,02,020,000203,3022,-149.51031,61.30069
5615,19407 HIGHLAND RIDGE DR,Anchorage,AK,99577,"19407 HIGHLAND RIDGE DR, Anchorage, AK, 99577",Match,Non_Exact,"19407 HIGHLAND RIDGE DR, EAGLE RIVER, AK, 99577",190819652,L,02,020,000203,3015,-149.51923,61.301131999999996
5616,8907 EAGLE PLACE LOOP,Anchorage,AK,99577,"8907 EAGLE PLACE LOOP, Anchorage, AK, 99577",No_Match,,,,,,,,,,
5617,8839 DOME CIR,Anchorage,AK,99577,"8839 DOME CIR, Anchorage, AK, 99577",Match,Non_Exact,"8839 DOME CIR, EAGLE RIVER, AK, 99577",190805577,R,02,020,000203,3014,-149.53511,61.30047
5618,8902 EAGLE PLACE LOOP,Anchorage,AK,99577,"8902 EAGLE PLACE LOOP, Anchorage, AK, 99577",No_Match,,,,,,,,,,
5619,8920 MEADOW PARK CIR,Anchorage,AK,99577,"8920 MEADOW PARK CIR, Anchorage, AK, 99577",Match,Non_Exact,"8920 MEADOW PARK CIR, EAGLE RIVER, AK, 99577",605288530,L,02,020,000203,3022,-149.51035,61.300728
5620,8911 BIRCH PARK CIR,Anchorage,AK,99577,"8911 BIRCH PARK CIR, Anchorage, AK, 99577",Match,Non_Exact,"8911 BIRCH PARK CIR, EAGLE RIVER, AK, 99577",190827414,R,02,020,000203,3022,-149.51192,61.30064399999999
5621,8900 NORTHWOOD PARK CIR,Anchorage,AK,99577,"8900 NORTHWOOD PARK CIR, Anchorage, AK, 99577",Match,Non_Exact,"8900 NORTHWOOD PARK CIR, EAGLE RIVER, AK, 99577",190819645,L,02,020,000203,3022,-149.5176,61.30076999999999
5622,20460 GRANITE PARK CIR,Anchorage,AK,99577,"20460 GRANITE PARK CIR, Anchorage, AK, 99577",Match,Non_Exact,"20460 GRANITE PARK CIR, EAGLE RIVER, AK, 99577",605336471,R,02,020,000203,3002,-149.5012,61.300647999999995
5623,8900 EAGLE PLACE LOOP,Anchorage,AK,99577,"8900 EAGLE PLACE LOOP, Anchorage, AK, 99577",No_Match,,,,,,,,,,
5624,19011 MOUNTAIN POINT CIR,Anchorage,AK,99577,"19011 MOUNTAIN POINT CIR, Anchorage, AK, 99577",Match,Non_Exact,"19011 MOUNTAIN POINT CIR, EAGLE RIVER, AK, 99577",190820017,L,02,020,000203,3011,-149.52903999999998,61.298836
5625,8623 ACADIA DR,Anchorage,AK,99577,"8623 ACADIA DR, Anchorage, AK, 99577",Match,Non_Exact,"8623 ACADIA DR, EAGLE RIVER, AK, 99577",605336267,R,02,020,000204,2038,-149.56796,61.29878000000001
5626,18848 MILLS BAY DR,Anchorage,AK,99577,"18848 MILLS BAY DR, Anchorage, AK, 99577",Match,Non_Exact,"18848 MILLS BAY DR, EAGLE RIVER, AK, 99577",190792844,R,02,020,000203,3011,-149.5316,61.298874
5627,18854 MILLS BAY DR,Anchorage,AK,99577,"18854 MILLS BAY DR, Anchorage, AK, 99577",Match,Non_Exact,"18854 MILLS BAY DR, EAGLE RIVER, AK, 99577",190792844,R,02,020,000203,3011,-149.53152,61.298862
5628,18757 MAY COURT CIR,Anchorage,AK,99577,"18757 MAY COURT CIR, Anchorage, AK, 99577",No_Match,,,,,,,,,,
5629,18753 MAY COURT CIR,Anchorage,AK,99577,"18753 MAY COURT CIR, Anchorage, AK, 99577",No_Match,,,,,,,,,,
5630,19041 MOUNTAIN POINT CIR,Anchorage,AK,99577,"19041 MOUNTAIN POINT CIR, Anchorage, AK, 99577",Match,Non_Exact,"19041 MOUNTAIN POINT CIR, EAGLE RIVER, AK, 99577",190820017,L,02,020,000203,3011,-149.52882,61.298653
5631,19027 MOUNTAIN POINT CIR,Anchorage,AK,99577,"19027 MOUNTAIN POINT CIR, Anchorage, AK, 99577",Match,Non_Exact,"19027 MOUNTAIN POINT CIR, EAGLE RIVER, AK, 99577",190820017,L,02,020,000203,3011,-149.52893,61.29874
5632,19049 MOUNTAIN POINT CIR,Anchorage,AK,99577,"19049 MOUNTAIN POINT CIR, Anchorage, AK, 99577",Match,Non_Exact,"19049 MOUNTAIN POINT CIR, EAGLE RIVER, AK, 99577",190820017,L,02,020,000203,3011,-149.52878,61.298607
5633,8615 ACADIA DR,Anchorage,AK,99577,"8615 ACADIA DR, Anchorage, AK, 99577",Match,Non_Exact,"8615 ACADIA DR, EAGLE RIVER, AK, 99577",605336233,R,02,020,000204,2038,-149.56775,61.29855
5634,12003 TOWN PARK CIR,Anchorage,AK,99577,"12003 TOWN PARK CIR, Anchorage, AK, 99577",Match,Non_Exact,"12003 TOWN PARK CIR, EAGLE RIVER, AK, 99577",190819998,L,02,020,000201,2001,-149.57747,61.32903
5635,12001 BUSINESS BLVD,Anchorage,AK,99577,"12001 BUSINESS BLVD, Anchorage, AK, 99577",Match,Non_Exact,"12001 BUSINESS BLVD, EAGLE RIVER, AK, 99577",190807802,L,02,020,000201,2021,-149.57188,61.3293
5636,12001 BUSINESS BLVD,Anchorage,AK,99577,"12001 BUSINESS BLVD, Anchorage, AK, 99577",Match,Non_Exact,"12001 BUSINESS BLVD, EAGLE RIVER, AK, 99577",190807802,L,02,020,000201,2021,-149.57188,61.3293
5637,12001 BUSINESS BLVD,Anchorage,AK,99577,"12001 BUSINESS BLVD, Anchorage, AK, 99577",Match,Non_Exact,"12001 BUSINESS BLVD, EAGLE RIVER, AK, 99577",190807802,L,02,020,000201,2021,-149.57188,61.3293
5638,11953 TOWN PARK CIR,Anchorage,AK,99577,"11953 TOWN PARK CIR, Anchorage, AK, 99577",Match,Non_Exact,"11953 TOWN PARK CIR, EAGLE RIVER, AK, 99577",190819998,L,02,020,000201,2001,-149.57748,61.32870500000001
5639,11435 MAUSEL ST,Anchorage,AK,99577,"11435 MAUSEL ST, Anchorage, AK, 99577",Match,Non_Exact,"11435 MAUSEL ST, EAGLE RIVER, AK, 99577",190825992,R,02,020,000201,2013,-149.58194,61.32345600000001
5640,11425 MAUSEL ST,Anchorage,AK,99577,"11425 MAUSEL ST, Anchorage, AK, 99577",Match,Non_Exact,"11425 MAUSEL ST, EAGLE RIVER, AK, 99577",190825992,R,02,020,000201,2013,-149.58178999999998,61.32345600000001
5641,11415 MAUSEL ST,Anchorage,AK,99577,"11415 MAUSEL ST, Anchorage, AK, 99577",Match,Non_Exact,"11415 MAUSEL ST, EAGLE RIVER, AK, 99577",190825992,R,02,020,000201,2013,-149.58163000000002,61.32345600000001
5642,11443 MAUSEL ST,Anchorage,AK,99577,"11443 MAUSEL ST, Anchorage, AK, 99577",Match,Non_Exact,"11443 MAUSEL ST, EAGLE RIVER, AK, 99577",190815439,R,02,020,000201,2013,-149.5825,61.32345600000001
5643,11461 MAUSEL ST,Anchorage,AK,99577,"11461 MAUSEL ST, Anchorage, AK, 99577",Match,Non_Exact,"11461 MAUSEL ST, EAGLE RIVER, AK, 99577",190815439,R,02,020,000201,2013,-149.5829,61.32345600000001
5644,11451 MAUSEL ST,Anchorage,AK,99577,"11451 MAUSEL ST, Anchorage, AK, 99577",Match,Non_Exact,"11451 MAUSEL ST, EAGLE RIVER, AK, 99577",190815439,R,02,020,000201,2013,-149.58268999999999,61.32345600000001
5645,11469 MAUSEL ST,Anchorage,AK,99577,"11469 MAUSEL ST, Anchorage, AK, 99577",Match,Non_Exact,"11469 MAUSEL ST, EAGLE RIVER, AK, 99577",190815439,R,02,020,000201,2013,-149.58308,61.32345600000001
5646,11401 MAUSEL ST,Anchorage,AK,99577,"11401 MAUSEL ST, Anchorage, AK, 99577",Match,Non_Exact,"11401 MAUSEL ST, EAGLE RIVER, AK, 99577",190825992,R,02,020,000201,2013,-149.5814,61.323443999999995
5647,11407 MAUSEL ST,Anchorage,AK,99577,"11407 MAUSEL ST, Anchorage, AK, 99577",Match,Non_Exact,"11407 MAUSEL ST, EAGLE RIVER, AK, 99577",190825992,R,02,020,000201,2013,-149.5815,61.323452
5648,11407 HERITAGE CT,Anchorage,AK,99577,"11407 HERITAGE CT, Anchorage, AK, 99577",Match,Non_Exact,"11407 HERITAGE CT, EAGLE RIVER, AK, 99577",190814054,L,02,020,000201,2002,-149.57751000000002,61.323440000000005
5649,11407 HERITAGE CT,Anchorage,AK,99577,"11407 HERITAGE CT, Anchorage, AK, 99577",Match,Non_Exact,"11407 HERITAGE CT, EAGLE RIVER, AK, 99577",190814054,L,02,020,000201,2002,-149.57751000000002,61.323440000000005
5650,11407 HERITAGE CT,Anchorage,AK,99577,"11407 HERITAGE CT, Anchorage, AK, 99577",Match,Non_Exact,"11407 HERITAGE CT, EAGLE RIVER, AK, 99577",190814054,L,02,020,000201,2002,-149.57751000000002,61.323440000000005
5651,11407 HERITAGE CT,Anchorage,AK,99577,"11407 HERITAGE CT, Anchorage, AK, 99577",Match,Non_Exact,"11407 HERITAGE CT, EAGLE RIVER, AK, 99577",190814054,L,02,020,000201,2002,-149.57751000000002,61.323440000000005
5652,11407 HERITAGE CT,Anchorage,AK,99577,"11407 HERITAGE CT, Anchorage, AK, 99577",Match,Non_Exact,"11407 HERITAGE CT, EAGLE RIVER, AK, 99577",190814054,L,02,020,000201,2002,-149.57751000000002,61.323440000000005
5653,11407 HERITAGE CT,Anchorage,AK,99577,"11407 HERITAGE CT, Anchorage, AK, 99577",Match,Non_Exact,"11407 HERITAGE CT, EAGLE RIVER, AK, 99577",190814054,L,02,020,000201,2002,-149.57751000000002,61.323440000000005
5654,11401 OLD GLENN HWY,Anchorage,AK,99577,"11401 OLD GLENN HWY, Anchorage, AK, 99577",Match,Non_Exact,"11401 OLD GLENN HWY, EAGLE RIVER, AK, 99577",190792415,L,02,020,000202,1018,-149.57054,61.323368
5655,11401 OLD GLENN HWY,Anchorage,AK,99577,"11401 OLD GLENN HWY, Anchorage, AK, 99577",Match,Non_Exact,"11401 OLD GLENN HWY, EAGLE RIVER, AK, 99577",190792415,L,02,020,000202,1018,-149.57054,61.323368
5656,11401 OLD GLENN HWY,Anchorage,AK,99577,"11401 OLD GLENN HWY, Anchorage, AK, 99577",Match,Non_Exact,"11401 OLD GLENN HWY, EAGLE RIVER, AK, 99577",190792415,L,02,020,000202,1018,-149.57054,61.323368
5657,11401 OLD GLENN HWY,Anchorage,AK,99577,"11401 OLD GLENN HWY, Anchorage, AK, 99577",Match,Non_Exact,"11401 OLD GLENN HWY, EAGLE RIVER, AK, 99577",190792415,L,02,020,000202,1018,-149.57054,61.323368
5658,11401 OLD GLENN HWY,Anchorage,AK,99577,"11401 OLD GLENN HWY, Anchorage, AK, 99577",Match,Non_Exact,"11401 OLD GLENN HWY, EAGLE RIVER, AK, 99577",190792415,L,02,020,000202,1018,-149.57054,61.323368
5659,11401 OLD GLENN HWY,Anchorage,AK,99577,"11401 OLD GLENN HWY, Anchorage, AK, 99577",Match,Non_Exact,"11401 OLD GLENN HWY, EAGLE RIVER, AK, 99577",190792415,L,02,020,000202,1018,-149.57054,61.323368
5660,24924 CATES AVE,Anchorage,AK,99577,"24924 CATES AVE, Anchorage, AK, 99577",Match,Non_Exact,"24924 CATES AVE, EAGLE RIVER, AK, 99577",635209434,R,02,020,000204,1005,-149.41666,61.296227
5661,25330 CATES AVE,Anchorage,AK,99577,"25330 CATES AVE, Anchorage, AK, 99577",Match,Non_Exact,"25330 CATES AVE, EAGLE RIVER, AK, 99577",605288661,R,02,020,000204,1005,-149.41035,61.295981999999995
5662,25025 EAGLE RIVER RD,Anchorage,AK,99577,"25025 EAGLE RIVER RD, Anchorage, AK, 99577",Match,Non_Exact,"25025 EAGLE RIVER RD, EAGLE RIVER, AK, 99577",190814973,R,02,020,000204,1005,-149.41458,61.29472
5663,8200 MARY ESTHER DR,Anchorage,AK,99577,"8200 MARY ESTHER DR, Anchorage, AK, 99577",Match,Non_Exact,"8200 MARY ESTHER DR, EAGLE RIVER, AK, 99577",190811205,L,02,020,000204,1005,-149.40642,61.294146999999995
5664,25245 CRYSTAL CREEK DR,Anchorage,AK,99577,"25245 CRYSTAL CREEK DR, Anchorage, AK, 99577",Match,Non_Exact,"25245 CRYSTAL CREEK DR, EAGLE RIVER, AK, 99577",190810547,L,02,020,000204,1005,-149.41103,61.294064
5665,24821 HAMANN RD,Anchorage,AK,99577,"24821 HAMANN RD, Anchorage, AK, 99577",Match,Non_Exact,"24821 HAMANN RD, EAGLE RIVER, AK, 99577",626838848,L,02,020,000204,1009,-149.41933,61.29425
5666,24830 HAMANN RD,Anchorage,AK,99577,"24830 HAMANN RD, Anchorage, AK, 99577",Match,Non_Exact,"24830 HAMANN RD, EAGLE RIVER, AK, 99577",626838848,R,02,020,000204,1009,-149.4192,61.294216000000006
5667,24745 O'RIEDNER RD,Anchorage,AK,99577,"24745 O'RIEDNER RD, Anchorage, AK, 99577",Match,Non_Exact,"24745 ORIEDNER RD, EAGLE RIVER, AK, 99577",190825509,L,02,020,000204,1007,-149.43112,61.301613
5668,22601 COLUMBIA GLACIER LOOP,Anchorage,AK,99577,"22601 COLUMBIA GLACIER LOOP, Anchorage, AK, 99577",Match,Non_Exact,"22601 COLUMBIA GLACIER LOOP, EAGLE RIVER, AK, 99577",190808404,L,02,020,000203,3001,-149.4619,61.30248
5669,22915 EAGLE GLACIER LOOP,Anchorage,AK,99577,"22915 EAGLE GLACIER LOOP, Anchorage, AK, 99577",Match,Non_Exact,"22915 EAGLE GLACIER LOOP, EAGLE RIVER, AK, 99577",190808403,R,02,020,000203,3003,-149.4558,61.30215
5670,23336 LOWER TERRACE ST,Anchorage,AK,99577,"23336 LOWER TERRACE ST, Anchorage, AK, 99577",Match,Non_Exact,"23336 LOWER TERRACE ST, EAGLE RIVER, AK, 99577",190793552,L,02,020,000204,1007,-149.44615,61.301952
5671,23431 LOWER TERRACE ST,Anchorage,AK,99577,"23431 LOWER TERRACE ST, Anchorage, AK, 99577",Match,Non_Exact,"23431 LOWER TERRACE ST, EAGLE RIVER, AK, 99577",190793552,R,02,020,000204,1007,-149.44458,61.301605
5672,9011 WALLACE ST,Anchorage,AK,99577,"9011 WALLACE ST, Anchorage, AK, 99577",Match,Non_Exact,"9011 WALLACE ST, EAGLE RIVER, AK, 99577",190793542,R,02,020,000204,1007,-149.44961999999998,61.301777
5673,23412 LOWER TERRACE ST,Anchorage,AK,99577,"23412 LOWER TERRACE ST, Anchorage, AK, 99577",Match,Non_Exact,"23412 LOWER TERRACE ST, EAGLE RIVER, AK, 99577",190793552,L,02,020,000204,1007,-149.4449,61.301662
5674,23111 EAGLE RIVER RD,Anchorage,AK,99577,"23111 EAGLE RIVER RD, Anchorage, AK, 99577",Match,Non_Exact,"23111 EAGLE RIVER RD, EAGLE RIVER, AK, 99577",190826142,L,02,020,000204,1007,-149.452,61.3019
5675,22635 COLUMBIA GLACIER LOOP,Anchorage,AK,99577,"22635 COLUMBIA GLACIER LOOP, Anchorage, AK, 99577",Match,Non_Exact,"22635 COLUMBIA GLACIER LOOP, EAGLE RIVER, AK, 99577",190808404,L,02,020,000203,3001,-149.4614,61.302246
5676,22939 EAGLE GLACIER LOOP,Anchorage,AK,99577,"22939 EAGLE GLACIER LOOP, Anchorage, AK, 99577",Match,Non_Exact,"22939 EAGLE GLACIER LOOP, EAGLE RIVER, AK, 99577",190808403,R,02,020,000203,3003,-149.45543,61.302032
5677,24707 O'RIEDNER RD,Anchorage,AK,99577,"24707 O'RIEDNER RD, Anchorage, AK, 99577",Match,Non_Exact,"24707 ORIEDNER RD, EAGLE RIVER, AK, 99577",190825509,L,02,020,000204,1007,-149.43053,61.301437
5678,23434 LOWER TERRACE ST,Anchorage,AK,99577,"23434 LOWER TERRACE ST, Anchorage, AK, 99577",Match,Non_Exact,"23434 LOWER TERRACE ST, EAGLE RIVER, AK, 99577",190793552,L,02,020,000204,1007,-149.44453000000001,61.30158
5679,23123 EAGLE RIVER RD,Anchorage,AK,99577,"23123 EAGLE RIVER RD, Anchorage, AK, 99577",Match,Non_Exact,"23123 EAGLE RIVER RD, EAGLE RIVER, AK, 99577",190826142,L,02,020,000204,1007,-149.4518,61.301846
5680,20862 MOUNTAINSIDE DR,Anchorage,AK,99577,"20862 MOUNTAINSIDE DR, Anchorage, AK, 99577",Match,Non_Exact,"20862 MOUNTAINSIDE DR, EAGLE RIVER, AK, 99577",625731930,R,02,020,000203,3000,-149.49376999999998,61.301743
5681,17728 KILOANA CIR,Anchorage,AK,99577,"17728 KILOANA CIR, Anchorage, AK, 99577",Match,Non_Exact,"17728 KILOANA CIR, EAGLE RIVER, AK, 99577",190805533,R,02,020,000203,5000,-149.55226000000002,61.30871
5682,9732 NILTINA LN,Anchorage,AK,99577,"9732 NILTINA LN, Anchorage, AK, 99577",Match,Non_Exact,"9732 NILTINA LN, EAGLE RIVER, AK, 99577",190805527,L,02,020,000203,5002,-149.55643,61.308575
5683,17716 KILOANA CIR,Anchorage,AK,99577,"17716 KILOANA CIR, Anchorage, AK, 99577",Match,Non_Exact,"17716 KILOANA CIR, EAGLE RIVER, AK, 99577",190805533,R,02,020,000203,5000,-149.55244,61.30871
5684,17708 KILOANA CIR,Anchorage,AK,99577,"17708 KILOANA CIR, Anchorage, AK, 99577",Match,Non_Exact,"17708 KILOANA CIR, EAGLE RIVER, AK, 99577",190805533,R,02,020,000203,5000,-149.55257,61.30871
5685,17542 KILOANA CT,Anchorage,AK,99577,"17542 KILOANA CT, Anchorage, AK, 99577",Match,Non_Exact,"17542 KILOANA CT, EAGLE RIVER, AK, 99577",643782038,R,02,020,000203,5005,-149.55426,61.308704000000006
5686,17608 KILOANA CT,Anchorage,AK,99577,"17608 KILOANA CT, Anchorage, AK, 99577",Match,Non_Exact,"17608 KILOANA CT, EAGLE RIVER, AK, 99577",643782038,R,02,020,000203,5005,-149.55371,61.30871
5687,17740 KILOANA CIR,Anchorage,AK,99577,"17740 KILOANA CIR, Anchorage, AK, 99577",Match,Non_Exact,"17740 KILOANA CIR, EAGLE RIVER, AK, 99577",190805533,R,02,020,000203,5000,-149.5521,61.30871
5688,17414 TOAKOANA DR,Anchorage,AK,99577,"17414 TOAKOANA DR, Anchorage, AK, 99577",Match,Non_Exact,"17414 TOAKOANA DR, EAGLE RIVER, AK, 99577",190805523,R,02,020,000203,5000,-149.55716,61.308655
5689,17748 KILOANA CIR,Anchorage,AK,99577,"17748 KILOANA CIR, Anchorage, AK, 99577",Match,Non_Exact,"17748 KILOANA CIR, EAGLE RIVER, AK, 99577",190805533,R,02,020,000203,5000,-149.55196999999998,61.30871
5690,9728 SAINT LAWRENCE CIR,Anchorage,AK,99577,"9728 SAINT LAWRENCE CIR, Anchorage, AK, 99577",Match,Non_Exact,"9728 ST LAWRENCE CIR, EAGLE RIVER, AK, 99577",190805666,L,02,020,000203,4005,-149.52903999999998,61.30831
5691,9727 NILTINA LN,Anchorage,AK,99577,"9727 NILTINA LN, Anchorage, AK, 99577",Match,Non_Exact,"9727 NILTINA LN, EAGLE RIVER, AK, 99577",190805527,R,02,020,000203,5005,-149.55649,61.308547999999995
5692,9726 E CHICHAGOF LOOP,Anchorage,AK,99577,"9726 E CHICHAGOF LOOP, Anchorage, AK, 99577",Match,Non_Exact,"9726 E CHICHAGOF LOOP, EAGLE RIVER, AK, 99577",190805668,L,02,020,000203,4005,-149.52747,61.30830400000001
5693,20640 RAVEN DR,Anchorage,AK,99577,"20640 RAVEN DR, Anchorage, AK, 99577",Match,Non_Exact,"20640 RAVEN DR, EAGLE RIVER, AK, 99577",190815426,R,02,020,000203,3005,-149.49681,61.308372
5694,18137 MISTY FALLS CIR,Anchorage,AK,99577,"18137 MISTY FALLS CIR, Anchorage, AK, 99577",Match,Non_Exact,"18137 MISTY FALLS CIR, EAGLE RIVER, AK, 99577",190805549,L,02,020,000203,5006,-149.54425,61.305923
5695,18113 MISTY FALLS CIR,Anchorage,AK,99577,"18113 MISTY FALLS CIR, Anchorage, AK, 99577",Match,Non_Exact,"18113 MISTY FALLS CIR, EAGLE RIVER, AK, 99577",190805549,L,02,020,000203,5006,-149.54445,61.305930000000004
5696,18307 N PARKVIEW TERRACE LOOP,Anchorage,AK,99577,"18307 N PARKVIEW TERRACE LOOP, Anchorage, AK, 99577",Match,Non_Exact,"18307 N PARKVIEW TER LP, EAGLE RIVER, AK, 99577",190820860,L,02,020,000203,5000,-149.54118,61.305992
5697,18807 SARICHEF LOOP,Anchorage,AK,99577,"18807 SARICHEF LOOP, Anchorage, AK, 99577",Match,Non_Exact,"18807 SARICHEF LOOP, EAGLE RIVER, AK, 99577",605287919,L,02,020,000203,4006,-149.53208999999998,61.30579
5698,20633 MELODY LN,Anchorage,AK,99577,"20633 MELODY LN, Anchorage, AK, 99577",Match,Non_Exact,"20633 MELODY LN, EAGLE RIVER, AK, 99577",190826913,R,02,020,000203,3007,-149.49677,61.30973
5699,17607 LAOANA CIR,Anchorage,AK,99577,"17607 LAOANA CIR, Anchorage, AK, 99577",Match,Non_Exact,"17607 LAOANA CIR, EAGLE RIVER, AK, 99577",190805526,L,02,020,000203,5007,-149.55434,61.30985
5700,20620 PTARMIGAN BLVD,Anchorage,AK,99577,"20620 PTARMIGAN BLVD, Anchorage, AK, 99577",Match,Non_Exact,"20620 PTARMIGAN BLVD, EAGLE RIVER, AK, 99577",605288338,R,02,020,000203,3000,-149.49684,61.307109999999994
5701,17524 TOAKOANA DR,Anchorage,AK,99577,"17524 TOAKOANA DR, Anchorage, AK, 99577",Match,Non_Exact,"17524 TOAKOANA DR, EAGLE RIVER, AK, 99577",190824162,R,02,020,000203,5000,-149.55505,61.307193999999996
5702,9539 DINAAKA DR,Anchorage,AK,99577,"9539 DINAAKA DR, Anchorage, AK, 99577",Match,Non_Exact,"9539 DINAAKA DR, EAGLE RIVER, AK, 99577",190805534,R,02,020,000203,5000,-149.55313,61.30689
5703,17543 TOAKOANA DR,Anchorage,AK,99577,"17543 TOAKOANA DR, Anchorage, AK, 99577",Match,Non_Exact,"17543 TOAKOANA DR, EAGLE RIVER, AK, 99577",190824162,L,02,020,000203,5005,-149.55495,61.307159999999996
5704,9540 KIGUL CIR,Anchorage,AK,99577,"9540 KIGUL CIR, Anchorage, AK, 99577",Match,Non_Exact,"9540 KIGUL CIR, EAGLE RIVER, AK, 99577",190805652,R,02,020,000203,4006,-149.5313,61.30695
5705,9542 DINAAKA DR,Anchorage,AK,99577,"9542 DINAAKA DR, Anchorage, AK, 99577",Match,Non_Exact,"9542 DINAAKA DR, EAGLE RIVER, AK, 99577",190805534,L,02,020,000203,5005,-149.55309,61.306940000000004
5706,18724 N LOWRIE LOOP,Anchorage,AK,99577,"18724 N LOWRIE LOOP, Anchorage, AK, 99577",Match,Non_Exact,"18724 N LOWRIE LOOP, EAGLE RIVER, AK, 99577",190826070,L,02,020,000203,4008,-149.5333,61.307083
5707,17532 TOAKOANA DR,Anchorage,AK,99577,"17532 TOAKOANA DR, Anchorage, AK, 99577",Match,Non_Exact,"17532 TOAKOANA DR, EAGLE RIVER, AK, 99577",190824162,R,02,020,000203,5000,-149.55493,61.30713000000001
5708,9536 NOAK CIR,Anchorage,AK,99577,"9536 NOAK CIR, Anchorage, AK, 99577",Match,Non_Exact,"9536 NOAK CIR, EAGLE RIVER, AK, 99577",190808439,L,02,020,000203,5000,-149.55125,61.30651999999999
5709,18315 GAVIN CIR,Anchorage,AK,99577,"18315 GAVIN CIR, Anchorage, AK, 99577",Match,Non_Exact,"18315 GAVIN CIR, EAGLE RIVER, AK, 99577",190805542,L,02,020,000203,5000,-149.54099,61.30676999999999
5710,18305 GAVIN CIR,Anchorage,AK,99577,"18305 GAVIN CIR, Anchorage, AK, 99577",Match,Non_Exact,"18305 GAVIN CIR, EAGLE RIVER, AK, 99577",190805542,L,02,020,000203,5000,-149.54108,61.30676999999999
5711,18323 GAVIN CIR,Anchorage,AK,99577,"18323 GAVIN CIR, Anchorage, AK, 99577",Match,Non_Exact,"18323 GAVIN CIR, EAGLE RIVER, AK, 99577",190805542,L,02,020,000203,5000,-149.54091,61.30676999999999
5712,18145 N PARKVIEW TERRACE LOOP,Anchorage,AK,99577,"18145 N PARKVIEW TERRACE LOOP, Anchorage, AK, 99577",Match,Non_Exact,"18145 N PARKVIEW TER LP, EAGLE RIVER, AK, 99577",190808441,L,02,020,000203,5000,-149.54346999999999,61.306740000000005
5713,18243 GAVIN CIR,Anchorage,AK,99577,"18243 GAVIN CIR, Anchorage, AK, 99577",Match,Non_Exact,"18243 GAVIN CIR, EAGLE RIVER, AK, 99577",190805542,L,02,020,000203,5000,-149.54166999999998,61.30676999999999
5714,18235 GAVIN CIR,Anchorage,AK,99577,"18235 GAVIN CIR, Anchorage, AK, 99577",Match,Non_Exact,"18235 GAVIN CIR, EAGLE RIVER, AK, 99577",190805542,L,02,020,000203,5000,-149.54175,61.306767
5715,9319 W KANAGA LOOP,Anchorage,AK,99577,"9319 W KANAGA LOOP, Anchorage, AK, 99577",No_Match,,,,,,,,,,
5716,9311 W KANAGA LOOP,Anchorage,AK,99577,"9311 W KANAGA LOOP, Anchorage, AK, 99577",No_Match,,,,,,,,,,
5717,7044 KULCHAY CIR,Anchorage,AK,99577,"7044 KULCHAY CIR, Anchorage, AK, 99577",Match,Non_Exact,"7044 KULCHAY CIR, EAGLE RIVER, AK, 99577",614873883,L,02,020,000204,1009,-149.39966,61.283843999999995
5718,7031 KULCHAY CIR,Anchorage,AK,99577,"7031 KULCHAY CIR, Anchorage, AK, 99577",Match,Non_Exact,"7031 KULCHAY CIR, EAGLE RIVER, AK, 99577",614873883,R,02,020,000204,1009,-149.39928999999998,61.283764
5719,7022 KULCHAY CIR,Anchorage,AK,99577,"7022 KULCHAY CIR, Anchorage, AK, 99577",Match,Non_Exact,"7022 KULCHAY CIR, EAGLE RIVER, AK, 99577",614873883,L,02,020,000204,1009,-149.3992,61.283737
5720,7001 KULCHAY CIR,Anchorage,AK,99577,"7001 KULCHAY CIR, Anchorage, AK, 99577",Match,Non_Exact,"7001 KULCHAY CIR, EAGLE RIVER, AK, 99577",614873882,R,02,020,000204,1009,-149.39831999999998,61.2835
5721,27141 ROOP RD,Anchorage,AK,99577,"27141 ROOP RD, Anchorage, AK, 99577",Match,Non_Exact,"27141 ROOP RD, EAGLE RIVER, AK, 99577",631906029,L,02,020,000204,1005,-149.37752,61.277863
5722,6475 MAGNAVIEW DR,Anchorage,AK,99577,"6475 MAGNAVIEW DR, Anchorage, AK, 99577",Match,Non_Exact,"6475 MAGNAVIEW DR, EAGLE RIVER, AK, 99577",190818950,R,02,020,000204,1005,-149.37263000000002,61.27791
5723,27205 ROOP RD,Anchorage,AK,99577,"27205 ROOP RD, Anchorage, AK, 99577",Match,Non_Exact,"27205 ROOP RD, EAGLE RIVER, AK, 99577",631906029,L,02,020,000204,1005,-149.37653,61.278023
5724,6331 MAGNAVIEW DR,Anchorage,AK,99577,"6331 MAGNAVIEW DR, Anchorage, AK, 99577",Match,Non_Exact,"6331 MAGNAVIEW DR, EAGLE RIVER, AK, 99577",190818950,R,02,020,000204,1005,-149.37166000000002,61.277225
5725,6320 MAGNAVIEW DR,Anchorage,AK,99577,"6320 MAGNAVIEW DR, Anchorage, AK, 99577",Match,Non_Exact,"6320 MAGNAVIEW DR, EAGLE RIVER, AK, 99577",190818950,L,02,020,000204,1005,-149.3716,61.277172
5726,6311 MAGNAVIEW DR,Anchorage,AK,99577,"6311 MAGNAVIEW DR, Anchorage, AK, 99577",Match,Non_Exact,"6311 MAGNAVIEW DR, EAGLE RIVER, AK, 99577",190818950,R,02,020,000204,1005,-149.37152,61.277134
5727,27409 PARAMOUNT DR,Anchorage,AK,99577,"27409 PARAMOUNT DR, Anchorage, AK, 99577",Match,Non_Exact,"27409 PARAMOUNT DR, EAGLE RIVER, AK, 99577",614873801,L,02,020,000204,1005,-149.37062,61.27685
5728,27427 PARAMOUNT DR,Anchorage,AK,99577,"27427 PARAMOUNT DR, Anchorage, AK, 99577",Match,Non_Exact,"27427 PARAMOUNT DR, EAGLE RIVER, AK, 99577",614873801,L,02,020,000204,1005,-149.37086000000002,61.27697
5729,6270 MAGNAVIEW DR,Anchorage,AK,99577,"6270 MAGNAVIEW DR, Anchorage, AK, 99577",Match,Non_Exact,"6270 MAGNAVIEW DR, EAGLE RIVER, AK, 99577",190818950,L,02,020,000204,1005,-149.37125,61.276943
5730,27509 PARAMOUNT DR,Anchorage,AK,99577,"27509 PARAMOUNT DR, Anchorage, AK, 99577",Match,Non_Exact,"27509 PARAMOUNT DR, EAGLE RIVER, AK, 99577",614873801,L,02,020,000204,1005,-149.36983,61.277103000000004
5731,16801 CARMEL CIR,Anchorage,AK,99577,"16801 CARMEL CIR, Anchorage, AK, 99577",Match,Non_Exact,"16801 CARMEL CIR, EAGLE RIVER, AK, 99577",605336282,L,02,020,000204,2036,-149.56833999999998,61.298473
5732,19054 MOUNTAIN POINT CIR,Anchorage,AK,99577,"19054 MOUNTAIN POINT CIR, Anchorage, AK, 99577",Match,Non_Exact,"19054 MOUNTAIN POINT CIR, EAGLE RIVER, AK, 99577",190820017,R,02,020,000203,3011,-149.52873,61.298565
5733,19048 MOUNTAIN POINT CIR,Anchorage,AK,99577,"19048 MOUNTAIN POINT CIR, Anchorage, AK, 99577",Match,Non_Exact,"19048 MOUNTAIN POINT CIR, EAGLE RIVER, AK, 99577",190820017,R,02,020,000203,3011,-149.5288,61.2986
5734,32750 EAGLE RIVER RD,Anchorage,AK,99577,"32750 EAGLE RIVER RD, Anchorage, AK, 99577",Tie,,,,,,,,,,
5735,1982 WEST RIVER DR,Anchorage,AK,99577,"1982 WEST RIVER DR, Anchorage, AK, 99577",Match,Non_Exact,"1982 W RIVER DR, EAGLE RIVER, AK, 99577",605288185,L,02,020,000204,2013,-149.46284,61.240055000000005
5736,1945 WEST RIVER DR,Anchorage,AK,99577,"1945 WEST RIVER DR, Anchorage, AK, 99577",Match,Non_Exact,"1945 W RIVER DR, EAGLE RIVER, AK, 99577",605288185,R,02,020,000204,2013,-149.46283,61.240063
5737,1935 HILAND RD,Anchorage,AK,99577,"1935 HILAND RD, Anchorage, AK, 99577",Match,Non_Exact,"1935 HILAND RD, EAGLE RIVER, AK, 99577",190827429,R,02,020,000204,2004,-149.45116000000002,61.238087
5738,1911 SOUTH RIVER DR,Anchorage,AK,99577,"1911 SOUTH RIVER DR, Anchorage, AK, 99577",Match,Non_Exact,"1911 S RIVER DR, EAGLE RIVER, AK, 99577",190815072,L,02,020,000204,2043,-149.45355,61.237854000000006
5739,1900 WEST RIVER DR,Anchorage,AK,99577,"1900 WEST RIVER DR, Anchorage, AK, 99577",Match,Non_Exact,"1900 W RIVER DR, EAGLE RIVER, AK, 99577",605288185,L,02,020,000204,2013,-149.46231,61.238640000000004
5740,1792 WEST RIVER DR,Anchorage,AK,99577,"1792 WEST RIVER DR, Anchorage, AK, 99577",Match,Non_Exact,"1792 W RIVER DR, EAGLE RIVER, AK, 99577",605288185,L,02,020,000204,2013,-149.45956,61.237267
5741,1736 WEST RIVER DR,Anchorage,AK,99577,"1736 WEST RIVER DR, Anchorage, AK, 99577",Match,Non_Exact,"1736 W RIVER DR, EAGLE RIVER, AK, 99577",605288185,L,02,020,000204,2013,-149.45859,61.236378
5742,1717 HILAND RD,Anchorage,AK,99577,"1717 HILAND RD, Anchorage, AK, 99577",Match,Non_Exact,"1717 HILAND RD, EAGLE RIVER, AK, 99577",190815090,R,02,020,000204,2004,-149.44953999999998,61.235386
5743,1711 SOUTH CREEK RD,Anchorage,AK,99577,"1711 SOUTH CREEK RD, Anchorage, AK, 99577",Match,Non_Exact,"1711 S CREEK RD, EAGLE RIVER, AK, 99577",190815095,L,02,020,000204,2004,-149.45155,61.234930000000006
5744,1616 WEST RIVER DR,Anchorage,AK,99577,"1616 WEST RIVER DR, Anchorage, AK, 99577",Match,Non_Exact,"1616 W RIVER DR, EAGLE RIVER, AK, 99577",605288185,L,02,020,000204,2013,-149.45723999999998,61.23434399999999
5745,1536 HILAND RD,Anchorage,AK,99577,"1536 HILAND RD, Anchorage, AK, 99577",Match,Non_Exact,"1536 HILAND RD, EAGLE RIVER, AK, 99577",190815090,L,02,020,000204,2004,-149.44707,61.233036
5746,1520 SOUTH RIVER DR,Anchorage,AK,99577,"1520 SOUTH RIVER DR, Anchorage, AK, 99577",Match,Non_Exact,"1520 S RIVER DR, EAGLE RIVER, AK, 99577",190815097,L,02,020,000204,2043,-149.45221,61.234634
5747,1567 WEST RIVER DR,Anchorage,AK,99577,"1567 WEST RIVER DR, Anchorage, AK, 99577",Match,Non_Exact,"1567 W RIVER DR, EAGLE RIVER, AK, 99577",605288185,R,02,020,000204,2013,-149.45802,61.235786
5748,1515 SOUTH CREEK RD,Anchorage,AK,99577,"1515 SOUTH CREEK RD, Anchorage, AK, 99577",Match,Non_Exact,"1515 S CREEK RD, EAGLE RIVER, AK, 99577",190815096,L,02,020,000204,2004,-149.452,61.233376
5749,1512 WEST RIVER DR,Anchorage,AK,99577,"1512 WEST RIVER DR, Anchorage, AK, 99577",Match,Non_Exact,"1512 W RIVER DR, EAGLE RIVER, AK, 99577",605288185,L,02,020,000204,2013,-149.45526,61.232803000000004
5750,1501 WEST RIVER DR,Anchorage,AK,99577,"1501 WEST RIVER DR, Anchorage, AK, 99577",Match,Non_Exact,"1501 W RIVER DR, EAGLE RIVER, AK, 99577",605288185,R,02,020,000204,2013,-149.45755,61.23493199999999
5751,1451 SOUTH CREEK RD,Anchorage,AK,99577,"1451 SOUTH CREEK RD, Anchorage, AK, 99577",Match,Non_Exact,"1451 S CREEK RD, EAGLE RIVER, AK, 99577",190815096,L,02,020,000204,2004,-149.45245,61.23307
5752,1451 WEST RIVER DR,Anchorage,AK,99577,"1451 WEST RIVER DR, Anchorage, AK, 99577",Match,Non_Exact,"1451 W RIVER DR, EAGLE RIVER, AK, 99577",605288185,R,02,020,000204,2013,-149.45718,61.234283
5753,1429 HILAND RD,Anchorage,AK,99577,"1429 HILAND RD, Anchorage, AK, 99577",Match,Non_Exact,"1429 HILAND RD, EAGLE RIVER, AK, 99577",190815090,R,02,020,000204,2004,-149.44743,61.233382999999996
5754,1421 SOUTH CREEK RD,Anchorage,AK,99577,"1421 SOUTH CREEK RD, Anchorage, AK, 99577",Match,Non_Exact,"1421 S CREEK RD, EAGLE RIVER, AK, 99577",190815096,L,02,020,000204,2004,-149.45268000000002,61.23293
5755,1380 WEST RIVER DR,Anchorage,AK,99577,"1380 WEST RIVER DR, Anchorage, AK, 99577",No_Match,,,,,,,,,,
5756,100 OKLAHOMA ST,Anchorage,AK,99504,"100 OKLAHOMA ST, Anchorage, AK, 99504",Match,Exact,"100 OKLAHOMA ST, ANCHORAGE, AK, 99504",190802852,R,02,020,000702,1005,-149.7448,61.224106000000006
5757,7680 BOUNDARY AVE,Anchorage,AK,99504,"7680 BOUNDARY AVE, Anchorage, AK, 99504",Match,Exact,"7680 BOUNDARY AVE, ANCHORAGE, AK, 99504",605167202,R,02,020,000702,2000,-149.73727,61.224169999999994
5758,7682 BOUNDARY AVE,Anchorage,AK,99504,"7682 BOUNDARY AVE, Anchorage, AK, 99504",Match,Exact,"7682 BOUNDARY AVE, ANCHORAGE, AK, 99504",605167189,R,02,020,000702,2000,-149.73705,61.224169999999994
5759,7684 BOUNDARY AVE,Anchorage,AK,99504,"7684 BOUNDARY AVE, Anchorage, AK, 99504",Match,Exact,"7684 BOUNDARY AVE, ANCHORAGE, AK, 99504",605167189,R,02,020,000702,2000,-149.73703,61.224169999999994
5760,7686 BOUNDARY AVE,Anchorage,AK,99504,"7686 BOUNDARY AVE, Anchorage, AK, 99504",Match,Exact,"7686 BOUNDARY AVE, ANCHORAGE, AK, 99504",605167189,R,02,020,000702,2000,-149.737,61.224169999999994
5761,111 MULDOON RD,Anchorage,AK,99504,"111 MULDOON RD, Anchorage, AK, 99504",Match,Exact,"111 MULDOON RD, ANCHORAGE, AK, 99504",638990398,L,02,020,000703,2001,-149.7335,61.223873
5762,111 MULDOON RD,Anchorage,AK,99504,"111 MULDOON RD, Anchorage, AK, 99504",Match,Exact,"111 MULDOON RD, ANCHORAGE, AK, 99504",638990398,L,02,020,000703,2001,-149.7335,61.223873
5763,111 MULDOON RD,Anchorage,AK,99504,"111 MULDOON RD, Anchorage, AK, 99504",Match,Exact,"111 MULDOON RD, ANCHORAGE, AK, 99504",638990398,L,02,020,000703,2001,-149.7335,61.223873
5764,25255 CRYSTAL CREEK DR,Anchorage,AK,99577,"25255 CRYSTAL CREEK DR, Anchorage, AK, 99577",Match,Non_Exact,"25255 CRYSTAL CREEK DR, EAGLE RIVER, AK, 99577",190810547,L,02,020,000204,1005,-149.41089,61.29404
5765,24915 HAMANN RD,Anchorage,AK,99577,"24915 HAMANN RD, Anchorage, AK, 99577",Match,Non_Exact,"24915 HAMANN RD, EAGLE RIVER, AK, 99577",626838848,L,02,020,000204,1009,-149.41815,61.294003000000004
5766,24923 HAMANN RD,Anchorage,AK,99577,"24923 HAMANN RD, Anchorage, AK, 99577",Match,Non_Exact,"24923 HAMANN RD, EAGLE RIVER, AK, 99577",626838848,L,02,020,000204,1009,-149.41805,61.293980000000005
5767,8139 MARY ESTHER DR,Anchorage,AK,99577,"8139 MARY ESTHER DR, Anchorage, AK, 99577",Match,Non_Exact,"8139 MARY ESTHER DR, EAGLE RIVER, AK, 99577",190811205,R,02,020,000204,1005,-149.40587,61.293724
5768,24931 HAMANN RD,Anchorage,AK,99577,"24931 HAMANN RD, Anchorage, AK, 99577",Match,Non_Exact,"24931 HAMANN RD, EAGLE RIVER, AK, 99577",626838848,L,02,020,000204,1009,-149.41795,61.29396
5769,24910 HAMANN RD,Anchorage,AK,99577,"24910 HAMANN RD, Anchorage, AK, 99577",Match,Non_Exact,"24910 HAMANN RD, EAGLE RIVER, AK, 99577",626838848,R,02,020,000204,1009,-149.41821000000002,61.294003000000004
5770,25212 CRYSTAL CREEK DR,Anchorage,AK,99577,"25212 CRYSTAL CREEK DR, Anchorage, AK, 99577",Match,Non_Exact,"25212 CRYSTAL CREEK DR, EAGLE RIVER, AK, 99577",190810547,R,02,020,000204,1005,-149.41289,61.294340000000005
5771,24941 HAMANN RD,Anchorage,AK,99577,"24941 HAMANN RD, Anchorage, AK, 99577",Match,Non_Exact,"24941 HAMANN RD, EAGLE RIVER, AK, 99577",626838848,L,02,020,000204,1009,-149.41783,61.293934
5772,25154 EAGLE RIVER RD,Anchorage,AK,99577,"25154 EAGLE RIVER RD, Anchorage, AK, 99577",Match,Non_Exact,"25154 EAGLE RIVER RD, EAGLE RIVER, AK, 99577",190793579,L,02,020,000204,1009,-149.41145,61.293406999999995
5773,24930 HAMANN RD,Anchorage,AK,99577,"24930 HAMANN RD, Anchorage, AK, 99577",Match,Non_Exact,"24930 HAMANN RD, EAGLE RIVER, AK, 99577",626838848,R,02,020,000204,1009,-149.41795,61.29395
5774,25344 CRYSTAL CREEK DR,Anchorage,AK,99577,"25344 CRYSTAL CREEK DR, Anchorage, AK, 99577",Match,Non_Exact,"25344 CRYSTAL CREEK DR, EAGLE RIVER, AK, 99577",190810547,R,02,020,000204,1005,-149.41052,61.293972
5775,25430 CRYSTAL CREEK DR,Anchorage,AK,99577,"25430 CRYSTAL CREEK DR, Anchorage, AK, 99577",Match,Non_Exact,"25430 CRYSTAL CREEK DR, EAGLE RIVER, AK, 99577",190810547,R,02,020,000204,1005,-149.40901000000002,61.293693999999995
5776,25246 EAGLE RIVER RD,Anchorage,AK,99577,"25246 EAGLE RIVER RD, Anchorage, AK, 99577",Match,Non_Exact,"25246 EAGLE RIVER RD, EAGLE RIVER, AK, 99577",190793579,L,02,020,000204,1009,-149.4104,61.292862
5777,16422 MARCUS ST,Anchorage,AK,99577,"16422 MARCUS ST, Anchorage, AK, 99577",Match,Non_Exact,"16422 MARCUS ST, EAGLE RIVER, AK, 99577",190826843,L,02,020,000201,1009,-149.57549,61.33556
5778,12712 IRIS WAY,Anchorage,AK,99577,"12712 IRIS WAY, Anchorage, AK, 99577",Match,Non_Exact,"12712 IRIS WAY, EAGLE RIVER, AK, 99577",190794171,R,02,020,000201,1009,-149.56972,61.33514
5779,12657 BRECKENRIDGE DR,Anchorage,AK,99577,"12657 BRECKENRIDGE DR, Anchorage, AK, 99577",Match,Non_Exact,"12657 BRECKENRIDGE DR, EAGLE RIVER, AK, 99577",190810762,R,02,020,000201,1013,-149.5788,61.33473000000001
5780,11943 TOWN PARK CIR,Anchorage,AK,99577,"11943 TOWN PARK CIR, Anchorage, AK, 99577",Match,Non_Exact,"11943 TOWN PARK CIR, EAGLE RIVER, AK, 99577",190819998,L,02,020,000201,2001,-149.57748,61.32864
5781,11940 BUSINESS BLVD,Anchorage,AK,99577,"11940 BUSINESS BLVD, Anchorage, AK, 99577",Match,Non_Exact,"11940 BUSINESS BLVD, EAGLE RIVER, AK, 99577",605266942,R,02,020,000201,2001,-149.57275,61.328342000000006
5782,11940 BUSINESS BLVD,Anchorage,AK,99577,"11940 BUSINESS BLVD, Anchorage, AK, 99577",Match,Non_Exact,"11940 BUSINESS BLVD, EAGLE RIVER, AK, 99577",605266942,R,02,020,000201,2001,-149.57275,61.328342000000006
5783,11940 BUSINESS BLVD,Anchorage,AK,99577,"11940 BUSINESS BLVD, Anchorage, AK, 99577",Match,Non_Exact,"11940 BUSINESS BLVD, EAGLE RIVER, AK, 99577",605266942,R,02,020,000201,2001,-149.57275,61.328342000000006
5784,11940 BUSINESS BLVD,Anchorage,AK,99577,"11940 BUSINESS BLVD, Anchorage, AK, 99577",Match,Non_Exact,"11940 BUSINESS BLVD, EAGLE RIVER, AK, 99577",605266942,R,02,020,000201,2001,-149.57275,61.328342000000006
5785,11940 BUSINESS BLVD,Anchorage,AK,99577,"11940 BUSINESS BLVD, Anchorage, AK, 99577",Match,Non_Exact,"11940 BUSINESS BLVD, EAGLE RIVER, AK, 99577",605266942,R,02,020,000201,2001,-149.57275,61.328342000000006
5786,11940 BUSINESS BLVD,Anchorage,AK,99577,"11940 BUSINESS BLVD, Anchorage, AK, 99577",Match,Non_Exact,"11940 BUSINESS BLVD, EAGLE RIVER, AK, 99577",605266942,R,02,020,000201,2001,-149.57275,61.328342000000006
5787,11940 BUSINESS BLVD,Anchorage,AK,99577,"11940 BUSINESS BLVD, Anchorage, AK, 99577",Match,Non_Exact,"11940 BUSINESS BLVD, EAGLE RIVER, AK, 99577",605266942,R,02,020,000201,2001,-149.57275,61.328342000000006
5788,11940 BUSINESS BLVD,Anchorage,AK,99577,"11940 BUSINESS BLVD, Anchorage, AK, 99577",Match,Non_Exact,"11940 BUSINESS BLVD, EAGLE RIVER, AK, 99577",605266942,R,02,020,000201,2001,-149.57275,61.328342000000006
5789,11401 OLD GLENN HWY,Anchorage,AK,99577,"11401 OLD GLENN HWY, Anchorage, AK, 99577",Match,Non_Exact,"11401 OLD GLENN HWY, EAGLE RIVER, AK, 99577",190792415,L,02,020,000202,1018,-149.57054,61.323368
5790,11401 OLD GLENN HWY,Anchorage,AK,99577,"11401 OLD GLENN HWY, Anchorage, AK, 99577",Match,Non_Exact,"11401 OLD GLENN HWY, EAGLE RIVER, AK, 99577",190792415,L,02,020,000202,1018,-149.57054,61.323368
5791,11401 OLD GLENN HWY,Anchorage,AK,99577,"11401 OLD GLENN HWY, Anchorage, AK, 99577",Match,Non_Exact,"11401 OLD GLENN HWY, EAGLE RIVER, AK, 99577",190792415,L,02,020,000202,1018,-149.57054,61.323368
5792,11401 OLD GLENN HWY,Anchorage,AK,99577,"11401 OLD GLENN HWY, Anchorage, AK, 99577",Match,Non_Exact,"11401 OLD GLENN HWY, EAGLE RIVER, AK, 99577",190792415,L,02,020,000202,1018,-149.57054,61.323368
5793,11401 OLD GLENN HWY,Anchorage,AK,99577,"11401 OLD GLENN HWY, Anchorage, AK, 99577",Match,Non_Exact,"11401 OLD GLENN HWY, EAGLE RIVER, AK, 99577",190792415,L,02,020,000202,1018,-149.57054,61.323368
5794,11401 OLD GLENN HWY,Anchorage,AK,99577,"11401 OLD GLENN HWY, Anchorage, AK, 99577",Match,Non_Exact,"11401 OLD GLENN HWY, EAGLE RIVER, AK, 99577",190792415,L,02,020,000202,1018,-149.57054,61.323368
5795,11401 OLD GLENN HWY,Anchorage,AK,99577,"11401 OLD GLENN HWY, Anchorage, AK, 99577",Match,Non_Exact,"11401 OLD GLENN HWY, EAGLE RIVER, AK, 99577",190792415,L,02,020,000202,1018,-149.57054,61.323368
5796,18254 N PARKVIEW TERRACE LOOP,Anchorage,AK,99577,"18254 N PARKVIEW TERRACE LOOP, Anchorage, AK, 99577",Match,Non_Exact,"18254 N PARKVIEW TER LP, EAGLE RIVER, AK, 99577",190820860,R,02,020,000203,5006,-149.54199,61.306206
5797,9458 W KANAGA LOOP,Anchorage,AK,99577,"9458 W KANAGA LOOP, Anchorage, AK, 99577",Match,Non_Exact,"9458 W KANAGA LOOP, EAGLE RIVER, AK, 99577",605287939,R,02,020,000203,3015,-149.53769,61.305446999999994
5798,9450 W KANAGA LOOP,Anchorage,AK,99577,"9450 W KANAGA LOOP, Anchorage, AK, 99577",Match,Non_Exact,"9450 W KANAGA LOOP, EAGLE RIVER, AK, 99577",605287939,R,02,020,000203,3015,-149.5377,61.30545
5799,20770 PTARMIGAN BLVD,Anchorage,AK,99577,"20770 PTARMIGAN BLVD, Anchorage, AK, 99577",Match,Non_Exact,"20770 PTARMIGAN BLVD, EAGLE RIVER, AK, 99577",605288341,R,02,020,000203,3000,-149.49515,61.307114
5800,18139 MISTY FALLS CIR,Anchorage,AK,99577,"18139 MISTY FALLS CIR, Anchorage, AK, 99577",Match,Non_Exact,"18139 MISTY FALLS CIR, EAGLE RIVER, AK, 99577",190805549,L,02,020,000203,5006,-149.54424,61.305923
5801,20780 PTARMIGAN BLVD,Anchorage,AK,99577,"20780 PTARMIGAN BLVD, Anchorage, AK, 99577",Match,Non_Exact,"20780 PTARMIGAN BLVD, EAGLE RIVER, AK, 99577",605288341,R,02,020,000203,3000,-149.49506,61.307114
5802,18325 N PARKVIEW TERRACE LOOP,Anchorage,AK,99577,"18325 N PARKVIEW TERRACE LOOP, Anchorage, AK, 99577",Match,Non_Exact,"18325 N PARKVIEW TER LP, EAGLE RIVER, AK, 99577",190820860,L,02,020,000203,5000,-149.5409,61.305927000000004
5803,18317 N PARKVIEW TERRACE LOOP,Anchorage,AK,99577,"18317 N PARKVIEW TERRACE LOOP, Anchorage, AK, 99577",Match,Non_Exact,"18317 N PARKVIEW TER LP, EAGLE RIVER, AK, 99577",190820860,L,02,020,000203,5000,-149.54103,61.305958
5804,9446 W KANAGA LOOP,Anchorage,AK,99577,"9446 W KANAGA LOOP, Anchorage, AK, 99577",Match,Non_Exact,"9446 W KANAGA LOOP, EAGLE RIVER, AK, 99577",605287939,R,02,020,000203,3015,-149.5377,61.305454000000005
5805,9202 CAM ISLAND CIR,Anchorage,AK,99577,"9202 CAM ISLAND CIR, Anchorage, AK, 99577",Match,Non_Exact,"9202 CAM ISLAND CIR, EAGLE RIVER, AK, 99577",190805561,L,02,020,000203,5008,-149.54108,61.303528
5806,9200 CAM ISLAND CIR,Anchorage,AK,99577,"9200 CAM ISLAND CIR, Anchorage, AK, 99577",Match,Non_Exact,"9200 CAM ISLAND CIR, EAGLE RIVER, AK, 99577",190805561,L,02,020,000203,5008,-149.54109,61.303523999999996
5807,9218 CAM ISLAND CIR,Anchorage,AK,99577,"9218 CAM ISLAND CIR, Anchorage, AK, 99577",Match,Non_Exact,"9218 CAM ISLAND CIR, EAGLE RIVER, AK, 99577",190805561,L,02,020,000203,5008,-149.54093999999998,61.303540000000005
5808,20202 HIGHLAND RIDGE DR,Anchorage,AK,99577,"20202 HIGHLAND RIDGE DR, Anchorage, AK, 99577",Match,Non_Exact,"20202 HIGHLAND RIDGE DR, EAGLE RIVER, AK, 99577",625718494,L,02,020,000203,3002,-149.50662,61.303276000000004
5809,9198 W PARKVIEW TERRACE LOOP,Anchorage,AK,99577,"9198 W PARKVIEW TERRACE LOOP, Anchorage, AK, 99577",Match,Non_Exact,"9198 W PARKVIEW TER LP, EAGLE RIVER, AK, 99577",190805557,L,02,020,000203,5000,-149.54506999999998,61.30333
5810,9198 CAM ISLAND CIR,Anchorage,AK,99577,"9198 CAM ISLAND CIR, Anchorage, AK, 99577",Match,Non_Exact,"9198 CAM ISLAND CIR, EAGLE RIVER, AK, 99577",190805561,L,02,020,000203,5008,-149.5411,61.30351999999999
5811,20150 HIGHLAND RIDGE DR,Anchorage,AK,99577,"20150 HIGHLAND RIDGE DR, Anchorage, AK, 99577",Match,Non_Exact,"20150 HIGHLAND RIDGE DR, EAGLE RIVER, AK, 99577",625718494,L,02,020,000203,3002,-149.5073,61.303127
5812,9205 CAM ISLAND CIR,Anchorage,AK,99577,"9205 CAM ISLAND CIR, Anchorage, AK, 99577",Match,Non_Exact,"9205 CAM ISLAND CIR, EAGLE RIVER, AK, 99577",190805561,R,02,020,000203,5008,-149.54105,61.30351999999999
5813,20142 HIGHLAND RIDGE DR,Anchorage,AK,99577,"20142 HIGHLAND RIDGE DR, Anchorage, AK, 99577",Match,Non_Exact,"20142 HIGHLAND RIDGE DR, EAGLE RIVER, AK, 99577",625718494,L,02,020,000203,3002,-149.50739,61.3031
5814,9188 W PARKVIEW TERRACE LOOP,Anchorage,AK,99577,"9188 W PARKVIEW TERRACE LOOP, Anchorage, AK, 99577",Match,Non_Exact,"9188 W PARKVIEW TER LP, EAGLE RIVER, AK, 99577",190805557,L,02,020,000203,5000,-149.5449,61.30328000000001
5815,9194 CAM ISLAND CIR,Anchorage,AK,99577,"9194 CAM ISLAND CIR, Anchorage, AK, 99577",Match,Non_Exact,"9194 CAM ISLAND CIR, EAGLE RIVER, AK, 99577",190805561,L,02,020,000203,5008,-149.54113999999998,61.303516
5816,23423 EAGLE RIVER RD,Anchorage,AK,99577,"23423 EAGLE RIVER RD, Anchorage, AK, 99577",Match,Non_Exact,"23423 EAGLE RIVER RD, EAGLE RIVER, AK, 99577",190793546,L,02,020,000204,1007,-149.44496,61.30031999999999
5817,23931 UPPER TERRACE ST,Anchorage,AK,99577,"23931 UPPER TERRACE ST, Anchorage, AK, 99577",Match,Non_Exact,"23931 UPPER TERRACE ST, EAGLE RIVER, AK, 99577",190793553,R,02,020,000204,1007,-149.43636,61.300354000000006
5818,23647 LOWER TERRACE ST,Anchorage,AK,99577,"23647 LOWER TERRACE ST, Anchorage, AK, 99577",Match,Non_Exact,"23647 LOWER TERRACE ST, EAGLE RIVER, AK, 99577",190793552,R,02,020,000204,1007,-149.4411,61.30069399999999
5819,23300 EAGLE RIVER RD,Anchorage,AK,99577,"23300 EAGLE RIVER RD, Anchorage, AK, 99577",Match,Non_Exact,"23300 EAGLE RIVER RD, EAGLE RIVER, AK, 99577",190793546,R,02,020,000204,1009,-149.44681,61.30056999999999
5820,23519 EAGLE RIVER RD,Anchorage,AK,99577,"23519 EAGLE RIVER RD, Anchorage, AK, 99577",Match,Non_Exact,"23519 EAGLE RIVER RD, EAGLE RIVER, AK, 99577",190793546,L,02,020,000204,1007,-149.44347,61.30018199999999
5821,23745 EAGLE RIVER RD,Anchorage,AK,99577,"23745 EAGLE RIVER RD, Anchorage, AK, 99577",Match,Non_Exact,"23745 EAGLE RIVER RD, EAGLE RIVER, AK, 99577",190793556,R,02,020,000204,1007,-149.4384,61.30007
5822,20802 TRAILHEAD AVE,Anchorage,AK,99577,"20802 TRAILHEAD AVE, Anchorage, AK, 99577",Match,Non_Exact,"20802 TRAILHEAD AVE, EAGLE RIVER, AK, 99577",625718581,L,02,020,000203,3000,-149.50027,61.300082999999994
5823,23621 EAGLE RIVER RD,Anchorage,AK,99577,"23621 EAGLE RIVER RD, Anchorage, AK, 99577",Match,Non_Exact,"23621 EAGLE RIVER RD, EAGLE RIVER, AK, 99577",190793546,L,02,020,000204,1007,-149.44188,61.3001
5824,23949 UPPER TERRACE ST,Anchorage,AK,99577,"23949 UPPER TERRACE ST, Anchorage, AK, 99577",Match,Non_Exact,"23949 UPPER TERRACE ST, EAGLE RIVER, AK, 99577",190793553,R,02,020,000204,1007,-149.43607,61.30025500000001
5825,24241 O'RIEDNER RD,Anchorage,AK,99577,"24241 O'RIEDNER RD, Anchorage, AK, 99577",Match,Non_Exact,"24241 ORIEDNER RD, EAGLE RIVER, AK, 99577",190825509,L,02,020,000204,1007,-149.4286,61.299746999999996
5826,24045 O'RIEDNER RD,Anchorage,AK,99577,"24045 O'RIEDNER RD, Anchorage, AK, 99577",Match,Non_Exact,"24045 ORIEDNER RD, EAGLE RIVER, AK, 99577",190825509,L,02,020,000204,1007,-149.43219,61.2999
5827,27531 PARAMOUNT DR,Anchorage,AK,99577,"27531 PARAMOUNT DR, Anchorage, AK, 99577",Match,Non_Exact,"27531 PARAMOUNT DR, EAGLE RIVER, AK, 99577",614873801,L,02,020,000204,1005,-149.3694,61.277065
5828,27605 PARAMOUNT DR,Anchorage,AK,99577,"27605 PARAMOUNT DR, Anchorage, AK, 99577",Match,Non_Exact,"27605 PARAMOUNT DR, EAGLE RIVER, AK, 99577",614873801,L,02,020,000204,1005,-149.36798000000002,61.276990000000005
5829,27639 PARAMOUNT DR,Anchorage,AK,99577,"27639 PARAMOUNT DR, Anchorage, AK, 99577",Match,Non_Exact,"27639 PARAMOUNT DR, EAGLE RIVER, AK, 99577",614873801,L,02,020,000204,1005,-149.36732,61.276959999999995
5830,27438 PARAMOUNT DR,Anchorage,AK,99577,"27438 PARAMOUNT DR, Anchorage, AK, 99577",Match,Non_Exact,"27438 PARAMOUNT DR, EAGLE RIVER, AK, 99577",614873801,R,02,020,000204,1005,-149.37096,61.277069999999995
5831,27502 PARAMOUNT DR,Anchorage,AK,99577,"27502 PARAMOUNT DR, Anchorage, AK, 99577",Match,Non_Exact,"27502 PARAMOUNT DR, EAGLE RIVER, AK, 99577",614873801,R,02,020,000204,1005,-149.36995,61.277103000000004
5832,27544 PARAMOUNT DR,Anchorage,AK,99577,"27544 PARAMOUNT DR, Anchorage, AK, 99577",Match,Non_Exact,"27544 PARAMOUNT DR, EAGLE RIVER, AK, 99577",614873801,R,02,020,000204,1005,-149.36914,61.27703
5833,6212 MAGNAVIEW DR,Anchorage,AK,99577,"6212 MAGNAVIEW DR, Anchorage, AK, 99577",Match,Non_Exact,"6212 MAGNAVIEW DR, EAGLE RIVER, AK, 99577",190818950,L,02,020,000204,1005,-149.37073999999998,61.276709999999994
5834,6127 MAGNAVIEW DR,Anchorage,AK,99577,"6127 MAGNAVIEW DR, Anchorage, AK, 99577",Match,Non_Exact,"6127 MAGNAVIEW DR, EAGLE RIVER, AK, 99577",190818949,R,02,020,000204,1005,-149.36855,61.275925
5835,27417 VANTAGE AVE,Anchorage,AK,99577,"27417 VANTAGE AVE, Anchorage, AK, 99577",Match,Non_Exact,"27417 VANTAGE AVE, EAGLE RIVER, AK, 99577",190818970,L,02,020,000204,1005,-149.37032,61.2755
5836,27441 VANTAGE AVE,Anchorage,AK,99577,"27441 VANTAGE AVE, Anchorage, AK, 99577",Match,Non_Exact,"27441 VANTAGE AVE, EAGLE RIVER, AK, 99577",190818970,L,02,020,000204,1005,-149.36989,61.275493999999995
5837,27601 VANTAGE AVE,Anchorage,AK,99577,"27601 VANTAGE AVE, Anchorage, AK, 99577",Match,Non_Exact,"27601 VANTAGE AVE, EAGLE RIVER, AK, 99577",614874151,L,02,020,000204,1005,-149.36653,61.275332999999996
5838,27627 VANTAGE AVE,Anchorage,AK,99577,"27627 VANTAGE AVE, Anchorage, AK, 99577",Match,Non_Exact,"27627 VANTAGE AVE, EAGLE RIVER, AK, 99577",614874151,L,02,020,000204,1005,-149.36612,61.275303
5839,16946 KIYONA CIR,Anchorage,AK,99577,"16946 KIYONA CIR, Anchorage, AK, 99577",Match,Non_Exact,"16946 KIYONA CIR, EAGLE RIVER, AK, 99577",190805518,L,02,020,000203,5000,-149.56566,61.310123
5840,9911 TEEKOANA CIR,Anchorage,AK,99577,"9911 TEEKOANA CIR, Anchorage, AK, 99577",Match,Non_Exact,"9911 TEE KOANA CIR, EAGLE RIVER, AK, 99577",190805734,R,02,020,000203,5007,-149.5516,61.309826
5841,9908 TEEKOANA CIR,Anchorage,AK,99577,"9908 TEEKOANA CIR, Anchorage, AK, 99577",Match,Non_Exact,"9908 TEE KOANA CIR, EAGLE RIVER, AK, 99577",190805734,L,02,020,000203,5007,-149.55161999999999,61.309822
5842,17354 LAOANA CT,Anchorage,AK,99577,"17354 LAOANA CT, Anchorage, AK, 99577",Match,Non_Exact,"17354 LAOANA CT, EAGLE RIVER, AK, 99577",190805520,R,02,020,000203,5002,-149.55853000000002,61.30995600000001
5843,17344 LAOANA CT,Anchorage,AK,99577,"17344 LAOANA CT, Anchorage, AK, 99577",Match,Non_Exact,"17344 LAOANA CT, EAGLE RIVER, AK, 99577",190805520,R,02,020,000203,5002,-149.55862,61.30995
5844,17406 LAOANA CT,Anchorage,AK,99577,"17406 LAOANA CT, Anchorage, AK, 99577",Match,Non_Exact,"17406 LAOANA CT, EAGLE RIVER, AK, 99577",190805520,R,02,020,000203,5002,-149.55812,61.30996700000001
5845,17302 LAOANA DR,Anchorage,AK,99577,"17302 LAOANA DR, Anchorage, AK, 99577",Match,Non_Exact,"17302 LAOANA DR, EAGLE RIVER, AK, 99577",190805716,R,02,020,000203,5000,-149.5601,61.309895
5846,18139 N PARKVIEW TERRACE LOOP,Anchorage,AK,99577,"18139 N PARKVIEW TERRACE LOOP, Anchorage, AK, 99577",Match,Non_Exact,"18139 N PARKVIEW TER LP, EAGLE RIVER, AK, 99577",190808441,L,02,020,000203,5000,-149.54355,61.306732
5847,18039 N PARKVIEW TERRACE LOOP,Anchorage,AK,99577,"18039 N PARKVIEW TERRACE LOOP, Anchorage, AK, 99577",Match,Non_Exact,"18039 N PARKVIEW TER LP, EAGLE RIVER, AK, 99577",190808441,L,02,020,000203,5000,-149.54482,61.306743999999995
5848,18225 GAVIN CIR,Anchorage,AK,99577,"18225 GAVIN CIR, Anchorage, AK, 99577",Match,Non_Exact,"18225 GAVIN CIR, EAGLE RIVER, AK, 99577",190805542,L,02,020,000203,5000,-149.54183999999998,61.30676
5849,9536 KIGUL CIR,Anchorage,AK,99577,"9536 KIGUL CIR, Anchorage, AK, 99577",Match,Non_Exact,"9536 KIGUL CIR, EAGLE RIVER, AK, 99577",190805652,R,02,020,000203,4006,-149.5313,61.306940000000004
5850,9533 DINAAKA DR,Anchorage,AK,99577,"9533 DINAAKA DR, Anchorage, AK, 99577",Match,Non_Exact,"9533 DINAAKA DR, EAGLE RIVER, AK, 99577",190805534,R,02,020,000203,5000,-149.55319,61.306847
5851,18031 N PARKVIEW TERRACE LOOP,Anchorage,AK,99577,"18031 N PARKVIEW TERRACE LOOP, Anchorage, AK, 99577",Match,Non_Exact,"18031 N PARKVIEW TER LP, EAGLE RIVER, AK, 99577",190808441,L,02,020,000203,5000,-149.54492,61.30675
5852,9535 WREN CIR,Anchorage,AK,99577,"9535 WREN CIR, Anchorage, AK, 99577",Match,Non_Exact,"9535 WREN CIR, EAGLE RIVER, AK, 99577",190793455,R,02,020,000203,3000,-149.50226999999998,61.30676999999999
5853,9529 NOAK CIR,Anchorage,AK,99577,"9529 NOAK CIR, Anchorage, AK, 99577",Match,Non_Exact,"9529 NOAK CIR, EAGLE RIVER, AK, 99577",190808439,R,02,020,000203,5000,-149.55123999999998,61.306484
5854,18045 N PARKVIEW TERRACE LOOP,Anchorage,AK,99577,"18045 N PARKVIEW TERRACE LOOP, Anchorage, AK, 99577",Match,Non_Exact,"18045 N PARKVIEW TER LP, EAGLE RIVER, AK, 99577",190808441,L,02,020,000203,5000,-149.54474,61.306736
5855,18129 N PARKVIEW TERRACE LOOP,Anchorage,AK,99577,"18129 N PARKVIEW TERRACE LOOP, Anchorage, AK, 99577",Match,Non_Exact,"18129 N PARKVIEW TER LP, EAGLE RIVER, AK, 99577",190808441,L,02,020,000203,5000,-149.54367,61.306725
5856,18207 N PARKVIEW TERRACE LOOP,Anchorage,AK,99577,"18207 N PARKVIEW TERRACE LOOP, Anchorage, AK, 99577",Match,Non_Exact,"18207 N PARKVIEW TER LP, EAGLE RIVER, AK, 99577",190808441,L,02,020,000203,5000,-149.5427,61.30672
5857,9532 QUAIL CIR,Anchorage,AK,99577,"9532 QUAIL CIR, Anchorage, AK, 99577",Match,Non_Exact,"9532 QUAIL CIR, EAGLE RIVER, AK, 99577",190805654,R,02,020,000203,4006,-149.52986,61.306767
5858,18117 N PARKVIEW TERRACE LOOP,Anchorage,AK,99577,"18117 N PARKVIEW TERRACE LOOP, Anchorage, AK, 99577",Match,Non_Exact,"18117 N PARKVIEW TER LP, EAGLE RIVER, AK, 99577",190808441,L,02,020,000203,5000,-149.54381999999998,61.306713
5859,111 MULDOON RD,Anchorage,AK,99504,"111 MULDOON RD, Anchorage, AK, 99504",Match,Exact,"111 MULDOON RD, ANCHORAGE, AK, 99504",638990398,L,02,020,000703,2001,-149.7335,61.223873
5860,111 MULDOON RD,Anchorage,AK,99504,"111 MULDOON RD, Anchorage, AK, 99504",Match,Exact,"111 MULDOON RD, ANCHORAGE, AK, 99504",638990398,L,02,020,000703,2001,-149.7335,61.223873
5861,111 MULDOON RD,Anchorage,AK,99504,"111 MULDOON RD, Anchorage, AK, 99504",Match,Exact,"111 MULDOON RD, ANCHORAGE, AK, 99504",638990398,L,02,020,000703,2001,-149.7335,61.223873
5862,111 MULDOON RD,Anchorage,AK,99504,"111 MULDOON RD, Anchorage, AK, 99504",Match,Exact,"111 MULDOON RD, ANCHORAGE, AK, 99504",638990398,L,02,020,000703,2001,-149.7335,61.223873
5863,111 MULDOON RD,Anchorage,AK,99504,"111 MULDOON RD, Anchorage, AK, 99504",Match,Exact,"111 MULDOON RD, ANCHORAGE, AK, 99504",638990398,L,02,020,000703,2001,-149.7335,61.223873
5864,111 MULDOON RD,Anchorage,AK,99504,"111 MULDOON RD, Anchorage, AK, 99504",Match,Exact,"111 MULDOON RD, ANCHORAGE, AK, 99504",638990398,L,02,020,000703,2001,-149.7335,61.223873
5865,111 MULDOON RD,Anchorage,AK,99504,"111 MULDOON RD, Anchorage, AK, 99504",Match,Exact,"111 MULDOON RD, ANCHORAGE, AK, 99504",638990398,L,02,020,000703,2001,-149.7335,61.223873
5866,108 RUSTY ALLEN PL,Anchorage,AK,99504,"108 RUSTY ALLEN PL, Anchorage, AK, 99504",Match,Exact,"108 RUSTY ALLEN PL, ANCHORAGE, AK, 99504",605185494,R,02,020,000701,1000,-149.76071000000002,61.223423
5867,7620 BOUNDARY AVE,Anchorage,AK,99504,"7620 BOUNDARY AVE, Anchorage, AK, 99504",Match,Exact,"7620 BOUNDARY AVE, ANCHORAGE, AK, 99504",605167217,R,02,020,000702,2000,-149.73906000000002,61.224169999999994
5868,7626 BOUNDARY AVE,Anchorage,AK,99504,"7626 BOUNDARY AVE, Anchorage, AK, 99504",Match,Exact,"7626 BOUNDARY AVE, ANCHORAGE, AK, 99504",605167217,R,02,020,000702,2000,-149.73895,61.224169999999994
5869,111 AGATE CIR,Anchorage,AK,99504,"111 AGATE CIR, Anchorage, AK, 99504",Match,Exact,"111 AGATE CIR, ANCHORAGE, AK, 99504",190823753,R,02,020,000703,1011,-149.72319,61.22407
5870,7622 BOUNDARY AVE,Anchorage,AK,99504,"7622 BOUNDARY AVE, Anchorage, AK, 99504",Match,Exact,"7622 BOUNDARY AVE, ANCHORAGE, AK, 99504",605167217,R,02,020,000702,2000,-149.73903,61.224169999999994
5871,7624 BOUNDARY AVE,Anchorage,AK,99504,"7624 BOUNDARY AVE, Anchorage, AK, 99504",Match,Exact,"7624 BOUNDARY AVE, ANCHORAGE, AK, 99504",605167217,R,02,020,000702,2000,-149.73898,61.224169999999994
5872,100 BURTON ST,Anchorage,AK,99504,"100 BURTON ST, Anchorage, AK, 99504",Match,Exact,"100 BURTON ST, ANCHORAGE, AK, 99504",190802857,R,02,020,000702,1006,-149.74196,61.22319399999999
5873,110 AGATE CIR,Anchorage,AK,99504,"110 AGATE CIR, Anchorage, AK, 99504",Match,Exact,"110 AGATE CIR, ANCHORAGE, AK, 99504",190823753,L,02,020,000703,1011,-149.7232,61.22407
5874,110 AGATE CIR,Anchorage,AK,99504,"110 AGATE CIR, Anchorage, AK, 99504",Match,Exact,"110 AGATE CIR, ANCHORAGE, AK, 99504",190823753,L,02,020,000703,1011,-149.7232,61.22407
5875,101 DEAN PL,Anchorage,AK,99504,"101 DEAN PL, Anchorage, AK, 99504",Match,Exact,"101 DEAN PL, ANCHORAGE, AK, 99504",190802859,L,02,020,000702,2000,-149.74008,61.223576
5876,19701 DRIFTWOOD BAY DR,Anchorage,AK,99577,"19701 DRIFTWOOD BAY DR, Anchorage, AK, 99577",Match,Non_Exact,"19701 DRIFTWOOD BAY DR, EAGLE RIVER, AK, 99577",190827412,L,02,020,000203,3022,-149.51712,61.300697
5877,8891 EAGLE PLACE LOOP,Anchorage,AK,99577,"8891 EAGLE PLACE LOOP, Anchorage, AK, 99577",No_Match,,,,,,,,,,
5878,8904 BIRCH PARK CIR,Anchorage,AK,99577,"8904 BIRCH PARK CIR, Anchorage, AK, 99577",Match,Non_Exact,"8904 BIRCH PARK CIR, EAGLE RIVER, AK, 99577",190827414,L,02,020,000203,3022,-149.51195,61.300587
5879,8838 DOME CIR,Anchorage,AK,99577,"8838 DOME CIR, Anchorage, AK, 99577",Match,Non_Exact,"8838 DOME CIR, EAGLE RIVER, AK, 99577",190805577,L,02,020,000203,3014,-149.53513,61.300465
5880,8889 EAGLE PLACE LOOP,Anchorage,AK,99577,"8889 EAGLE PLACE LOOP, Anchorage, AK, 99577",No_Match,,,,,,,,,,
5881,8827 DOME CIR,Anchorage,AK,99577,"8827 DOME CIR, Anchorage, AK, 99577",Match,Non_Exact,"8827 DOME CIR, EAGLE RIVER, AK, 99577",190805577,R,02,020,000203,3014,-149.535,61.300377000000005
5882,18761 PRICE ISLAND CIR,Anchorage,AK,99577,"18761 PRICE ISLAND CIR, Anchorage, AK, 99577",Match,Non_Exact,"18761 PRICE ISLAND CIR, EAGLE RIVER, AK, 99577",190805571,L,02,020,000203,3014,-149.53326,61.301212
5883,8910 MEADOW PARK CIR,Anchorage,AK,99577,"8910 MEADOW PARK CIR, Anchorage, AK, 99577",Match,Non_Exact,"8910 MEADOW PARK CIR, EAGLE RIVER, AK, 99577",605288530,L,02,020,000203,3022,-149.51033,61.30066
5884,20223 GLACIER PARK CIR,Anchorage,AK,99577,"20223 GLACIER PARK CIR, Anchorage, AK, 99577",Match,Non_Exact,"20223 GLACIER PARK CIR, EAGLE RIVER, AK, 99577",605336517,L,02,020,000203,3002,-149.50542,61.300503000000006
5885,8832 DOME CIR,Anchorage,AK,99577,"8832 DOME CIR, Anchorage, AK, 99577",Match,Non_Exact,"8832 DOME CIR, EAGLE RIVER, AK, 99577",190805577,L,02,020,000203,3014,-149.53506000000002,61.300419999999995
5886,16820 CARMEL CIR,Anchorage,AK,99577,"16820 CARMEL CIR, Anchorage, AK, 99577",Match,Non_Exact,"16820 CARMEL CIR, EAGLE RIVER, AK, 99577",605336282,R,02,020,000204,2036,-149.56824,61.29849
5887,19042 MOUNTAIN POINT CIR,Anchorage,AK,99577,"19042 MOUNTAIN POINT CIR, Anchorage, AK, 99577",Match,Non_Exact,"19042 MOUNTAIN POINT CIR, EAGLE RIVER, AK, 99577",190820017,R,02,020,000203,3011,-149.52884,61.298634
5888,8609 ACADIA DR,Anchorage,AK,99577,"8609 ACADIA DR, Anchorage, AK, 99577",Match,Non_Exact,"8609 ACADIA DR, EAGLE RIVER, AK, 99577",605336233,R,02,020,000204,2038,-149.56743,61.298331999999995
5889,16800 CARMEL CIR,Anchorage,AK,99577,"16800 CARMEL CIR, Anchorage, AK, 99577",Match,Non_Exact,"16800 CARMEL CIR, EAGLE RIVER, AK, 99577",605336282,R,02,020,000204,2036,-149.56833999999998,61.298466000000005
5890,16810 CARMEL CIR,Anchorage,AK,99577,"16810 CARMEL CIR, Anchorage, AK, 99577",Match,Non_Exact,"16810 CARMEL CIR, EAGLE RIVER, AK, 99577",605336282,R,02,020,000204,2036,-149.56828000000002,61.298477
5891,8555 LASSEN CIR,Anchorage,AK,99577,"8555 LASSEN CIR, Anchorage, AK, 99577",No_Match,,,,,,,,,,
5892,5203 CHENA AVE,Anchorage,AK,99508,"5203 CHENA AVE, Anchorage, AK, 99508",Match,Exact,"5203 CHENA AVE, ANCHORAGE, AK, 99508",190801943,L,02,020,000801,3004,-149.78432,61.22325
5893,5203 CHENA AVE,Anchorage,AK,99508,"5203 CHENA AVE, Anchorage, AK, 99508",Match,Exact,"5203 CHENA AVE, ANCHORAGE, AK, 99508",190801943,L,02,020,000801,3004,-149.78432,61.22325
5894,5203 CHENA AVE,Anchorage,AK,99508,"5203 CHENA AVE, Anchorage, AK, 99508",Match,Exact,"5203 CHENA AVE, ANCHORAGE, AK, 99508",190801943,L,02,020,000801,3004,-149.78432,61.22325
5895,5203 CHENA AVE,Anchorage,AK,99508,"5203 CHENA AVE, Anchorage, AK, 99508",Match,Exact,"5203 CHENA AVE, ANCHORAGE, AK, 99508",190801943,L,02,020,000801,3004,-149.78432,61.22325
5896,5201 CHENA AVE,Anchorage,AK,99508,"5201 CHENA AVE, Anchorage, AK, 99508",Match,Exact,"5201 CHENA AVE, ANCHORAGE, AK, 99508",190801943,L,02,020,000801,3004,-149.78435,61.22325
5897,5201 CHENA AVE,Anchorage,AK,99508,"5201 CHENA AVE, Anchorage, AK, 99508",Match,Exact,"5201 CHENA AVE, ANCHORAGE, AK, 99508",190801943,L,02,020,000801,3004,-149.78435,61.22325
5898,5201 CHENA AVE,Anchorage,AK,99508,"5201 CHENA AVE, Anchorage, AK, 99508",Match,Exact,"5201 CHENA AVE, ANCHORAGE, AK, 99508",190801943,L,02,020,000801,3004,-149.78435,61.22325
5899,5201 CHENA AVE,Anchorage,AK,99508,"5201 CHENA AVE, Anchorage, AK, 99508",Match,Exact,"5201 CHENA AVE, ANCHORAGE, AK, 99508",190801943,L,02,020,000801,3004,-149.78435,61.22325
5900,5157 CHENA AVE,Anchorage,AK,99508,"5157 CHENA AVE, Anchorage, AK, 99508",Match,Exact,"5157 CHENA AVE, ANCHORAGE, AK, 99508",190801943,L,02,020,000801,3004,-149.78499,61.223248
5901,5157 CHENA AVE,Anchorage,AK,99508,"5157 CHENA AVE, Anchorage, AK, 99508",Match,Exact,"5157 CHENA AVE, ANCHORAGE, AK, 99508",190801943,L,02,020,000801,3004,-149.78499,61.223248
5902,5157 CHENA AVE,Anchorage,AK,99508,"5157 CHENA AVE, Anchorage, AK, 99508",Match,Exact,"5157 CHENA AVE, ANCHORAGE, AK, 99508",190801943,L,02,020,000801,3004,-149.78499,61.223248
5903,5157 CHENA AVE,Anchorage,AK,99508,"5157 CHENA AVE, Anchorage, AK, 99508",Match,Exact,"5157 CHENA AVE, ANCHORAGE, AK, 99508",190801943,L,02,020,000801,3004,-149.78499,61.223248
5904,5157 CHENA AVE,Anchorage,AK,99508,"5157 CHENA AVE, Anchorage, AK, 99508",Match,Exact,"5157 CHENA AVE, ANCHORAGE, AK, 99508",190801943,L,02,020,000801,3004,-149.78499,61.223248
5905,5157 CHENA AVE,Anchorage,AK,99508,"5157 CHENA AVE, Anchorage, AK, 99508",Match,Exact,"5157 CHENA AVE, ANCHORAGE, AK, 99508",190801943,L,02,020,000801,3004,-149.78499,61.223248
5906,5157 CHENA AVE,Anchorage,AK,99508,"5157 CHENA AVE, Anchorage, AK, 99508",Match,Exact,"5157 CHENA AVE, ANCHORAGE, AK, 99508",190801943,L,02,020,000801,3004,-149.78499,61.223248
5907,5157 CHENA AVE,Anchorage,AK,99508,"5157 CHENA AVE, Anchorage, AK, 99508",Match,Exact,"5157 CHENA AVE, ANCHORAGE, AK, 99508",190801943,L,02,020,000801,3004,-149.78499,61.223248
5908,5141 CHENA AVE,Anchorage,AK,99508,"5141 CHENA AVE, Anchorage, AK, 99508",Match,Exact,"5141 CHENA AVE, ANCHORAGE, AK, 99508",190801943,L,02,020,000801,3004,-149.78521999999998,61.223248
5909,5141 CHENA AVE,Anchorage,AK,99508,"5141 CHENA AVE, Anchorage, AK, 99508",Match,Exact,"5141 CHENA AVE, ANCHORAGE, AK, 99508",190801943,L,02,020,000801,3004,-149.78521999999998,61.223248
5910,178 DEAN PL,Anchorage,AK,99504,"178 DEAN PL, Anchorage, AK, 99504",Match,Exact,"178 DEAN PL, ANCHORAGE, AK, 99504",190802859,R,02,020,000702,2000,-149.74008,61.222694
5911,178 DEAN PL,Anchorage,AK,99504,"178 DEAN PL, Anchorage, AK, 99504",Match,Exact,"178 DEAN PL, ANCHORAGE, AK, 99504",190802859,R,02,020,000702,2000,-149.74008,61.222694
5912,178 DEAN PL,Anchorage,AK,99504,"178 DEAN PL, Anchorage, AK, 99504",Match,Exact,"178 DEAN PL, ANCHORAGE, AK, 99504",190802859,R,02,020,000702,2000,-149.74008,61.222694
5913,7801 PECK AVE,Anchorage,AK,99504,"7801 PECK AVE, Anchorage, AK, 99504",Match,Exact,"7801 PECK AVE, ANCHORAGE, AK, 99504",190816652,L,02,020,000702,2000,-149.7353,61.222363
5914,6840 ALL STAR CIR,Anchorage,AK,99504,"6840 ALL STAR CIR, Anchorage, AK, 99504",Match,Exact,"6840 ALL STAR CIR, ANCHORAGE, AK, 99504",190819820,L,02,020,000702,3002,-149.75377,61.222855
5915,7792 BOUNDARY AVE,Anchorage,AK,99504,"7792 BOUNDARY AVE, Anchorage, AK, 99504",Match,Exact,"7792 BOUNDARY AVE, ANCHORAGE, AK, 99504",605167189,R,02,020,000702,2000,-149.73601000000002,61.224169999999994
5916,7794 BOUNDARY AVE,Anchorage,AK,99504,"7794 BOUNDARY AVE, Anchorage, AK, 99504",Match,Exact,"7794 BOUNDARY AVE, ANCHORAGE, AK, 99504",605167189,R,02,020,000702,2000,-149.736,61.224169999999994
5917,133 NANOOK CIR,Anchorage,AK,99504,"133 NANOOK CIR, Anchorage, AK, 99504",Match,Exact,"133 NANOOK CIR, ANCHORAGE, AK, 99504",190820035,R,02,020,000702,3003,-149.74951000000001,61.222632999999995
5918,7796 BOUNDARY AVE,Anchorage,AK,99504,"7796 BOUNDARY AVE, Anchorage, AK, 99504",Match,Exact,"7796 BOUNDARY AVE, ANCHORAGE, AK, 99504",605167189,R,02,020,000702,2000,-149.73598,61.224169999999994
5919,7788 BOUNDARY AVE,Anchorage,AK,99504,"7788 BOUNDARY AVE, Anchorage, AK, 99504",Match,Exact,"7788 BOUNDARY AVE, ANCHORAGE, AK, 99504",605167189,R,02,020,000702,2000,-149.73605,61.224169999999994
5920,173 FIREOVED DR,Anchorage,AK,99508,"173 FIREOVED DR, Anchorage, AK, 99508",Match,Exact,"173 FIREOVED DR, ANCHORAGE, AK, 99508",190801944,L,02,020,000801,3006,-149.78261,61.22265
5921,173 FIREOVED DR,Anchorage,AK,99508,"173 FIREOVED DR, Anchorage, AK, 99508",Match,Exact,"173 FIREOVED DR, ANCHORAGE, AK, 99508",190801944,L,02,020,000801,3006,-149.78261,61.22265
5922,177 MICHEAL CT,Anchorage,AK,99504,"177 MICHEAL CT, Anchorage, AK, 99504",Match,Non_Exact,"177 MICHAEL CT, ANCHORAGE, AK, 99504",190812116,R,02,020,000702,2000,-149.73819,61.222606999999996
5923,177 MICHEAL CT,Anchorage,AK,99504,"177 MICHEAL CT, Anchorage, AK, 99504",Match,Non_Exact,"177 MICHAEL CT, ANCHORAGE, AK, 99504",190812116,R,02,020,000702,2000,-149.73819,61.222606999999996
5924,177 MICHEAL CT,Anchorage,AK,99504,"177 MICHEAL CT, Anchorage, AK, 99504",Match,Non_Exact,"177 MICHAEL CT, ANCHORAGE, AK, 99504",190812116,R,02,020,000702,2000,-149.73819,61.222606999999996
5925,177 MICHEAL CT,Anchorage,AK,99504,"177 MICHEAL CT, Anchorage, AK, 99504",Match,Non_Exact,"177 MICHAEL CT, ANCHORAGE, AK, 99504",190812116,R,02,020,000702,2000,-149.73819,61.222606999999996
5926,8101 PECK AVE,Anchorage,AK,99504,"8101 PECK AVE, Anchorage, AK, 99504",Match,Exact,"8101 PECK AVE, ANCHORAGE, AK, 99504",190803203,L,02,020,000703,2000,-149.72781,61.222378000000006
5927,8101 PECK AVE,Anchorage,AK,99504,"8101 PECK AVE, Anchorage, AK, 99504",Match,Exact,"8101 PECK AVE, ANCHORAGE, AK, 99504",190803203,L,02,020,000703,2000,-149.72781,61.222378000000006
5928,8101 PECK AVE,Anchorage,AK,99504,"8101 PECK AVE, Anchorage, AK, 99504",Match,Exact,"8101 PECK AVE, ANCHORAGE, AK, 99504",190803203,L,02,020,000703,2000,-149.72781,61.222378000000006
5929,8101 PECK AVE,Anchorage,AK,99504,"8101 PECK AVE, Anchorage, AK, 99504",Match,Exact,"8101 PECK AVE, ANCHORAGE, AK, 99504",190803203,L,02,020,000703,2000,-149.72781,61.222378000000006
5930,8101 PECK AVE,Anchorage,AK,99504,"8101 PECK AVE, Anchorage, AK, 99504",Match,Exact,"8101 PECK AVE, ANCHORAGE, AK, 99504",190803203,L,02,020,000703,2000,-149.72781,61.222378000000006
5931,8101 PECK AVE,Anchorage,AK,99504,"8101 PECK AVE, Anchorage, AK, 99504",Match,Exact,"8101 PECK AVE, ANCHORAGE, AK, 99504",190803203,L,02,020,000703,2000,-149.72781,61.222378000000006
5932,8101 PECK AVE,Anchorage,AK,99504,"8101 PECK AVE, Anchorage, AK, 99504",Match,Exact,"8101 PECK AVE, ANCHORAGE, AK, 99504",190803203,L,02,020,000703,2000,-149.72781,61.222378000000006
5933,8101 PECK AVE,Anchorage,AK,99504,"8101 PECK AVE, Anchorage, AK, 99504",Match,Exact,"8101 PECK AVE, ANCHORAGE, AK, 99504",190803203,L,02,020,000703,2000,-149.72781,61.222378000000006
5934,8101 PECK AVE,Anchorage,AK,99504,"8101 PECK AVE, Anchorage, AK, 99504",Match,Exact,"8101 PECK AVE, ANCHORAGE, AK, 99504",190803203,L,02,020,000703,2000,-149.72781,61.222378000000006
5935,8101 PECK AVE,Anchorage,AK,99504,"8101 PECK AVE, Anchorage, AK, 99504",Match,Exact,"8101 PECK AVE, ANCHORAGE, AK, 99504",190803203,L,02,020,000703,2000,-149.72781,61.222378000000006
5936,8101 PECK AVE,Anchorage,AK,99504,"8101 PECK AVE, Anchorage, AK, 99504",Match,Exact,"8101 PECK AVE, ANCHORAGE, AK, 99504",190803203,L,02,020,000703,2000,-149.72781,61.222378000000006
5937,8101 PECK AVE,Anchorage,AK,99504,"8101 PECK AVE, Anchorage, AK, 99504",Match,Exact,"8101 PECK AVE, ANCHORAGE, AK, 99504",190803203,L,02,020,000703,2000,-149.72781,61.222378000000006
5938,8101 PECK AVE,Anchorage,AK,99504,"8101 PECK AVE, Anchorage, AK, 99504",Match,Exact,"8101 PECK AVE, ANCHORAGE, AK, 99504",190803203,L,02,020,000703,2000,-149.72781,61.222378000000006
5939,7618 MELODY COMMONS CT,Anchorage,AK,99504,"7618 MELODY COMMONS CT, Anchorage, AK, 99504",No_Match,,,,,,,,,,
5940,7644 MELODY COMMONS CT,Anchorage,AK,99504,"7644 MELODY COMMONS CT, Anchorage, AK, 99504",Match,Exact,"7644 MELODY COMMONS CT, ANCHORAGE, AK, 99504",605182954,R,02,020,000702,2000,-149.73854,61.221680000000006
5941,7646 MELODY COMMONS CT,Anchorage,AK,99504,"7646 MELODY COMMONS CT, Anchorage, AK, 99504",Match,Exact,"7646 MELODY COMMONS CT, ANCHORAGE, AK, 99504",605182954,R,02,020,000702,2000,-149.73848,61.221680000000006
5942,235 FIREOVED DR,Anchorage,AK,99508,"235 FIREOVED DR, Anchorage, AK, 99508",Match,Exact,"235 FIREOVED DR, ANCHORAGE, AK, 99508",643733471,L,02,020,000801,3008,-149.78282,61.221916
5943,239 FRIENDLY ST,Anchorage,AK,99504,"239 FRIENDLY ST, Anchorage, AK, 99504",Match,Exact,"239 FRIENDLY ST, ANCHORAGE, AK, 99504",190823630,L,02,020,000703,2003,-149.72794,61.2209
5944,239 FRIENDLY ST,Anchorage,AK,99504,"239 FRIENDLY ST, Anchorage, AK, 99504",Match,Exact,"239 FRIENDLY ST, ANCHORAGE, AK, 99504",190823630,L,02,020,000703,2003,-149.72794,61.2209
5945,239 FRIENDLY ST,Anchorage,AK,99504,"239 FRIENDLY ST, Anchorage, AK, 99504",Match,Exact,"239 FRIENDLY ST, ANCHORAGE, AK, 99504",190823630,L,02,020,000703,2003,-149.72794,61.2209
5946,268 WHISPER RIDGE CIR,Anchorage,AK,99504,"268 WHISPER RIDGE CIR, Anchorage, AK, 99504",Match,Exact,"268 WHISPER RIDGE CIR, ANCHORAGE, AK, 99504",624788767,L,02,020,000701,1013,-149.75893,61.222145
5947,268 WHISPER RIDGE CIR,Anchorage,AK,99504,"268 WHISPER RIDGE CIR, Anchorage, AK, 99504",Match,Exact,"268 WHISPER RIDGE CIR, ANCHORAGE, AK, 99504",624788767,L,02,020,000701,1013,-149.75893,61.222145
5948,212 ZAPPA PL,Anchorage,AK,99504,"212 ZAPPA PL, Anchorage, AK, 99504",Match,Exact,"212 ZAPPA PL, ANCHORAGE, AK, 99504",190803204,R,02,020,000703,2003,-149.72603,61.22205400000001
5949,212 ZAPPA PL,Anchorage,AK,99504,"212 ZAPPA PL, Anchorage, AK, 99504",Match,Exact,"212 ZAPPA PL, ANCHORAGE, AK, 99504",190803204,R,02,020,000703,2003,-149.72603,61.22205400000001
5950,212 ZAPPA PL,Anchorage,AK,99504,"212 ZAPPA PL, Anchorage, AK, 99504",Match,Exact,"212 ZAPPA PL, ANCHORAGE, AK, 99504",190803204,R,02,020,000703,2003,-149.72603,61.22205400000001
5951,212 ZAPPA PL,Anchorage,AK,99504,"212 ZAPPA PL, Anchorage, AK, 99504",Match,Exact,"212 ZAPPA PL, ANCHORAGE, AK, 99504",190803204,R,02,020,000703,2003,-149.72603,61.22205400000001
5952,211 BUNNELL ST,Anchorage,AK,99508,"211 BUNNELL ST, Anchorage, AK, 99508",Match,Exact,"211 BUNNELL ST, ANCHORAGE, AK, 99508",190801681,L,02,020,000801,2004,-149.7897,61.222614
5953,237 GRAND LARRY ST,Anchorage,AK,99504,"237 GRAND LARRY ST, Anchorage, AK, 99504",Match,Exact,"237 GRAND LARRY ST, ANCHORAGE, AK, 99504",190803200,L,02,020,000703,2003,-149.72975,61.221687
5954,237 GRAND LARRY ST,Anchorage,AK,99504,"237 GRAND LARRY ST, Anchorage, AK, 99504",Match,Exact,"237 GRAND LARRY ST, ANCHORAGE, AK, 99504",190803200,L,02,020,000703,2003,-149.72975,61.221687
5955,237 GRAND LARRY ST,Anchorage,AK,99504,"237 GRAND LARRY ST, Anchorage, AK, 99504",Match,Exact,"237 GRAND LARRY ST, ANCHORAGE, AK, 99504",190803200,L,02,020,000703,2003,-149.72975,61.221687
5956,237 GRAND LARRY ST,Anchorage,AK,99504,"237 GRAND LARRY ST, Anchorage, AK, 99504",Match,Exact,"237 GRAND LARRY ST, ANCHORAGE, AK, 99504",190803200,L,02,020,000703,2003,-149.72975,61.221687
5957,210 STEWART ST,Anchorage,AK,99508,"210 STEWART ST, Anchorage, AK, 99508",Match,Exact,"210 STEWART ST, ANCHORAGE, AK, 99508",190801687,R,02,020,000801,2004,-149.78791999999999,61.22261999999999
5958,6690 WHISPERING LOOP,Anchorage,AK,99504,"6690 WHISPERING LOOP, Anchorage, AK, 99504",Match,Exact,"6690 WHISPERING LOOP, ANCHORAGE, AK, 99504",624788736,L,02,020,000701,1000,-149.75708,61.221626
5959,244 MELODY PL,Anchorage,AK,99504,"244 MELODY PL, Anchorage, AK, 99504",No_Match,,,,,,,,,,
5960,320 LIONHEART CT,Anchorage,AK,99508,"320 LIONHEART CT, Anchorage, AK, 99508",Match,Exact,"320 LIONHEART CT, ANCHORAGE, AK, 99508",190812092,L,02,020,000801,3008,-149.78198,61.221302
5961,244 YELLOW LEAF CIR,Anchorage,AK,99504,"244 YELLOW LEAF CIR, Anchorage, AK, 99504",Match,Exact,"244 YELLOW LEAF CIR, ANCHORAGE, AK, 99504",190803334,R,02,020,000703,1013,-149.71944,61.220848
5962,240 YELLOW LEAF CIR,Anchorage,AK,99504,"240 YELLOW LEAF CIR, Anchorage, AK, 99504",Match,Exact,"240 YELLOW LEAF CIR, ANCHORAGE, AK, 99504",190803334,R,02,020,000703,1013,-149.71944,61.220863
5963,300 DAVIS ST,Anchorage,AK,99508,"300 DAVIS ST, Anchorage, AK, 99508",Match,Exact,"300 DAVIS ST, ANCHORAGE, AK, 99508",190801967,R,02,020,000801,2010,-149.78609,61.22146
5964,241 YELLOW LEAF CIR,Anchorage,AK,99504,"241 YELLOW LEAF CIR, Anchorage, AK, 99504",Match,Exact,"241 YELLOW LEAF CIR, ANCHORAGE, AK, 99504",190803334,L,02,020,000703,1013,-149.7194,61.220863
5965,240 FALL LEAF CIR,Anchorage,AK,99504,"240 FALL LEAF CIR, Anchorage, AK, 99504",Match,Exact,"240 FALL LEAF CIR, ANCHORAGE, AK, 99504",190803320,R,02,020,000703,1013,-149.72131000000002,61.220859999999995
5966,6370 WHISPERING LOOP,Anchorage,AK,99504,"6370 WHISPERING LOOP, Anchorage, AK, 99504",Match,Exact,"6370 WHISPERING LOOP, ANCHORAGE, AK, 99504",624788733,R,02,020,000701,1000,-149.76268000000002,61.221493
5967,6370 WHISPERING LOOP,Anchorage,AK,99504,"6370 WHISPERING LOOP, Anchorage, AK, 99504",Match,Exact,"6370 WHISPERING LOOP, ANCHORAGE, AK, 99504",624788733,R,02,020,000701,1000,-149.76268000000002,61.221493
5968,116 RUSTY ALLEN PL,Anchorage,AK,99504,"116 RUSTY ALLEN PL, Anchorage, AK, 99504",Match,Exact,"116 RUSTY ALLEN PL, ANCHORAGE, AK, 99504",605185494,R,02,020,000701,1000,-149.76071000000002,61.223354
5969,121 JELINEK PL,Anchorage,AK,99504,"121 JELINEK PL, Anchorage, AK, 99504",Match,Exact,"121 JELINEK PL, ANCHORAGE, AK, 99504",190803206,L,02,020,000703,1011,-149.72505,61.223698
5970,104 MULDOON RD,Anchorage,AK,99504,"104 MULDOON RD, Anchorage, AK, 99504",Match,Exact,"104 MULDOON RD, ANCHORAGE, AK, 99504",638990398,R,02,020,000702,2000,-149.73353999999998,61.223969999999994
5971,120 JELINEK PL,Anchorage,AK,99504,"120 JELINEK PL, Anchorage, AK, 99504",Match,Exact,"120 JELINEK PL, ANCHORAGE, AK, 99504",190803206,R,02,020,000703,2000,-149.72508,61.223698
5972,125 DEAN PL,Anchorage,AK,99504,"125 DEAN PL, Anchorage, AK, 99504",Match,Exact,"125 DEAN PL, ANCHORAGE, AK, 99504",190802859,L,02,020,000702,2000,-149.74007,61.223305
5973,124 DEAN PL,Anchorage,AK,99504,"124 DEAN PL, Anchorage, AK, 99504",Match,Exact,"124 DEAN PL, ANCHORAGE, AK, 99504",190802859,R,02,020,000702,2000,-149.7401,61.223305
5974,100 MC CARREY ST,Anchorage,AK,99508,"100 MC CARREY ST, Anchorage, AK, 99508",Match,Exact,"100 MC CARREY ST, ANCHORAGE, AK, 99508",605167268,R,02,020,000801,1000,-149.79173,61.223273999999996
5975,5403 1/2 CHENA AVE,Anchorage,AK,99508,"5403 1/2 CHENA AVE, Anchorage, AK, 99508",Match,Exact,"5403 CHENA AVE, ANCHORAGE, AK, 99508",190801958,L,02,020,000801,3003,-149.78073,61.22325
5976,7650 BOUNDARY AVE,Anchorage,AK,99504,"7650 BOUNDARY AVE, Anchorage, AK, 99504",Match,Exact,"7650 BOUNDARY AVE, ANCHORAGE, AK, 99504",605167217,R,02,020,000702,2000,-149.73854,61.224169999999994
5977,133 GRAND LARRY ST,Anchorage,AK,99504,"133 GRAND LARRY ST, Anchorage, AK, 99504",Match,Exact,"133 GRAND LARRY ST, ANCHORAGE, AK, 99504",625718475,L,02,020,000703,2000,-149.72975,61.223553
5978,118 RUSTY ALLEN PL,Anchorage,AK,99504,"118 RUSTY ALLEN PL, Anchorage, AK, 99504",Match,Exact,"118 RUSTY ALLEN PL, ANCHORAGE, AK, 99504",605185494,R,02,020,000701,1000,-149.76071000000002,61.223335
5979,100 MC CARREY ST,Anchorage,AK,99508,"100 MC CARREY ST, Anchorage, AK, 99508",Match,Exact,"100 MC CARREY ST, ANCHORAGE, AK, 99508",605167268,R,02,020,000801,1000,-149.79173,61.223273999999996
5980,128 BURTON ST,Anchorage,AK,99504,"128 BURTON ST, Anchorage, AK, 99504",Match,Exact,"128 BURTON ST, ANCHORAGE, AK, 99504",190802857,R,02,020,000702,1006,-149.74196,61.22298000000001
5981,100 MC CARREY ST,Anchorage,AK,99508,"100 MC CARREY ST, Anchorage, AK, 99508",Match,Exact,"100 MC CARREY ST, ANCHORAGE, AK, 99508",605167268,R,02,020,000801,1000,-149.79173,61.223273999999996
5982,8101 PECK AVE,Anchorage,AK,99504,"8101 PECK AVE, Anchorage, AK, 99504",Match,Exact,"8101 PECK AVE, ANCHORAGE, AK, 99504",190803203,L,02,020,000703,2000,-149.72781,61.222378000000006
5983,8101 PECK AVE,Anchorage,AK,99504,"8101 PECK AVE, Anchorage, AK, 99504",Match,Exact,"8101 PECK AVE, ANCHORAGE, AK, 99504",190803203,L,02,020,000703,2000,-149.72781,61.222378000000006
5984,8101 PECK AVE,Anchorage,AK,99504,"8101 PECK AVE, Anchorage, AK, 99504",Match,Exact,"8101 PECK AVE, ANCHORAGE, AK, 99504",190803203,L,02,020,000703,2000,-149.72781,61.222378000000006
5985,8101 PECK AVE,Anchorage,AK,99504,"8101 PECK AVE, Anchorage, AK, 99504",Match,Exact,"8101 PECK AVE, ANCHORAGE, AK, 99504",190803203,L,02,020,000703,2000,-149.72781,61.222378000000006
5986,8101 PECK AVE,Anchorage,AK,99504,"8101 PECK AVE, Anchorage, AK, 99504",Match,Exact,"8101 PECK AVE, ANCHORAGE, AK, 99504",190803203,L,02,020,000703,2000,-149.72781,61.222378000000006
5987,8101 PECK AVE,Anchorage,AK,99504,"8101 PECK AVE, Anchorage, AK, 99504",Match,Exact,"8101 PECK AVE, ANCHORAGE, AK, 99504",190803203,L,02,020,000703,2000,-149.72781,61.222378000000006
5988,8101 PECK AVE,Anchorage,AK,99504,"8101 PECK AVE, Anchorage, AK, 99504",Match,Exact,"8101 PECK AVE, ANCHORAGE, AK, 99504",190803203,L,02,020,000703,2000,-149.72781,61.222378000000006
5989,8101 PECK AVE,Anchorage,AK,99504,"8101 PECK AVE, Anchorage, AK, 99504",Match,Exact,"8101 PECK AVE, ANCHORAGE, AK, 99504",190803203,L,02,020,000703,2000,-149.72781,61.222378000000006
5990,8101 PECK AVE,Anchorage,AK,99504,"8101 PECK AVE, Anchorage, AK, 99504",Match,Exact,"8101 PECK AVE, ANCHORAGE, AK, 99504",190803203,L,02,020,000703,2000,-149.72781,61.222378000000006
5991,8101 PECK AVE,Anchorage,AK,99504,"8101 PECK AVE, Anchorage, AK, 99504",Match,Exact,"8101 PECK AVE, ANCHORAGE, AK, 99504",190803203,L,02,020,000703,2000,-149.72781,61.222378000000006
5992,8504 BOUNDARY AVE,Anchorage,AK,99504,"8504 BOUNDARY AVE, Anchorage, AK, 99504",Match,Exact,"8504 BOUNDARY AVE, ANCHORAGE, AK, 99504",639710376,R,02,020,000703,1011,-149.72281,61.224136
5993,8504 BOUNDARY AVE,Anchorage,AK,99504,"8504 BOUNDARY AVE, Anchorage, AK, 99504",Match,Exact,"8504 BOUNDARY AVE, ANCHORAGE, AK, 99504",639710376,R,02,020,000703,1011,-149.72281,61.224136
5994,8504 BOUNDARY AVE,Anchorage,AK,99504,"8504 BOUNDARY AVE, Anchorage, AK, 99504",Match,Exact,"8504 BOUNDARY AVE, ANCHORAGE, AK, 99504",639710376,R,02,020,000703,1011,-149.72281,61.224136
5995,8504 BOUNDARY AVE,Anchorage,AK,99504,"8504 BOUNDARY AVE, Anchorage, AK, 99504",Match,Exact,"8504 BOUNDARY AVE, ANCHORAGE, AK, 99504",639710376,R,02,020,000703,1011,-149.72281,61.224136
5996,8500 BOUNDARY AVE,Anchorage,AK,99504,"8500 BOUNDARY AVE, Anchorage, AK, 99504",Match,Exact,"8500 BOUNDARY AVE, ANCHORAGE, AK, 99504",639710376,R,02,020,000703,1011,-149.72287,61.224136
5997,8500 BOUNDARY AVE,Anchorage,AK,99504,"8500 BOUNDARY AVE, Anchorage, AK, 99504",Match,Exact,"8500 BOUNDARY AVE, ANCHORAGE, AK, 99504",639710376,R,02,020,000703,1011,-149.72287,61.224136
5998,8500 BOUNDARY AVE,Anchorage,AK,99504,"8500 BOUNDARY AVE, Anchorage, AK, 99504",Match,Exact,"8500 BOUNDARY AVE, ANCHORAGE, AK, 99504",639710376,R,02,020,000703,1011,-149.72287,61.224136
5999,8500 BOUNDARY AVE,Anchorage,AK,99504,"8500 BOUNDARY AVE, Anchorage, AK, 99504",Match,Exact,"8500 BOUNDARY AVE, ANCHORAGE, AK, 99504",639710376,R,02,020,000703,1011,-149.72287,61.224136
