id,address_x,city,state_x,postcode,address_y,result,match_type,address_match,tiger,side,state_y,county,tract,block,lat,long
9000,8510 E 4TH AVE,Anchorage,AK,99504,"8510 E 4TH AVE, Anchorage, AK, 99504",Match,Exact,"8510 E 4TH AVE, ANCHORAGE, AK, 99504",190803337,L,02,020,000703,3000,-149.72173,61.21925
9001,381 FERN LN,Anchorage,AK,99504,"381 FERN LN, Anchorage, AK, 99504",Match,Exact,"381 FERN LN, ANCHORAGE, AK, 99504",190802804,L,02,020,000702,3009,-149.75385,61.219063
9002,340 BEULAH CIR,Anchorage,AK,99504,"340 BEULAH CIR, Anchorage, AK, 99504",Match,Exact,"340 BEULAH CIR, ANCHORAGE, AK, 99504",190808931,L,02,020,000702,2002,-149.7401,61.218993999999995
9003,340 BEULAH CIR,Anchorage,AK,99504,"340 BEULAH CIR, Anchorage, AK, 99504",Match,Exact,"340 BEULAH CIR, ANCHORAGE, AK, 99504",190808931,L,02,020,000702,2002,-149.7401,61.218993999999995
9004,341 BEULAH CIR,Anchorage,AK,99504,"341 BEULAH CIR, Anchorage, AK, 99504",Match,Exact,"341 BEULAH CIR, ANCHORAGE, AK, 99504",190808931,R,02,020,000702,2002,-149.74007,61.218993999999995
9005,341 BEULAH CIR,Anchorage,AK,99504,"341 BEULAH CIR, Anchorage, AK, 99504",Match,Exact,"341 BEULAH CIR, ANCHORAGE, AK, 99504",190808931,R,02,020,000702,2002,-149.74007,61.218993999999995
9006,341 BEULAH CIR,Anchorage,AK,99504,"341 BEULAH CIR, Anchorage, AK, 99504",Match,Exact,"341 BEULAH CIR, ANCHORAGE, AK, 99504",190808931,R,02,020,000702,2002,-149.74007,61.218993999999995
9007,343 KRANE DR,Anchorage,AK,99504,"343 KRANE DR, Anchorage, AK, 99504",Match,Exact,"343 KRANE DR, ANCHORAGE, AK, 99504",605167555,R,02,020,000701,2000,-149.75708,61.219882999999996
9008,401 BUNNELL ST,Anchorage,AK,99508,"401 BUNNELL ST, Anchorage, AK, 99508",Match,Exact,"401 BUNNELL ST, ANCHORAGE, AK, 99508",190801746,L,02,020,000801,4001,-149.78968999999998,61.219166
9009,5901 E 6TH AVE,Anchorage,AK,99504,"5901 E 6TH AVE, Anchorage, AK, 99504",Match,Exact,"5901 E 6TH AVE, ANCHORAGE, AK, 99504",190810852,L,02,020,000701,1000,-149.77061,61.216933999999995
9010,5901 E 6TH AVE,Anchorage,AK,99504,"5901 E 6TH AVE, Anchorage, AK, 99504",Match,Exact,"5901 E 6TH AVE, ANCHORAGE, AK, 99504",190810852,L,02,020,000701,1000,-149.77061,61.216933999999995
9011,5901 E 6TH AVE,Anchorage,AK,99504,"5901 E 6TH AVE, Anchorage, AK, 99504",Match,Exact,"5901 E 6TH AVE, ANCHORAGE, AK, 99504",190810852,L,02,020,000701,1000,-149.77061,61.216933999999995
9012,5901 E 6TH AVE,Anchorage,AK,99504,"5901 E 6TH AVE, Anchorage, AK, 99504",Match,Exact,"5901 E 6TH AVE, ANCHORAGE, AK, 99504",190810852,L,02,020,000701,1000,-149.77061,61.216933999999995
9013,349 KRANE DR,Anchorage,AK,99504,"349 KRANE DR, Anchorage, AK, 99504",Match,Exact,"349 KRANE DR, ANCHORAGE, AK, 99504",605167555,R,02,020,000701,2000,-149.75708,61.219806999999996
9014,345 KRANE DR,Anchorage,AK,99504,"345 KRANE DR, Anchorage, AK, 99504",Match,Exact,"345 KRANE DR, ANCHORAGE, AK, 99504",605167555,R,02,020,000701,2000,-149.75708,61.21986
9015,5901 E 6TH AVE,Anchorage,AK,99504,"5901 E 6TH AVE, Anchorage, AK, 99504",Match,Exact,"5901 E 6TH AVE, ANCHORAGE, AK, 99504",190810852,L,02,020,000701,1000,-149.77061,61.216933999999995
9016,435 STANDISH ST,Anchorage,AK,99504,"435 STANDISH ST, Anchorage, AK, 99504",Match,Exact,"435 STANDISH ST, ANCHORAGE, AK, 99504",190803259,L,02,020,000703,3013,-149.72523,61.21839
9017,411 FALKE CT,Anchorage,AK,99504,"411 FALKE CT, Anchorage, AK, 99504",Match,Exact,"411 FALKE CT, ANCHORAGE, AK, 99504",190802766,L,02,020,000701,2000,-149.75822,61.218143000000005
9018,411 FALKE CT,Anchorage,AK,99504,"411 FALKE CT, Anchorage, AK, 99504",Match,Exact,"411 FALKE CT, ANCHORAGE, AK, 99504",190802766,L,02,020,000701,2000,-149.75822,61.218143000000005
9019,429 IDAHO ST,Anchorage,AK,99504,"429 IDAHO ST, Anchorage, AK, 99504",Match,Exact,"429 IDAHO ST, ANCHORAGE, AK, 99504",190802902,L,02,020,000702,2006,-149.73721,61.218394999999994
9020,429 IDAHO ST,Anchorage,AK,99504,"429 IDAHO ST, Anchorage, AK, 99504",Match,Exact,"429 IDAHO ST, ANCHORAGE, AK, 99504",190802902,L,02,020,000702,2006,-149.73721,61.218394999999994
9021,422 KENNY PL,Anchorage,AK,99504,"422 KENNY PL, Anchorage, AK, 99504",Match,Exact,"422 KENNY PL, ANCHORAGE, AK, 99504",190803213,R,02,020,000702,2006,-149.73546000000002,61.218509999999995
9022,434 EKLUTNA ST,Anchorage,AK,99504,"434 EKLUTNA ST, Anchorage, AK, 99504",No_Match,,,,,,,,,,
9023,5408 NEW SMYRNA CIR,Anchorage,AK,99508,"5408 NEW SMYRNA CIR, Anchorage, AK, 99508",Match,Exact,"5408 NEW SMYRNA CIR, ANCHORAGE, AK, 99508",614862496,R,02,020,000801,4006,-149.78052,61.218067000000005
9024,435 EKLUTNA ST,Anchorage,AK,99504,"435 EKLUTNA ST, Anchorage, AK, 99504",No_Match,,,,,,,,,,
9025,5522 ALORA LOOP,Anchorage,AK,99504,"5522 ALORA LOOP, Anchorage, AK, 99504",Match,Exact,"5522 ALORA LOOP, ANCHORAGE, AK, 99504",190827504,R,02,020,000701,1010,-149.77754,61.218304
9026,451 SCORPIO CIR,Anchorage,AK,99508,"451 SCORPIO CIR, Anchorage, AK, 99508",Match,Exact,"451 SCORPIO CIR, ANCHORAGE, AK, 99508",614862349,R,02,020,000801,4006,-149.78603,61.21819
9027,511 JORDT CIR,Anchorage,AK,99504,"511 JORDT CIR, Anchorage, AK, 99504",Match,Exact,"511 JORDT CIR, ANCHORAGE, AK, 99504",190802815,L,02,020,000702,3007,-149.74958999999998,61.217976
9028,445 PINE ST,Anchorage,AK,99508,"445 PINE ST, Anchorage, AK, 99508",Match,Non_Exact,"445 S PINE ST, ANCHORAGE, AK, 99508",614862229,L,02,020,000801,4007,-149.79338,61.21844
9029,5656 ALORA LOOP,Anchorage,AK,99504,"5656 ALORA LOOP, Anchorage, AK, 99504",Match,Exact,"5656 ALORA LOOP, ANCHORAGE, AK, 99504",190827504,R,02,020,000701,1010,-149.77518,61.218113
9030,5421 NEW SMYRNA CIR,Anchorage,AK,99508,"5421 NEW SMYRNA CIR, Anchorage, AK, 99508",Match,Exact,"5421 NEW SMYRNA CIR, ANCHORAGE, AK, 99508",614862496,L,02,020,000801,4006,-149.78038,61.21808000000001
9031,508 FREDRICKS DR,Anchorage,AK,99504,"508 FREDRICKS DR, Anchorage, AK, 99504",No_Match,,,,,,,,,,
9032,451 CAPRICORN CIR,Anchorage,AK,99508,"451 CAPRICORN CIR, Anchorage, AK, 99508",Match,Exact,"451 CAPRICORN CIR, ANCHORAGE, AK, 99508",614862499,L,02,020,000801,4006,-149.7832,61.21838
9033,434 CHERRY ST,Anchorage,AK,99504,"434 CHERRY ST, Anchorage, AK, 99504",Match,Exact,"434 CHERRY ST, ANCHORAGE, AK, 99504",190803319,R,02,020,000703,3012,-149.72224,61.21846
9034,440 CREEKSIDE ST,Anchorage,AK,99504,"440 CREEKSIDE ST, Anchorage, AK, 99504",Match,Exact,"440 CREEKSIDE ST, ANCHORAGE, AK, 99504",190802892,R,02,020,000702,2004,-149.741,61.2183
9035,5451 NEW SMYRNA CIR,Anchorage,AK,99508,"5451 NEW SMYRNA CIR, Anchorage, AK, 99508",Match,Exact,"5451 NEW SMYRNA CIR, ANCHORAGE, AK, 99508",614862496,L,02,020,000801,4006,-149.78003999999999,61.218075
9036,5430 NEW SMYRNA CIR,Anchorage,AK,99508,"5430 NEW SMYRNA CIR, Anchorage, AK, 99508",Match,Exact,"5430 NEW SMYRNA CIR, ANCHORAGE, AK, 99508",614862496,R,02,020,000801,4006,-149.78027,61.218067000000005
9037,5446 NEW SMYRNA CIR,Anchorage,AK,99508,"5446 NEW SMYRNA CIR, Anchorage, AK, 99508",Match,Exact,"5446 NEW SMYRNA CIR, ANCHORAGE, AK, 99508",614862496,R,02,020,000801,4006,-149.78009,61.218067000000005
9038,5416 NEW SMYRNA CIR,Anchorage,AK,99508,"5416 NEW SMYRNA CIR, Anchorage, AK, 99508",Match,Exact,"5416 NEW SMYRNA CIR, ANCHORAGE, AK, 99508",614862496,R,02,020,000801,4006,-149.78043,61.218067000000005
9039,5416 NEW SMYRNA CIR,Anchorage,AK,99508,"5416 NEW SMYRNA CIR, Anchorage, AK, 99508",Match,Exact,"5416 NEW SMYRNA CIR, ANCHORAGE, AK, 99508",614862496,R,02,020,000801,4006,-149.78043,61.218067000000005
9040,5721 ROCKY MOUNTAIN CT,Anchorage,AK,99504,"5721 ROCKY MOUNTAIN CT, Anchorage, AK, 99504",Match,Exact,"5721 ROCKY MOUNTAIN CT, ANCHORAGE, AK, 99504",190802016,L,02,020,000701,1010,-149.77324,61.21784
9041,5721 ROCKY MOUNTAIN CT,Anchorage,AK,99504,"5721 ROCKY MOUNTAIN CT, Anchorage, AK, 99504",Match,Exact,"5721 ROCKY MOUNTAIN CT, ANCHORAGE, AK, 99504",190802016,L,02,020,000701,1010,-149.77324,61.21784
9042,5711 ROCKY MOUNTAIN CT,Anchorage,AK,99504,"5711 ROCKY MOUNTAIN CT, Anchorage, AK, 99504",Match,Exact,"5711 ROCKY MOUNTAIN CT, ANCHORAGE, AK, 99504",190802016,L,02,020,000701,1010,-149.77335,61.21784
9043,5711 ROCKY MOUNTAIN CT,Anchorage,AK,99504,"5711 ROCKY MOUNTAIN CT, Anchorage, AK, 99504",Match,Exact,"5711 ROCKY MOUNTAIN CT, ANCHORAGE, AK, 99504",190802016,L,02,020,000701,1010,-149.77335,61.21784
9044,430 DONNA DR,Anchorage,AK,99504,"430 DONNA DR, Anchorage, AK, 99504",Match,Exact,"430 DONNA DR, ANCHORAGE, AK, 99504",190802765,L,02,020,000701,1000,-149.75882,61.21805
9045,460 CREEKSIDE ST,Anchorage,AK,99504,"460 CREEKSIDE ST, Anchorage, AK, 99504",Match,Exact,"460 CREEKSIDE ST, ANCHORAGE, AK, 99504",190802892,R,02,020,000702,2004,-149.741,61.218146999999995
9046,431 FALKE CT,Anchorage,AK,99504,"431 FALKE CT, Anchorage, AK, 99504",Match,Exact,"431 FALKE CT, ANCHORAGE, AK, 99504",190802766,L,02,020,000701,2000,-149.75787,61.21804399999999
9047,5456 NEW SMYRNA CIR,Anchorage,AK,99508,"5456 NEW SMYRNA CIR, Anchorage, AK, 99508",Match,Exact,"5456 NEW SMYRNA CIR, ANCHORAGE, AK, 99508",614862496,R,02,020,000801,4006,-149.77998,61.218063
9048,4991 E 5TH AVE,Anchorage,AK,99508,"4991 E 5TH AVE, Anchorage, AK, 99508",Match,Exact,"4991 E 5TH AVE, ANCHORAGE, AK, 99508",190801754,L,02,020,000801,4006,-149.78821000000002,61.217785
9049,5901 E 6TH AVE,Anchorage,AK,99504,"5901 E 6TH AVE, Anchorage, AK, 99504",Match,Exact,"5901 E 6TH AVE, ANCHORAGE, AK, 99504",190810852,L,02,020,000701,1000,-149.77061,61.216933999999995
9050,5901 E 6TH AVE,Anchorage,AK,99504,"5901 E 6TH AVE, Anchorage, AK, 99504",Match,Exact,"5901 E 6TH AVE, ANCHORAGE, AK, 99504",190810852,L,02,020,000701,1000,-149.77061,61.216933999999995
9051,5851 ROCKY MOUNTAIN CT,Anchorage,AK,99504,"5851 ROCKY MOUNTAIN CT, Anchorage, AK, 99504",Match,Exact,"5851 ROCKY MOUNTAIN CT, ANCHORAGE, AK, 99504",190802016,L,02,020,000701,1010,-149.77168,61.217842000000005
9052,5851 ROCKY MOUNTAIN CT,Anchorage,AK,99504,"5851 ROCKY MOUNTAIN CT, Anchorage, AK, 99504",Match,Exact,"5851 ROCKY MOUNTAIN CT, ANCHORAGE, AK, 99504",190802016,L,02,020,000701,1010,-149.77168,61.217842000000005
9053,5851 ROCKY MOUNTAIN CT,Anchorage,AK,99504,"5851 ROCKY MOUNTAIN CT, Anchorage, AK, 99504",Match,Exact,"5851 ROCKY MOUNTAIN CT, ANCHORAGE, AK, 99504",190802016,L,02,020,000701,1010,-149.77168,61.217842000000005
9054,5851 ROCKY MOUNTAIN CT,Anchorage,AK,99504,"5851 ROCKY MOUNTAIN CT, Anchorage, AK, 99504",Match,Exact,"5851 ROCKY MOUNTAIN CT, ANCHORAGE, AK, 99504",190802016,L,02,020,000701,1010,-149.77168,61.217842000000005
9055,5841 ROCKY MOUNTAIN CT,Anchorage,AK,99504,"5841 ROCKY MOUNTAIN CT, Anchorage, AK, 99504",Match,Exact,"5841 ROCKY MOUNTAIN CT, ANCHORAGE, AK, 99504",190802016,L,02,020,000701,1010,-149.7718,61.217842000000005
9056,5841 ROCKY MOUNTAIN CT,Anchorage,AK,99504,"5841 ROCKY MOUNTAIN CT, Anchorage, AK, 99504",Match,Exact,"5841 ROCKY MOUNTAIN CT, ANCHORAGE, AK, 99504",190802016,L,02,020,000701,1010,-149.7718,61.217842000000005
9057,5841 ROCKY MOUNTAIN CT,Anchorage,AK,99504,"5841 ROCKY MOUNTAIN CT, Anchorage, AK, 99504",Match,Exact,"5841 ROCKY MOUNTAIN CT, ANCHORAGE, AK, 99504",190802016,L,02,020,000701,1010,-149.7718,61.217842000000005
9058,5841 ROCKY MOUNTAIN CT,Anchorage,AK,99504,"5841 ROCKY MOUNTAIN CT, Anchorage, AK, 99504",Match,Exact,"5841 ROCKY MOUNTAIN CT, ANCHORAGE, AK, 99504",190802016,L,02,020,000701,1010,-149.7718,61.217842000000005
9059,5831 ROCKY MOUNTAIN CT,Anchorage,AK,99504,"5831 ROCKY MOUNTAIN CT, Anchorage, AK, 99504",Match,Exact,"5831 ROCKY MOUNTAIN CT, ANCHORAGE, AK, 99504",190802016,L,02,020,000701,1010,-149.77193,61.217842000000005
9060,5831 ROCKY MOUNTAIN CT,Anchorage,AK,99504,"5831 ROCKY MOUNTAIN CT, Anchorage, AK, 99504",Match,Exact,"5831 ROCKY MOUNTAIN CT, ANCHORAGE, AK, 99504",190802016,L,02,020,000701,1010,-149.77193,61.217842000000005
9061,7900 DUBEN AVE,Anchorage,AK,99504,"7900 DUBEN AVE, Anchorage, AK, 99504",Match,Exact,"7900 DUBEN AVE, ANCHORAGE, AK, 99504",190803225,R,02,020,000703,3004,-149.73334,61.220592
9062,6920 DICKERSON DR,Anchorage,AK,99504,"6920 DICKERSON DR, Anchorage, AK, 99504",Match,Exact,"6920 DICKERSON DR, ANCHORAGE, AK, 99504",190802810,R,02,020,000702,3004,-149.75246,61.220783
9063,7001 DICKERSON DR,Anchorage,AK,99504,"7001 DICKERSON DR, Anchorage, AK, 99504",Match,Exact,"7001 DICKERSON DR, ANCHORAGE, AK, 99504",190802810,L,02,020,000702,3004,-149.75188,61.22051999999999
9064,6951 DICKERSON DR,Anchorage,AK,99504,"6951 DICKERSON DR, Anchorage, AK, 99504",Match,Exact,"6951 DICKERSON DR, ANCHORAGE, AK, 99504",190802810,L,02,020,000702,3004,-149.75235,61.220721999999995
9065,5325 LIONHEART DR,Anchorage,AK,99508,"5325 LIONHEART DR, Anchorage, AK, 99508",Match,Exact,"5325 LIONHEART DR, ANCHORAGE, AK, 99508",190801973,L,02,020,000801,3008,-149.7821,61.220569999999995
9066,8340 DUBEN AVE,Anchorage,AK,99504,"8340 DUBEN AVE, Anchorage, AK, 99504",Match,Exact,"8340 DUBEN AVE, ANCHORAGE, AK, 99504",190803260,R,02,020,000703,3002,-149.72525,61.220608
9067,309 BUNNELL ST,Anchorage,AK,99508,"309 BUNNELL ST, Anchorage, AK, 99508",Match,Exact,"309 BUNNELL ST, ANCHORAGE, AK, 99508",624266935,L,02,020,000801,2008,-149.78968999999998,61.220566000000005
9068,309 STEWART ST,Anchorage,AK,99508,"309 STEWART ST, Anchorage, AK, 99508",Match,Exact,"309 STEWART ST, ANCHORAGE, AK, 99508",190801748,L,02,020,000801,2009,-149.78789,61.221336
9069,5901 E 6TH AVE,Anchorage,AK,99504,"5901 E 6TH AVE, Anchorage, AK, 99504",Match,Exact,"5901 E 6TH AVE, ANCHORAGE, AK, 99504",190810852,L,02,020,000701,1000,-149.77061,61.216933999999995
9070,5901 E 6TH AVE,Anchorage,AK,99504,"5901 E 6TH AVE, Anchorage, AK, 99504",Match,Exact,"5901 E 6TH AVE, ANCHORAGE, AK, 99504",190810852,L,02,020,000701,1000,-149.77061,61.216933999999995
9071,5901 E 6TH AVE,Anchorage,AK,99504,"5901 E 6TH AVE, Anchorage, AK, 99504",Match,Exact,"5901 E 6TH AVE, ANCHORAGE, AK, 99504",190810852,L,02,020,000701,1000,-149.77061,61.216933999999995
9072,8553 E 4TH AVE,Anchorage,AK,99504,"8553 E 4TH AVE, Anchorage, AK, 99504",Match,Exact,"8553 E 4TH AVE, ANCHORAGE, AK, 99504",190803337,R,02,020,000703,3001,-149.72073,61.21926
9073,5901 E 6TH AVE,Anchorage,AK,99504,"5901 E 6TH AVE, Anchorage, AK, 99504",Match,Exact,"5901 E 6TH AVE, ANCHORAGE, AK, 99504",190810852,L,02,020,000701,1000,-149.77061,61.216933999999995
9074,6400 PEPPERTREE CIR,Anchorage,AK,99504,"6400 PEPPERTREE CIR, Anchorage, AK, 99504",Match,Exact,"6400 PEPPERTREE CIR, ANCHORAGE, AK, 99504",190808603,L,02,020,000701,1008,-149.76077,61.219280000000005
9075,5901 E 6TH AVE,Anchorage,AK,99504,"5901 E 6TH AVE, Anchorage, AK, 99504",Match,Exact,"5901 E 6TH AVE, ANCHORAGE, AK, 99504",190810852,L,02,020,000701,1000,-149.77061,61.216933999999995
9076,5710 E 4TH AVE,Anchorage,AK,99504,"5710 E 4TH AVE, Anchorage, AK, 99504",Match,Exact,"5710 E 4TH AVE, ANCHORAGE, AK, 99504",190827503,R,02,020,000701,1010,-149.77456999999998,61.218697
9077,5710 E 4TH AVE,Anchorage,AK,99504,"5710 E 4TH AVE, Anchorage, AK, 99504",Match,Exact,"5710 E 4TH AVE, ANCHORAGE, AK, 99504",190827503,R,02,020,000701,1010,-149.77456999999998,61.218697
9078,5700 E 4TH AVE,Anchorage,AK,99504,"5700 E 4TH AVE, Anchorage, AK, 99504",Match,Exact,"5700 E 4TH AVE, ANCHORAGE, AK, 99504",190827503,R,02,020,000701,1010,-149.77475,61.218697
9079,5700 E 4TH AVE,Anchorage,AK,99504,"5700 E 4TH AVE, Anchorage, AK, 99504",Match,Exact,"5700 E 4TH AVE, ANCHORAGE, AK, 99504",190827503,R,02,020,000701,1010,-149.77475,61.218697
9080,5700 E 4TH AVE,Anchorage,AK,99504,"5700 E 4TH AVE, Anchorage, AK, 99504",Match,Exact,"5700 E 4TH AVE, ANCHORAGE, AK, 99504",190827503,R,02,020,000701,1010,-149.77475,61.218697
9081,5700 E 4TH AVE,Anchorage,AK,99504,"5700 E 4TH AVE, Anchorage, AK, 99504",Match,Exact,"5700 E 4TH AVE, ANCHORAGE, AK, 99504",190827503,R,02,020,000701,1010,-149.77475,61.218697
9082,5622 E 4TH AVE,Anchorage,AK,99504,"5622 E 4TH AVE, Anchorage, AK, 99504",Match,Exact,"5622 E 4TH AVE, ANCHORAGE, AK, 99504",190827502,R,02,020,000701,1011,-149.77606,61.218697
9083,5620 E 4TH AVE,Anchorage,AK,99504,"5620 E 4TH AVE, Anchorage, AK, 99504",Match,Exact,"5620 E 4TH AVE, ANCHORAGE, AK, 99504",190827502,R,02,020,000701,1011,-149.7761,61.218697
9084,5602 E 4TH AVE,Anchorage,AK,99504,"5602 E 4TH AVE, Anchorage, AK, 99504",Match,Exact,"5602 E 4TH AVE, ANCHORAGE, AK, 99504",190827502,R,02,020,000701,1011,-149.77628,61.218697
9085,5600 E 4TH AVE,Anchorage,AK,99504,"5600 E 4TH AVE, Anchorage, AK, 99504",Match,Exact,"5600 E 4TH AVE, ANCHORAGE, AK, 99504",190827502,R,02,020,000701,1011,-149.77629,61.218697
9086,5542 E 4TH AVE,Anchorage,AK,99504,"5542 E 4TH AVE, Anchorage, AK, 99504",Match,Exact,"5542 E 4TH AVE, ANCHORAGE, AK, 99504",190827502,R,02,020,000701,1011,-149.7769,61.2187
9087,5540 E 4TH AVE,Anchorage,AK,99504,"5540 E 4TH AVE, Anchorage, AK, 99504",Match,Exact,"5540 E 4TH AVE, ANCHORAGE, AK, 99504",190827502,R,02,020,000701,1011,-149.77692,61.2187
9088,5630 E 4TH AVE,Anchorage,AK,99504,"5630 E 4TH AVE, Anchorage, AK, 99504",Match,Exact,"5630 E 4TH AVE, ANCHORAGE, AK, 99504",190827502,R,02,020,000701,1011,-149.77598999999998,61.218697
9089,5612 E 4TH AVE,Anchorage,AK,99504,"5612 E 4TH AVE, Anchorage, AK, 99504",Match,Exact,"5612 E 4TH AVE, ANCHORAGE, AK, 99504",190827502,R,02,020,000701,1011,-149.77617,61.218697
9090,5610 E 4TH AVE,Anchorage,AK,99504,"5610 E 4TH AVE, Anchorage, AK, 99504",Match,Exact,"5610 E 4TH AVE, ANCHORAGE, AK, 99504",190827502,R,02,020,000701,1011,-149.77618,61.218697
9091,5552 E 4TH AVE,Anchorage,AK,99504,"5552 E 4TH AVE, Anchorage, AK, 99504",Match,Exact,"5552 E 4TH AVE, ANCHORAGE, AK, 99504",190827502,R,02,020,000701,1011,-149.7768,61.2187
9092,5550 E 4TH AVE,Anchorage,AK,99504,"5550 E 4TH AVE, Anchorage, AK, 99504",Match,Exact,"5550 E 4TH AVE, ANCHORAGE, AK, 99504",190827502,R,02,020,000701,1011,-149.77682,61.2187
9093,5532 E 4TH AVE,Anchorage,AK,99504,"5532 E 4TH AVE, Anchorage, AK, 99504",Match,Exact,"5532 E 4TH AVE, ANCHORAGE, AK, 99504",190827502,R,02,020,000701,1011,-149.77701000000002,61.2187
9094,5632 E 4TH AVE,Anchorage,AK,99504,"5632 E 4TH AVE, Anchorage, AK, 99504",Match,Exact,"5632 E 4TH AVE, ANCHORAGE, AK, 99504",190827502,R,02,020,000701,1011,-149.77596,61.218697
9095,450 FREDRICKS DR,Anchorage,AK,99504,"450 FREDRICKS DR, Anchorage, AK, 99504",No_Match,,,,,,,,,,
9096,405 FERN LN,Anchorage,AK,99504,"405 FERN LN, Anchorage, AK, 99504",Match,Exact,"405 FERN LN, ANCHORAGE, AK, 99504",190802806,L,02,020,000702,3009,-149.75385,61.218582
9097,5530 E 4TH AVE,Anchorage,AK,99504,"5530 E 4TH AVE, Anchorage, AK, 99504",Match,Exact,"5530 E 4TH AVE, ANCHORAGE, AK, 99504",190827502,R,02,020,000701,1011,-149.77702,61.2187
9098,435 PINE ST,Anchorage,AK,99508,"435 PINE ST, Anchorage, AK, 99508",Match,Non_Exact,"435 S PINE ST, ANCHORAGE, AK, 99508",614862229,L,02,020,000801,4007,-149.79338,61.218502
9099,435 PINE ST,Anchorage,AK,99508,"435 PINE ST, Anchorage, AK, 99508",Match,Non_Exact,"435 S PINE ST, ANCHORAGE, AK, 99508",614862229,L,02,020,000801,4007,-149.79338,61.218502
9100,435 PINE ST,Anchorage,AK,99508,"435 PINE ST, Anchorage, AK, 99508",Match,Non_Exact,"435 S PINE ST, ANCHORAGE, AK, 99508",614862229,L,02,020,000801,4007,-149.79338,61.218502
9101,435 PINE ST,Anchorage,AK,99508,"435 PINE ST, Anchorage, AK, 99508",Match,Non_Exact,"435 S PINE ST, ANCHORAGE, AK, 99508",614862229,L,02,020,000801,4007,-149.79338,61.218502
9102,400 TURPIN ST,Anchorage,AK,99504,"400 TURPIN ST, Anchorage, AK, 99504",Match,Exact,"400 TURPIN ST, ANCHORAGE, AK, 99504",190802771,R,02,020,000701,2000,-149.75597,61.21861
9103,400 TURPIN ST,Anchorage,AK,99504,"400 TURPIN ST, Anchorage, AK, 99504",Match,Exact,"400 TURPIN ST, ANCHORAGE, AK, 99504",190802771,R,02,020,000701,2000,-149.75597,61.21861
9104,400 TURPIN ST,Anchorage,AK,99504,"400 TURPIN ST, Anchorage, AK, 99504",Match,Exact,"400 TURPIN ST, ANCHORAGE, AK, 99504",190802771,R,02,020,000701,2000,-149.75597,61.21861
9105,8512 E 4TH AVE,Anchorage,AK,99504,"8512 E 4TH AVE, Anchorage, AK, 99504",Match,Exact,"8512 E 4TH AVE, ANCHORAGE, AK, 99504",190803337,L,02,020,000703,3000,-149.72168,61.21925
9106,8528 E 4TH AVE,Anchorage,AK,99504,"8528 E 4TH AVE, Anchorage, AK, 99504",Match,Exact,"8528 E 4TH AVE, ANCHORAGE, AK, 99504",190803337,L,02,020,000703,3000,-149.7213,61.21925
9107,8530 E 4TH AVE,Anchorage,AK,99504,"8530 E 4TH AVE, Anchorage, AK, 99504",Match,Exact,"8530 E 4TH AVE, ANCHORAGE, AK, 99504",190803337,L,02,020,000703,3000,-149.72125,61.21925
9108,5901 E 6TH AVE,Anchorage,AK,99504,"5901 E 6TH AVE, Anchorage, AK, 99504",Match,Exact,"5901 E 6TH AVE, ANCHORAGE, AK, 99504",190810852,L,02,020,000701,1000,-149.77061,61.216933999999995
9109,5901 E 6TH AVE,Anchorage,AK,99504,"5901 E 6TH AVE, Anchorage, AK, 99504",Match,Exact,"5901 E 6TH AVE, ANCHORAGE, AK, 99504",190810852,L,02,020,000701,1000,-149.77061,61.216933999999995
9110,400 TURPIN ST,Anchorage,AK,99504,"400 TURPIN ST, Anchorage, AK, 99504",Match,Exact,"400 TURPIN ST, ANCHORAGE, AK, 99504",190802771,R,02,020,000701,2000,-149.75597,61.21861
9111,400 TURPIN ST,Anchorage,AK,99504,"400 TURPIN ST, Anchorage, AK, 99504",Match,Exact,"400 TURPIN ST, ANCHORAGE, AK, 99504",190802771,R,02,020,000701,2000,-149.75597,61.21861
9112,400 TURPIN ST,Anchorage,AK,99504,"400 TURPIN ST, Anchorage, AK, 99504",Match,Exact,"400 TURPIN ST, ANCHORAGE, AK, 99504",190802771,R,02,020,000701,2000,-149.75597,61.21861
9113,400 TURPIN ST,Anchorage,AK,99504,"400 TURPIN ST, Anchorage, AK, 99504",Match,Exact,"400 TURPIN ST, ANCHORAGE, AK, 99504",190802771,R,02,020,000701,2000,-149.75597,61.21861
9114,400 TURPIN ST,Anchorage,AK,99504,"400 TURPIN ST, Anchorage, AK, 99504",Match,Exact,"400 TURPIN ST, ANCHORAGE, AK, 99504",190802771,R,02,020,000701,2000,-149.75597,61.21861
9115,5901 E 6TH AVE,Anchorage,AK,99504,"5901 E 6TH AVE, Anchorage, AK, 99504",Match,Exact,"5901 E 6TH AVE, ANCHORAGE, AK, 99504",190810852,L,02,020,000701,1000,-149.77061,61.216933999999995
9116,5901 E 6TH AVE,Anchorage,AK,99504,"5901 E 6TH AVE, Anchorage, AK, 99504",Match,Exact,"5901 E 6TH AVE, ANCHORAGE, AK, 99504",190810852,L,02,020,000701,1000,-149.77061,61.216933999999995
9117,5901 E 6TH AVE,Anchorage,AK,99504,"5901 E 6TH AVE, Anchorage, AK, 99504",Match,Exact,"5901 E 6TH AVE, ANCHORAGE, AK, 99504",190810852,L,02,020,000701,1000,-149.77061,61.216933999999995
9118,5901 E 6TH AVE,Anchorage,AK,99504,"5901 E 6TH AVE, Anchorage, AK, 99504",Match,Exact,"5901 E 6TH AVE, ANCHORAGE, AK, 99504",190810852,L,02,020,000701,1000,-149.77061,61.216933999999995
9119,5901 E 6TH AVE,Anchorage,AK,99504,"5901 E 6TH AVE, Anchorage, AK, 99504",Match,Exact,"5901 E 6TH AVE, ANCHORAGE, AK, 99504",190810852,L,02,020,000701,1000,-149.77061,61.216933999999995
9120,450 PEPPERTREE LOOP,Anchorage,AK,99504,"450 PEPPERTREE LOOP, Anchorage, AK, 99504",Match,Exact,"450 PEPPERTREE LOOP, ANCHORAGE, AK, 99504",190826164,R,02,020,000701,1000,-149.76181,61.21849399999999
9121,5901 E 6TH AVE,Anchorage,AK,99504,"5901 E 6TH AVE, Anchorage, AK, 99504",Match,Exact,"5901 E 6TH AVE, ANCHORAGE, AK, 99504",190810852,L,02,020,000701,1000,-149.77061,61.216933999999995
9122,5901 E 6TH AVE,Anchorage,AK,99504,"5901 E 6TH AVE, Anchorage, AK, 99504",Match,Exact,"5901 E 6TH AVE, ANCHORAGE, AK, 99504",190810852,L,02,020,000701,1000,-149.77061,61.216933999999995
9123,415 MULDOON RD,Anchorage,AK,99504,"415 MULDOON RD, Anchorage, AK, 99504",Match,Exact,"415 MULDOON RD, ANCHORAGE, AK, 99504",190803217,L,02,020,000703,3008,-149.73346999999998,61.218619999999994
9124,5901 E 6TH AVE,Anchorage,AK,99504,"5901 E 6TH AVE, Anchorage, AK, 99504",Match,Exact,"5901 E 6TH AVE, ANCHORAGE, AK, 99504",190810852,L,02,020,000701,1000,-149.77061,61.216933999999995
9125,5901 E 6TH AVE,Anchorage,AK,99504,"5901 E 6TH AVE, Anchorage, AK, 99504",Match,Exact,"5901 E 6TH AVE, ANCHORAGE, AK, 99504",190810852,L,02,020,000701,1000,-149.77061,61.216933999999995
9126,410 OKLAHOMA ST,Anchorage,AK,99504,"410 OKLAHOMA ST, Anchorage, AK, 99504",Match,Exact,"410 OKLAHOMA ST, ANCHORAGE, AK, 99504",190802877,R,02,020,000702,3007,-149.74475,61.21853
9127,5901 E 6TH AVE,Anchorage,AK,99504,"5901 E 6TH AVE, Anchorage, AK, 99504",Match,Exact,"5901 E 6TH AVE, ANCHORAGE, AK, 99504",190810852,L,02,020,000701,1000,-149.77061,61.216933999999995
9128,5901 E 6TH AVE,Anchorage,AK,99504,"5901 E 6TH AVE, Anchorage, AK, 99504",Match,Exact,"5901 E 6TH AVE, ANCHORAGE, AK, 99504",190810852,L,02,020,000701,1000,-149.77061,61.216933999999995
9129,410 CAPRICORN CIR,Anchorage,AK,99508,"410 CAPRICORN CIR, Anchorage, AK, 99508",Match,Exact,"410 CAPRICORN CIR, ANCHORAGE, AK, 99508",614862499,R,02,020,000801,4006,-149.78322,61.21848000000001
9130,480 PEPPERTREE LOOP,Anchorage,AK,99504,"480 PEPPERTREE LOOP, Anchorage, AK, 99504",Match,Exact,"480 PEPPERTREE LOOP, ANCHORAGE, AK, 99504",190826164,R,02,020,000701,1000,-149.76105,61.218422
9131,410 CREEKSIDE ST,Anchorage,AK,99504,"410 CREEKSIDE ST, Anchorage, AK, 99504",Match,Exact,"410 CREEKSIDE ST, ANCHORAGE, AK, 99504",190802892,R,02,020,000702,2004,-149.741,61.21853
9132,5901 E 6TH AVE,Anchorage,AK,99504,"5901 E 6TH AVE, Anchorage, AK, 99504",Match,Exact,"5901 E 6TH AVE, ANCHORAGE, AK, 99504",190810852,L,02,020,000701,1000,-149.77061,61.216933999999995
9133,5901 E 6TH AVE,Anchorage,AK,99504,"5901 E 6TH AVE, Anchorage, AK, 99504",Match,Exact,"5901 E 6TH AVE, ANCHORAGE, AK, 99504",190810852,L,02,020,000701,1000,-149.77061,61.216933999999995
9134,411 CAPRICORN CIR,Anchorage,AK,99508,"411 CAPRICORN CIR, Anchorage, AK, 99508",Match,Exact,"411 CAPRICORN CIR, ANCHORAGE, AK, 99508",614862498,L,02,020,000801,4006,-149.7832,61.21856999999999
9135,411 SCORPIO CIR,Anchorage,AK,99508,"411 SCORPIO CIR, Anchorage, AK, 99508",Match,Exact,"411 SCORPIO CIR, ANCHORAGE, AK, 99508",614862348,R,02,020,000801,4006,-149.78603,61.218555
9136,5901 E 6TH AVE,Anchorage,AK,99504,"5901 E 6TH AVE, Anchorage, AK, 99504",Match,Exact,"5901 E 6TH AVE, ANCHORAGE, AK, 99504",190810852,L,02,020,000701,1000,-149.77061,61.216933999999995
9137,424 EKLUTNA ST,Anchorage,AK,99504,"424 EKLUTNA ST, Anchorage, AK, 99504",No_Match,,,,,,,,,,
9138,410 SCORPIO CIR,Anchorage,AK,99508,"410 SCORPIO CIR, Anchorage, AK, 99508",Match,Exact,"410 SCORPIO CIR, ANCHORAGE, AK, 99508",614862349,L,02,020,000801,4006,-149.786,61.21836999999999
9139,5901 E 6TH AVE,Anchorage,AK,99504,"5901 E 6TH AVE, Anchorage, AK, 99504",Match,Exact,"5901 E 6TH AVE, ANCHORAGE, AK, 99504",190810852,L,02,020,000701,1000,-149.77061,61.216933999999995
9140,5447 NEW SMYRNA CIR,Anchorage,AK,99508,"5447 NEW SMYRNA CIR, Anchorage, AK, 99508",Match,Exact,"5447 NEW SMYRNA CIR, ANCHORAGE, AK, 99508",614862496,L,02,020,000801,4006,-149.78009,61.218075
9141,5441 NEW SMYRNA CIR,Anchorage,AK,99508,"5441 NEW SMYRNA CIR, Anchorage, AK, 99508",Match,Exact,"5441 NEW SMYRNA CIR, ANCHORAGE, AK, 99508",614862496,L,02,020,000801,4006,-149.78015,61.21808000000001
9142,5437 NEW SMYRNA CIR,Anchorage,AK,99508,"5437 NEW SMYRNA CIR, Anchorage, AK, 99508",Match,Exact,"5437 NEW SMYRNA CIR, ANCHORAGE, AK, 99508",614862496,L,02,020,000801,4006,-149.7802,61.21808000000001
9143,5431 NEW SMYRNA CIR,Anchorage,AK,99508,"5431 NEW SMYRNA CIR, Anchorage, AK, 99508",Match,Exact,"5431 NEW SMYRNA CIR, ANCHORAGE, AK, 99508",614862496,L,02,020,000801,4006,-149.78027,61.21808000000001
9144,5427 NEW SMYRNA CIR,Anchorage,AK,99508,"5427 NEW SMYRNA CIR, Anchorage, AK, 99508",Match,Exact,"5427 NEW SMYRNA CIR, ANCHORAGE, AK, 99508",614862496,L,02,020,000801,4006,-149.78032,61.21808000000001
9145,5457 NEW SMYRNA CIR,Anchorage,AK,99508,"5457 NEW SMYRNA CIR, Anchorage, AK, 99508",Match,Exact,"5457 NEW SMYRNA CIR, ANCHORAGE, AK, 99508",614862496,L,02,020,000801,4006,-149.77998,61.218075
9146,5654 ALORA LOOP,Anchorage,AK,99504,"5654 ALORA LOOP, Anchorage, AK, 99504",Match,Exact,"5654 ALORA LOOP, ANCHORAGE, AK, 99504",190827504,R,02,020,000701,1010,-149.7752,61.2181
9147,5530 ALORA LOOP,Anchorage,AK,99504,"5530 ALORA LOOP, Anchorage, AK, 99504",Match,Exact,"5530 ALORA LOOP, ANCHORAGE, AK, 99504",190827504,R,02,020,000701,1010,-149.77756000000002,61.218227
9148,450 SCORPIO CIR,Anchorage,AK,99508,"450 SCORPIO CIR, Anchorage, AK, 99508",Match,Exact,"450 SCORPIO CIR, ANCHORAGE, AK, 99508",614862349,L,02,020,000801,4006,-149.786,61.21811999999999
9149,444 STANDISH ST,Anchorage,AK,99504,"444 STANDISH ST, Anchorage, AK, 99504",Match,Exact,"444 STANDISH ST, ANCHORAGE, AK, 99504",190803259,R,02,020,000703,3002,-149.72527,61.218309999999995
9150,430 BUNNELL ST,Anchorage,AK,99508,"430 BUNNELL ST, Anchorage, AK, 99508",Match,Exact,"430 BUNNELL ST, ANCHORAGE, AK, 99508",614862225,R,02,020,000801,4007,-149.7897,61.218295999999995
9151,450 CAPRICORN CIR,Anchorage,AK,99508,"450 CAPRICORN CIR, Anchorage, AK, 99508",Match,Exact,"450 CAPRICORN CIR, ANCHORAGE, AK, 99508",614862499,R,02,020,000801,4006,-149.78322,61.21836
9152,5633 ALORA LOOP,Anchorage,AK,99504,"5633 ALORA LOOP, Anchorage, AK, 99504",Match,Exact,"5633 ALORA LOOP, ANCHORAGE, AK, 99504",190827504,L,02,020,000701,1011,-149.77565,61.218081999999995
9153,550 CREEKSIDE ST,Anchorage,AK,99504,"550 CREEKSIDE ST, Anchorage, AK, 99504",Match,Exact,"550 CREEKSIDE ST, ANCHORAGE, AK, 99504",190802892,R,02,020,000702,2004,-149.74098,61.217456999999996
9154,550 CREEKSIDE ST,Anchorage,AK,99504,"550 CREEKSIDE ST, Anchorage, AK, 99504",Match,Exact,"550 CREEKSIDE ST, ANCHORAGE, AK, 99504",190802892,R,02,020,000702,2004,-149.74098,61.217456999999996
9155,541 CREEKSIDE ST,Anchorage,AK,99504,"541 CREEKSIDE ST, Anchorage, AK, 99504",Match,Exact,"541 CREEKSIDE ST, ANCHORAGE, AK, 99504",190802892,L,02,020,000702,2005,-149.74097,61.217532999999996
9156,541 CREEKSIDE ST,Anchorage,AK,99504,"541 CREEKSIDE ST, Anchorage, AK, 99504",Match,Exact,"541 CREEKSIDE ST, ANCHORAGE, AK, 99504",190802892,L,02,020,000702,2005,-149.74097,61.217532999999996
9157,469 FALKE CT,Anchorage,AK,99504,"469 FALKE CT, Anchorage, AK, 99504",Match,Exact,"469 FALKE CT, ANCHORAGE, AK, 99504",190802766,L,02,020,000701,2000,-149.75763,61.2177
9158,471 FALKE CT,Anchorage,AK,99504,"471 FALKE CT, Anchorage, AK, 99504",Match,Exact,"471 FALKE CT, ANCHORAGE, AK, 99504",190802766,L,02,020,000701,2000,-149.75763,61.21768
9159,5901 E 6TH AVE,Anchorage,AK,99504,"5901 E 6TH AVE, Anchorage, AK, 99504",Match,Exact,"5901 E 6TH AVE, ANCHORAGE, AK, 99504",190810852,L,02,020,000701,1000,-149.77061,61.216933999999995
9160,522 TURPIN ST,Anchorage,AK,99504,"522 TURPIN ST, Anchorage, AK, 99504",Match,Exact,"522 TURPIN ST, ANCHORAGE, AK, 99504",190802771,R,02,020,000701,2000,-149.75597,61.21767
9161,540 IDAHO ST,Anchorage,AK,99504,"540 IDAHO ST, Anchorage, AK, 99504",Match,Exact,"540 IDAHO ST, ANCHORAGE, AK, 99504",190802902,R,02,020,000702,2005,-149.73723,61.217537
9162,540 IDAHO ST,Anchorage,AK,99504,"540 IDAHO ST, Anchorage, AK, 99504",Match,Exact,"540 IDAHO ST, ANCHORAGE, AK, 99504",190802902,R,02,020,000702,2005,-149.73723,61.217537
9163,540 IDAHO ST,Anchorage,AK,99504,"540 IDAHO ST, Anchorage, AK, 99504",Match,Exact,"540 IDAHO ST, ANCHORAGE, AK, 99504",190802902,R,02,020,000702,2005,-149.73723,61.217537
9164,540 IDAHO ST,Anchorage,AK,99504,"540 IDAHO ST, Anchorage, AK, 99504",Match,Exact,"540 IDAHO ST, ANCHORAGE, AK, 99504",190802902,R,02,020,000702,2005,-149.73723,61.217537
9165,531 PINE ST,Anchorage,AK,99508,"531 PINE ST, Anchorage, AK, 99508",Match,Non_Exact,"531 S PINE ST, ANCHORAGE, AK, 99508",614862230,L,02,020,000801,4007,-149.79338,61.217674
9166,531 PINE ST,Anchorage,AK,99508,"531 PINE ST, Anchorage, AK, 99508",Match,Non_Exact,"531 S PINE ST, ANCHORAGE, AK, 99508",614862230,L,02,020,000801,4007,-149.79338,61.217674
9167,531 PINE ST,Anchorage,AK,99508,"531 PINE ST, Anchorage, AK, 99508",Match,Non_Exact,"531 S PINE ST, ANCHORAGE, AK, 99508",614862230,L,02,020,000801,4007,-149.79338,61.217674
9168,531 PINE ST,Anchorage,AK,99508,"531 PINE ST, Anchorage, AK, 99508",Match,Non_Exact,"531 S PINE ST, ANCHORAGE, AK, 99508",614862230,L,02,020,000801,4007,-149.79338,61.217674
9169,551 SAINT LAZARIA CIR,Anchorage,AK,99508,"551 SAINT LAZARIA CIR, Anchorage, AK, 99508",Match,Exact,"551 SAINT LAZARIA CIR, ANCHORAGE, AK, 99508",190801974,R,02,020,000801,4006,-149.78491,61.217148
9170,550 SAINT LAZARIA CIR,Anchorage,AK,99508,"550 SAINT LAZARIA CIR, Anchorage, AK, 99508",Match,Exact,"550 SAINT LAZARIA CIR, ANCHORAGE, AK, 99508",190801974,L,02,020,000801,4006,-149.78493,61.217148
9171,550 IZEMBEK CIR,Anchorage,AK,99508,"550 IZEMBEK CIR, Anchorage, AK, 99508",Match,Exact,"550 IZEMBEK CIR, ANCHORAGE, AK, 99508",190801976,L,02,020,000801,4006,-149.78322,61.217144
9172,531 MELLOW PL,Anchorage,AK,99508,"531 MELLOW PL, Anchorage, AK, 99508",Match,Exact,"531 MELLOW PL, ANCHORAGE, AK, 99508",190801739,L,02,020,000801,4006,-149.79156,61.217490000000005
9173,531 MISTY FJORDS CIR,Anchorage,AK,99508,"531 MISTY FJORDS CIR, Anchorage, AK, 99508",Match,Exact,"531 MISTY FJORDS CIR, ANCHORAGE, AK, 99508",190812088,R,02,020,000801,4006,-149.77962,61.2172
9174,308 STEWART ST,Anchorage,AK,99508,"308 STEWART ST, Anchorage, AK, 99508",Match,Exact,"308 STEWART ST, ANCHORAGE, AK, 99508",190801748,R,02,020,000801,2008,-149.7879,61.221336
9175,8324 DUBEN AVE,Anchorage,AK,99504,"8324 DUBEN AVE, Anchorage, AK, 99504",Match,Exact,"8324 DUBEN AVE, ANCHORAGE, AK, 99504",190803260,R,02,020,000703,3002,-149.7255,61.220608
9176,7040 DICKERSON DR,Anchorage,AK,99504,"7040 DICKERSON DR, Anchorage, AK, 99504",Match,Exact,"7040 DICKERSON DR, ANCHORAGE, AK, 99504",190802810,R,02,020,000702,3004,-149.7513,61.220459999999996
9177,301 GAYLENE CIR,Anchorage,AK,99504,"301 GAYLENE CIR, Anchorage, AK, 99504",Match,Exact,"301 GAYLENE CIR, ANCHORAGE, AK, 99504",190803322,L,02,020,000703,3001,-149.72128,61.220535
9178,7876 DUBEN AVE,Anchorage,AK,99504,"7876 DUBEN AVE, Anchorage, AK, 99504",Match,Exact,"7876 DUBEN AVE, ANCHORAGE, AK, 99504",190803212,R,02,020,000702,2002,-149.73396,61.22055400000001
9179,6930 DICKERSON DR,Anchorage,AK,99504,"6930 DICKERSON DR, Anchorage, AK, 99504",Match,Exact,"6930 DICKERSON DR, ANCHORAGE, AK, 99504",190802810,R,02,020,000702,3004,-149.7524,61.220734
9180,7726 DUBEN AVE,Anchorage,AK,99504,"7726 DUBEN AVE, Anchorage, AK, 99504",Match,Exact,"7726 DUBEN AVE, ANCHORAGE, AK, 99504",190803212,R,02,020,000702,2002,-149.73568999999998,61.22055400000001
9181,7726 1/2 DUBEN AVE,Anchorage,AK,99504,"7726 1/2 DUBEN AVE, Anchorage, AK, 99504",Match,Exact,"7726 DUBEN AVE, ANCHORAGE, AK, 99504",190803212,R,02,020,000702,2002,-149.73568999999998,61.22055400000001
9182,7726 DUBEN AVE,Anchorage,AK,99504,"7726 DUBEN AVE, Anchorage, AK, 99504",Match,Exact,"7726 DUBEN AVE, ANCHORAGE, AK, 99504",190803212,R,02,020,000702,2002,-149.73568999999998,61.22055400000001
9183,7726 1/2 DUBEN AVE,Anchorage,AK,99504,"7726 1/2 DUBEN AVE, Anchorage, AK, 99504",Match,Exact,"7726 DUBEN AVE, ANCHORAGE, AK, 99504",190803212,R,02,020,000702,2002,-149.73568999999998,61.22055400000001
9184,7700 DUBEN AVE,Anchorage,AK,99504,"7700 DUBEN AVE, Anchorage, AK, 99504",No_Match,,,,,,,,,,
9185,7700 DUBEN AVE,Anchorage,AK,99504,"7700 DUBEN AVE, Anchorage, AK, 99504",No_Match,,,,,,,,,,
9186,7700 DUBEN AVE,Anchorage,AK,99504,"7700 DUBEN AVE, Anchorage, AK, 99504",No_Match,,,,,,,,,,
9187,7700 DUBEN AVE,Anchorage,AK,99504,"7700 DUBEN AVE, Anchorage, AK, 99504",No_Match,,,,,,,,,,
9188,7700 DUBEN AVE,Anchorage,AK,99504,"7700 DUBEN AVE, Anchorage, AK, 99504",No_Match,,,,,,,,,,
9189,7700 DUBEN AVE,Anchorage,AK,99504,"7700 DUBEN AVE, Anchorage, AK, 99504",No_Match,,,,,,,,,,
9190,7700 DUBEN AVE,Anchorage,AK,99504,"7700 DUBEN AVE, Anchorage, AK, 99504",No_Match,,,,,,,,,,
9191,7700 DUBEN AVE,Anchorage,AK,99504,"7700 DUBEN AVE, Anchorage, AK, 99504",No_Match,,,,,,,,,,
9192,7724 DUBEN AVE,Anchorage,AK,99504,"7724 DUBEN AVE, Anchorage, AK, 99504",Match,Exact,"7724 DUBEN AVE, ANCHORAGE, AK, 99504",190803212,R,02,020,000702,2002,-149.73572,61.22055400000001
9193,7624 DUBEN AVE,Anchorage,AK,99504,"7624 DUBEN AVE, Anchorage, AK, 99504",Match,Exact,"7624 DUBEN AVE, ANCHORAGE, AK, 99504",190803211,R,02,020,000702,2002,-149.73827,61.22055400000001
9194,300 GAYLENE CIR,Anchorage,AK,99504,"300 GAYLENE CIR, Anchorage, AK, 99504",Match,Exact,"300 GAYLENE CIR, ANCHORAGE, AK, 99504",190803322,R,02,020,000703,3001,-149.72131000000002,61.220535
9195,7600 DUBEN AVE,Anchorage,AK,99504,"7600 DUBEN AVE, Anchorage, AK, 99504",Match,Exact,"7600 DUBEN AVE, ANCHORAGE, AK, 99504",190803211,R,02,020,000702,2002,-149.73856999999998,61.22055400000001
9196,7600 DUBEN AVE,Anchorage,AK,99504,"7600 DUBEN AVE, Anchorage, AK, 99504",Match,Exact,"7600 DUBEN AVE, ANCHORAGE, AK, 99504",190803211,R,02,020,000702,2002,-149.73856999999998,61.22055400000001
9197,7408 DUBEN AVE,Anchorage,AK,99504,"7408 DUBEN AVE, Anchorage, AK, 99504",Match,Exact,"7408 DUBEN AVE, ANCHORAGE, AK, 99504",190816626,R,02,020,000702,2002,-149.74274,61.22055400000001
9198,7408 DUBEN AVE,Anchorage,AK,99504,"7408 DUBEN AVE, Anchorage, AK, 99504",Match,Exact,"7408 DUBEN AVE, ANCHORAGE, AK, 99504",190816626,R,02,020,000702,2002,-149.74274,61.22055400000001
9199,407 STEWART ST,Anchorage,AK,99508,"407 STEWART ST, Anchorage, AK, 99508",Match,Exact,"407 STEWART ST, ANCHORAGE, AK, 99508",190801749,L,02,020,000801,4001,-149.78787,61.220096999999996
9200,8213 E 3RD AVE,Anchorage,AK,99504,"8213 E 3RD AVE, Anchorage, AK, 99504",Match,Exact,"8213 E 3RD AVE, ANCHORAGE, AK, 99504",190803254,L,02,020,000703,3005,-149.72818,61.219547
9201,8213 E 3RD AVE,Anchorage,AK,99504,"8213 E 3RD AVE, Anchorage, AK, 99504",Match,Exact,"8213 E 3RD AVE, ANCHORAGE, AK, 99504",190803254,L,02,020,000703,3005,-149.72818,61.219547
9202,350 BOLIN ST,Anchorage,AK,99504,"350 BOLIN ST, Anchorage, AK, 99504",Match,Exact,"350 BOLIN ST, ANCHORAGE, AK, 99504",190803336,R,02,020,000703,3001,-149.71941999999999,61.21990600000001
9203,8201 E 3RD AVE,Anchorage,AK,99504,"8201 E 3RD AVE, Anchorage, AK, 99504",Match,Exact,"8201 E 3RD AVE, ANCHORAGE, AK, 99504",190803254,L,02,020,000703,3005,-149.72833,61.219543
9204,8149 E 3RD AVE,Anchorage,AK,99504,"8149 E 3RD AVE, Anchorage, AK, 99504",Match,Exact,"8149 E 3RD AVE, ANCHORAGE, AK, 99504",190803254,L,02,020,000703,3005,-149.72902,61.219543
9205,8149 E 3RD AVE,Anchorage,AK,99504,"8149 E 3RD AVE, Anchorage, AK, 99504",Match,Exact,"8149 E 3RD AVE, ANCHORAGE, AK, 99504",190803254,L,02,020,000703,3005,-149.72902,61.219543
9206,8137 E 3RD AVE,Anchorage,AK,99504,"8137 E 3RD AVE, Anchorage, AK, 99504",Match,Exact,"8137 E 3RD AVE, ANCHORAGE, AK, 99504",190803254,L,02,020,000703,3005,-149.72916999999998,61.219543
9207,8125 E 3RD AVE,Anchorage,AK,99504,"8125 E 3RD AVE, Anchorage, AK, 99504",Match,Exact,"8125 E 3RD AVE, ANCHORAGE, AK, 99504",190803254,L,02,020,000703,3005,-149.72932,61.219543
9208,8113 E 3RD AVE,Anchorage,AK,99504,"8113 E 3RD AVE, Anchorage, AK, 99504",Match,Exact,"8113 E 3RD AVE, ANCHORAGE, AK, 99504",190803254,L,02,020,000703,3005,-149.72948,61.219543
9209,8101 E 3RD AVE,Anchorage,AK,99504,"8101 E 3RD AVE, Anchorage, AK, 99504",Match,Exact,"8101 E 3RD AVE, ANCHORAGE, AK, 99504",190803254,L,02,020,000703,3005,-149.72964,61.219543
9210,500 IDAHO ST,Anchorage,AK,99504,"500 IDAHO ST, Anchorage, AK, 99504",Match,Exact,"500 IDAHO ST, ANCHORAGE, AK, 99504",190802902,R,02,020,000702,2005,-149.73723999999999,61.217842000000005
9211,500 IDAHO ST,Anchorage,AK,99504,"500 IDAHO ST, Anchorage, AK, 99504",Match,Exact,"500 IDAHO ST, ANCHORAGE, AK, 99504",190802902,R,02,020,000702,2005,-149.73723999999999,61.217842000000005
9212,5700 ROCKY MOUNTAIN CT,Anchorage,AK,99504,"5700 ROCKY MOUNTAIN CT, Anchorage, AK, 99504",Match,Exact,"5700 ROCKY MOUNTAIN CT, ANCHORAGE, AK, 99504",190802016,R,02,020,000701,1010,-149.77347,61.217827
9213,5700 ROCKY MOUNTAIN CT,Anchorage,AK,99504,"5700 ROCKY MOUNTAIN CT, Anchorage, AK, 99504",Match,Exact,"5700 ROCKY MOUNTAIN CT, ANCHORAGE, AK, 99504",190802016,R,02,020,000701,1010,-149.77347,61.217827
9214,8215 E 2ND AVE,Anchorage,AK,99504,"8215 E 2ND AVE, Anchorage, AK, 99504",Match,Exact,"8215 E 2ND AVE, ANCHORAGE, AK, 99504",190807393,L,02,020,000703,3003,-149.72816,61.22023000000001
9215,8215 E 2ND AVE,Anchorage,AK,99504,"8215 E 2ND AVE, Anchorage, AK, 99504",Match,Exact,"8215 E 2ND AVE, ANCHORAGE, AK, 99504",190807393,L,02,020,000703,3003,-149.72816,61.22023000000001
9216,8215 E 2ND AVE,Anchorage,AK,99504,"8215 E 2ND AVE, Anchorage, AK, 99504",Match,Exact,"8215 E 2ND AVE, ANCHORAGE, AK, 99504",190807393,L,02,020,000703,3003,-149.72816,61.22023000000001
9217,8149 E 2ND AVE,Anchorage,AK,99504,"8149 E 2ND AVE, Anchorage, AK, 99504",Match,Exact,"8149 E 2ND AVE, ANCHORAGE, AK, 99504",190807393,L,02,020,000703,3003,-149.72902,61.22023000000001
9218,8149 E 2ND AVE,Anchorage,AK,99504,"8149 E 2ND AVE, Anchorage, AK, 99504",Match,Exact,"8149 E 2ND AVE, ANCHORAGE, AK, 99504",190807393,L,02,020,000703,3003,-149.72902,61.22023000000001
9219,8137 E 2ND AVE,Anchorage,AK,99504,"8137 E 2ND AVE, Anchorage, AK, 99504",Match,Exact,"8137 E 2ND AVE, ANCHORAGE, AK, 99504",190807393,L,02,020,000703,3003,-149.72916999999998,61.22023000000001
9220,8125 E 2ND AVE,Anchorage,AK,99504,"8125 E 2ND AVE, Anchorage, AK, 99504",Match,Exact,"8125 E 2ND AVE, ANCHORAGE, AK, 99504",190807393,L,02,020,000703,3003,-149.72933999999998,61.22023000000001
9221,310 BOLIN ST,Anchorage,AK,99504,"310 BOLIN ST, Anchorage, AK, 99504",Match,Exact,"310 BOLIN ST, ANCHORAGE, AK, 99504",190803336,R,02,020,000703,3001,-149.71944,61.220356
9222,8113 E 2ND AVE,Anchorage,AK,99504,"8113 E 2ND AVE, Anchorage, AK, 99504",Match,Exact,"8113 E 2ND AVE, ANCHORAGE, AK, 99504",190807393,L,02,020,000703,3003,-149.72949,61.22023000000001
9223,8113 E 2ND AVE,Anchorage,AK,99504,"8113 E 2ND AVE, Anchorage, AK, 99504",Match,Exact,"8113 E 2ND AVE, ANCHORAGE, AK, 99504",190807393,L,02,020,000703,3003,-149.72949,61.22023000000001
9224,8101 E 2ND AVE,Anchorage,AK,99504,"8101 E 2ND AVE, Anchorage, AK, 99504",Match,Exact,"8101 E 2ND AVE, ANCHORAGE, AK, 99504",190807393,L,02,020,000703,3003,-149.72964,61.22023000000001
9225,5417 CAMELOT DR,Anchorage,AK,99508,"5417 CAMELOT DR, Anchorage, AK, 99508",Match,Exact,"5417 CAMELOT DR, ANCHORAGE, AK, 99508",190801978,L,02,020,000801,3008,-149.78043,61.220290000000006
9226,310 VILLA CIR,Anchorage,AK,99504,"310 VILLA CIR, Anchorage, AK, 99504",Match,Exact,"310 VILLA CIR, ANCHORAGE, AK, 99504",190816175,R,02,020,000702,2002,-149.74007,61.220478
9227,8015 E 2ND AVE,Anchorage,AK,99504,"8015 E 2ND AVE, Anchorage, AK, 99504",Match,Exact,"8015 E 2ND AVE, ANCHORAGE, AK, 99504",190807393,L,02,020,000703,3003,-149.73077,61.22023000000001
9228,8001 E 2ND AVE,Anchorage,AK,99504,"8001 E 2ND AVE, Anchorage, AK, 99504",Match,Exact,"8001 E 2ND AVE, ANCHORAGE, AK, 99504",190807393,L,02,020,000703,3003,-149.73096,61.22023000000001
9229,8001 E 2ND AVE,Anchorage,AK,99504,"8001 E 2ND AVE, Anchorage, AK, 99504",Match,Exact,"8001 E 2ND AVE, ANCHORAGE, AK, 99504",190807393,L,02,020,000703,3003,-149.73096,61.22023000000001
9230,8001 E 2ND AVE,Anchorage,AK,99504,"8001 E 2ND AVE, Anchorage, AK, 99504",Match,Exact,"8001 E 2ND AVE, ANCHORAGE, AK, 99504",190807393,L,02,020,000703,3003,-149.73096,61.22023000000001
9231,8001 E 2ND AVE,Anchorage,AK,99504,"8001 E 2ND AVE, Anchorage, AK, 99504",Match,Exact,"8001 E 2ND AVE, ANCHORAGE, AK, 99504",190807393,L,02,020,000703,3003,-149.73096,61.22023000000001
9232,5326 LIONHEART DR,Anchorage,AK,99508,"5326 LIONHEART DR, Anchorage, AK, 99508",Match,Exact,"5326 LIONHEART DR, ANCHORAGE, AK, 99508",190801973,R,02,020,000801,4001,-149.7817,61.22048
9233,5326 LIONHEART DR,Anchorage,AK,99508,"5326 LIONHEART DR, Anchorage, AK, 99508",Match,Exact,"5326 LIONHEART DR, ANCHORAGE, AK, 99508",190801973,R,02,020,000801,4001,-149.7817,61.22048
9234,5326 LIONHEART DR,Anchorage,AK,99508,"5326 LIONHEART DR, Anchorage, AK, 99508",Match,Exact,"5326 LIONHEART DR, ANCHORAGE, AK, 99508",190801973,R,02,020,000801,4001,-149.7817,61.22048
9235,5326 LIONHEART DR,Anchorage,AK,99508,"5326 LIONHEART DR, Anchorage, AK, 99508",Match,Exact,"5326 LIONHEART DR, ANCHORAGE, AK, 99508",190801973,R,02,020,000801,4001,-149.7817,61.22048
9236,5326 LIONHEART DR,Anchorage,AK,99508,"5326 LIONHEART DR, Anchorage, AK, 99508",Match,Exact,"5326 LIONHEART DR, ANCHORAGE, AK, 99508",190801973,R,02,020,000801,4001,-149.7817,61.22048
9237,5326 LIONHEART DR,Anchorage,AK,99508,"5326 LIONHEART DR, Anchorage, AK, 99508",Match,Exact,"5326 LIONHEART DR, ANCHORAGE, AK, 99508",190801973,R,02,020,000801,4001,-149.7817,61.22048
9238,310 STEWART ST,Anchorage,AK,99508,"310 STEWART ST, Anchorage, AK, 99508",Match,Exact,"310 STEWART ST, ANCHORAGE, AK, 99508",190801748,R,02,020,000801,2008,-149.7879,61.221317000000006
9239,311 DANNILYN CIR,Anchorage,AK,99504,"311 DANNILYN CIR, Anchorage, AK, 99504",Match,Exact,"311 DANNILYN CIR, ANCHORAGE, AK, 99504",190808935,L,02,020,000702,2002,-149.74373,61.220478
9240,311 BOLIN ST,Anchorage,AK,99504,"311 BOLIN ST, Anchorage, AK, 99504",Match,Exact,"311 BOLIN ST, ANCHORAGE, AK, 99504",190803336,L,02,020,000703,3000,-149.7194,61.220356
9241,5341 LIONHEART DR,Anchorage,AK,99508,"5341 LIONHEART DR, Anchorage, AK, 99508",Match,Exact,"5341 LIONHEART DR, ANCHORAGE, AK, 99508",190801973,L,02,020,000801,3008,-149.78183,61.220524
9242,310 STATE ST,Anchorage,AK,99504,"310 STATE ST, Anchorage, AK, 99504",Match,Exact,"310 STATE ST, ANCHORAGE, AK, 99504",190803226,R,02,020,000703,3004,-149.73134,61.220257
9243,310 STATE ST,Anchorage,AK,99504,"310 STATE ST, Anchorage, AK, 99504",Match,Exact,"310 STATE ST, ANCHORAGE, AK, 99504",190803226,R,02,020,000703,3004,-149.73134,61.220257
9244,309 GAYLENE CIR,Anchorage,AK,99504,"309 GAYLENE CIR, Anchorage, AK, 99504",Match,Exact,"309 GAYLENE CIR, ANCHORAGE, AK, 99504",190803322,L,02,020,000703,3001,-149.72128,61.2205
9245,5901 E 6TH AVE,Anchorage,AK,99504,"5901 E 6TH AVE, Anchorage, AK, 99504",Match,Exact,"5901 E 6TH AVE, ANCHORAGE, AK, 99504",190810852,L,02,020,000701,1000,-149.77061,61.216933999999995
9246,5676 ALORA LOOP,Anchorage,AK,99504,"5676 ALORA LOOP, Anchorage, AK, 99504",Match,Exact,"5676 ALORA LOOP, ANCHORAGE, AK, 99504",190827504,R,02,020,000701,1010,-149.77508999999998,61.218304
9247,424 STANDISH ST,Anchorage,AK,99504,"424 STANDISH ST, Anchorage, AK, 99504",Match,Exact,"424 STANDISH ST, ANCHORAGE, AK, 99504",190803259,R,02,020,000703,3002,-149.72527,61.218475
9248,6300 HABICHT CT,Anchorage,AK,99504,"6300 HABICHT CT, Anchorage, AK, 99504",Match,Exact,"6300 HABICHT CT, ANCHORAGE, AK, 99504",190802075,L,02,020,000701,1000,-149.76215,61.21763000000001
9249,511 DONNA DR,Anchorage,AK,99504,"511 DONNA DR, Anchorage, AK, 99504",Match,Exact,"511 DONNA DR, ANCHORAGE, AK, 99504",190802765,R,02,020,000701,2000,-149.76006999999998,61.21755600000001
9250,6341 HABICHT CT,Anchorage,AK,99504,"6341 HABICHT CT, Anchorage, AK, 99504",Match,Exact,"6341 HABICHT CT, ANCHORAGE, AK, 99504",190802075,R,02,020,000701,1000,-149.7615,61.217597999999995
9251,521 PATSY ST,Anchorage,AK,99504,"521 PATSY ST, Anchorage, AK, 99504",Match,Exact,"521 PATSY ST, ANCHORAGE, AK, 99504",190810873,L,02,020,000702,2004,-149.74286,61.218295999999995
9252,521 PATSY ST,Anchorage,AK,99504,"521 PATSY ST, Anchorage, AK, 99504",Match,Exact,"521 PATSY ST, ANCHORAGE, AK, 99504",190810873,L,02,020,000702,2004,-149.74286,61.218295999999995
9253,521 PATSY ST,Anchorage,AK,99504,"521 PATSY ST, Anchorage, AK, 99504",Match,Exact,"521 PATSY ST, ANCHORAGE, AK, 99504",190810873,L,02,020,000702,2004,-149.74286,61.218295999999995
9254,525 CHERRY ST,Anchorage,AK,99504,"525 CHERRY ST, Anchorage, AK, 99504",Match,Exact,"525 CHERRY ST, ANCHORAGE, AK, 99504",190803327,L,02,020,000703,3000,-149.72221000000002,61.217490000000005
9255,510 CARIN PL,Anchorage,AK,99504,"510 CARIN PL, Anchorage, AK, 99504",Match,Exact,"510 CARIN PL, ANCHORAGE, AK, 99504",190808933,L,02,020,000702,2006,-149.73453999999998,61.217358
9256,510 CARIN PL,Anchorage,AK,99504,"510 CARIN PL, Anchorage, AK, 99504",Match,Exact,"510 CARIN PL, ANCHORAGE, AK, 99504",190808933,L,02,020,000702,2006,-149.73453999999998,61.217358
9257,520 DONNA DR,Anchorage,AK,99504,"520 DONNA DR, Anchorage, AK, 99504",Match,Exact,"520 DONNA DR, ANCHORAGE, AK, 99504",190802765,L,02,020,000701,1000,-149.76018,61.217532999999996
9258,6330 HABICHT CT,Anchorage,AK,99504,"6330 HABICHT CT, Anchorage, AK, 99504",Match,Exact,"6330 HABICHT CT, ANCHORAGE, AK, 99504",190802075,L,02,020,000701,1000,-149.76166,61.217613
9259,521 IDAHO ST,Anchorage,AK,99504,"521 IDAHO ST, Anchorage, AK, 99504",Match,Exact,"521 IDAHO ST, ANCHORAGE, AK, 99504",190802902,L,02,020,000702,2006,-149.73721,61.217690000000005
9260,521 IDAHO ST,Anchorage,AK,99504,"521 IDAHO ST, Anchorage, AK, 99504",Match,Exact,"521 IDAHO ST, ANCHORAGE, AK, 99504",190802902,L,02,020,000702,2006,-149.73721,61.217690000000005
9261,511 MELLOW PL,Anchorage,AK,99508,"511 MELLOW PL, Anchorage, AK, 99508",Match,Exact,"511 MELLOW PL, ANCHORAGE, AK, 99508",190801739,L,02,020,000801,4006,-149.79156,61.21764
9262,530 CREEKSIDE ST,Anchorage,AK,99504,"530 CREEKSIDE ST, Anchorage, AK, 99504",Match,Exact,"530 CREEKSIDE ST, ANCHORAGE, AK, 99504",190802892,R,02,020,000702,2004,-149.74098,61.21761
9263,530 CREEKSIDE ST,Anchorage,AK,99504,"530 CREEKSIDE ST, Anchorage, AK, 99504",Match,Exact,"530 CREEKSIDE ST, ANCHORAGE, AK, 99504",190802892,R,02,020,000702,2004,-149.74098,61.21761
9264,6310 HABICHT CT,Anchorage,AK,99504,"6310 HABICHT CT, Anchorage, AK, 99504",Match,Exact,"6310 HABICHT CT, ANCHORAGE, AK, 99504",190802075,L,02,020,000701,1000,-149.76198,61.21763000000001
9265,510 MELLOW PL,Anchorage,AK,99508,"510 MELLOW PL, Anchorage, AK, 99508",Match,Exact,"510 MELLOW PL, ANCHORAGE, AK, 99508",190801739,R,02,020,000801,4007,-149.7916,61.21765500000001
9266,501 BITTERROOT CIR,Anchorage,AK,99504,"501 BITTERROOT CIR, Anchorage, AK, 99504",Match,Exact,"501 BITTERROOT CIR, ANCHORAGE, AK, 99504",190801992,R,02,020,000701,1010,-149.7754,61.217365
9267,501 BITTERROOT CIR,Anchorage,AK,99504,"501 BITTERROOT CIR, Anchorage, AK, 99504",Match,Exact,"501 BITTERROOT CIR, ANCHORAGE, AK, 99504",190801992,R,02,020,000701,1010,-149.7754,61.217365
9268,501 BITTERROOT CIR,Anchorage,AK,99504,"501 BITTERROOT CIR, Anchorage, AK, 99504",Match,Exact,"501 BITTERROOT CIR, ANCHORAGE, AK, 99504",190801992,R,02,020,000701,1010,-149.7754,61.217365
9269,501 BITTERROOT CIR,Anchorage,AK,99504,"501 BITTERROOT CIR, Anchorage, AK, 99504",Match,Exact,"501 BITTERROOT CIR, ANCHORAGE, AK, 99504",190801992,R,02,020,000701,1010,-149.7754,61.217365
9270,451 FALKE CT,Anchorage,AK,99504,"451 FALKE CT, Anchorage, AK, 99504",Match,Exact,"451 FALKE CT, ANCHORAGE, AK, 99504",190802766,L,02,020,000701,2000,-149.75768,61.217876000000004
9271,500 BITTERROOT CIR,Anchorage,AK,99504,"500 BITTERROOT CIR, Anchorage, AK, 99504",Match,Exact,"500 BITTERROOT CIR, ANCHORAGE, AK, 99504",190801992,L,02,020,000701,1010,-149.77542,61.217365
9272,500 BITTERROOT CIR,Anchorage,AK,99504,"500 BITTERROOT CIR, Anchorage, AK, 99504",Match,Exact,"500 BITTERROOT CIR, ANCHORAGE, AK, 99504",190801992,L,02,020,000701,1010,-149.77542,61.217365
9273,500 BITTERROOT CIR,Anchorage,AK,99504,"500 BITTERROOT CIR, Anchorage, AK, 99504",Match,Exact,"500 BITTERROOT CIR, ANCHORAGE, AK, 99504",190801992,L,02,020,000701,1010,-149.77542,61.217365
9274,500 BITTERROOT CIR,Anchorage,AK,99504,"500 BITTERROOT CIR, Anchorage, AK, 99504",Match,Exact,"500 BITTERROOT CIR, ANCHORAGE, AK, 99504",190801992,L,02,020,000701,1010,-149.77542,61.217365
9275,6320 HABICHT CT,Anchorage,AK,99504,"6320 HABICHT CT, Anchorage, AK, 99504",Match,Exact,"6320 HABICHT CT, ANCHORAGE, AK, 99504",190802075,L,02,020,000701,1000,-149.76183,61.217625
9276,500 SAN JUAN CIR,Anchorage,AK,99504,"500 SAN JUAN CIR, Anchorage, AK, 99504",Match,Exact,"500 SAN JUAN CIR, ANCHORAGE, AK, 99504",190801991,L,02,020,000701,1010,-149.7772,61.217365
9277,500 SAN JUAN CIR,Anchorage,AK,99504,"500 SAN JUAN CIR, Anchorage, AK, 99504",Match,Exact,"500 SAN JUAN CIR, ANCHORAGE, AK, 99504",190801991,L,02,020,000701,1010,-149.7772,61.217365
9278,5422 CAMELOT DR,Anchorage,AK,99508,"5422 CAMELOT DR, Anchorage, AK, 99508",Match,Exact,"5422 CAMELOT DR, ANCHORAGE, AK, 99508",190801978,R,02,020,000801,4000,-149.7803,61.22030600000001
9279,531 MISTY FJORDS CIR,Anchorage,AK,99508,"531 MISTY FJORDS CIR, Anchorage, AK, 99508",Match,Exact,"531 MISTY FJORDS CIR, ANCHORAGE, AK, 99508",190812088,R,02,020,000801,4006,-149.77962,61.2172
9280,531 SAN JUAN CIR,Anchorage,AK,99504,"531 SAN JUAN CIR, Anchorage, AK, 99504",Match,Exact,"531 SAN JUAN CIR, ANCHORAGE, AK, 99504",190801991,R,02,020,000701,1010,-149.77719,61.217240000000004
9281,531 SAN JUAN CIR,Anchorage,AK,99504,"531 SAN JUAN CIR, Anchorage, AK, 99504",Match,Exact,"531 SAN JUAN CIR, ANCHORAGE, AK, 99504",190801991,R,02,020,000701,1010,-149.77719,61.217240000000004
9282,530 MELLOW PL,Anchorage,AK,99508,"530 MELLOW PL, Anchorage, AK, 99508",Match,Exact,"530 MELLOW PL, ANCHORAGE, AK, 99508",190801739,R,02,020,000801,4007,-149.79158,61.217503
9283,530 MISTY FJORDS CIR,Anchorage,AK,99508,"530 MISTY FJORDS CIR, Anchorage, AK, 99508",Match,Exact,"530 MISTY FJORDS CIR, ANCHORAGE, AK, 99508",190812088,L,02,020,000801,4006,-149.77965,61.2172
9284,530 MISTY FJORDS CIR,Anchorage,AK,99508,"530 MISTY FJORDS CIR, Anchorage, AK, 99508",Match,Exact,"530 MISTY FJORDS CIR, ANCHORAGE, AK, 99508",190812088,L,02,020,000801,4006,-149.77965,61.2172
9285,530 GLACIER BAY CIR,Anchorage,AK,99508,"530 GLACIER BAY CIR, Anchorage, AK, 99508",Match,Non_Exact,"530 GLACIER BAY, ANCHORAGE, AK, 99508",190801985,L,02,020,000801,4006,-149.78146,61.2172
9286,530 GLACIER BAY CIR,Anchorage,AK,99508,"530 GLACIER BAY CIR, Anchorage, AK, 99508",Match,Non_Exact,"530 GLACIER BAY, ANCHORAGE, AK, 99508",190801985,L,02,020,000801,4006,-149.78146,61.2172
9287,531 GLACIER BAY CIR,Anchorage,AK,99508,"531 GLACIER BAY CIR, Anchorage, AK, 99508",Match,Non_Exact,"531 GLACIER BAY, ANCHORAGE, AK, 99508",190801985,R,02,020,000801,4006,-149.78143,61.2172
9288,531 GLACIER BAY CIR,Anchorage,AK,99508,"531 GLACIER BAY CIR, Anchorage, AK, 99508",Match,Non_Exact,"531 GLACIER BAY, ANCHORAGE, AK, 99508",190801985,R,02,020,000801,4006,-149.78143,61.2172
9289,530 BITTERROOT CIR,Anchorage,AK,99504,"530 BITTERROOT CIR, Anchorage, AK, 99504",Match,Exact,"530 BITTERROOT CIR, ANCHORAGE, AK, 99504",190801992,L,02,020,000701,1010,-149.77542,61.217240000000004
9290,530 BITTERROOT CIR,Anchorage,AK,99504,"530 BITTERROOT CIR, Anchorage, AK, 99504",Match,Exact,"530 BITTERROOT CIR, ANCHORAGE, AK, 99504",190801992,L,02,020,000701,1010,-149.77542,61.217240000000004
9291,5901 E 6TH AVE,Anchorage,AK,99504,"5901 E 6TH AVE, Anchorage, AK, 99504",Match,Exact,"5901 E 6TH AVE, ANCHORAGE, AK, 99504",190810852,L,02,020,000701,1000,-149.77061,61.216933999999995
9292,391 DANNILYN CIR,Anchorage,AK,99504,"391 DANNILYN CIR, Anchorage, AK, 99504",Match,Exact,"391 DANNILYN CIR, ANCHORAGE, AK, 99504",190808935,L,02,020,000702,2002,-149.74373,61.220135
9293,5901 E 6TH AVE,Anchorage,AK,99504,"5901 E 6TH AVE, Anchorage, AK, 99504",Match,Exact,"5901 E 6TH AVE, ANCHORAGE, AK, 99504",190810852,L,02,020,000701,1000,-149.77061,61.216933999999995
9294,329 EKLUTNA ST,Anchorage,AK,99504,"329 EKLUTNA ST, Anchorage, AK, 99504",Match,Exact,"329 EKLUTNA ST, ANCHORAGE, AK, 99504",190803261,L,02,020,000703,3001,-149.7242,61.220314
9295,329 EKLUTNA ST,Anchorage,AK,99504,"329 EKLUTNA ST, Anchorage, AK, 99504",Match,Exact,"329 EKLUTNA ST, ANCHORAGE, AK, 99504",190803261,L,02,020,000703,3001,-149.7242,61.220314
9296,329 EKLUTNA ST,Anchorage,AK,99504,"329 EKLUTNA ST, Anchorage, AK, 99504",Match,Exact,"329 EKLUTNA ST, ANCHORAGE, AK, 99504",190803261,L,02,020,000703,3001,-149.7242,61.220314
9297,329 EKLUTNA ST,Anchorage,AK,99504,"329 EKLUTNA ST, Anchorage, AK, 99504",Match,Exact,"329 EKLUTNA ST, ANCHORAGE, AK, 99504",190803261,L,02,020,000703,3001,-149.7242,61.220314
9298,5901 E 6TH AVE,Anchorage,AK,99504,"5901 E 6TH AVE, Anchorage, AK, 99504",Match,Exact,"5901 E 6TH AVE, ANCHORAGE, AK, 99504",190810852,L,02,020,000701,1000,-149.77061,61.216933999999995
9299,5901 E 6TH AVE,Anchorage,AK,99504,"5901 E 6TH AVE, Anchorage, AK, 99504",Match,Exact,"5901 E 6TH AVE, ANCHORAGE, AK, 99504",190810852,L,02,020,000701,1000,-149.77061,61.216933999999995
9300,5901 E 6TH AVE,Anchorage,AK,99504,"5901 E 6TH AVE, Anchorage, AK, 99504",Match,Exact,"5901 E 6TH AVE, ANCHORAGE, AK, 99504",190810852,L,02,020,000701,1000,-149.77061,61.216933999999995
9301,5901 E 6TH AVE,Anchorage,AK,99504,"5901 E 6TH AVE, Anchorage, AK, 99504",Match,Exact,"5901 E 6TH AVE, ANCHORAGE, AK, 99504",190810852,L,02,020,000701,1000,-149.77061,61.216933999999995
9302,5901 E 6TH AVE,Anchorage,AK,99504,"5901 E 6TH AVE, Anchorage, AK, 99504",Match,Exact,"5901 E 6TH AVE, ANCHORAGE, AK, 99504",190810852,L,02,020,000701,1000,-149.77061,61.216933999999995
9303,5901 E 6TH AVE,Anchorage,AK,99504,"5901 E 6TH AVE, Anchorage, AK, 99504",Match,Exact,"5901 E 6TH AVE, ANCHORAGE, AK, 99504",190810852,L,02,020,000701,1000,-149.77061,61.216933999999995
9304,5901 E 6TH AVE,Anchorage,AK,99504,"5901 E 6TH AVE, Anchorage, AK, 99504",Match,Exact,"5901 E 6TH AVE, ANCHORAGE, AK, 99504",190810852,L,02,020,000701,1000,-149.77061,61.216933999999995
9305,5901 E 6TH AVE,Anchorage,AK,99504,"5901 E 6TH AVE, Anchorage, AK, 99504",Match,Exact,"5901 E 6TH AVE, ANCHORAGE, AK, 99504",190810852,L,02,020,000701,1000,-149.77061,61.216933999999995
9306,5901 E 6TH AVE,Anchorage,AK,99504,"5901 E 6TH AVE, Anchorage, AK, 99504",Match,Exact,"5901 E 6TH AVE, ANCHORAGE, AK, 99504",190810852,L,02,020,000701,1000,-149.77061,61.216933999999995
9307,5901 E 6TH AVE,Anchorage,AK,99504,"5901 E 6TH AVE, Anchorage, AK, 99504",Match,Exact,"5901 E 6TH AVE, ANCHORAGE, AK, 99504",190810852,L,02,020,000701,1000,-149.77061,61.216933999999995
9308,5901 E 6TH AVE,Anchorage,AK,99504,"5901 E 6TH AVE, Anchorage, AK, 99504",Match,Exact,"5901 E 6TH AVE, ANCHORAGE, AK, 99504",190810852,L,02,020,000701,1000,-149.77061,61.216933999999995
9309,5901 E 6TH AVE,Anchorage,AK,99504,"5901 E 6TH AVE, Anchorage, AK, 99504",Match,Exact,"5901 E 6TH AVE, ANCHORAGE, AK, 99504",190810852,L,02,020,000701,1000,-149.77061,61.216933999999995
9310,331 MELODY PL,Anchorage,AK,99504,"331 MELODY PL, Anchorage, AK, 99504",Match,Exact,"331 MELODY PL, ANCHORAGE, AK, 99504",190807350,L,02,020,000702,2002,-149.73906000000002,61.22031
9311,331 MELODY PL,Anchorage,AK,99504,"331 MELODY PL, Anchorage, AK, 99504",Match,Exact,"331 MELODY PL, ANCHORAGE, AK, 99504",190807350,L,02,020,000702,2002,-149.73906000000002,61.22031
9312,331 MELODY PL,Anchorage,AK,99504,"331 MELODY PL, Anchorage, AK, 99504",Match,Exact,"331 MELODY PL, ANCHORAGE, AK, 99504",190807350,L,02,020,000702,2002,-149.73906000000002,61.22031
9313,8025 E 3RD AVE,Anchorage,AK,99504,"8025 E 3RD AVE, Anchorage, AK, 99504",Match,Exact,"8025 E 3RD AVE, ANCHORAGE, AK, 99504",190803254,L,02,020,000703,3005,-149.73064,61.219543
9314,8015 E 3RD AVE,Anchorage,AK,99504,"8015 E 3RD AVE, Anchorage, AK, 99504",Match,Exact,"8015 E 3RD AVE, ANCHORAGE, AK, 99504",190803254,L,02,020,000703,3005,-149.73076,61.219543
9315,8001 E 3RD AVE,Anchorage,AK,99504,"8001 E 3RD AVE, Anchorage, AK, 99504",Match,Exact,"8001 E 3RD AVE, ANCHORAGE, AK, 99504",190803254,L,02,020,000703,3005,-149.73094,61.219543
9316,8001 E 3RD AVE,Anchorage,AK,99504,"8001 E 3RD AVE, Anchorage, AK, 99504",Match,Exact,"8001 E 3RD AVE, ANCHORAGE, AK, 99504",190803254,L,02,020,000703,3005,-149.73094,61.219543
9317,8001 E 3RD AVE,Anchorage,AK,99504,"8001 E 3RD AVE, Anchorage, AK, 99504",Match,Exact,"8001 E 3RD AVE, ANCHORAGE, AK, 99504",190803254,L,02,020,000703,3005,-149.73094,61.219543
9318,8001 E 3RD AVE,Anchorage,AK,99504,"8001 E 3RD AVE, Anchorage, AK, 99504",Match,Exact,"8001 E 3RD AVE, ANCHORAGE, AK, 99504",190803254,L,02,020,000703,3005,-149.73094,61.219543
9319,7005 FREDRICKS DR,Anchorage,AK,99504,"7005 FREDRICKS DR, Anchorage, AK, 99504",Match,Non_Exact,"7005 FREDERICKS DR, ANCHORAGE, AK, 99504",190802812,L,02,020,000702,3004,-149.75,61.219563
9320,7025 FREDRICKS DR,Anchorage,AK,99504,"7025 FREDRICKS DR, Anchorage, AK, 99504",Match,Non_Exact,"7025 FREDERICKS DR, ANCHORAGE, AK, 99504",190802812,L,02,020,000702,3004,-149.74973,61.219563
9321,7035 FREDRICKS DR,Anchorage,AK,99504,"7035 FREDRICKS DR, Anchorage, AK, 99504",Match,Non_Exact,"7035 FREDERICKS DR, ANCHORAGE, AK, 99504",190802812,L,02,020,000702,3004,-149.7496,61.219563
9322,351 BOLIN ST,Anchorage,AK,99504,"351 BOLIN ST, Anchorage, AK, 99504",Match,Exact,"351 BOLIN ST, ANCHORAGE, AK, 99504",190803336,L,02,020,000703,3000,-149.7194,61.21990600000001
9323,351 BOLIN ST,Anchorage,AK,99504,"351 BOLIN ST, Anchorage, AK, 99504",Match,Exact,"351 BOLIN ST, ANCHORAGE, AK, 99504",190803336,L,02,020,000703,3000,-149.7194,61.21990600000001
9324,6995 FREDRICKS DR,Anchorage,AK,99504,"6995 FREDRICKS DR, Anchorage, AK, 99504",No_Match,,,,,,,,,,
9325,406 STEWART ST,Anchorage,AK,99508,"406 STEWART ST, Anchorage, AK, 99508",Match,Exact,"406 STEWART ST, ANCHORAGE, AK, 99508",190801749,R,02,020,000801,4002,-149.7879,61.220096999999996
9326,323 PEPPERTREE LOOP,Anchorage,AK,99504,"323 PEPPERTREE LOOP, Anchorage, AK, 99504",Match,Exact,"323 PEPPERTREE LOOP, ANCHORAGE, AK, 99504",190826164,L,02,020,000701,1008,-149.76262,61.21975
9327,8420 E 3RD AVE,Anchorage,AK,99504,"8420 E 3RD AVE, Anchorage, AK, 99504",Match,Exact,"8420 E 3RD AVE, ANCHORAGE, AK, 99504",190803317,R,02,020,000703,3012,-149.72337,61.21966
9328,429 CAMELOT DR,Anchorage,AK,99508,"429 CAMELOT DR, Anchorage, AK, 99508",Match,Exact,"429 CAMELOT DR, ANCHORAGE, AK, 99508",190801979,L,02,020,000801,4000,-149.78125,61.21994
9329,6985 FREDRICKS DR,Anchorage,AK,99504,"6985 FREDRICKS DR, Anchorage, AK, 99504",No_Match,,,,,,,,,,
9330,428 CAMELOT DR,Anchorage,AK,99508,"428 CAMELOT DR, Anchorage, AK, 99508",Match,Exact,"428 CAMELOT DR, ANCHORAGE, AK, 99508",190801979,R,02,020,000801,4001,-149.78108,61.220074
9331,354 STANDISH ST,Anchorage,AK,99504,"354 STANDISH ST, Anchorage, AK, 99504",Match,Exact,"354 STANDISH ST, ANCHORAGE, AK, 99504",190803259,R,02,020,000703,3002,-149.72527,61.219063
9332,355 CHERRY ST,Anchorage,AK,99504,"355 CHERRY ST, Anchorage, AK, 99504",Match,Exact,"355 CHERRY ST, ANCHORAGE, AK, 99504",190803318,L,02,020,000703,3001,-149.72223,61.219443999999996
9333,355 CHERRY ST,Anchorage,AK,99504,"355 CHERRY ST, Anchorage, AK, 99504",Match,Exact,"355 CHERRY ST, ANCHORAGE, AK, 99504",190803318,L,02,020,000703,3001,-149.72223,61.219443999999996
9334,5447 LANCELOT CIR,Anchorage,AK,99508,"5447 LANCELOT CIR, Anchorage, AK, 99508",Match,Exact,"5447 LANCELOT CIR, ANCHORAGE, AK, 99508",190801983,L,02,020,000801,4000,-149.78062,61.219437
9335,344 STATE ST,Anchorage,AK,99504,"344 STATE ST, Anchorage, AK, 99504",Match,Exact,"344 STATE ST, ANCHORAGE, AK, 99504",190803228,R,02,020,000703,3008,-149.73131999999998,61.21957
9336,355 PINE ST,Anchorage,AK,99508,"355 PINE ST, Anchorage, AK, 99508",Match,Non_Exact,"355 S PINE ST, ANCHORAGE, AK, 99508",190801727,L,02,020,000801,4005,-149.7934,61.219666000000004
9337,5463 E 4TH AVE,Anchorage,AK,99508,"5463 E 4TH AVE, Anchorage, AK, 99508",Match,Exact,"5463 E 4TH AVE, ANCHORAGE, AK, 99508",190816179,L,02,020,000801,4000,-149.77945,61.21866
9338,5463 E 4TH AVE,Anchorage,AK,99508,"5463 E 4TH AVE, Anchorage, AK, 99508",Match,Exact,"5463 E 4TH AVE, ANCHORAGE, AK, 99508",190816179,L,02,020,000801,4000,-149.77945,61.21866
9339,5463 E 4TH AVE,Anchorage,AK,99508,"5463 E 4TH AVE, Anchorage, AK, 99508",Match,Exact,"5463 E 4TH AVE, ANCHORAGE, AK, 99508",190816179,L,02,020,000801,4000,-149.77945,61.21866
9340,5463 E 4TH AVE,Anchorage,AK,99508,"5463 E 4TH AVE, Anchorage, AK, 99508",Match,Exact,"5463 E 4TH AVE, ANCHORAGE, AK, 99508",190816179,L,02,020,000801,4000,-149.77945,61.21866
9341,5463 E 4TH AVE,Anchorage,AK,99508,"5463 E 4TH AVE, Anchorage, AK, 99508",Match,Exact,"5463 E 4TH AVE, ANCHORAGE, AK, 99508",190816179,L,02,020,000801,4000,-149.77945,61.21866
9342,5463 E 4TH AVE,Anchorage,AK,99508,"5463 E 4TH AVE, Anchorage, AK, 99508",Match,Exact,"5463 E 4TH AVE, ANCHORAGE, AK, 99508",190816179,L,02,020,000801,4000,-149.77945,61.21866
9343,5463 E 4TH AVE,Anchorage,AK,99508,"5463 E 4TH AVE, Anchorage, AK, 99508",Match,Exact,"5463 E 4TH AVE, ANCHORAGE, AK, 99508",190816179,L,02,020,000801,4000,-149.77945,61.21866
9344,5463 E 4TH AVE,Anchorage,AK,99508,"5463 E 4TH AVE, Anchorage, AK, 99508",Match,Exact,"5463 E 4TH AVE, ANCHORAGE, AK, 99508",190816179,L,02,020,000801,4000,-149.77945,61.21866
9345,5451 E 4TH AVE,Anchorage,AK,99508,"5451 E 4TH AVE, Anchorage, AK, 99508",Match,Exact,"5451 E 4TH AVE, ANCHORAGE, AK, 99508",190816179,L,02,020,000801,4000,-149.77976999999998,61.21866
9346,5451 E 4TH AVE,Anchorage,AK,99508,"5451 E 4TH AVE, Anchorage, AK, 99508",Match,Exact,"5451 E 4TH AVE, ANCHORAGE, AK, 99508",190816179,L,02,020,000801,4000,-149.77976999999998,61.21866
9347,5451 E 4TH AVE,Anchorage,AK,99508,"5451 E 4TH AVE, Anchorage, AK, 99508",Match,Exact,"5451 E 4TH AVE, ANCHORAGE, AK, 99508",190816179,L,02,020,000801,4000,-149.77976999999998,61.21866
9348,5451 E 4TH AVE,Anchorage,AK,99508,"5451 E 4TH AVE, Anchorage, AK, 99508",Match,Exact,"5451 E 4TH AVE, ANCHORAGE, AK, 99508",190816179,L,02,020,000801,4000,-149.77976999999998,61.21866
9349,107 DAVIS ST,Anchorage,AK,99508,"107 DAVIS ST, Anchorage, AK, 99508",Match,Exact,"107 DAVIS ST, ANCHORAGE, AK, 99508",190801934,L,02,020,000801,3004,-149.78609,61.22405
9350,107 DAVIS ST,Anchorage,AK,99508,"107 DAVIS ST, Anchorage, AK, 99508",Match,Exact,"107 DAVIS ST, ANCHORAGE, AK, 99508",190801934,L,02,020,000801,3004,-149.78609,61.22405
9351,122 RUSTY ALLEN PL,Anchorage,AK,99504,"122 RUSTY ALLEN PL, Anchorage, AK, 99504",Match,Exact,"122 RUSTY ALLEN PL, ANCHORAGE, AK, 99504",605185494,R,02,020,000701,1000,-149.76071000000002,61.2233
9352,7654 BOUNDARY AVE,Anchorage,AK,99504,"7654 BOUNDARY AVE, Anchorage, AK, 99504",Match,Exact,"7654 BOUNDARY AVE, ANCHORAGE, AK, 99504",605167217,R,02,020,000702,2000,-149.73846,61.224169999999994
9353,139 GRAND LARRY ST,Anchorage,AK,99504,"139 GRAND LARRY ST, Anchorage, AK, 99504",Match,Exact,"139 GRAND LARRY ST, ANCHORAGE, AK, 99504",625718476,L,02,020,000703,2000,-149.72975,61.22335
9354,145 GRAND LARRY ST,Anchorage,AK,99504,"145 GRAND LARRY ST, Anchorage, AK, 99504",Match,Exact,"145 GRAND LARRY ST, ANCHORAGE, AK, 99504",625718476,L,02,020,000703,2000,-149.72975,61.223263
9355,141 RUSTY ALLEN PL,Anchorage,AK,99504,"141 RUSTY ALLEN PL, Anchorage, AK, 99504",Match,Exact,"141 RUSTY ALLEN PL, ANCHORAGE, AK, 99504",605185494,L,02,020,000701,1000,-149.76068,61.22314
9356,131 JELINEK PL,Anchorage,AK,99504,"131 JELINEK PL, Anchorage, AK, 99504",Match,Exact,"131 JELINEK PL, ANCHORAGE, AK, 99504",190803206,L,02,020,000703,1011,-149.72507,61.22355
9357,116 IDAHO ST,Anchorage,AK,99504,"116 IDAHO ST, Anchorage, AK, 99504",Match,Exact,"116 IDAHO ST, ANCHORAGE, AK, 99504",190802864,R,02,020,000702,2000,-149.73696999999999,61.223835
9358,116 IDAHO ST,Anchorage,AK,99504,"116 IDAHO ST, Anchorage, AK, 99504",Match,Exact,"116 IDAHO ST, ANCHORAGE, AK, 99504",190802864,R,02,020,000702,2000,-149.73696999999999,61.223835
9359,116 IDAHO ST,Anchorage,AK,99504,"116 IDAHO ST, Anchorage, AK, 99504",Match,Exact,"116 IDAHO ST, ANCHORAGE, AK, 99504",190802864,R,02,020,000702,2000,-149.73696999999999,61.223835
9360,116 IDAHO ST,Anchorage,AK,99504,"116 IDAHO ST, Anchorage, AK, 99504",Match,Exact,"116 IDAHO ST, ANCHORAGE, AK, 99504",190802864,R,02,020,000702,2000,-149.73696999999999,61.223835
9361,144 GRAND LARRY ST,Anchorage,AK,99504,"144 GRAND LARRY ST, Anchorage, AK, 99504",Match,Exact,"144 GRAND LARRY ST, ANCHORAGE, AK, 99504",625718476,R,02,020,000703,2001,-149.72978,61.223290000000006
9362,144 GRAND LARRY ST,Anchorage,AK,99504,"144 GRAND LARRY ST, Anchorage, AK, 99504",Match,Exact,"144 GRAND LARRY ST, ANCHORAGE, AK, 99504",625718476,R,02,020,000703,2001,-149.72978,61.223290000000006
9363,144 GRAND LARRY ST,Anchorage,AK,99504,"144 GRAND LARRY ST, Anchorage, AK, 99504",Match,Exact,"144 GRAND LARRY ST, ANCHORAGE, AK, 99504",625718476,R,02,020,000703,2001,-149.72978,61.223290000000006
9364,153 GRAND LARRY ST,Anchorage,AK,99504,"153 GRAND LARRY ST, Anchorage, AK, 99504",Match,Exact,"153 GRAND LARRY ST, ANCHORAGE, AK, 99504",625718476,L,02,020,000703,2000,-149.72975,61.223144999999995
9365,227 NEWELL ST,Anchorage,AK,99504,"227 NEWELL ST, Anchorage, AK, 99504",Match,Exact,"227 NEWELL ST, ANCHORAGE, AK, 99504",605167293,R,02,020,000701,1000,-149.77095,61.222637
9366,190 GRAND LARRY ST,Anchorage,AK,99504,"190 GRAND LARRY ST, Anchorage, AK, 99504",Match,Exact,"190 GRAND LARRY ST, ANCHORAGE, AK, 99504",625718476,R,02,020,000703,2001,-149.72977,61.222584
9367,190 GRAND LARRY ST,Anchorage,AK,99504,"190 GRAND LARRY ST, Anchorage, AK, 99504",Match,Exact,"190 GRAND LARRY ST, ANCHORAGE, AK, 99504",625718476,R,02,020,000703,2001,-149.72977,61.222584
9368,190 GRAND LARRY ST,Anchorage,AK,99504,"190 GRAND LARRY ST, Anchorage, AK, 99504",Match,Exact,"190 GRAND LARRY ST, ANCHORAGE, AK, 99504",625718476,R,02,020,000703,2001,-149.72977,61.222584
9369,190 GRAND LARRY ST,Anchorage,AK,99504,"190 GRAND LARRY ST, Anchorage, AK, 99504",Match,Exact,"190 GRAND LARRY ST, ANCHORAGE, AK, 99504",625718476,R,02,020,000703,2001,-149.72977,61.222584
9370,190 GRAND LARRY ST,Anchorage,AK,99504,"190 GRAND LARRY ST, Anchorage, AK, 99504",Match,Exact,"190 GRAND LARRY ST, ANCHORAGE, AK, 99504",625718476,R,02,020,000703,2001,-149.72977,61.222584
9371,190 GRAND LARRY ST,Anchorage,AK,99504,"190 GRAND LARRY ST, Anchorage, AK, 99504",Match,Exact,"190 GRAND LARRY ST, ANCHORAGE, AK, 99504",625718476,R,02,020,000703,2001,-149.72977,61.222584
9372,190 GRAND LARRY ST,Anchorage,AK,99504,"190 GRAND LARRY ST, Anchorage, AK, 99504",Match,Exact,"190 GRAND LARRY ST, ANCHORAGE, AK, 99504",625718476,R,02,020,000703,2001,-149.72977,61.222584
9373,190 GRAND LARRY ST,Anchorage,AK,99504,"190 GRAND LARRY ST, Anchorage, AK, 99504",Match,Exact,"190 GRAND LARRY ST, ANCHORAGE, AK, 99504",625718476,R,02,020,000703,2001,-149.72977,61.222584
9374,190 GRAND LARRY ST,Anchorage,AK,99504,"190 GRAND LARRY ST, Anchorage, AK, 99504",Match,Exact,"190 GRAND LARRY ST, ANCHORAGE, AK, 99504",625718476,R,02,020,000703,2001,-149.72977,61.222584
9375,190 GRAND LARRY ST,Anchorage,AK,99504,"190 GRAND LARRY ST, Anchorage, AK, 99504",Match,Exact,"190 GRAND LARRY ST, ANCHORAGE, AK, 99504",625718476,R,02,020,000703,2001,-149.72977,61.222584
9376,190 GRAND LARRY ST,Anchorage,AK,99504,"190 GRAND LARRY ST, Anchorage, AK, 99504",Match,Exact,"190 GRAND LARRY ST, ANCHORAGE, AK, 99504",625718476,R,02,020,000703,2001,-149.72977,61.222584
9377,190 GRAND LARRY ST,Anchorage,AK,99504,"190 GRAND LARRY ST, Anchorage, AK, 99504",Match,Exact,"190 GRAND LARRY ST, ANCHORAGE, AK, 99504",625718476,R,02,020,000703,2001,-149.72977,61.222584
9378,7750 BOUNDARY AVE,Anchorage,AK,99504,"7750 BOUNDARY AVE, Anchorage, AK, 99504",Match,Exact,"7750 BOUNDARY AVE, ANCHORAGE, AK, 99504",605167189,R,02,020,000702,2000,-149.7364,61.224169999999994
9379,7750 BOUNDARY AVE,Anchorage,AK,99504,"7750 BOUNDARY AVE, Anchorage, AK, 99504",Match,Exact,"7750 BOUNDARY AVE, ANCHORAGE, AK, 99504",605167189,R,02,020,000702,2000,-149.7364,61.224169999999994
9380,7746 BOUNDARY AVE,Anchorage,AK,99504,"7746 BOUNDARY AVE, Anchorage, AK, 99504",Match,Exact,"7746 BOUNDARY AVE, ANCHORAGE, AK, 99504",605167189,R,02,020,000702,2000,-149.73643,61.224169999999994
9381,8136 E 2ND AVE,Anchorage,AK,99504,"8136 E 2ND AVE, Anchorage, AK, 99504",Match,Exact,"8136 E 2ND AVE, ANCHORAGE, AK, 99504",190807393,R,02,020,000703,3005,-149.72916999999998,61.22022
9382,8124 E 2ND AVE,Anchorage,AK,99504,"8124 E 2ND AVE, Anchorage, AK, 99504",Match,Exact,"8124 E 2ND AVE, ANCHORAGE, AK, 99504",190807393,R,02,020,000703,3005,-149.72933999999998,61.22022
9383,8112 E 2ND AVE,Anchorage,AK,99504,"8112 E 2ND AVE, Anchorage, AK, 99504",Match,Exact,"8112 E 2ND AVE, ANCHORAGE, AK, 99504",190807393,R,02,020,000703,3005,-149.72949,61.22022
9384,8100 E 2ND AVE,Anchorage,AK,99504,"8100 E 2ND AVE, Anchorage, AK, 99504",Match,Exact,"8100 E 2ND AVE, ANCHORAGE, AK, 99504",190807393,R,02,020,000703,3005,-149.72964,61.22022
9385,8024 E 2ND AVE,Anchorage,AK,99504,"8024 E 2ND AVE, Anchorage, AK, 99504",Match,Exact,"8024 E 2ND AVE, ANCHORAGE, AK, 99504",190807393,R,02,020,000703,3005,-149.73064,61.22022
9386,8014 E 2ND AVE,Anchorage,AK,99504,"8014 E 2ND AVE, Anchorage, AK, 99504",Match,Exact,"8014 E 2ND AVE, ANCHORAGE, AK, 99504",190807393,R,02,020,000703,3005,-149.73077,61.22022
9387,331 DANNILYN CIR,Anchorage,AK,99504,"331 DANNILYN CIR, Anchorage, AK, 99504",Match,Exact,"331 DANNILYN CIR, ANCHORAGE, AK, 99504",190808935,L,02,020,000702,2002,-149.74373,61.22039
9388,330 DANNILYN CIR,Anchorage,AK,99504,"330 DANNILYN CIR, Anchorage, AK, 99504",Match,Exact,"330 DANNILYN CIR, ANCHORAGE, AK, 99504",190808935,R,02,020,000702,2002,-149.74374,61.22039
9389,300 PEPPERTREE LOOP,Anchorage,AK,99504,"300 PEPPERTREE LOOP, Anchorage, AK, 99504",Match,Exact,"300 PEPPERTREE LOOP, ANCHORAGE, AK, 99504",190826164,R,02,020,000701,1000,-149.76265,61.220028000000006
9390,4701 KENAI AVE,Anchorage,AK,99508,"4701 KENAI AVE, Anchorage, AK, 99508",No_Match,,,,,,,,,,
9391,7105 SHOORESIN CIR,Anchorage,AK,99504,"7105 SHOORESIN CIR, Anchorage, AK, 99504",Match,Exact,"7105 SHOORESIN CIR, ANCHORAGE, AK, 99504",190802870,R,02,020,000702,3007,-149.74838,61.22005
9392,317 GAYLENE CIR,Anchorage,AK,99504,"317 GAYLENE CIR, Anchorage, AK, 99504",Match,Exact,"317 GAYLENE CIR, ANCHORAGE, AK, 99504",190803322,L,02,020,000703,3001,-149.72128,61.220467000000006
9393,330 VILLA CIR,Anchorage,AK,99504,"330 VILLA CIR, Anchorage, AK, 99504",Match,Exact,"330 VILLA CIR, ANCHORAGE, AK, 99504",190816175,R,02,020,000702,2002,-149.74007,61.22039399999999
9394,4803 KENAI AVE,Anchorage,AK,99508,"4803 KENAI AVE, Anchorage, AK, 99508",Match,Exact,"4803 KENAI AVE, ANCHORAGE, AK, 99508",624908526,L,02,020,000801,2007,-149.79097,61.220078
9395,316 GAYLENE CIR,Anchorage,AK,99504,"316 GAYLENE CIR, Anchorage, AK, 99504",Match,Exact,"316 GAYLENE CIR, ANCHORAGE, AK, 99504",190803322,R,02,020,000703,3001,-149.72131000000002,61.220467000000006
9396,331 VILLA CIR,Anchorage,AK,99504,"331 VILLA CIR, Anchorage, AK, 99504",Match,Exact,"331 VILLA CIR, ANCHORAGE, AK, 99504",190816175,L,02,020,000702,2002,-149.74005,61.22039399999999
9397,220 PEPPERTREE LOOP,Anchorage,AK,99504,"220 PEPPERTREE LOOP, Anchorage, AK, 99504",Match,Exact,"220 PEPPERTREE LOOP, ANCHORAGE, AK, 99504",190826164,R,02,020,000701,1000,-149.76077,61.220142
9398,5408 CAMELOT DR,Anchorage,AK,99508,"5408 CAMELOT DR, Anchorage, AK, 99508",Match,Exact,"5408 CAMELOT DR, ANCHORAGE, AK, 99508",190801978,R,02,020,000801,4000,-149.78058000000001,61.220245
9399,320 BOLIN ST,Anchorage,AK,99504,"320 BOLIN ST, Anchorage, AK, 99504",Match,Exact,"320 BOLIN ST, ANCHORAGE, AK, 99504",190803336,R,02,020,000703,3001,-149.71944,61.220245
9400,321 BOLIN ST,Anchorage,AK,99504,"321 BOLIN ST, Anchorage, AK, 99504",Match,Exact,"321 BOLIN ST, ANCHORAGE, AK, 99504",190803336,L,02,020,000703,3000,-149.7194,61.220245
9401,321 BOLIN ST,Anchorage,AK,99504,"321 BOLIN ST, Anchorage, AK, 99504",Match,Exact,"321 BOLIN ST, ANCHORAGE, AK, 99504",190803336,L,02,020,000703,3000,-149.7194,61.220245
9402,311 TURPIN ST,Anchorage,AK,99504,"311 TURPIN ST, Anchorage, AK, 99504",Match,Exact,"311 TURPIN ST, ANCHORAGE, AK, 99504",190802770,L,02,020,000702,3006,-149.75597,61.220238
9403,311 TURPIN ST,Anchorage,AK,99504,"311 TURPIN ST, Anchorage, AK, 99504",Match,Exact,"311 TURPIN ST, ANCHORAGE, AK, 99504",190802770,L,02,020,000702,3006,-149.75597,61.220238
9404,311 TURPIN ST,Anchorage,AK,99504,"311 TURPIN ST, Anchorage, AK, 99504",Match,Exact,"311 TURPIN ST, ANCHORAGE, AK, 99504",190802770,L,02,020,000702,3006,-149.75597,61.220238
9405,7101 SHOORESIN CIR,Anchorage,AK,99504,"7101 SHOORESIN CIR, Anchorage, AK, 99504",Match,Exact,"7101 SHOORESIN CIR, ANCHORAGE, AK, 99504",190802870,R,02,020,000702,3007,-149.74843,61.22005
9406,341 DANNILYN CIR,Anchorage,AK,99504,"341 DANNILYN CIR, Anchorage, AK, 99504",Match,Exact,"341 DANNILYN CIR, ANCHORAGE, AK, 99504",190808935,L,02,020,000702,2002,-149.74373,61.22035
9407,4703 KENAI AVE,Anchorage,AK,99508,"4703 KENAI AVE, Anchorage, AK, 99508",Match,Exact,"4703 KENAI AVE, ANCHORAGE, AK, 99508",624908526,L,02,020,000801,2007,-149.79213000000001,61.22014
9408,4703 KENAI AVE,Anchorage,AK,99508,"4703 KENAI AVE, Anchorage, AK, 99508",Match,Exact,"4703 KENAI AVE, ANCHORAGE, AK, 99508",624908526,L,02,020,000801,2007,-149.79213000000001,61.22014
9409,340 DANNILYN CIR,Anchorage,AK,99504,"340 DANNILYN CIR, Anchorage, AK, 99504",Match,Exact,"340 DANNILYN CIR, ANCHORAGE, AK, 99504",190808935,R,02,020,000702,2002,-149.74374,61.22035
9410,310 FERN LN,Anchorage,AK,99504,"310 FERN LN, Anchorage, AK, 99504",Match,Exact,"310 FERN LN, ANCHORAGE, AK, 99504",190802803,R,02,020,000702,3006,-149.75426000000002,61.22026999999999
9411,5406 CAMELOT DR,Anchorage,AK,99508,"5406 CAMELOT DR, Anchorage, AK, 99508",Match,Exact,"5406 CAMELOT DR, ANCHORAGE, AK, 99508",190801978,R,02,020,000801,4000,-149.78062,61.220234
9412,321 GAYLENE CIR,Anchorage,AK,99504,"321 GAYLENE CIR, Anchorage, AK, 99504",Match,Exact,"321 GAYLENE CIR, ANCHORAGE, AK, 99504",190803322,L,02,020,000703,3001,-149.72128,61.22045
9413,210 PEPPERTREE LOOP,Anchorage,AK,99504,"210 PEPPERTREE LOOP, Anchorage, AK, 99504",Match,Exact,"210 PEPPERTREE LOOP, ANCHORAGE, AK, 99504",190826164,R,02,020,000701,1000,-149.76051,61.2201
9414,381 BOLIN ST,Anchorage,AK,99504,"381 BOLIN ST, Anchorage, AK, 99504",Match,Exact,"381 BOLIN ST, ANCHORAGE, AK, 99504",190803336,L,02,020,000703,3000,-149.7194,61.219566
9415,381 BOLIN ST,Anchorage,AK,99504,"381 BOLIN ST, Anchorage, AK, 99504",Match,Exact,"381 BOLIN ST, ANCHORAGE, AK, 99504",190803336,L,02,020,000703,3000,-149.7194,61.219566
9416,5901 E 6TH AVE,Anchorage,AK,99504,"5901 E 6TH AVE, Anchorage, AK, 99504",Match,Exact,"5901 E 6TH AVE, ANCHORAGE, AK, 99504",190810852,L,02,020,000701,1000,-149.77061,61.216933999999995
9417,5901 E 6TH AVE,Anchorage,AK,99504,"5901 E 6TH AVE, Anchorage, AK, 99504",Match,Exact,"5901 E 6TH AVE, ANCHORAGE, AK, 99504",190810852,L,02,020,000701,1000,-149.77061,61.216933999999995
9418,5901 E 6TH AVE,Anchorage,AK,99504,"5901 E 6TH AVE, Anchorage, AK, 99504",Match,Exact,"5901 E 6TH AVE, ANCHORAGE, AK, 99504",190810852,L,02,020,000701,1000,-149.77061,61.216933999999995
9419,5901 E 6TH AVE,Anchorage,AK,99504,"5901 E 6TH AVE, Anchorage, AK, 99504",Match,Exact,"5901 E 6TH AVE, ANCHORAGE, AK, 99504",190810852,L,02,020,000701,1000,-149.77061,61.216933999999995
9420,5901 E 6TH AVE,Anchorage,AK,99504,"5901 E 6TH AVE, Anchorage, AK, 99504",Match,Exact,"5901 E 6TH AVE, ANCHORAGE, AK, 99504",190810852,L,02,020,000701,1000,-149.77061,61.216933999999995
9421,5901 E 6TH AVE,Anchorage,AK,99504,"5901 E 6TH AVE, Anchorage, AK, 99504",Match,Exact,"5901 E 6TH AVE, ANCHORAGE, AK, 99504",190810852,L,02,020,000701,1000,-149.77061,61.216933999999995
9422,5901 E 6TH AVE,Anchorage,AK,99504,"5901 E 6TH AVE, Anchorage, AK, 99504",Match,Exact,"5901 E 6TH AVE, ANCHORAGE, AK, 99504",190810852,L,02,020,000701,1000,-149.77061,61.216933999999995
9423,5901 E 6TH AVE,Anchorage,AK,99504,"5901 E 6TH AVE, Anchorage, AK, 99504",Match,Exact,"5901 E 6TH AVE, ANCHORAGE, AK, 99504",190810852,L,02,020,000701,1000,-149.77061,61.216933999999995
9424,5901 E 6TH AVE,Anchorage,AK,99504,"5901 E 6TH AVE, Anchorage, AK, 99504",Match,Exact,"5901 E 6TH AVE, ANCHORAGE, AK, 99504",190810852,L,02,020,000701,1000,-149.77061,61.216933999999995
9425,5901 E 6TH AVE,Anchorage,AK,99504,"5901 E 6TH AVE, Anchorage, AK, 99504",Match,Exact,"5901 E 6TH AVE, ANCHORAGE, AK, 99504",190810852,L,02,020,000701,1000,-149.77061,61.216933999999995
9426,390 DANNILYN CIR,Anchorage,AK,99504,"390 DANNILYN CIR, Anchorage, AK, 99504",Match,Exact,"390 DANNILYN CIR, ANCHORAGE, AK, 99504",190808935,R,02,020,000702,2002,-149.74374,61.220135
9427,5901 E 6TH AVE,Anchorage,AK,99504,"5901 E 6TH AVE, Anchorage, AK, 99504",Match,Exact,"5901 E 6TH AVE, ANCHORAGE, AK, 99504",190810852,L,02,020,000701,1000,-149.77061,61.216933999999995
9428,5901 E 6TH AVE,Anchorage,AK,99504,"5901 E 6TH AVE, Anchorage, AK, 99504",Match,Exact,"5901 E 6TH AVE, ANCHORAGE, AK, 99504",190810852,L,02,020,000701,1000,-149.77061,61.216933999999995
9429,412 CHERRY ST,Anchorage,AK,99504,"412 CHERRY ST, Anchorage, AK, 99504",Match,Exact,"412 CHERRY ST, ANCHORAGE, AK, 99504",190803319,R,02,020,000703,3012,-149.72224,61.218678000000004
9430,5901 E 6TH AVE,Anchorage,AK,99504,"5901 E 6TH AVE, Anchorage, AK, 99504",Match,Exact,"5901 E 6TH AVE, ANCHORAGE, AK, 99504",190810852,L,02,020,000701,1000,-149.77061,61.216933999999995
9431,5901 E 6TH AVE,Anchorage,AK,99504,"5901 E 6TH AVE, Anchorage, AK, 99504",Match,Exact,"5901 E 6TH AVE, ANCHORAGE, AK, 99504",190810852,L,02,020,000701,1000,-149.77061,61.216933999999995
9432,5901 E 6TH AVE,Anchorage,AK,99504,"5901 E 6TH AVE, Anchorage, AK, 99504",Match,Exact,"5901 E 6TH AVE, ANCHORAGE, AK, 99504",190810852,L,02,020,000701,1000,-149.77061,61.216933999999995
9433,5901 E 6TH AVE,Anchorage,AK,99504,"5901 E 6TH AVE, Anchorage, AK, 99504",Match,Exact,"5901 E 6TH AVE, ANCHORAGE, AK, 99504",190810852,L,02,020,000701,1000,-149.77061,61.216933999999995
9434,5901 E 6TH AVE,Anchorage,AK,99504,"5901 E 6TH AVE, Anchorage, AK, 99504",Match,Exact,"5901 E 6TH AVE, ANCHORAGE, AK, 99504",190810852,L,02,020,000701,1000,-149.77061,61.216933999999995
9435,5901 E 6TH AVE,Anchorage,AK,99504,"5901 E 6TH AVE, Anchorage, AK, 99504",Match,Exact,"5901 E 6TH AVE, ANCHORAGE, AK, 99504",190810852,L,02,020,000701,1000,-149.77061,61.216933999999995
9436,5901 E 6TH AVE,Anchorage,AK,99504,"5901 E 6TH AVE, Anchorage, AK, 99504",Match,Exact,"5901 E 6TH AVE, ANCHORAGE, AK, 99504",190810852,L,02,020,000701,1000,-149.77061,61.216933999999995
9437,329 KRANE DR,Anchorage,AK,99504,"329 KRANE DR, Anchorage, AK, 99504",Match,Exact,"329 KRANE DR, ANCHORAGE, AK, 99504",605167555,R,02,020,000701,2000,-149.75708,61.220062
9438,5901 E 6TH AVE,Anchorage,AK,99504,"5901 E 6TH AVE, Anchorage, AK, 99504",Match,Exact,"5901 E 6TH AVE, ANCHORAGE, AK, 99504",190810852,L,02,020,000701,1000,-149.77061,61.216933999999995
9439,5901 E 6TH AVE,Anchorage,AK,99504,"5901 E 6TH AVE, Anchorage, AK, 99504",Match,Exact,"5901 E 6TH AVE, ANCHORAGE, AK, 99504",190810852,L,02,020,000701,1000,-149.77061,61.216933999999995
9440,5901 E 6TH AVE,Anchorage,AK,99504,"5901 E 6TH AVE, Anchorage, AK, 99504",Match,Exact,"5901 E 6TH AVE, ANCHORAGE, AK, 99504",190810852,L,02,020,000701,1000,-149.77061,61.216933999999995
9441,437 FREDRICKS DR,Anchorage,AK,99504,"437 FREDRICKS DR, Anchorage, AK, 99504",No_Match,,,,,,,,,,
9442,420 FREDRICKS DR,Anchorage,AK,99504,"420 FREDRICKS DR, Anchorage, AK, 99504",Match,Non_Exact,"420 FREDERICKS DR, ANCHORAGE, AK, 99504",190816143,R,02,020,000702,3009,-149.7512,61.217606
9443,5901 E 6TH AVE,Anchorage,AK,99504,"5901 E 6TH AVE, Anchorage, AK, 99504",Match,Exact,"5901 E 6TH AVE, ANCHORAGE, AK, 99504",190810852,L,02,020,000701,1000,-149.77061,61.216933999999995
9444,347 KRANE DR,Anchorage,AK,99504,"347 KRANE DR, Anchorage, AK, 99504",Match,Exact,"347 KRANE DR, ANCHORAGE, AK, 99504",605167555,R,02,020,000701,2000,-149.75708,61.219832999999994
9445,5901 E 6TH AVE,Anchorage,AK,99504,"5901 E 6TH AVE, Anchorage, AK, 99504",Match,Exact,"5901 E 6TH AVE, ANCHORAGE, AK, 99504",190810852,L,02,020,000701,1000,-149.77061,61.216933999999995
9446,401 PAULINE ST,Anchorage,AK,99504,"401 PAULINE ST, Anchorage, AK, 99504",Match,Exact,"401 PAULINE ST, ANCHORAGE, AK, 99504",190816095,L,02,020,000703,3002,-149.7267,61.218796
9447,407 BONIFACE PKWY,Anchorage,AK,99504,"407 BONIFACE PKWY, Anchorage, AK, 99504",Match,Exact,"407 BONIFACE PKWY, ANCHORAGE, AK, 99504",190801984,L,02,020,000701,1010,-149.77838,61.21849
9448,341 KRANE DR,Anchorage,AK,99504,"341 KRANE DR, Anchorage, AK, 99504",Match,Exact,"341 KRANE DR, ANCHORAGE, AK, 99504",605167555,R,02,020,000701,2000,-149.75708,61.21991
9449,5901 E 6TH AVE,Anchorage,AK,99504,"5901 E 6TH AVE, Anchorage, AK, 99504",Match,Exact,"5901 E 6TH AVE, ANCHORAGE, AK, 99504",190810852,L,02,020,000701,1000,-149.77061,61.216933999999995
9450,5901 E 6TH AVE,Anchorage,AK,99504,"5901 E 6TH AVE, Anchorage, AK, 99504",Match,Exact,"5901 E 6TH AVE, ANCHORAGE, AK, 99504",190810852,L,02,020,000701,1000,-149.77061,61.216933999999995
9451,5901 E 6TH AVE,Anchorage,AK,99504,"5901 E 6TH AVE, Anchorage, AK, 99504",Match,Exact,"5901 E 6TH AVE, ANCHORAGE, AK, 99504",190810852,L,02,020,000701,1000,-149.77061,61.216933999999995
9452,5451 E 4TH AVE,Anchorage,AK,99508,"5451 E 4TH AVE, Anchorage, AK, 99508",Match,Exact,"5451 E 4TH AVE, ANCHORAGE, AK, 99508",190816179,L,02,020,000801,4000,-149.77976999999998,61.21866
9453,5441 E 4TH AVE,Anchorage,AK,99508,"5441 E 4TH AVE, Anchorage, AK, 99508",Match,Exact,"5441 E 4TH AVE, ANCHORAGE, AK, 99508",190816179,L,02,020,000801,4000,-149.78001,61.21866
9454,5439 E 4TH AVE,Anchorage,AK,99508,"5439 E 4TH AVE, Anchorage, AK, 99508",Match,Exact,"5439 E 4TH AVE, ANCHORAGE, AK, 99508",190816179,L,02,020,000801,4000,-149.78008,61.21866
9455,5431 E 4TH AVE,Anchorage,AK,99508,"5431 E 4TH AVE, Anchorage, AK, 99508",Match,Exact,"5431 E 4TH AVE, ANCHORAGE, AK, 99508",190816179,L,02,020,000801,4000,-149.78027,61.21866
9456,5429 E 4TH AVE,Anchorage,AK,99508,"5429 E 4TH AVE, Anchorage, AK, 99508",Match,Exact,"5429 E 4TH AVE, ANCHORAGE, AK, 99508",190816179,L,02,020,000801,4000,-149.78032,61.21866
9457,5417 E 4TH AVE,Anchorage,AK,99508,"5417 E 4TH AVE, Anchorage, AK, 99508",Match,Exact,"5417 E 4TH AVE, ANCHORAGE, AK, 99508",190816179,L,02,020,000801,4000,-149.78062,61.21866
9458,5407 E 4TH AVE,Anchorage,AK,99508,"5407 E 4TH AVE, Anchorage, AK, 99508",Match,Exact,"5407 E 4TH AVE, ANCHORAGE, AK, 99508",190812083,L,02,020,000801,4000,-149.78114,61.21866
9459,5405 E 4TH AVE,Anchorage,AK,99508,"5405 E 4TH AVE, Anchorage, AK, 99508",Match,Exact,"5405 E 4TH AVE, ANCHORAGE, AK, 99508",190812083,L,02,020,000801,4000,-149.78125,61.21866
9460,7410 E 4TH AVE,Anchorage,AK,99504,"7410 E 4TH AVE, Anchorage, AK, 99504",Match,Exact,"7410 E 4TH AVE, ANCHORAGE, AK, 99504",190802891,R,02,020,000702,2004,-149.74255,61.218742000000006
9461,7412 E 4TH AVE,Anchorage,AK,99504,"7412 E 4TH AVE, Anchorage, AK, 99504",Match,Exact,"7412 E 4TH AVE, ANCHORAGE, AK, 99504",190802891,R,02,020,000702,2004,-149.74251999999998,61.218742000000006
9462,7414 E 4TH AVE,Anchorage,AK,99504,"7414 E 4TH AVE, Anchorage, AK, 99504",Match,Exact,"7414 E 4TH AVE, ANCHORAGE, AK, 99504",190802891,R,02,020,000702,2004,-149.7425,61.218742000000006
9463,5369 E 4TH AVE,Anchorage,AK,99508,"5369 E 4TH AVE, Anchorage, AK, 99508",Match,Exact,"5369 E 4TH AVE, ANCHORAGE, AK, 99508",190809075,L,02,020,000801,4001,-149.78207,61.21866
9464,5369 E 4TH AVE,Anchorage,AK,99508,"5369 E 4TH AVE, Anchorage, AK, 99508",Match,Exact,"5369 E 4TH AVE, ANCHORAGE, AK, 99508",190809075,L,02,020,000801,4001,-149.78207,61.21866
9465,5369 E 4TH AVE,Anchorage,AK,99508,"5369 E 4TH AVE, Anchorage, AK, 99508",Match,Exact,"5369 E 4TH AVE, ANCHORAGE, AK, 99508",190809075,L,02,020,000801,4001,-149.78207,61.21866
9466,5369 E 4TH AVE,Anchorage,AK,99508,"5369 E 4TH AVE, Anchorage, AK, 99508",Match,Exact,"5369 E 4TH AVE, ANCHORAGE, AK, 99508",190809075,L,02,020,000801,4001,-149.78207,61.21866
9467,5369 E 4TH AVE,Anchorage,AK,99508,"5369 E 4TH AVE, Anchorage, AK, 99508",Match,Exact,"5369 E 4TH AVE, ANCHORAGE, AK, 99508",190809075,L,02,020,000801,4001,-149.78207,61.21866
9468,5369 E 4TH AVE,Anchorage,AK,99508,"5369 E 4TH AVE, Anchorage, AK, 99508",Match,Exact,"5369 E 4TH AVE, ANCHORAGE, AK, 99508",190809075,L,02,020,000801,4001,-149.78207,61.21866
9469,5101 E 4TH AVE,Anchorage,AK,99508,"5101 E 4TH AVE, Anchorage, AK, 99508",Match,Exact,"5101 E 4TH AVE, ANCHORAGE, AK, 99508",605344082,L,02,020,000801,4001,-149.78477,61.218662
9470,416 CHERRY ST,Anchorage,AK,99504,"416 CHERRY ST, Anchorage, AK, 99504",Match,Exact,"416 CHERRY ST, ANCHORAGE, AK, 99504",190803319,R,02,020,000703,3012,-149.72224,61.21864
9471,7504 E 4TH AVE,Anchorage,AK,99504,"7504 E 4TH AVE, Anchorage, AK, 99504",Match,Exact,"7504 E 4TH AVE, ANCHORAGE, AK, 99504",190825971,R,02,020,000702,2005,-149.74069,61.218745999999996
9472,7504 E 4TH AVE,Anchorage,AK,99504,"7504 E 4TH AVE, Anchorage, AK, 99504",Match,Exact,"7504 E 4TH AVE, ANCHORAGE, AK, 99504",190825971,R,02,020,000702,2005,-149.74069,61.218745999999996
9473,7500 E 4TH AVE,Anchorage,AK,99504,"7500 E 4TH AVE, Anchorage, AK, 99504",Match,Exact,"7500 E 4TH AVE, ANCHORAGE, AK, 99504",190825971,R,02,020,000702,2005,-149.74092,61.218745999999996
9474,5831 ROCKY MOUNTAIN CT,Anchorage,AK,99504,"5831 ROCKY MOUNTAIN CT, Anchorage, AK, 99504",Match,Exact,"5831 ROCKY MOUNTAIN CT, ANCHORAGE, AK, 99504",190802016,L,02,020,000701,1010,-149.77193,61.217842000000005
9475,5831 ROCKY MOUNTAIN CT,Anchorage,AK,99504,"5831 ROCKY MOUNTAIN CT, Anchorage, AK, 99504",Match,Exact,"5831 ROCKY MOUNTAIN CT, ANCHORAGE, AK, 99504",190802016,L,02,020,000701,1010,-149.77193,61.217842000000005
9476,5901 E 6TH AVE,Anchorage,AK,99504,"5901 E 6TH AVE, Anchorage, AK, 99504",Match,Exact,"5901 E 6TH AVE, ANCHORAGE, AK, 99504",190810852,L,02,020,000701,1000,-149.77061,61.216933999999995
9477,5901 E 6TH AVE,Anchorage,AK,99504,"5901 E 6TH AVE, Anchorage, AK, 99504",Match,Exact,"5901 E 6TH AVE, ANCHORAGE, AK, 99504",190810852,L,02,020,000701,1000,-149.77061,61.216933999999995
9478,5821 ROCKY MOUNTAIN CT,Anchorage,AK,99504,"5821 ROCKY MOUNTAIN CT, Anchorage, AK, 99504",Match,Exact,"5821 ROCKY MOUNTAIN CT, ANCHORAGE, AK, 99504",190802016,L,02,020,000701,1010,-149.77205,61.21784
9479,5821 ROCKY MOUNTAIN CT,Anchorage,AK,99504,"5821 ROCKY MOUNTAIN CT, Anchorage, AK, 99504",Match,Exact,"5821 ROCKY MOUNTAIN CT, ANCHORAGE, AK, 99504",190802016,L,02,020,000701,1010,-149.77205,61.21784
9480,5821 ROCKY MOUNTAIN CT,Anchorage,AK,99504,"5821 ROCKY MOUNTAIN CT, Anchorage, AK, 99504",Match,Exact,"5821 ROCKY MOUNTAIN CT, ANCHORAGE, AK, 99504",190802016,L,02,020,000701,1010,-149.77205,61.21784
9481,5821 ROCKY MOUNTAIN CT,Anchorage,AK,99504,"5821 ROCKY MOUNTAIN CT, Anchorage, AK, 99504",Match,Exact,"5821 ROCKY MOUNTAIN CT, ANCHORAGE, AK, 99504",190802016,L,02,020,000701,1010,-149.77205,61.21784
9482,5811 ROCKY MOUNTAIN CT,Anchorage,AK,99504,"5811 ROCKY MOUNTAIN CT, Anchorage, AK, 99504",Match,Exact,"5811 ROCKY MOUNTAIN CT, ANCHORAGE, AK, 99504",190802016,L,02,020,000701,1010,-149.77217,61.21784
9483,5811 ROCKY MOUNTAIN CT,Anchorage,AK,99504,"5811 ROCKY MOUNTAIN CT, Anchorage, AK, 99504",Match,Exact,"5811 ROCKY MOUNTAIN CT, ANCHORAGE, AK, 99504",190802016,L,02,020,000701,1010,-149.77217,61.21784
9484,5811 ROCKY MOUNTAIN CT,Anchorage,AK,99504,"5811 ROCKY MOUNTAIN CT, Anchorage, AK, 99504",Match,Exact,"5811 ROCKY MOUNTAIN CT, ANCHORAGE, AK, 99504",190802016,L,02,020,000701,1010,-149.77217,61.21784
9485,5811 ROCKY MOUNTAIN CT,Anchorage,AK,99504,"5811 ROCKY MOUNTAIN CT, Anchorage, AK, 99504",Match,Exact,"5811 ROCKY MOUNTAIN CT, ANCHORAGE, AK, 99504",190802016,L,02,020,000701,1010,-149.77217,61.21784
9486,5801 ROCKY MOUNTAIN CT,Anchorage,AK,99504,"5801 ROCKY MOUNTAIN CT, Anchorage, AK, 99504",Match,Exact,"5801 ROCKY MOUNTAIN CT, ANCHORAGE, AK, 99504",190802016,L,02,020,000701,1010,-149.77228,61.21784
9487,7752 BOUNDARY AVE,Anchorage,AK,99504,"7752 BOUNDARY AVE, Anchorage, AK, 99504",Match,Exact,"7752 BOUNDARY AVE, ANCHORAGE, AK, 99504",605167189,R,02,020,000702,2000,-149.73639,61.224169999999994
9488,7744 BOUNDARY AVE,Anchorage,AK,99504,"7744 BOUNDARY AVE, Anchorage, AK, 99504",Match,Exact,"7744 BOUNDARY AVE, ANCHORAGE, AK, 99504",605167189,R,02,020,000702,2000,-149.73647,61.224169999999994
9489,180 GRAND LARRY ST,Anchorage,AK,99504,"180 GRAND LARRY ST, Anchorage, AK, 99504",Match,Exact,"180 GRAND LARRY ST, ANCHORAGE, AK, 99504",625718476,R,02,020,000703,2001,-149.72977,61.222736
9490,180 GRAND LARRY ST,Anchorage,AK,99504,"180 GRAND LARRY ST, Anchorage, AK, 99504",Match,Exact,"180 GRAND LARRY ST, ANCHORAGE, AK, 99504",625718476,R,02,020,000703,2001,-149.72977,61.222736
9491,180 GRAND LARRY ST,Anchorage,AK,99504,"180 GRAND LARRY ST, Anchorage, AK, 99504",Match,Exact,"180 GRAND LARRY ST, ANCHORAGE, AK, 99504",625718476,R,02,020,000703,2001,-149.72977,61.222736
9492,180 GRAND LARRY ST,Anchorage,AK,99504,"180 GRAND LARRY ST, Anchorage, AK, 99504",Match,Exact,"180 GRAND LARRY ST, ANCHORAGE, AK, 99504",625718476,R,02,020,000703,2001,-149.72977,61.222736
9493,180 GRAND LARRY ST,Anchorage,AK,99504,"180 GRAND LARRY ST, Anchorage, AK, 99504",Match,Exact,"180 GRAND LARRY ST, ANCHORAGE, AK, 99504",625718476,R,02,020,000703,2001,-149.72977,61.222736
9494,180 GRAND LARRY ST,Anchorage,AK,99504,"180 GRAND LARRY ST, Anchorage, AK, 99504",Match,Exact,"180 GRAND LARRY ST, ANCHORAGE, AK, 99504",625718476,R,02,020,000703,2001,-149.72977,61.222736
9495,180 GRAND LARRY ST,Anchorage,AK,99504,"180 GRAND LARRY ST, Anchorage, AK, 99504",Match,Exact,"180 GRAND LARRY ST, ANCHORAGE, AK, 99504",625718476,R,02,020,000703,2001,-149.72977,61.222736
9496,180 GRAND LARRY ST,Anchorage,AK,99504,"180 GRAND LARRY ST, Anchorage, AK, 99504",Match,Exact,"180 GRAND LARRY ST, ANCHORAGE, AK, 99504",625718476,R,02,020,000703,2001,-149.72977,61.222736
9497,180 GRAND LARRY ST,Anchorage,AK,99504,"180 GRAND LARRY ST, Anchorage, AK, 99504",Match,Exact,"180 GRAND LARRY ST, ANCHORAGE, AK, 99504",625718476,R,02,020,000703,2001,-149.72977,61.222736
9498,180 GRAND LARRY ST,Anchorage,AK,99504,"180 GRAND LARRY ST, Anchorage, AK, 99504",Match,Exact,"180 GRAND LARRY ST, ANCHORAGE, AK, 99504",625718476,R,02,020,000703,2001,-149.72977,61.222736
9499,180 GRAND LARRY ST,Anchorage,AK,99504,"180 GRAND LARRY ST, Anchorage, AK, 99504",Match,Exact,"180 GRAND LARRY ST, ANCHORAGE, AK, 99504",625718476,R,02,020,000703,2001,-149.72977,61.222736
9500,221 WHISPER RIDGE CIR,Anchorage,AK,99504,"221 WHISPER RIDGE CIR, Anchorage, AK, 99504",Match,Exact,"221 WHISPER RIDGE CIR, ANCHORAGE, AK, 99504",624788767,R,02,020,000701,1013,-149.75891000000001,61.22225
9501,221 WHISPER RIDGE CIR,Anchorage,AK,99504,"221 WHISPER RIDGE CIR, Anchorage, AK, 99504",Match,Exact,"221 WHISPER RIDGE CIR, ANCHORAGE, AK, 99504",624788767,R,02,020,000701,1013,-149.75891000000001,61.22225
9502,247 DAVIS ST,Anchorage,AK,99508,"247 DAVIS ST, Anchorage, AK, 99508",Match,Exact,"247 DAVIS ST, ANCHORAGE, AK, 99508",190801936,L,02,020,000801,3009,-149.78607,61.22212
9503,202 GRAND LARRY ST,Anchorage,AK,99504,"202 GRAND LARRY ST, Anchorage, AK, 99504",Match,Exact,"202 GRAND LARRY ST, ANCHORAGE, AK, 99504",190803200,R,02,020,000703,2002,-149.72977,61.222202
9504,6314 WHISPERING LOOP,Anchorage,AK,99504,"6314 WHISPERING LOOP, Anchorage, AK, 99504",Match,Exact,"6314 WHISPERING LOOP, ANCHORAGE, AK, 99504",624788733,R,02,020,000701,1000,-149.76256999999998,61.22201
9505,6314 WHISPERING LOOP,Anchorage,AK,99504,"6314 WHISPERING LOOP, Anchorage, AK, 99504",Match,Exact,"6314 WHISPERING LOOP, ANCHORAGE, AK, 99504",624788733,R,02,020,000701,1000,-149.76256999999998,61.22201
9506,204 PATTERSON ST,Anchorage,AK,99504,"204 PATTERSON ST, Anchorage, AK, 99504",Match,Exact,"204 PATTERSON ST, ANCHORAGE, AK, 99504",190802844,R,02,020,000702,3002,-149.74854,61.222214
9507,221 RED LEAF CIR,Anchorage,AK,99504,"221 RED LEAF CIR, Anchorage, AK, 99504",Match,Exact,"221 RED LEAF CIR, ANCHORAGE, AK, 99504",190803306,R,02,020,000703,1013,-149.7213,61.22225600000001
9508,221 ORANGE LEAF CIR,Anchorage,AK,99504,"221 ORANGE LEAF CIR, Anchorage, AK, 99504",Match,Exact,"221 ORANGE LEAF CIR, ANCHORAGE, AK, 99504",190803309,R,02,020,000703,1013,-149.71941999999999,61.22225600000001
9509,219 ZAPPA PL,Anchorage,AK,99504,"219 ZAPPA PL, Anchorage, AK, 99504",Match,Exact,"219 ZAPPA PL, ANCHORAGE, AK, 99504",190803204,L,02,020,000703,1013,-149.726,61.221962
9510,330 BONIFACE PKWY,Anchorage,AK,99504,"330 BONIFACE PKWY, Anchorage, AK, 99504",Match,Exact,"330 BONIFACE PKWY, ANCHORAGE, AK, 99504",190801982,R,02,020,000801,4000,-149.77841,61.219784
9511,6741 DICKERSON DR,Anchorage,AK,99504,"6741 DICKERSON DR, Anchorage, AK, 99504",Match,Exact,"6741 DICKERSON DR, ANCHORAGE, AK, 99504",190802757,L,02,020,000702,3002,-149.75507,61.221855000000005
9512,6731 DICKERSON DR,Anchorage,AK,99504,"6731 DICKERSON DR, Anchorage, AK, 99504",Match,Exact,"6731 DICKERSON DR, ANCHORAGE, AK, 99504",190802757,L,02,020,000702,3002,-149.75522,61.221855000000005
9513,6721 DICKERSON DR,Anchorage,AK,99504,"6721 DICKERSON DR, Anchorage, AK, 99504",Match,Exact,"6721 DICKERSON DR, ANCHORAGE, AK, 99504",190802757,L,02,020,000702,3002,-149.75538999999998,61.22185
9514,6711 DICKERSON DR,Anchorage,AK,99504,"6711 DICKERSON DR, Anchorage, AK, 99504",Match,Exact,"6711 DICKERSON DR, ANCHORAGE, AK, 99504",190802757,L,02,020,000702,3002,-149.75554,61.22185
9515,6701 DICKERSON DR,Anchorage,AK,99504,"6701 DICKERSON DR, Anchorage, AK, 99504",Match,Exact,"6701 DICKERSON DR, ANCHORAGE, AK, 99504",190802757,L,02,020,000702,3002,-149.75569,61.22185
9516,6701 DICKERSON DR,Anchorage,AK,99504,"6701 DICKERSON DR, Anchorage, AK, 99504",Match,Exact,"6701 DICKERSON DR, ANCHORAGE, AK, 99504",190802757,L,02,020,000702,3002,-149.75569,61.22185
9517,6701 DICKERSON DR,Anchorage,AK,99504,"6701 DICKERSON DR, Anchorage, AK, 99504",Match,Exact,"6701 DICKERSON DR, ANCHORAGE, AK, 99504",190802757,L,02,020,000702,3002,-149.75569,61.22185
9518,6801 DICKERSON DR,Anchorage,AK,99504,"6801 DICKERSON DR, Anchorage, AK, 99504",Match,Exact,"6801 DICKERSON DR, ANCHORAGE, AK, 99504",190802757,L,02,020,000702,3002,-149.75413999999998,61.221855000000005
9519,381 BOLIN ST,Anchorage,AK,99504,"381 BOLIN ST, Anchorage, AK, 99504",Match,Exact,"381 BOLIN ST, ANCHORAGE, AK, 99504",190803336,L,02,020,000703,3000,-149.7194,61.219566
9520,381 BOLIN ST,Anchorage,AK,99504,"381 BOLIN ST, Anchorage, AK, 99504",Match,Exact,"381 BOLIN ST, ANCHORAGE, AK, 99504",190803336,L,02,020,000703,3000,-149.7194,61.219566
9521,8560 E 4TH AVE,Anchorage,AK,99504,"8560 E 4TH AVE, Anchorage, AK, 99504",Match,Exact,"8560 E 4TH AVE, ANCHORAGE, AK, 99504",190803337,L,02,020,000703,3000,-149.72054,61.21925
9522,382 MULDOON RD,Anchorage,AK,99504,"382 MULDOON RD, Anchorage, AK, 99504",Match,Exact,"382 MULDOON RD, ANCHORAGE, AK, 99504",190803215,R,02,020,000702,2002,-149.7335,61.21909300000001
9523,5001 KLONDIKE AVE,Anchorage,AK,99508,"5001 KLONDIKE AVE, Anchorage, AK, 99508",Match,Exact,"5001 KLONDIKE AVE, ANCHORAGE, AK, 99508",190801969,L,02,020,000801,4001,-149.78781,61.219215000000005
9524,452 CAMELOT DR,Anchorage,AK,99508,"452 CAMELOT DR, Anchorage, AK, 99508",Match,Exact,"452 CAMELOT DR, ANCHORAGE, AK, 99508",190801980,R,02,020,000801,4001,-149.78152,61.218914
9525,8564 E 4TH AVE,Anchorage,AK,99504,"8564 E 4TH AVE, Anchorage, AK, 99504",Match,Exact,"8564 E 4TH AVE, ANCHORAGE, AK, 99504",190803337,L,02,020,000703,3000,-149.72044,61.21925
9526,4941 KLONDIKE AVE,Anchorage,AK,99508,"4941 KLONDIKE AVE, Anchorage, AK, 99508",Match,Exact,"4941 KLONDIKE AVE, ANCHORAGE, AK, 99508",624908465,L,02,020,000801,4002,-149.78874,61.219215000000005
9527,4901 KLONDIKE AVE,Anchorage,AK,99508,"4901 KLONDIKE AVE, Anchorage, AK, 99508",Match,Exact,"4901 KLONDIKE AVE, ANCHORAGE, AK, 99508",624908464,L,02,020,000801,4003,-149.78963000000002,61.219215000000005
9528,4831 KLONDIKE AVE,Anchorage,AK,99508,"4831 KLONDIKE AVE, Anchorage, AK, 99508",Match,Exact,"4831 KLONDIKE AVE, ANCHORAGE, AK, 99508",625048675,L,02,020,000801,4008,-149.7907,61.21921
9529,4821 KLONDIKE AVE,Anchorage,AK,99508,"4821 KLONDIKE AVE, Anchorage, AK, 99508",Match,Exact,"4821 KLONDIKE AVE, ANCHORAGE, AK, 99508",625048675,L,02,020,000801,4008,-149.79082,61.21921
9530,4811 KLONDIKE AVE,Anchorage,AK,99508,"4811 KLONDIKE AVE, Anchorage, AK, 99508",Match,Exact,"4811 KLONDIKE AVE, ANCHORAGE, AK, 99508",625048675,L,02,020,000801,4008,-149.79092,61.21921
9531,4801 KLONDIKE AVE,Anchorage,AK,99508,"4801 KLONDIKE AVE, Anchorage, AK, 99508",Match,Exact,"4801 KLONDIKE AVE, ANCHORAGE, AK, 99508",625048675,L,02,020,000801,4008,-149.79105,61.21921
9532,4705 KLONDIKE AVE,Anchorage,AK,99508,"4705 KLONDIKE AVE, Anchorage, AK, 99508",Match,Exact,"4705 KLONDIKE AVE, ANCHORAGE, AK, 99508",625048675,L,02,020,000801,4008,-149.79214,61.21921
9533,4703 KLONDIKE AVE,Anchorage,AK,99508,"4703 KLONDIKE AVE, Anchorage, AK, 99508",Match,Exact,"4703 KLONDIKE AVE, ANCHORAGE, AK, 99508",625048675,L,02,020,000801,4008,-149.79218,61.21921
9534,360 PEPPERTREE LOOP,Anchorage,AK,99504,"360 PEPPERTREE LOOP, Anchorage, AK, 99504",Match,Exact,"360 PEPPERTREE LOOP, ANCHORAGE, AK, 99504",190826164,R,02,020,000701,1000,-149.76265,61.21926
9535,320 BEULAH CIR,Anchorage,AK,99504,"320 BEULAH CIR, Anchorage, AK, 99504",Match,Exact,"320 BEULAH CIR, ANCHORAGE, AK, 99504",190808931,L,02,020,000702,2002,-149.7401,61.219063
9536,320 BEULAH CIR,Anchorage,AK,99504,"320 BEULAH CIR, Anchorage, AK, 99504",Match,Exact,"320 BEULAH CIR, ANCHORAGE, AK, 99504",190808931,L,02,020,000702,2002,-149.7401,61.219063
9537,364 PAULINE ST,Anchorage,AK,99504,"364 PAULINE ST, Anchorage, AK, 99504",Match,Exact,"364 PAULINE ST, ANCHORAGE, AK, 99504",190803255,R,02,020,000703,3007,-149.72673,61.219112
9538,4701 KLONDIKE AVE,Anchorage,AK,99508,"4701 KLONDIKE AVE, Anchorage, AK, 99508",No_Match,,,,,,,,,,
9539,4701 KLONDIKE AVE,Anchorage,AK,99508,"4701 KLONDIKE AVE, Anchorage, AK, 99508",No_Match,,,,,,,,,,
9540,330 KRANE DR,Anchorage,AK,99504,"330 KRANE DR, Anchorage, AK, 99504",Match,Exact,"330 KRANE DR, ANCHORAGE, AK, 99504",605167555,L,02,020,000701,2001,-149.7571,61.220036
9541,367 STANDISH ST,Anchorage,AK,99504,"367 STANDISH ST, Anchorage, AK, 99504",Match,Exact,"367 STANDISH ST, ANCHORAGE, AK, 99504",190803259,L,02,020,000703,3013,-149.72523,61.218959999999996
9542,6430 PEPPERTREE CIR,Anchorage,AK,99504,"6430 PEPPERTREE CIR, Anchorage, AK, 99504",Match,Exact,"6430 PEPPERTREE CIR, ANCHORAGE, AK, 99504",190808603,L,02,020,000701,1008,-149.7606,61.219143
9543,366 STATE ST,Anchorage,AK,99504,"366 STATE ST, Anchorage, AK, 99504",Match,Exact,"366 STATE ST, ANCHORAGE, AK, 99504",190803229,R,02,020,000703,3008,-149.73131999999998,61.219265
9544,8570 E 4TH AVE,Anchorage,AK,99504,"8570 E 4TH AVE, Anchorage, AK, 99504",Match,Exact,"8570 E 4TH AVE, ANCHORAGE, AK, 99504",190803337,L,02,020,000703,3000,-149.7203,61.21925400000001
9545,8572 E 4TH AVE,Anchorage,AK,99504,"8572 E 4TH AVE, Anchorage, AK, 99504",Match,Exact,"8572 E 4TH AVE, ANCHORAGE, AK, 99504",190803337,L,02,020,000703,3000,-149.72026,61.21925400000001
9546,371 FERN LN,Anchorage,AK,99504,"371 FERN LN, Anchorage, AK, 99504",Match,Exact,"371 FERN LN, ANCHORAGE, AK, 99504",190802804,L,02,020,000702,3009,-149.75385,61.219193000000004
9547,353 PEPPERTREE LOOP,Anchorage,AK,99504,"353 PEPPERTREE LOOP, Anchorage, AK, 99504",Match,Exact,"353 PEPPERTREE LOOP, ANCHORAGE, AK, 99504",190826164,L,02,020,000701,1008,-149.76262,61.219364
9548,332 KRANE DR,Anchorage,AK,99504,"332 KRANE DR, Anchorage, AK, 99504",Match,Exact,"332 KRANE DR, ANCHORAGE, AK, 99504",605167555,L,02,020,000701,2001,-149.7571,61.220009999999995
9549,371 EKLUTNA ST,Anchorage,AK,99504,"371 EKLUTNA ST, Anchorage, AK, 99504",Match,Exact,"371 EKLUTNA ST, ANCHORAGE, AK, 99504",190803261,L,02,020,000703,3001,-149.72418000000002,61.219969999999996
9550,454 CAMELOT DR,Anchorage,AK,99508,"454 CAMELOT DR, Anchorage, AK, 99508",Match,Exact,"454 CAMELOT DR, ANCHORAGE, AK, 99508",190801980,R,02,020,000801,4001,-149.78152,61.21893299999999
9551,424 STANDISH ST,Anchorage,AK,99504,"424 STANDISH ST, Anchorage, AK, 99504",Match,Exact,"424 STANDISH ST, ANCHORAGE, AK, 99504",190803259,R,02,020,000703,3002,-149.72527,61.218475
9552,416 PATSY ST,Anchorage,AK,99504,"416 PATSY ST, Anchorage, AK, 99504",Match,Exact,"416 PATSY ST, ANCHORAGE, AK, 99504",190810873,R,02,020,000702,2003,-149.74286999999998,61.218483
9553,425 EKLUTNA ST,Anchorage,AK,99504,"425 EKLUTNA ST, Anchorage, AK, 99504",No_Match,,,,,,,,,,
9554,6460 PEPPERTREE CIR,Anchorage,AK,99504,"6460 PEPPERTREE CIR, Anchorage, AK, 99504",Match,Exact,"6460 PEPPERTREE CIR, ANCHORAGE, AK, 99504",190808603,L,02,020,000701,1008,-149.76038,61.219030000000004
9555,5901 E 6TH AVE,Anchorage,AK,99504,"5901 E 6TH AVE, Anchorage, AK, 99504",Match,Exact,"5901 E 6TH AVE, ANCHORAGE, AK, 99504",190810852,L,02,020,000701,1000,-149.77061,61.216933999999995
9556,5901 E 6TH AVE,Anchorage,AK,99504,"5901 E 6TH AVE, Anchorage, AK, 99504",Match,Exact,"5901 E 6TH AVE, ANCHORAGE, AK, 99504",190810852,L,02,020,000701,1000,-149.77061,61.216933999999995
9557,5901 E 6TH AVE,Anchorage,AK,99504,"5901 E 6TH AVE, Anchorage, AK, 99504",Match,Exact,"5901 E 6TH AVE, ANCHORAGE, AK, 99504",190810852,L,02,020,000701,1000,-149.77061,61.216933999999995
9558,5901 E 6TH AVE,Anchorage,AK,99504,"5901 E 6TH AVE, Anchorage, AK, 99504",Match,Exact,"5901 E 6TH AVE, ANCHORAGE, AK, 99504",190810852,L,02,020,000701,1000,-149.77061,61.216933999999995
9559,5901 E 6TH AVE,Anchorage,AK,99504,"5901 E 6TH AVE, Anchorage, AK, 99504",Match,Exact,"5901 E 6TH AVE, ANCHORAGE, AK, 99504",190810852,L,02,020,000701,1000,-149.77061,61.216933999999995
9560,5901 E 6TH AVE,Anchorage,AK,99504,"5901 E 6TH AVE, Anchorage, AK, 99504",Match,Exact,"5901 E 6TH AVE, ANCHORAGE, AK, 99504",190810852,L,02,020,000701,1000,-149.77061,61.216933999999995
9561,7715 E 4TH AVE,Anchorage,AK,99504,"7715 E 4TH AVE, Anchorage, AK, 99504",Match,Exact,"7715 E 4TH AVE, ANCHORAGE, AK, 99504",190802903,L,02,020,000702,2002,-149.73688,61.218757999999994
9562,380 PEPPERTREE LOOP,Anchorage,AK,99504,"380 PEPPERTREE LOOP, Anchorage, AK, 99504",Match,Exact,"380 PEPPERTREE LOOP, ANCHORAGE, AK, 99504",190826164,R,02,020,000701,1000,-149.76265,61.21901
9563,7621 E 4TH AVE,Anchorage,AK,99504,"7621 E 4TH AVE, Anchorage, AK, 99504",Match,Exact,"7621 E 4TH AVE, ANCHORAGE, AK, 99504",190808930,L,02,020,000702,2002,-149.73935,61.218757999999994
9564,7733 E 4TH AVE,Anchorage,AK,99504,"7733 E 4TH AVE, Anchorage, AK, 99504",Match,Exact,"7733 E 4TH AVE, ANCHORAGE, AK, 99504",190802903,L,02,020,000702,2002,-149.73658999999998,61.218757999999994
9565,5461 NEW SMYRNA CIR,Anchorage,AK,99508,"5461 NEW SMYRNA CIR, Anchorage, AK, 99508",Match,Exact,"5461 NEW SMYRNA CIR, ANCHORAGE, AK, 99508",614862496,L,02,020,000801,4006,-149.77993999999998,61.218075
9566,5551 ALORA LOOP,Anchorage,AK,99504,"5551 ALORA LOOP, Anchorage, AK, 99504",Match,Exact,"5551 ALORA LOOP, ANCHORAGE, AK, 99504",190827504,L,02,020,000701,1011,-149.77731,61.218086
9567,5631 ALORA LOOP,Anchorage,AK,99504,"5631 ALORA LOOP, Anchorage, AK, 99504",Match,Exact,"5631 ALORA LOOP, ANCHORAGE, AK, 99504",190827504,L,02,020,000701,1011,-149.7757,61.218081999999995
9568,5601 ALORA LOOP,Anchorage,AK,99504,"5601 ALORA LOOP, Anchorage, AK, 99504",Match,Exact,"5601 ALORA LOOP, ANCHORAGE, AK, 99504",190827504,L,02,020,000701,1011,-149.7763,61.218081999999995
9569,5561 ALORA LOOP,Anchorage,AK,99504,"5561 ALORA LOOP, Anchorage, AK, 99504",Match,Exact,"5561 ALORA LOOP, ANCHORAGE, AK, 99504",190827504,L,02,020,000701,1011,-149.77711000000002,61.21808000000001
9570,5553 ALORA LOOP,Anchorage,AK,99504,"5553 ALORA LOOP, Anchorage, AK, 99504",Match,Exact,"5553 ALORA LOOP, ANCHORAGE, AK, 99504",190827504,L,02,020,000701,1011,-149.77728000000002,61.218081999999995
9571,5623 ALORA LOOP,Anchorage,AK,99504,"5623 ALORA LOOP, Anchorage, AK, 99504",Match,Exact,"5623 ALORA LOOP, ANCHORAGE, AK, 99504",190827504,L,02,020,000701,1011,-149.77585,61.218081999999995
9572,5621 ALORA LOOP,Anchorage,AK,99504,"5621 ALORA LOOP, Anchorage, AK, 99504",Match,Exact,"5621 ALORA LOOP, ANCHORAGE, AK, 99504",190827504,L,02,020,000701,1011,-149.7759,61.218081999999995
9573,5613 ALORA LOOP,Anchorage,AK,99504,"5613 ALORA LOOP, Anchorage, AK, 99504",Match,Exact,"5613 ALORA LOOP, ANCHORAGE, AK, 99504",190827504,L,02,020,000701,1011,-149.77606,61.218081999999995
9574,5611 ALORA LOOP,Anchorage,AK,99504,"5611 ALORA LOOP, Anchorage, AK, 99504",Match,Exact,"5611 ALORA LOOP, ANCHORAGE, AK, 99504",190827504,L,02,020,000701,1011,-149.7761,61.218081999999995
9575,5603 ALORA LOOP,Anchorage,AK,99504,"5603 ALORA LOOP, Anchorage, AK, 99504",Match,Exact,"5603 ALORA LOOP, ANCHORAGE, AK, 99504",190827504,L,02,020,000701,1011,-149.77626,61.218081999999995
9576,5571 ALORA LOOP,Anchorage,AK,99504,"5571 ALORA LOOP, Anchorage, AK, 99504",Match,Exact,"5571 ALORA LOOP, ANCHORAGE, AK, 99504",190827504,L,02,020,000701,1011,-149.77692,61.21808000000001
9577,5563 ALORA LOOP,Anchorage,AK,99504,"5563 ALORA LOOP, Anchorage, AK, 99504",Match,Exact,"5563 ALORA LOOP, ANCHORAGE, AK, 99504",190827504,L,02,020,000701,1011,-149.77707,61.21808000000001
9578,5573 ALORA LOOP,Anchorage,AK,99504,"5573 ALORA LOOP, Anchorage, AK, 99504",Match,Exact,"5573 ALORA LOOP, ANCHORAGE, AK, 99504",190827504,L,02,020,000701,1011,-149.77687,61.21808000000001
9579,5532 ALORA LOOP,Anchorage,AK,99504,"5532 ALORA LOOP, Anchorage, AK, 99504",Match,Exact,"5532 ALORA LOOP, ANCHORAGE, AK, 99504",190827504,R,02,020,000701,1010,-149.77756000000002,61.21821
9580,461 SCORPIO CIR,Anchorage,AK,99508,"461 SCORPIO CIR, Anchorage, AK, 99508",Match,Exact,"461 SCORPIO CIR, ANCHORAGE, AK, 99508",614862349,R,02,020,000801,4006,-149.78603,61.218113
9581,420 DONNA DR,Anchorage,AK,99504,"420 DONNA DR, Anchorage, AK, 99504",Match,Exact,"420 DONNA DR, ANCHORAGE, AK, 99504",190802765,L,02,020,000701,1000,-149.75871,61.21811999999999
9582,460 CAPRICORN CIR,Anchorage,AK,99508,"460 CAPRICORN CIR, Anchorage, AK, 99508",Match,Exact,"460 CAPRICORN CIR, ANCHORAGE, AK, 99508",614862499,R,02,020,000801,4006,-149.78322,61.21833
9583,431 FERN LN,Anchorage,AK,99504,"431 FERN LN, Anchorage, AK, 99504",Match,Exact,"431 FERN LN, ANCHORAGE, AK, 99504",190802806,L,02,020,000702,3009,-149.75385,61.21838399999999
9584,461 CAPRICORN CIR,Anchorage,AK,99508,"461 CAPRICORN CIR, Anchorage, AK, 99508",Match,Exact,"461 CAPRICORN CIR, ANCHORAGE, AK, 99508",614862499,L,02,020,000801,4006,-149.7832,61.218346
9585,8220 E 5TH AVE,Anchorage,AK,99504,"8220 E 5TH AVE, Anchorage, AK, 99504",Match,Exact,"8220 E 5TH AVE, ANCHORAGE, AK, 99504",190803232,R,02,020,000703,3010,-149.72807,61.218067000000005
9586,8210 E 5TH AVE,Anchorage,AK,99504,"8210 E 5TH AVE, Anchorage, AK, 99504",Match,Exact,"8210 E 5TH AVE, ANCHORAGE, AK, 99504",190803232,R,02,020,000703,3010,-149.7282,61.218067000000005
9587,8210 E 5TH AVE,Anchorage,AK,99504,"8210 E 5TH AVE, Anchorage, AK, 99504",Match,Exact,"8210 E 5TH AVE, ANCHORAGE, AK, 99504",190803232,R,02,020,000703,3010,-149.7282,61.218067000000005
9588,5646 ALORA LOOP,Anchorage,AK,99504,"5646 ALORA LOOP, Anchorage, AK, 99504",Match,Exact,"5646 ALORA LOOP, ANCHORAGE, AK, 99504",190827504,R,02,020,000701,1010,-149.77536,61.21807
9589,5801 ROCKY MOUNTAIN CT,Anchorage,AK,99504,"5801 ROCKY MOUNTAIN CT, Anchorage, AK, 99504",Match,Exact,"5801 ROCKY MOUNTAIN CT, ANCHORAGE, AK, 99504",190802016,L,02,020,000701,1010,-149.77228,61.21784
9590,5801 ROCKY MOUNTAIN CT,Anchorage,AK,99504,"5801 ROCKY MOUNTAIN CT, Anchorage, AK, 99504",Match,Exact,"5801 ROCKY MOUNTAIN CT, ANCHORAGE, AK, 99504",190802016,L,02,020,000701,1010,-149.77228,61.21784
9591,5801 ROCKY MOUNTAIN CT,Anchorage,AK,99504,"5801 ROCKY MOUNTAIN CT, Anchorage, AK, 99504",Match,Exact,"5801 ROCKY MOUNTAIN CT, ANCHORAGE, AK, 99504",190802016,L,02,020,000701,1010,-149.77228,61.21784
9592,5741 ROCKY MOUNTAIN CT,Anchorage,AK,99504,"5741 ROCKY MOUNTAIN CT, Anchorage, AK, 99504",Match,Exact,"5741 ROCKY MOUNTAIN CT, ANCHORAGE, AK, 99504",190802016,L,02,020,000701,1010,-149.773,61.21784
9593,5741 ROCKY MOUNTAIN CT,Anchorage,AK,99504,"5741 ROCKY MOUNTAIN CT, Anchorage, AK, 99504",Match,Exact,"5741 ROCKY MOUNTAIN CT, ANCHORAGE, AK, 99504",190802016,L,02,020,000701,1010,-149.773,61.21784
9594,5741 ROCKY MOUNTAIN CT,Anchorage,AK,99504,"5741 ROCKY MOUNTAIN CT, Anchorage, AK, 99504",Match,Exact,"5741 ROCKY MOUNTAIN CT, ANCHORAGE, AK, 99504",190802016,L,02,020,000701,1010,-149.773,61.21784
9595,5741 ROCKY MOUNTAIN CT,Anchorage,AK,99504,"5741 ROCKY MOUNTAIN CT, Anchorage, AK, 99504",Match,Exact,"5741 ROCKY MOUNTAIN CT, ANCHORAGE, AK, 99504",190802016,L,02,020,000701,1010,-149.773,61.21784
9596,5901 E 6TH AVE,Anchorage,AK,99504,"5901 E 6TH AVE, Anchorage, AK, 99504",Match,Exact,"5901 E 6TH AVE, ANCHORAGE, AK, 99504",190810852,L,02,020,000701,1000,-149.77061,61.216933999999995
9597,5901 E 6TH AVE,Anchorage,AK,99504,"5901 E 6TH AVE, Anchorage, AK, 99504",Match,Exact,"5901 E 6TH AVE, ANCHORAGE, AK, 99504",190810852,L,02,020,000701,1000,-149.77061,61.216933999999995
9598,5731 ROCKY MOUNTAIN CT,Anchorage,AK,99504,"5731 ROCKY MOUNTAIN CT, Anchorage, AK, 99504",Match,Exact,"5731 ROCKY MOUNTAIN CT, ANCHORAGE, AK, 99504",190802016,L,02,020,000701,1010,-149.77312,61.21784
9599,5731 ROCKY MOUNTAIN CT,Anchorage,AK,99504,"5731 ROCKY MOUNTAIN CT, Anchorage, AK, 99504",Match,Exact,"5731 ROCKY MOUNTAIN CT, ANCHORAGE, AK, 99504",190802016,L,02,020,000701,1010,-149.77312,61.21784
9600,5731 ROCKY MOUNTAIN CT,Anchorage,AK,99504,"5731 ROCKY MOUNTAIN CT, Anchorage, AK, 99504",Match,Exact,"5731 ROCKY MOUNTAIN CT, ANCHORAGE, AK, 99504",190802016,L,02,020,000701,1010,-149.77312,61.21784
9601,5731 ROCKY MOUNTAIN CT,Anchorage,AK,99504,"5731 ROCKY MOUNTAIN CT, Anchorage, AK, 99504",Match,Exact,"5731 ROCKY MOUNTAIN CT, ANCHORAGE, AK, 99504",190802016,L,02,020,000701,1010,-149.77312,61.21784
9602,5901 E 6TH AVE,Anchorage,AK,99504,"5901 E 6TH AVE, Anchorage, AK, 99504",Match,Exact,"5901 E 6TH AVE, ANCHORAGE, AK, 99504",190810852,L,02,020,000701,1000,-149.77061,61.216933999999995
9603,5901 E 6TH AVE,Anchorage,AK,99504,"5901 E 6TH AVE, Anchorage, AK, 99504",Match,Exact,"5901 E 6TH AVE, ANCHORAGE, AK, 99504",190810852,L,02,020,000701,1000,-149.77061,61.216933999999995
9604,5901 E 6TH AVE,Anchorage,AK,99504,"5901 E 6TH AVE, Anchorage, AK, 99504",Match,Exact,"5901 E 6TH AVE, ANCHORAGE, AK, 99504",190810852,L,02,020,000701,1000,-149.77061,61.216933999999995
9605,5901 E 6TH AVE,Anchorage,AK,99504,"5901 E 6TH AVE, Anchorage, AK, 99504",Match,Exact,"5901 E 6TH AVE, ANCHORAGE, AK, 99504",190810852,L,02,020,000701,1000,-149.77061,61.216933999999995
9606,501 MULDOON RD,Anchorage,AK,99504,"501 MULDOON RD, Anchorage, AK, 99504",Match,Exact,"501 MULDOON RD, ANCHORAGE, AK, 99504",190803218,L,02,020,000703,3009,-149.73346999999998,61.217987
9607,5901 E 6TH AVE,Anchorage,AK,99504,"5901 E 6TH AVE, Anchorage, AK, 99504",Match,Exact,"5901 E 6TH AVE, ANCHORAGE, AK, 99504",190810852,L,02,020,000701,1000,-149.77061,61.216933999999995
9608,5126 LIONHEART DR,Anchorage,AK,99508,"5126 LIONHEART DR, Anchorage, AK, 99508",Match,Exact,"5126 LIONHEART DR, ANCHORAGE, AK, 99508",190801970,R,02,020,000801,4001,-149.78557,61.220573
9609,5124 LIONHEART DR,Anchorage,AK,99508,"5124 LIONHEART DR, Anchorage, AK, 99508",Match,Exact,"5124 LIONHEART DR, ANCHORAGE, AK, 99508",190801970,R,02,020,000801,4001,-149.7856,61.220573
9610,5116 LIONHEART DR,Anchorage,AK,99508,"5116 LIONHEART DR, Anchorage, AK, 99508",Match,Exact,"5116 LIONHEART DR, ANCHORAGE, AK, 99508",190801970,R,02,020,000801,4001,-149.7857,61.220573
9611,5106 LIONHEART DR,Anchorage,AK,99508,"5106 LIONHEART DR, Anchorage, AK, 99508",Match,Exact,"5106 LIONHEART DR, ANCHORAGE, AK, 99508",190801970,R,02,020,000801,4001,-149.78586,61.220573
9612,5700 CAMELOT DR,Anchorage,AK,99504,"5700 CAMELOT DR, Anchorage, AK, 99504",Match,Exact,"5700 CAMELOT DR, ANCHORAGE, AK, 99504",190812091,R,02,020,000701,1000,-149.77597,61.220543000000006
9613,6940 DICKERSON DR,Anchorage,AK,99504,"6940 DICKERSON DR, Anchorage, AK, 99504",Match,Exact,"6940 DICKERSON DR, ANCHORAGE, AK, 99504",190802810,R,02,020,000702,3004,-149.75233,61.220684
9614,5310 LIONHEART DR,Anchorage,AK,99508,"5310 LIONHEART DR, Anchorage, AK, 99508",Match,Exact,"5310 LIONHEART DR, ANCHORAGE, AK, 99508",190801973,R,02,020,000801,4001,-149.78188,61.220524
9615,5310 LIONHEART DR,Anchorage,AK,99508,"5310 LIONHEART DR, Anchorage, AK, 99508",Match,Exact,"5310 LIONHEART DR, ANCHORAGE, AK, 99508",190801973,R,02,020,000801,4001,-149.78188,61.220524
9616,5310 LIONHEART DR,Anchorage,AK,99508,"5310 LIONHEART DR, Anchorage, AK, 99508",Match,Exact,"5310 LIONHEART DR, ANCHORAGE, AK, 99508",190801973,R,02,020,000801,4001,-149.78188,61.220524
9617,5310 LIONHEART DR,Anchorage,AK,99508,"5310 LIONHEART DR, Anchorage, AK, 99508",Match,Exact,"5310 LIONHEART DR, ANCHORAGE, AK, 99508",190801973,R,02,020,000801,4001,-149.78188,61.220524
9618,5310 LIONHEART DR,Anchorage,AK,99508,"5310 LIONHEART DR, Anchorage, AK, 99508",Match,Exact,"5310 LIONHEART DR, ANCHORAGE, AK, 99508",190801973,R,02,020,000801,4001,-149.78188,61.220524
9619,5310 LIONHEART DR,Anchorage,AK,99508,"5310 LIONHEART DR, Anchorage, AK, 99508",Match,Exact,"5310 LIONHEART DR, ANCHORAGE, AK, 99508",190801973,R,02,020,000801,4001,-149.78188,61.220524
9620,7030 DICKERSON DR,Anchorage,AK,99504,"7030 DICKERSON DR, Anchorage, AK, 99504",Match,Exact,"7030 DICKERSON DR, ANCHORAGE, AK, 99504",190802810,R,02,020,000702,3004,-149.75142,61.220459999999996
9621,7010 DICKERSON DR,Anchorage,AK,99504,"7010 DICKERSON DR, Anchorage, AK, 99504",Match,Exact,"7010 DICKERSON DR, ANCHORAGE, AK, 99504",190802810,R,02,020,000702,3004,-149.75165,61.220473999999996
9622,250 OKLAHOMA ST,Anchorage,AK,99504,"250 OKLAHOMA ST, Anchorage, AK, 99504",Match,Exact,"250 OKLAHOMA ST, ANCHORAGE, AK, 99504",190802855,R,02,020,000702,2008,-149.74477,61.221447
9623,250 OKLAHOMA ST,Anchorage,AK,99504,"250 OKLAHOMA ST, Anchorage, AK, 99504",Match,Exact,"250 OKLAHOMA ST, ANCHORAGE, AK, 99504",190802855,R,02,020,000702,2008,-149.74477,61.221447
9624,329 LIONHEART CT,Anchorage,AK,99508,"329 LIONHEART CT, Anchorage, AK, 99508",Match,Exact,"329 LIONHEART CT, ANCHORAGE, AK, 99508",190812092,R,02,020,000801,3008,-149.78212,61.221252
9625,303 BUNNELL ST,Anchorage,AK,99508,"303 BUNNELL ST, Anchorage, AK, 99508",Match,Exact,"303 BUNNELL ST, ANCHORAGE, AK, 99508",624266934,L,02,020,000801,2008,-149.7897,61.22119
9626,250 PATTERSON ST,Anchorage,AK,99504,"250 PATTERSON ST, Anchorage, AK, 99504",Match,Exact,"250 PATTERSON ST, ANCHORAGE, AK, 99504",190802866,R,02,020,000702,3004,-149.74851999999998,61.22127
9627,341 BONIFACE PKWY,Anchorage,AK,99504,"341 BONIFACE PKWY, Anchorage, AK, 99504",Match,Exact,"341 BONIFACE PKWY, ANCHORAGE, AK, 99504",190812090,L,02,020,000701,1000,-149.7784,61.220364000000004
9628,341 BONIFACE PKWY,Anchorage,AK,99504,"341 BONIFACE PKWY, Anchorage, AK, 99504",Match,Exact,"341 BONIFACE PKWY, ANCHORAGE, AK, 99504",190812090,L,02,020,000701,1000,-149.7784,61.220364000000004
9629,341 BONIFACE PKWY,Anchorage,AK,99504,"341 BONIFACE PKWY, Anchorage, AK, 99504",Match,Exact,"341 BONIFACE PKWY, ANCHORAGE, AK, 99504",190812090,L,02,020,000701,1000,-149.7784,61.220364000000004
9630,341 BONIFACE PKWY,Anchorage,AK,99504,"341 BONIFACE PKWY, Anchorage, AK, 99504",Match,Exact,"341 BONIFACE PKWY, ANCHORAGE, AK, 99504",190812090,L,02,020,000701,1000,-149.7784,61.220364000000004
9631,341 BONIFACE PKWY,Anchorage,AK,99504,"341 BONIFACE PKWY, Anchorage, AK, 99504",Match,Exact,"341 BONIFACE PKWY, ANCHORAGE, AK, 99504",190812090,L,02,020,000701,1000,-149.7784,61.220364000000004
9632,341 BONIFACE PKWY,Anchorage,AK,99504,"341 BONIFACE PKWY, Anchorage, AK, 99504",Match,Exact,"341 BONIFACE PKWY, ANCHORAGE, AK, 99504",190812090,L,02,020,000701,1000,-149.7784,61.220364000000004
9633,341 BONIFACE PKWY,Anchorage,AK,99504,"341 BONIFACE PKWY, Anchorage, AK, 99504",Match,Exact,"341 BONIFACE PKWY, ANCHORAGE, AK, 99504",190812090,L,02,020,000701,1000,-149.7784,61.220364000000004
9634,341 BONIFACE PKWY,Anchorage,AK,99504,"341 BONIFACE PKWY, Anchorage, AK, 99504",Match,Exact,"341 BONIFACE PKWY, ANCHORAGE, AK, 99504",190812090,L,02,020,000701,1000,-149.7784,61.220364000000004
9635,341 BONIFACE PKWY,Anchorage,AK,99504,"341 BONIFACE PKWY, Anchorage, AK, 99504",Match,Exact,"341 BONIFACE PKWY, ANCHORAGE, AK, 99504",190812090,L,02,020,000701,1000,-149.7784,61.220364000000004
9636,341 BONIFACE PKWY,Anchorage,AK,99504,"341 BONIFACE PKWY, Anchorage, AK, 99504",Match,Exact,"341 BONIFACE PKWY, ANCHORAGE, AK, 99504",190812090,L,02,020,000701,1000,-149.7784,61.220364000000004
9637,341 BONIFACE PKWY,Anchorage,AK,99504,"341 BONIFACE PKWY, Anchorage, AK, 99504",Match,Exact,"341 BONIFACE PKWY, ANCHORAGE, AK, 99504",190812090,L,02,020,000701,1000,-149.7784,61.220364000000004
9638,341 BONIFACE PKWY,Anchorage,AK,99504,"341 BONIFACE PKWY, Anchorage, AK, 99504",Match,Exact,"341 BONIFACE PKWY, ANCHORAGE, AK, 99504",190812090,L,02,020,000701,1000,-149.7784,61.220364000000004
9639,256 CREEKSIDE ST,Anchorage,AK,99504,"256 CREEKSIDE ST, Anchorage, AK, 99504",Match,Exact,"256 CREEKSIDE ST, ANCHORAGE, AK, 99504",190816630,L,02,020,000702,2001,-149.74101000000002,61.220955000000004
9640,6403 WHISPERING LOOP,Anchorage,AK,99504,"6403 WHISPERING LOOP, Anchorage, AK, 99504",Match,Exact,"6403 WHISPERING LOOP, ANCHORAGE, AK, 99504",624788733,L,02,020,000701,1013,-149.76254,61.221066
9641,6403 WHISPERING LOOP,Anchorage,AK,99504,"6403 WHISPERING LOOP, Anchorage, AK, 99504",Match,Exact,"6403 WHISPERING LOOP, ANCHORAGE, AK, 99504",624788733,L,02,020,000701,1013,-149.76254,61.221066
9642,8351 DUBEN AVE,Anchorage,AK,99504,"8351 DUBEN AVE, Anchorage, AK, 99504",Match,Exact,"8351 DUBEN AVE, ANCHORAGE, AK, 99504",190803260,L,02,020,000703,1013,-149.72491000000002,61.22062
9643,6646 WHISPERING LOOP,Anchorage,AK,99504,"6646 WHISPERING LOOP, Anchorage, AK, 99504",Match,Exact,"6646 WHISPERING LOOP, ANCHORAGE, AK, 99504",624788736,L,02,020,000701,1000,-149.75716,61.221157
9644,6646 WHISPERING LOOP,Anchorage,AK,99504,"6646 WHISPERING LOOP, Anchorage, AK, 99504",Match,Exact,"6646 WHISPERING LOOP, ANCHORAGE, AK, 99504",624788736,L,02,020,000701,1000,-149.75716,61.221157
9645,260 YELLOW LEAF CIR,Anchorage,AK,99504,"260 YELLOW LEAF CIR, Anchorage, AK, 99504",Match,Exact,"260 YELLOW LEAF CIR, ANCHORAGE, AK, 99504",190803334,R,02,020,000703,1013,-149.71944,61.220780000000005
9646,260 FALL LEAF CIR,Anchorage,AK,99504,"260 FALL LEAF CIR, Anchorage, AK, 99504",Match,Exact,"260 FALL LEAF CIR, ANCHORAGE, AK, 99504",190803320,R,02,020,000703,1013,-149.72131000000002,61.220776
9647,261 YELLOW LEAF CIR,Anchorage,AK,99504,"261 YELLOW LEAF CIR, Anchorage, AK, 99504",Match,Exact,"261 YELLOW LEAF CIR, ANCHORAGE, AK, 99504",190803334,L,02,020,000703,1013,-149.7194,61.220780000000005
9648,6801 ELMRICH CT,Anchorage,AK,99504,"6801 ELMRICH CT, Anchorage, AK, 99504",Match,Exact,"6801 ELMRICH CT, ANCHORAGE, AK, 99504",190802809,L,02,020,000702,3005,-149.75413999999998,61.22099
9649,302 STEWART ST,Anchorage,AK,99508,"302 STEWART ST, Anchorage, AK, 99508",Match,Exact,"302 STEWART ST, ANCHORAGE, AK, 99508",190801748,R,02,020,000801,2008,-149.7879,61.221405000000004
9650,241 SKYHAVEN CIR,Anchorage,AK,99504,"241 SKYHAVEN CIR, Anchorage, AK, 99504",Match,Exact,"241 SKYHAVEN CIR, ANCHORAGE, AK, 99504",190816627,R,02,020,000702,2001,-149.74284,61.220848
9651,240 SKYHAVEN CIR,Anchorage,AK,99504,"240 SKYHAVEN CIR, Anchorage, AK, 99504",Match,Exact,"240 SKYHAVEN CIR, ANCHORAGE, AK, 99504",190816627,L,02,020,000702,2001,-149.74286999999998,61.220848
9652,263 TURPIN ST,Anchorage,AK,99504,"263 TURPIN ST, Anchorage, AK, 99504",Match,Exact,"263 TURPIN ST, ANCHORAGE, AK, 99504",190802739,L,02,020,000702,3005,-149.75597,61.221043
9653,263 TURPIN ST,Anchorage,AK,99504,"263 TURPIN ST, Anchorage, AK, 99504",Match,Exact,"263 TURPIN ST, ANCHORAGE, AK, 99504",190802739,L,02,020,000702,3005,-149.75597,61.221043
9654,263 TURPIN ST,Anchorage,AK,99504,"263 TURPIN ST, Anchorage, AK, 99504",Match,Exact,"263 TURPIN ST, ANCHORAGE, AK, 99504",190802739,L,02,020,000702,3005,-149.75597,61.221043
9655,425 EKLUTNA ST,Anchorage,AK,99504,"425 EKLUTNA ST, Anchorage, AK, 99504",No_Match,,,,,,,,,,
9656,5901 E 6TH AVE,Anchorage,AK,99504,"5901 E 6TH AVE, Anchorage, AK, 99504",Match,Exact,"5901 E 6TH AVE, ANCHORAGE, AK, 99504",190810852,L,02,020,000701,1000,-149.77061,61.216933999999995
9657,460 PEPPERTREE LOOP,Anchorage,AK,99504,"460 PEPPERTREE LOOP, Anchorage, AK, 99504",Match,Exact,"460 PEPPERTREE LOOP, ANCHORAGE, AK, 99504",190826164,R,02,020,000701,1000,-149.76157,61.21846
9658,5510 ALORA LOOP,Anchorage,AK,99504,"5510 ALORA LOOP, Anchorage, AK, 99504",Match,Exact,"5510 ALORA LOOP, ANCHORAGE, AK, 99504",190827504,R,02,020,000701,1010,-149.77754,61.218422
9659,470 PEPPERTREE LOOP,Anchorage,AK,99504,"470 PEPPERTREE LOOP, Anchorage, AK, 99504",Match,Exact,"470 PEPPERTREE LOOP, ANCHORAGE, AK, 99504",190826164,R,02,020,000701,1000,-149.7613,61.218426
9660,424 CHERRY ST,Anchorage,AK,99504,"424 CHERRY ST, Anchorage, AK, 99504",Match,Exact,"424 CHERRY ST, ANCHORAGE, AK, 99504",190803319,R,02,020,000703,3012,-149.72224,61.21856
9661,5674 ALORA LOOP,Anchorage,AK,99504,"5674 ALORA LOOP, Anchorage, AK, 99504",Match,Exact,"5674 ALORA LOOP, ANCHORAGE, AK, 99504",190827504,R,02,020,000701,1010,-149.77508999999998,61.21828000000001
9662,425 STANDISH ST,Anchorage,AK,99504,"425 STANDISH ST, Anchorage, AK, 99504",Match,Exact,"425 STANDISH ST, ANCHORAGE, AK, 99504",190803259,L,02,020,000703,3013,-149.72523,61.218475
9663,5901 E 6TH AVE,Anchorage,AK,99504,"5901 E 6TH AVE, Anchorage, AK, 99504",Match,Exact,"5901 E 6TH AVE, ANCHORAGE, AK, 99504",190810852,L,02,020,000701,1000,-149.77061,61.216933999999995
9664,5901 E 6TH AVE,Anchorage,AK,99504,"5901 E 6TH AVE, Anchorage, AK, 99504",Match,Exact,"5901 E 6TH AVE, ANCHORAGE, AK, 99504",190810852,L,02,020,000701,1000,-149.77061,61.216933999999995
9665,5901 E 6TH AVE,Anchorage,AK,99504,"5901 E 6TH AVE, Anchorage, AK, 99504",Match,Exact,"5901 E 6TH AVE, ANCHORAGE, AK, 99504",190810852,L,02,020,000701,1000,-149.77061,61.216933999999995
9666,5901 E 6TH AVE,Anchorage,AK,99504,"5901 E 6TH AVE, Anchorage, AK, 99504",Match,Exact,"5901 E 6TH AVE, ANCHORAGE, AK, 99504",190810852,L,02,020,000701,1000,-149.77061,61.216933999999995
9667,5901 E 6TH AVE,Anchorage,AK,99504,"5901 E 6TH AVE, Anchorage, AK, 99504",Match,Exact,"5901 E 6TH AVE, ANCHORAGE, AK, 99504",190810852,L,02,020,000701,1000,-149.77061,61.216933999999995
9668,5901 E 6TH AVE,Anchorage,AK,99504,"5901 E 6TH AVE, Anchorage, AK, 99504",Match,Exact,"5901 E 6TH AVE, ANCHORAGE, AK, 99504",190810852,L,02,020,000701,1000,-149.77061,61.216933999999995
9669,5901 E 6TH AVE,Anchorage,AK,99504,"5901 E 6TH AVE, Anchorage, AK, 99504",Match,Exact,"5901 E 6TH AVE, ANCHORAGE, AK, 99504",190810852,L,02,020,000701,1000,-149.77061,61.216933999999995
9670,5901 E 6TH AVE,Anchorage,AK,99504,"5901 E 6TH AVE, Anchorage, AK, 99504",Match,Exact,"5901 E 6TH AVE, ANCHORAGE, AK, 99504",190810852,L,02,020,000701,1000,-149.77061,61.216933999999995
9671,411 MELLOW PL,Anchorage,AK,99508,"411 MELLOW PL, Anchorage, AK, 99508",Match,Exact,"411 MELLOW PL, ANCHORAGE, AK, 99508",190801738,R,02,020,000801,4007,-149.79158,61.218224
9672,5901 E 6TH AVE,Anchorage,AK,99504,"5901 E 6TH AVE, Anchorage, AK, 99504",Match,Exact,"5901 E 6TH AVE, ANCHORAGE, AK, 99504",190810852,L,02,020,000701,1000,-149.77061,61.216933999999995
9673,5901 E 6TH AVE,Anchorage,AK,99504,"5901 E 6TH AVE, Anchorage, AK, 99504",Match,Exact,"5901 E 6TH AVE, ANCHORAGE, AK, 99504",190810852,L,02,020,000701,1000,-149.77061,61.216933999999995
9674,418 KENNY PL,Anchorage,AK,99504,"418 KENNY PL, Anchorage, AK, 99504",Match,Exact,"418 KENNY PL, ANCHORAGE, AK, 99504",190803213,R,02,020,000702,2006,-149.73546000000002,61.218540000000004
9675,5901 E 6TH AVE,Anchorage,AK,99504,"5901 E 6TH AVE, Anchorage, AK, 99504",Match,Exact,"5901 E 6TH AVE, ANCHORAGE, AK, 99504",190810852,L,02,020,000701,1000,-149.77061,61.216933999999995
9676,5901 E 6TH AVE,Anchorage,AK,99504,"5901 E 6TH AVE, Anchorage, AK, 99504",Match,Exact,"5901 E 6TH AVE, ANCHORAGE, AK, 99504",190810852,L,02,020,000701,1000,-149.77061,61.216933999999995
9677,5901 E 6TH AVE,Anchorage,AK,99504,"5901 E 6TH AVE, Anchorage, AK, 99504",Match,Exact,"5901 E 6TH AVE, ANCHORAGE, AK, 99504",190810852,L,02,020,000701,1000,-149.77061,61.216933999999995
9678,5901 E 6TH AVE,Anchorage,AK,99504,"5901 E 6TH AVE, Anchorage, AK, 99504",Match,Exact,"5901 E 6TH AVE, ANCHORAGE, AK, 99504",190810852,L,02,020,000701,1000,-149.77061,61.216933999999995
9679,5901 E 6TH AVE,Anchorage,AK,99504,"5901 E 6TH AVE, Anchorage, AK, 99504",Match,Exact,"5901 E 6TH AVE, ANCHORAGE, AK, 99504",190810852,L,02,020,000701,1000,-149.77061,61.216933999999995
9680,506 JORDT CIR,Anchorage,AK,99504,"506 JORDT CIR, Anchorage, AK, 99504",Match,Exact,"506 JORDT CIR, ANCHORAGE, AK, 99504",190802815,R,02,020,000702,3007,-149.75017,61.21838
9681,5901 E 6TH AVE,Anchorage,AK,99504,"5901 E 6TH AVE, Anchorage, AK, 99504",Match,Exact,"5901 E 6TH AVE, ANCHORAGE, AK, 99504",190810852,L,02,020,000701,1000,-149.77061,61.216933999999995
9682,5901 E 6TH AVE,Anchorage,AK,99504,"5901 E 6TH AVE, Anchorage, AK, 99504",Match,Exact,"5901 E 6TH AVE, ANCHORAGE, AK, 99504",190810852,L,02,020,000701,1000,-149.77061,61.216933999999995
9683,5901 E 6TH AVE,Anchorage,AK,99504,"5901 E 6TH AVE, Anchorage, AK, 99504",Match,Exact,"5901 E 6TH AVE, ANCHORAGE, AK, 99504",190810852,L,02,020,000701,1000,-149.77061,61.216933999999995
9684,5901 E 6TH AVE,Anchorage,AK,99504,"5901 E 6TH AVE, Anchorage, AK, 99504",Match,Exact,"5901 E 6TH AVE, ANCHORAGE, AK, 99504",190810852,L,02,020,000701,1000,-149.77061,61.216933999999995
9685,5901 E 6TH AVE,Anchorage,AK,99504,"5901 E 6TH AVE, Anchorage, AK, 99504",Match,Exact,"5901 E 6TH AVE, ANCHORAGE, AK, 99504",190810852,L,02,020,000701,1000,-149.77061,61.216933999999995
9686,5901 E 6TH AVE,Anchorage,AK,99504,"5901 E 6TH AVE, Anchorage, AK, 99504",Match,Exact,"5901 E 6TH AVE, ANCHORAGE, AK, 99504",190810852,L,02,020,000701,1000,-149.77061,61.216933999999995
9687,500 SAN JUAN CIR,Anchorage,AK,99504,"500 SAN JUAN CIR, Anchorage, AK, 99504",Match,Exact,"500 SAN JUAN CIR, ANCHORAGE, AK, 99504",190801991,L,02,020,000701,1010,-149.7772,61.217365
9688,500 SAN JUAN CIR,Anchorage,AK,99504,"500 SAN JUAN CIR, Anchorage, AK, 99504",Match,Exact,"500 SAN JUAN CIR, ANCHORAGE, AK, 99504",190801991,L,02,020,000701,1010,-149.7772,61.217365
9689,520 IDAHO ST,Anchorage,AK,99504,"520 IDAHO ST, Anchorage, AK, 99504",Match,Exact,"520 IDAHO ST, ANCHORAGE, AK, 99504",190802902,R,02,020,000702,2005,-149.73723,61.217690000000005
9690,8200 E 5TH AVE,Anchorage,AK,99504,"8200 E 5TH AVE, Anchorage, AK, 99504",Match,Exact,"8200 E 5TH AVE, ANCHORAGE, AK, 99504",190803232,R,02,020,000703,3010,-149.72833,61.218067000000005
9691,8200 E 5TH AVE,Anchorage,AK,99504,"8200 E 5TH AVE, Anchorage, AK, 99504",Match,Exact,"8200 E 5TH AVE, ANCHORAGE, AK, 99504",190803232,R,02,020,000703,3010,-149.72833,61.218067000000005
9692,8200 E 5TH AVE,Anchorage,AK,99504,"8200 E 5TH AVE, Anchorage, AK, 99504",Match,Exact,"8200 E 5TH AVE, ANCHORAGE, AK, 99504",190803232,R,02,020,000703,3010,-149.72833,61.218067000000005
9693,8156 E 5TH AVE,Anchorage,AK,99504,"8156 E 5TH AVE, Anchorage, AK, 99504",Match,Exact,"8156 E 5TH AVE, ANCHORAGE, AK, 99504",190803232,R,02,020,000703,3010,-149.7289,61.218067000000005
9694,8140 E 5TH AVE,Anchorage,AK,99504,"8140 E 5TH AVE, Anchorage, AK, 99504",Match,Exact,"8140 E 5TH AVE, ANCHORAGE, AK, 99504",190803232,R,02,020,000703,3010,-149.72911000000002,61.218067000000005
9695,8130 E 5TH AVE,Anchorage,AK,99504,"8130 E 5TH AVE, Anchorage, AK, 99504",Match,Exact,"8130 E 5TH AVE, ANCHORAGE, AK, 99504",190803232,R,02,020,000703,3010,-149.72925,61.218067000000005
9696,8120 E 5TH AVE,Anchorage,AK,99504,"8120 E 5TH AVE, Anchorage, AK, 99504",Match,Exact,"8120 E 5TH AVE, ANCHORAGE, AK, 99504",190803232,R,02,020,000703,3010,-149.72937,61.218067000000005
9697,8120 E 5TH AVE,Anchorage,AK,99504,"8120 E 5TH AVE, Anchorage, AK, 99504",Match,Exact,"8120 E 5TH AVE, ANCHORAGE, AK, 99504",190803232,R,02,020,000703,3010,-149.72937,61.218067000000005
9698,8110 E 5TH AVE,Anchorage,AK,99504,"8110 E 5TH AVE, Anchorage, AK, 99504",Match,Exact,"8110 E 5TH AVE, ANCHORAGE, AK, 99504",190803232,R,02,020,000703,3010,-149.7295,61.218067000000005
9699,8110 E 5TH AVE,Anchorage,AK,99504,"8110 E 5TH AVE, Anchorage, AK, 99504",Match,Exact,"8110 E 5TH AVE, ANCHORAGE, AK, 99504",190803232,R,02,020,000703,3010,-149.7295,61.218067000000005
9700,528 NORTH VALLEY RD,Anchorage,AK,99504,"528 NORTH VALLEY RD, Anchorage, AK, 99504",No_Match,,,,,,,,,,
9701,528 NORTH VALLEY RD,Anchorage,AK,99504,"528 NORTH VALLEY RD, Anchorage, AK, 99504",No_Match,,,,,,,,,,
9702,528 NORTH VALLEY RD,Anchorage,AK,99504,"528 NORTH VALLEY RD, Anchorage, AK, 99504",No_Match,,,,,,,,,,
9703,531 IDAHO ST,Anchorage,AK,99504,"531 IDAHO ST, Anchorage, AK, 99504",Match,Exact,"531 IDAHO ST, ANCHORAGE, AK, 99504",190802902,L,02,020,000702,2006,-149.73721,61.217613
9704,531 IDAHO ST,Anchorage,AK,99504,"531 IDAHO ST, Anchorage, AK, 99504",Match,Exact,"531 IDAHO ST, ANCHORAGE, AK, 99504",190802902,L,02,020,000702,2006,-149.73721,61.217613
9705,510 MISTY FJORDS CIR,Anchorage,AK,99508,"510 MISTY FJORDS CIR, Anchorage, AK, 99508",Match,Exact,"510 MISTY FJORDS CIR, ANCHORAGE, AK, 99508",190812088,L,02,020,000801,4006,-149.77965,61.217278
9706,510 MISTY FJORDS CIR,Anchorage,AK,99508,"510 MISTY FJORDS CIR, Anchorage, AK, 99508",Match,Exact,"510 MISTY FJORDS CIR, ANCHORAGE, AK, 99508",190812088,L,02,020,000801,4006,-149.77965,61.217278
9707,510 GLACIER BAY CIR,Anchorage,AK,99508,"510 GLACIER BAY CIR, Anchorage, AK, 99508",Match,Non_Exact,"510 GLACIER BAY, ANCHORAGE, AK, 99508",190801985,L,02,020,000801,4006,-149.78146,61.217278
9708,510 GLACIER BAY CIR,Anchorage,AK,99508,"510 GLACIER BAY CIR, Anchorage, AK, 99508",Match,Non_Exact,"510 GLACIER BAY, ANCHORAGE, AK, 99508",190801985,L,02,020,000801,4006,-149.78146,61.217278
9709,511 MISTY FJORDS CIR,Anchorage,AK,99508,"511 MISTY FJORDS CIR, Anchorage, AK, 99508",Match,Exact,"511 MISTY FJORDS CIR, ANCHORAGE, AK, 99508",190812088,R,02,020,000801,4006,-149.77962,61.217278
9710,511 MISTY FJORDS CIR,Anchorage,AK,99508,"511 MISTY FJORDS CIR, Anchorage, AK, 99508",Match,Exact,"511 MISTY FJORDS CIR, ANCHORAGE, AK, 99508",190812088,R,02,020,000801,4006,-149.77962,61.217278
9711,511 GLACIER BAY CIR,Anchorage,AK,99508,"511 GLACIER BAY CIR, Anchorage, AK, 99508",Match,Non_Exact,"511 GLACIER BAY, ANCHORAGE, AK, 99508",190801985,R,02,020,000801,4006,-149.78143,61.217278
9712,511 GLACIER BAY CIR,Anchorage,AK,99508,"511 GLACIER BAY CIR, Anchorage, AK, 99508",Match,Non_Exact,"511 GLACIER BAY, ANCHORAGE, AK, 99508",190801985,R,02,020,000801,4006,-149.78143,61.217278
9713,540 CREEKSIDE ST,Anchorage,AK,99504,"540 CREEKSIDE ST, Anchorage, AK, 99504",Match,Exact,"540 CREEKSIDE ST, ANCHORAGE, AK, 99504",190802892,R,02,020,000702,2004,-149.74098,61.217532999999996
9714,540 CREEKSIDE ST,Anchorage,AK,99504,"540 CREEKSIDE ST, Anchorage, AK, 99504",Match,Exact,"540 CREEKSIDE ST, ANCHORAGE, AK, 99504",190802892,R,02,020,000702,2004,-149.74098,61.217532999999996
9715,530 SAINT LAZARIA CIR,Anchorage,AK,99508,"530 SAINT LAZARIA CIR, Anchorage, AK, 99508",Match,Exact,"530 SAINT LAZARIA CIR, ANCHORAGE, AK, 99508",190801974,L,02,020,000801,4006,-149.78493,61.217228000000006
9716,531 SAINT LAZARIA CIR,Anchorage,AK,99508,"531 SAINT LAZARIA CIR, Anchorage, AK, 99508",Match,Exact,"531 SAINT LAZARIA CIR, ANCHORAGE, AK, 99508",190801974,R,02,020,000801,4006,-149.78491,61.217228000000006
9717,530 IZEMBEK CIR,Anchorage,AK,99508,"530 IZEMBEK CIR, Anchorage, AK, 99508",Match,Exact,"530 IZEMBEK CIR, ANCHORAGE, AK, 99508",190801976,L,02,020,000801,4006,-149.78322,61.217224
9718,521 MELLOW PL,Anchorage,AK,99508,"521 MELLOW PL, Anchorage, AK, 99508",Match,Exact,"521 MELLOW PL, ANCHORAGE, AK, 99508",190801739,L,02,020,000801,4006,-149.79156,61.217567
9719,520 MELLOW PL,Anchorage,AK,99508,"520 MELLOW PL, Anchorage, AK, 99508",Match,Exact,"520 MELLOW PL, ANCHORAGE, AK, 99508",190801739,R,02,020,000801,4007,-149.7916,61.217580000000005
9720,5901 E 6TH AVE,Anchorage,AK,99504,"5901 E 6TH AVE, Anchorage, AK, 99504",Match,Exact,"5901 E 6TH AVE, ANCHORAGE, AK, 99504",190810852,L,02,020,000701,1000,-149.77061,61.216933999999995
9721,5901 E 6TH AVE,Anchorage,AK,99504,"5901 E 6TH AVE, Anchorage, AK, 99504",Match,Exact,"5901 E 6TH AVE, ANCHORAGE, AK, 99504",190810852,L,02,020,000701,1000,-149.77061,61.216933999999995
9722,5901 E 6TH AVE,Anchorage,AK,99504,"5901 E 6TH AVE, Anchorage, AK, 99504",Match,Exact,"5901 E 6TH AVE, ANCHORAGE, AK, 99504",190810852,L,02,020,000701,1000,-149.77061,61.216933999999995
9723,5901 E 6TH AVE,Anchorage,AK,99504,"5901 E 6TH AVE, Anchorage, AK, 99504",Match,Exact,"5901 E 6TH AVE, ANCHORAGE, AK, 99504",190810852,L,02,020,000701,1000,-149.77061,61.216933999999995
9724,5650 CAMELOT DR,Anchorage,AK,99504,"5650 CAMELOT DR, Anchorage, AK, 99504",Match,Exact,"5650 CAMELOT DR, ANCHORAGE, AK, 99504",190812091,R,02,020,000701,1000,-149.7765,61.220543000000006
9725,301 DANNILYN CIR,Anchorage,AK,99504,"301 DANNILYN CIR, Anchorage, AK, 99504",Match,Exact,"301 DANNILYN CIR, ANCHORAGE, AK, 99504",190808935,L,02,020,000702,2002,-149.74373,61.22051999999999
9726,5550 CAMELOT DR,Anchorage,AK,99504,"5550 CAMELOT DR, Anchorage, AK, 99504",Match,Exact,"5550 CAMELOT DR, ANCHORAGE, AK, 99504",190812091,R,02,020,000701,1000,-149.77757,61.220543000000006
9727,5339 LIONHEART DR,Anchorage,AK,99508,"5339 LIONHEART DR, Anchorage, AK, 99508",Match,Exact,"5339 LIONHEART DR, ANCHORAGE, AK, 99508",190801973,L,02,020,000801,3008,-149.78186000000002,61.220530000000004
9728,305 GAYLENE CIR,Anchorage,AK,99504,"305 GAYLENE CIR, Anchorage, AK, 99504",Match,Exact,"305 GAYLENE CIR, ANCHORAGE, AK, 99504",190803322,L,02,020,000703,3001,-149.72128,61.220516
9729,308 DAVIS ST,Anchorage,AK,99508,"308 DAVIS ST, Anchorage, AK, 99508",Match,Exact,"308 DAVIS ST, ANCHORAGE, AK, 99508",190801967,R,02,020,000801,2010,-149.78609,61.221394
9730,7000 DICKERSON DR,Anchorage,AK,99504,"7000 DICKERSON DR, Anchorage, AK, 99504",Match,Exact,"7000 DICKERSON DR, ANCHORAGE, AK, 99504",190802810,R,02,020,000702,3004,-149.75177,61.220486
9731,304 GAYLENE CIR,Anchorage,AK,99504,"304 GAYLENE CIR, Anchorage, AK, 99504",Match,Exact,"304 GAYLENE CIR, ANCHORAGE, AK, 99504",190803322,R,02,020,000703,3001,-149.72131000000002,61.220516
9732,5901 E 6TH AVE,Anchorage,AK,99504,"5901 E 6TH AVE, Anchorage, AK, 99504",Match,Exact,"5901 E 6TH AVE, ANCHORAGE, AK, 99504",190810852,L,02,020,000701,1000,-149.77061,61.216933999999995
9733,5901 E 6TH AVE,Anchorage,AK,99504,"5901 E 6TH AVE, Anchorage, AK, 99504",Match,Exact,"5901 E 6TH AVE, ANCHORAGE, AK, 99504",190810852,L,02,020,000701,1000,-149.77061,61.216933999999995
9734,6950 DICKERSON DR,Anchorage,AK,99504,"6950 DICKERSON DR, Anchorage, AK, 99504",Match,Exact,"6950 DICKERSON DR, ANCHORAGE, AK, 99504",190802810,R,02,020,000702,3004,-149.75226,61.220642000000005
9735,311 PAMELA PL,Anchorage,AK,99504,"311 PAMELA PL, Anchorage, AK, 99504",Match,Exact,"311 PAMELA PL, ANCHORAGE, AK, 99504",190802889,L,02,020,000702,2002,-149.74206999999998,61.22047
9736,5901 E 6TH AVE,Anchorage,AK,99504,"5901 E 6TH AVE, Anchorage, AK, 99504",Match,Exact,"5901 E 6TH AVE, ANCHORAGE, AK, 99504",190810852,L,02,020,000701,1000,-149.77061,61.216933999999995
9737,5901 E 6TH AVE,Anchorage,AK,99504,"5901 E 6TH AVE, Anchorage, AK, 99504",Match,Exact,"5901 E 6TH AVE, ANCHORAGE, AK, 99504",190810852,L,02,020,000701,1000,-149.77061,61.216933999999995
9738,5901 E 6TH AVE,Anchorage,AK,99504,"5901 E 6TH AVE, Anchorage, AK, 99504",Match,Exact,"5901 E 6TH AVE, ANCHORAGE, AK, 99504",190810852,L,02,020,000701,1000,-149.77061,61.216933999999995
9739,5901 E 6TH AVE,Anchorage,AK,99504,"5901 E 6TH AVE, Anchorage, AK, 99504",Match,Exact,"5901 E 6TH AVE, ANCHORAGE, AK, 99504",190810852,L,02,020,000701,1000,-149.77061,61.216933999999995
9740,311 BUNNELL ST,Anchorage,AK,99508,"311 BUNNELL ST, Anchorage, AK, 99508",Match,Exact,"311 BUNNELL ST, ANCHORAGE, AK, 99508",624266935,L,02,020,000801,2008,-149.78968999999998,61.220490000000005
9741,5453 CAMELOT DR,Anchorage,AK,99508,"5453 CAMELOT DR, Anchorage, AK, 99508",Match,Exact,"5453 CAMELOT DR, ANCHORAGE, AK, 99508",190801978,L,02,020,000801,3008,-149.77965,61.220352
9742,5453 CAMELOT DR,Anchorage,AK,99508,"5453 CAMELOT DR, Anchorage, AK, 99508",Match,Exact,"5453 CAMELOT DR, ANCHORAGE, AK, 99508",190801978,L,02,020,000801,3008,-149.77965,61.220352
9743,5453 CAMELOT DR,Anchorage,AK,99508,"5453 CAMELOT DR, Anchorage, AK, 99508",Match,Exact,"5453 CAMELOT DR, ANCHORAGE, AK, 99508",190801978,L,02,020,000801,3008,-149.77965,61.220352
9744,5439 LANCELOT CIR,Anchorage,AK,99508,"5439 LANCELOT CIR, Anchorage, AK, 99508",Match,Exact,"5439 LANCELOT CIR, ANCHORAGE, AK, 99508",190801983,L,02,020,000801,4000,-149.78076000000001,61.219437
9745,6851 E 3RD AVE,Anchorage,AK,99504,"6851 E 3RD AVE, Anchorage, AK, 99504",Match,Exact,"6851 E 3RD AVE, ANCHORAGE, AK, 99504",190802807,L,02,020,000702,3004,-149.75246,61.219733999999995
9746,5445 LANCELOT CIR,Anchorage,AK,99508,"5445 LANCELOT CIR, Anchorage, AK, 99508",Match,Exact,"5445 LANCELOT CIR, ANCHORAGE, AK, 99508",190801983,L,02,020,000801,4000,-149.78067,61.219437
9747,6975 FREDRICKS DR,Anchorage,AK,99504,"6975 FREDRICKS DR, Anchorage, AK, 99504",No_Match,,,,,,,,,,
9748,345 OKLAHOMA ST,Anchorage,AK,99504,"345 OKLAHOMA ST, Anchorage, AK, 99504",Match,Exact,"345 OKLAHOMA ST, ANCHORAGE, AK, 99504",190827094,L,02,020,000702,2002,-149.74473999999998,61.219730000000006
9749,345 OKLAHOMA ST,Anchorage,AK,99504,"345 OKLAHOMA ST, Anchorage, AK, 99504",Match,Exact,"345 OKLAHOMA ST, ANCHORAGE, AK, 99504",190827094,L,02,020,000702,2002,-149.74473999999998,61.219730000000006
9750,345 OKLAHOMA ST,Anchorage,AK,99504,"345 OKLAHOMA ST, Anchorage, AK, 99504",Match,Exact,"345 OKLAHOMA ST, ANCHORAGE, AK, 99504",190827094,L,02,020,000702,2002,-149.74473999999998,61.219730000000006
9751,345 OKLAHOMA ST,Anchorage,AK,99504,"345 OKLAHOMA ST, Anchorage, AK, 99504",Match,Exact,"345 OKLAHOMA ST, ANCHORAGE, AK, 99504",190827094,L,02,020,000702,2002,-149.74473999999998,61.219730000000006
9752,354 CHERRY ST,Anchorage,AK,99504,"354 CHERRY ST, Anchorage, AK, 99504",Match,Exact,"354 CHERRY ST, ANCHORAGE, AK, 99504",190803318,R,02,020,000703,3012,-149.72224,61.21934
9753,5437 LANCELOT CIR,Anchorage,AK,99508,"5437 LANCELOT CIR, Anchorage, AK, 99508",Match,Exact,"5437 LANCELOT CIR, ANCHORAGE, AK, 99508",190801983,L,02,020,000801,4000,-149.78079,61.219437
9754,5457 LANCELOT CIR,Anchorage,AK,99508,"5457 LANCELOT CIR, Anchorage, AK, 99508",Match,Exact,"5457 LANCELOT CIR, ANCHORAGE, AK, 99508",190801983,L,02,020,000801,4000,-149.78047,61.219437
9755,430 CAMELOT DR,Anchorage,AK,99508,"430 CAMELOT DR, Anchorage, AK, 99508",Match,Exact,"430 CAMELOT DR, ANCHORAGE, AK, 99508",190801979,R,02,020,000801,4001,-149.78101999999998,61.220104000000006
9756,340 PEPPERTREE LOOP,Anchorage,AK,99504,"340 PEPPERTREE LOOP, Anchorage, AK, 99504",Match,Exact,"340 PEPPERTREE LOOP, ANCHORAGE, AK, 99504",190826164,R,02,020,000701,1000,-149.76265,61.219517
9757,354 EKLUTNA ST,Anchorage,AK,99504,"354 EKLUTNA ST, Anchorage, AK, 99504",Match,Exact,"354 EKLUTNA ST, ANCHORAGE, AK, 99504",190803261,R,02,020,000703,3002,-149.72421,61.2201
9758,352 BOLIN ST,Anchorage,AK,99504,"352 BOLIN ST, Anchorage, AK, 99504",Match,Exact,"352 BOLIN ST, ANCHORAGE, AK, 99504",190803336,R,02,020,000703,3001,-149.71941999999999,61.219882999999996
9759,155 GRAND LARRY ST,Anchorage,AK,99504,"155 GRAND LARRY ST, Anchorage, AK, 99504",Match,Exact,"155 GRAND LARRY ST, ANCHORAGE, AK, 99504",625718476,L,02,020,000703,2000,-149.72975,61.223114
9760,151 GRAND LARRY ST,Anchorage,AK,99504,"151 GRAND LARRY ST, Anchorage, AK, 99504",Match,Exact,"151 GRAND LARRY ST, ANCHORAGE, AK, 99504",625718476,L,02,020,000703,2000,-149.72975,61.223175
9761,157 GRAND LARRY ST,Anchorage,AK,99504,"157 GRAND LARRY ST, Anchorage, AK, 99504",Match,Exact,"157 GRAND LARRY ST, ANCHORAGE, AK, 99504",625718476,L,02,020,000703,2000,-149.72975,61.223082999999995
9762,110 MULDOON RD,Anchorage,AK,99504,"110 MULDOON RD, Anchorage, AK, 99504",Match,Exact,"110 MULDOON RD, ANCHORAGE, AK, 99504",638990398,R,02,020,000702,2000,-149.73353999999998,61.223873
9763,143 GRAND LARRY ST,Anchorage,AK,99504,"143 GRAND LARRY ST, Anchorage, AK, 99504",Match,Exact,"143 GRAND LARRY ST, ANCHORAGE, AK, 99504",625718476,L,02,020,000703,2000,-149.72975,61.223293000000005
9764,139 RUSTY ALLEN PL,Anchorage,AK,99504,"139 RUSTY ALLEN PL, Anchorage, AK, 99504",Match,Exact,"139 RUSTY ALLEN PL, ANCHORAGE, AK, 99504",605185494,L,02,020,000701,1000,-149.76068,61.223156
9765,7656 BOUNDARY AVE,Anchorage,AK,99504,"7656 BOUNDARY AVE, Anchorage, AK, 99504",Match,Exact,"7656 BOUNDARY AVE, ANCHORAGE, AK, 99504",605167202,R,02,020,000702,2000,-149.73828,61.224169999999994
9766,132 JELINEK PL,Anchorage,AK,99504,"132 JELINEK PL, Anchorage, AK, 99504",Match,Exact,"132 JELINEK PL, ANCHORAGE, AK, 99504",190803206,R,02,020,000703,2000,-149.72508,61.22351999999999
9767,139 BURTON ST,Anchorage,AK,99504,"139 BURTON ST, Anchorage, AK, 99504",Match,Exact,"139 BURTON ST, ANCHORAGE, AK, 99504",190802857,L,02,020,000702,2000,-149.74194,61.2229
9768,138 BURTON ST,Anchorage,AK,99504,"138 BURTON ST, Anchorage, AK, 99504",Match,Exact,"138 BURTON ST, ANCHORAGE, AK, 99504",190802857,R,02,020,000702,1006,-149.74196,61.2229
9769,104 FIREOVED DR,Anchorage,AK,99508,"104 FIREOVED DR, Anchorage, AK, 99508",Match,Exact,"104 FIREOVED DR, ANCHORAGE, AK, 99508",624091016,R,02,020,000801,3004,-149.78264,61.223656000000005
9770,104 FIREOVED DR,Anchorage,AK,99508,"104 FIREOVED DR, Anchorage, AK, 99508",Match,Exact,"104 FIREOVED DR, ANCHORAGE, AK, 99508",624091016,R,02,020,000801,3004,-149.78264,61.223656000000005
9771,104 FIREOVED DR,Anchorage,AK,99508,"104 FIREOVED DR, Anchorage, AK, 99508",Match,Exact,"104 FIREOVED DR, ANCHORAGE, AK, 99508",624091016,R,02,020,000801,3004,-149.78264,61.223656000000005
9772,104 FIREOVED DR,Anchorage,AK,99508,"104 FIREOVED DR, Anchorage, AK, 99508",Match,Exact,"104 FIREOVED DR, ANCHORAGE, AK, 99508",624091016,R,02,020,000801,3004,-149.78264,61.223656000000005
9773,141 DEAN PL,Anchorage,AK,99504,"141 DEAN PL, Anchorage, AK, 99504",Match,Exact,"141 DEAN PL, ANCHORAGE, AK, 99504",190802859,L,02,020,000702,2000,-149.74007,61.223125
9774,140 DEAN PL,Anchorage,AK,99504,"140 DEAN PL, Anchorage, AK, 99504",Match,Exact,"140 DEAN PL, ANCHORAGE, AK, 99504",190802859,R,02,020,000702,2000,-149.7401,61.223125
9775,8407 DUNLAP CT,Anchorage,AK,99504,"8407 DUNLAP CT, Anchorage, AK, 99504",Match,Exact,"8407 DUNLAP CT, ANCHORAGE, AK, 99504",190803300,L,02,020,000703,1011,-149.72383,61.22325
9776,8407 DUNLAP CT,Anchorage,AK,99504,"8407 DUNLAP CT, Anchorage, AK, 99504",Match,Exact,"8407 DUNLAP CT, ANCHORAGE, AK, 99504",190803300,L,02,020,000703,1011,-149.72383,61.22325
9777,8441 DUNLAP CT,Anchorage,AK,99504,"8441 DUNLAP CT, Anchorage, AK, 99504",Match,Exact,"8441 DUNLAP CT, ANCHORAGE, AK, 99504",645477653,L,02,020,000703,1011,-149.72273,61.22325
9778,8441 DUNLAP CT,Anchorage,AK,99504,"8441 DUNLAP CT, Anchorage, AK, 99504",Match,Exact,"8441 DUNLAP CT, ANCHORAGE, AK, 99504",645477653,L,02,020,000703,1011,-149.72273,61.22325
9779,8423 DUNLAP CT,Anchorage,AK,99504,"8423 DUNLAP CT, Anchorage, AK, 99504",Match,Exact,"8423 DUNLAP CT, ANCHORAGE, AK, 99504",645477653,L,02,020,000703,1011,-149.72298,61.22325
9780,180 GRAND LARRY ST,Anchorage,AK,99504,"180 GRAND LARRY ST, Anchorage, AK, 99504",Match,Exact,"180 GRAND LARRY ST, ANCHORAGE, AK, 99504",625718476,R,02,020,000703,2001,-149.72977,61.222736
9781,7742 BOUNDARY AVE,Anchorage,AK,99504,"7742 BOUNDARY AVE, Anchorage, AK, 99504",Match,Exact,"7742 BOUNDARY AVE, ANCHORAGE, AK, 99504",605167189,R,02,020,000702,2000,-149.73648,61.224169999999994
9782,169 BURTON ST,Anchorage,AK,99504,"169 BURTON ST, Anchorage, AK, 99504",Match,Exact,"169 BURTON ST, ANCHORAGE, AK, 99504",190802857,L,02,020,000702,2000,-149.74194,61.222669999999994
9783,169 BURTON ST,Anchorage,AK,99504,"169 BURTON ST, Anchorage, AK, 99504",Match,Exact,"169 BURTON ST, ANCHORAGE, AK, 99504",190802857,L,02,020,000702,2000,-149.74194,61.222669999999994
9784,169 BURTON ST,Anchorage,AK,99504,"169 BURTON ST, Anchorage, AK, 99504",Match,Exact,"169 BURTON ST, ANCHORAGE, AK, 99504",190802857,L,02,020,000702,2000,-149.74194,61.222669999999994
9785,169 BURTON ST,Anchorage,AK,99504,"169 BURTON ST, Anchorage, AK, 99504",Match,Exact,"169 BURTON ST, ANCHORAGE, AK, 99504",190802857,L,02,020,000702,2000,-149.74194,61.222669999999994
9786,160 JELINEK PL,Anchorage,AK,99504,"160 JELINEK PL, Anchorage, AK, 99504",Match,Exact,"160 JELINEK PL, ANCHORAGE, AK, 99504",190803206,R,02,020,000703,2000,-149.72508,61.223094999999994
9787,188 RUSTY ALLEN PL,Anchorage,AK,99504,"188 RUSTY ALLEN PL, Anchorage, AK, 99504",Match,Exact,"188 RUSTY ALLEN PL, ANCHORAGE, AK, 99504",605185494,R,02,020,000701,1000,-149.76065,61.22271
9788,6850 ALL STAR CIR,Anchorage,AK,99504,"6850 ALL STAR CIR, Anchorage, AK, 99504",Match,Exact,"6850 ALL STAR CIR, ANCHORAGE, AK, 99504",190819820,L,02,020,000702,3002,-149.75361999999998,61.222855
9789,6839 PECK AVE,Anchorage,AK,99504,"6839 PECK AVE, Anchorage, AK, 99504",Match,Exact,"6839 PECK AVE, ANCHORAGE, AK, 99504",190820031,R,02,020,000702,3003,-149.7527,61.22277
9790,227 NEWELL ST,Anchorage,AK,99504,"227 NEWELL ST, Anchorage, AK, 99504",Match,Exact,"227 NEWELL ST, ANCHORAGE, AK, 99504",605167293,R,02,020,000701,1000,-149.77095,61.222637
9791,227 NEWELL ST,Anchorage,AK,99504,"227 NEWELL ST, Anchorage, AK, 99504",Match,Exact,"227 NEWELL ST, ANCHORAGE, AK, 99504",605167293,R,02,020,000701,1000,-149.77095,61.222637
9792,123 NANOOK CIR,Anchorage,AK,99504,"123 NANOOK CIR, Anchorage, AK, 99504",Match,Exact,"123 NANOOK CIR, ANCHORAGE, AK, 99504",190820035,R,02,020,000702,3003,-149.74951000000001,61.222669999999994
9793,520 IDAHO ST,Anchorage,AK,99504,"520 IDAHO ST, Anchorage, AK, 99504",Match,Exact,"520 IDAHO ST, ANCHORAGE, AK, 99504",190802902,R,02,020,000702,2005,-149.73723,61.217690000000005
9794,520 IDAHO ST,Anchorage,AK,99504,"520 IDAHO ST, Anchorage, AK, 99504",Match,Exact,"520 IDAHO ST, ANCHORAGE, AK, 99504",190802902,R,02,020,000702,2005,-149.73723,61.217690000000005
9795,520 IDAHO ST,Anchorage,AK,99504,"520 IDAHO ST, Anchorage, AK, 99504",Match,Exact,"520 IDAHO ST, ANCHORAGE, AK, 99504",190802902,R,02,020,000702,2005,-149.73723,61.217690000000005
9796,512 CHERRY ST,Anchorage,AK,99504,"512 CHERRY ST, Anchorage, AK, 99504",Match,Exact,"512 CHERRY ST, ANCHORAGE, AK, 99504",190803327,R,02,020,000703,3011,-149.72224,61.217567
9797,530 FREDRICKS DR,Anchorage,AK,99504,"530 FREDRICKS DR, Anchorage, AK, 99504",Match,Non_Exact,"530 FREDERICKS DR, ANCHORAGE, AK, 99504",190816143,R,02,020,000702,3009,-149.75217,61.21852
9798,500 IZEMBEK CIR,Anchorage,AK,99508,"500 IZEMBEK CIR, Anchorage, AK, 99508",Match,Exact,"500 IZEMBEK CIR, ANCHORAGE, AK, 99508",190801976,L,02,020,000801,4006,-149.78322,61.217346
9799,521 OKLAHOMA ST,Anchorage,AK,99504,"521 OKLAHOMA ST, Anchorage, AK, 99504",Match,Exact,"521 OKLAHOMA ST, ANCHORAGE, AK, 99504",190802877,L,02,020,000702,2003,-149.74472,61.217686
9800,521 OKLAHOMA ST,Anchorage,AK,99504,"521 OKLAHOMA ST, Anchorage, AK, 99504",Match,Exact,"521 OKLAHOMA ST, ANCHORAGE, AK, 99504",190802877,L,02,020,000702,2003,-149.74472,61.217686
9801,520 PATSY ST,Anchorage,AK,99504,"520 PATSY ST, Anchorage, AK, 99504",Match,Exact,"520 PATSY ST, ANCHORAGE, AK, 99504",190810873,R,02,020,000702,2003,-149.74286,61.217686
9802,521 DONNA DR,Anchorage,AK,99504,"521 DONNA DR, Anchorage, AK, 99504",Match,Exact,"521 DONNA DR, ANCHORAGE, AK, 99504",190802765,R,02,020,000701,2000,-149.76021,61.21751
9803,500 SAINT LAZARIA CIR,Anchorage,AK,99508,"500 SAINT LAZARIA CIR, Anchorage, AK, 99508",Match,Exact,"500 SAINT LAZARIA CIR, ANCHORAGE, AK, 99508",190801974,L,02,020,000801,4006,-149.78493,61.21735
9804,501 IZEMBEK CIR,Anchorage,AK,99508,"501 IZEMBEK CIR, Anchorage, AK, 99508",Match,Exact,"501 IZEMBEK CIR, ANCHORAGE, AK, 99508",190801976,R,02,020,000801,4006,-149.78319,61.217346
9805,501 SAINT LAZARIA CIR,Anchorage,AK,99508,"501 SAINT LAZARIA CIR, Anchorage, AK, 99508",Match,Exact,"501 SAINT LAZARIA CIR, ANCHORAGE, AK, 99508",190801974,R,02,020,000801,4006,-149.78491,61.21735
9806,510 IZEMBEK CIR,Anchorage,AK,99508,"510 IZEMBEK CIR, Anchorage, AK, 99508",Match,Exact,"510 IZEMBEK CIR, ANCHORAGE, AK, 99508",190801976,L,02,020,000801,4006,-149.78322,61.217304000000006
9807,510 SAINT LAZARIA CIR,Anchorage,AK,99508,"510 SAINT LAZARIA CIR, Anchorage, AK, 99508",Match,Exact,"510 SAINT LAZARIA CIR, ANCHORAGE, AK, 99508",190801974,L,02,020,000801,4006,-149.78493,61.217307999999996
9808,511 IZEMBEK CIR,Anchorage,AK,99508,"511 IZEMBEK CIR, Anchorage, AK, 99508",Match,Exact,"511 IZEMBEK CIR, ANCHORAGE, AK, 99508",190801976,R,02,020,000801,4006,-149.78319,61.217304000000006
9809,511 SAINT LAZARIA CIR,Anchorage,AK,99508,"511 SAINT LAZARIA CIR, Anchorage, AK, 99508",Match,Exact,"511 SAINT LAZARIA CIR, ANCHORAGE, AK, 99508",190801974,R,02,020,000801,4006,-149.78491,61.217307999999996
9810,501 GLACIER BAY CIR,Anchorage,AK,99508,"501 GLACIER BAY CIR, Anchorage, AK, 99508",Match,Non_Exact,"501 GLACIER BAY, ANCHORAGE, AK, 99508",190801985,R,02,020,000801,4006,-149.78143,61.21731
9811,501 GLACIER BAY CIR,Anchorage,AK,99508,"501 GLACIER BAY CIR, Anchorage, AK, 99508",Match,Non_Exact,"501 GLACIER BAY, ANCHORAGE, AK, 99508",190801985,R,02,020,000801,4006,-149.78143,61.21731
9812,500 MISTY FJORDS CIR,Anchorage,AK,99508,"500 MISTY FJORDS CIR, Anchorage, AK, 99508",Match,Exact,"500 MISTY FJORDS CIR, ANCHORAGE, AK, 99508",190812088,L,02,020,000801,4006,-149.77965,61.21731
9813,500 MISTY FJORDS CIR,Anchorage,AK,99508,"500 MISTY FJORDS CIR, Anchorage, AK, 99508",Match,Exact,"500 MISTY FJORDS CIR, ANCHORAGE, AK, 99508",190812088,L,02,020,000801,4006,-149.77965,61.21731
9814,6340 HABICHT CT,Anchorage,AK,99504,"6340 HABICHT CT, Anchorage, AK, 99504",Match,Exact,"6340 HABICHT CT, ANCHORAGE, AK, 99504",190802075,L,02,020,000701,1000,-149.7615,61.217587
9815,520 OKLAHOMA ST,Anchorage,AK,99504,"520 OKLAHOMA ST, Anchorage, AK, 99504",Match,Exact,"520 OKLAHOMA ST, ANCHORAGE, AK, 99504",190802877,R,02,020,000702,3007,-149.74473999999998,61.217686
9816,501 MISTY FJORDS CIR,Anchorage,AK,99508,"501 MISTY FJORDS CIR, Anchorage, AK, 99508",Match,Exact,"501 MISTY FJORDS CIR, ANCHORAGE, AK, 99508",190812088,R,02,020,000801,4006,-149.77962,61.21731
9817,501 MISTY FJORDS CIR,Anchorage,AK,99508,"501 MISTY FJORDS CIR, Anchorage, AK, 99508",Match,Exact,"501 MISTY FJORDS CIR, ANCHORAGE, AK, 99508",190812088,R,02,020,000801,4006,-149.77962,61.21731
9818,521 PINE ST,Anchorage,AK,99508,"521 PINE ST, Anchorage, AK, 99508",Match,Non_Exact,"521 S PINE ST, ANCHORAGE, AK, 99508",614862230,L,02,020,000801,4007,-149.79338,61.217769999999994
9819,521 PINE ST,Anchorage,AK,99508,"521 PINE ST, Anchorage, AK, 99508",Match,Non_Exact,"521 S PINE ST, ANCHORAGE, AK, 99508",614862230,L,02,020,000801,4007,-149.79338,61.217769999999994
9820,521 PINE ST,Anchorage,AK,99508,"521 PINE ST, Anchorage, AK, 99508",Match,Non_Exact,"521 S PINE ST, ANCHORAGE, AK, 99508",614862230,L,02,020,000801,4007,-149.79338,61.217769999999994
9821,310 PEPPERTREE LOOP,Anchorage,AK,99504,"310 PEPPERTREE LOOP, Anchorage, AK, 99504",Match,Exact,"310 PEPPERTREE LOOP, ANCHORAGE, AK, 99504",190826164,R,02,020,000701,1000,-149.76265,61.219902000000005
9822,4700 KENAI AVE,Anchorage,AK,99508,"4700 KENAI AVE, Anchorage, AK, 99508",No_Match,,,,,,,,,,
9823,350 VILLA CIR,Anchorage,AK,99504,"350 VILLA CIR, Anchorage, AK, 99504",Match,Exact,"350 VILLA CIR, ANCHORAGE, AK, 99504",190816175,R,02,020,000702,2002,-149.74007,61.22030600000001
9824,200 PEPPERTREE LOOP,Anchorage,AK,99504,"200 PEPPERTREE LOOP, Anchorage, AK, 99504",Match,Exact,"200 PEPPERTREE LOOP, ANCHORAGE, AK, 99504",190826164,R,02,020,000701,1000,-149.76028,61.220046999999994
9825,4860 KENAI AVE,Anchorage,AK,99508,"4860 KENAI AVE, Anchorage, AK, 99508",Match,Exact,"4860 KENAI AVE, ANCHORAGE, AK, 99508",624908526,R,02,020,000801,4004,-149.79039,61.220222
9826,324 GAYLENE CIR,Anchorage,AK,99504,"324 GAYLENE CIR, Anchorage, AK, 99504",Match,Exact,"324 GAYLENE CIR, ANCHORAGE, AK, 99504",190803322,R,02,020,000703,3001,-149.7213,61.220431999999995
9827,5901 E 6TH AVE,Anchorage,AK,99504,"5901 E 6TH AVE, Anchorage, AK, 99504",Match,Exact,"5901 E 6TH AVE, ANCHORAGE, AK, 99504",190810852,L,02,020,000701,1000,-149.77061,61.216933999999995
9828,5901 E 6TH AVE,Anchorage,AK,99504,"5901 E 6TH AVE, Anchorage, AK, 99504",Match,Exact,"5901 E 6TH AVE, ANCHORAGE, AK, 99504",190810852,L,02,020,000701,1000,-149.77061,61.216933999999995
9829,5901 E 6TH AVE,Anchorage,AK,99504,"5901 E 6TH AVE, Anchorage, AK, 99504",Match,Exact,"5901 E 6TH AVE, ANCHORAGE, AK, 99504",190810852,L,02,020,000701,1000,-149.77061,61.216933999999995
9830,531 IZEMBEK CIR,Anchorage,AK,99508,"531 IZEMBEK CIR, Anchorage, AK, 99508",Match,Exact,"531 IZEMBEK CIR, ANCHORAGE, AK, 99508",190801976,R,02,020,000801,4006,-149.78319,61.217224
9831,5901 E 6TH AVE,Anchorage,AK,99504,"5901 E 6TH AVE, Anchorage, AK, 99504",Match,Exact,"5901 E 6TH AVE, ANCHORAGE, AK, 99504",190810852,L,02,020,000701,1000,-149.77061,61.216933999999995
9832,5901 E 6TH AVE,Anchorage,AK,99504,"5901 E 6TH AVE, Anchorage, AK, 99504",Match,Exact,"5901 E 6TH AVE, ANCHORAGE, AK, 99504",190810852,L,02,020,000701,1000,-149.77061,61.216933999999995
9833,5901 E 6TH AVE,Anchorage,AK,99504,"5901 E 6TH AVE, Anchorage, AK, 99504",Match,Exact,"5901 E 6TH AVE, ANCHORAGE, AK, 99504",190810852,L,02,020,000701,1000,-149.77061,61.216933999999995
9834,5901 E 6TH AVE,Anchorage,AK,99504,"5901 E 6TH AVE, Anchorage, AK, 99504",Match,Exact,"5901 E 6TH AVE, ANCHORAGE, AK, 99504",190810852,L,02,020,000701,1000,-149.77061,61.216933999999995
9835,5901 E 6TH AVE,Anchorage,AK,99504,"5901 E 6TH AVE, Anchorage, AK, 99504",Match,Exact,"5901 E 6TH AVE, ANCHORAGE, AK, 99504",190810852,L,02,020,000701,1000,-149.77061,61.216933999999995
9836,5901 E 6TH AVE,Anchorage,AK,99504,"5901 E 6TH AVE, Anchorage, AK, 99504",Match,Exact,"5901 E 6TH AVE, ANCHORAGE, AK, 99504",190810852,L,02,020,000701,1000,-149.77061,61.216933999999995
9837,5901 E 6TH AVE,Anchorage,AK,99504,"5901 E 6TH AVE, Anchorage, AK, 99504",Match,Exact,"5901 E 6TH AVE, ANCHORAGE, AK, 99504",190810852,L,02,020,000701,1000,-149.77061,61.216933999999995
9838,5901 E 6TH AVE,Anchorage,AK,99504,"5901 E 6TH AVE, Anchorage, AK, 99504",Match,Exact,"5901 E 6TH AVE, ANCHORAGE, AK, 99504",190810852,L,02,020,000701,1000,-149.77061,61.216933999999995
9839,4830 KENAI AVE,Anchorage,AK,99508,"4830 KENAI AVE, Anchorage, AK, 99508",Match,Exact,"4830 KENAI AVE, ANCHORAGE, AK, 99508",624908526,R,02,020,000801,4004,-149.79071000000002,61.220180000000006
9840,334 FERN LN,Anchorage,AK,99504,"334 FERN LN, Anchorage, AK, 99504",Match,Exact,"334 FERN LN, ANCHORAGE, AK, 99504",190802803,R,02,020,000702,3006,-149.75398,61.219806999999996
9841,332 EKLUTNA ST,Anchorage,AK,99504,"332 EKLUTNA ST, Anchorage, AK, 99504",Match,Exact,"332 EKLUTNA ST, ANCHORAGE, AK, 99504",190803261,R,02,020,000703,3002,-149.72421,61.22028
9842,337 PAULINE ST,Anchorage,AK,99504,"337 PAULINE ST, Anchorage, AK, 99504",Match,Exact,"337 PAULINE ST, ANCHORAGE, AK, 99504",190807392,L,02,020,000703,3002,-149.7267,61.21974
9843,337 PAULINE ST,Anchorage,AK,99504,"337 PAULINE ST, Anchorage, AK, 99504",Match,Exact,"337 PAULINE ST, ANCHORAGE, AK, 99504",190807392,L,02,020,000703,3002,-149.7267,61.21974
9844,203 PEPPERTREE LOOP,Anchorage,AK,99504,"203 PEPPERTREE LOOP, Anchorage, AK, 99504",Match,Exact,"203 PEPPERTREE LOOP, ANCHORAGE, AK, 99504",190826164,L,02,020,000701,1008,-149.76033,61.220046999999994
9845,321 FERN LN,Anchorage,AK,99504,"321 FERN LN, Anchorage, AK, 99504",Match,Exact,"321 FERN LN, ANCHORAGE, AK, 99504",190802803,L,02,020,000702,3004,-149.75398,61.219840000000005
9846,415 CAMELOT DR,Anchorage,AK,99508,"415 CAMELOT DR, Anchorage, AK, 99508",Match,Exact,"415 CAMELOT DR, ANCHORAGE, AK, 99508",190801979,L,02,020,000801,4000,-149.78143,61.219727
9847,345 BONIFACE PKWY,Anchorage,AK,99504,"345 BONIFACE PKWY, Anchorage, AK, 99504",Match,Exact,"345 BONIFACE PKWY, ANCHORAGE, AK, 99504",190801982,L,02,020,000701,1000,-149.7784,61.220165
9848,5901 E 6TH AVE,Anchorage,AK,99504,"5901 E 6TH AVE, Anchorage, AK, 99504",Match,Exact,"5901 E 6TH AVE, ANCHORAGE, AK, 99504",190810852,L,02,020,000701,1000,-149.77061,61.216933999999995
9849,305 IDAHO ST,Anchorage,AK,99504,"305 IDAHO ST, Anchorage, AK, 99504",Match,Exact,"305 IDAHO ST, ANCHORAGE, AK, 99504",190802900,L,02,020,000702,2002,-149.73723,61.219640000000005
9850,5901 E 6TH AVE,Anchorage,AK,99504,"5901 E 6TH AVE, Anchorage, AK, 99504",Match,Exact,"5901 E 6TH AVE, ANCHORAGE, AK, 99504",190810852,L,02,020,000701,1000,-149.77061,61.216933999999995
9851,5901 E 6TH AVE,Anchorage,AK,99504,"5901 E 6TH AVE, Anchorage, AK, 99504",Match,Exact,"5901 E 6TH AVE, ANCHORAGE, AK, 99504",190810852,L,02,020,000701,1000,-149.77061,61.216933999999995
9852,5901 E 6TH AVE,Anchorage,AK,99504,"5901 E 6TH AVE, Anchorage, AK, 99504",Match,Exact,"5901 E 6TH AVE, ANCHORAGE, AK, 99504",190810852,L,02,020,000701,1000,-149.77061,61.216933999999995
9853,5901 E 6TH AVE,Anchorage,AK,99504,"5901 E 6TH AVE, Anchorage, AK, 99504",Match,Exact,"5901 E 6TH AVE, ANCHORAGE, AK, 99504",190810852,L,02,020,000701,1000,-149.77061,61.216933999999995
9854,5901 E 6TH AVE,Anchorage,AK,99504,"5901 E 6TH AVE, Anchorage, AK, 99504",Match,Exact,"5901 E 6TH AVE, ANCHORAGE, AK, 99504",190810852,L,02,020,000701,1000,-149.77061,61.216933999999995
9855,5901 E 6TH AVE,Anchorage,AK,99504,"5901 E 6TH AVE, Anchorage, AK, 99504",Match,Exact,"5901 E 6TH AVE, ANCHORAGE, AK, 99504",190810852,L,02,020,000701,1000,-149.77061,61.216933999999995
9856,5901 E 6TH AVE,Anchorage,AK,99504,"5901 E 6TH AVE, Anchorage, AK, 99504",Match,Exact,"5901 E 6TH AVE, ANCHORAGE, AK, 99504",190810852,L,02,020,000701,1000,-149.77061,61.216933999999995
9857,5901 E 6TH AVE,Anchorage,AK,99504,"5901 E 6TH AVE, Anchorage, AK, 99504",Match,Exact,"5901 E 6TH AVE, ANCHORAGE, AK, 99504",190810852,L,02,020,000701,1000,-149.77061,61.216933999999995
9858,5901 E 6TH AVE,Anchorage,AK,99504,"5901 E 6TH AVE, Anchorage, AK, 99504",Match,Exact,"5901 E 6TH AVE, ANCHORAGE, AK, 99504",190810852,L,02,020,000701,1000,-149.77061,61.216933999999995
9859,5901 E 6TH AVE,Anchorage,AK,99504,"5901 E 6TH AVE, Anchorage, AK, 99504",Match,Exact,"5901 E 6TH AVE, ANCHORAGE, AK, 99504",190810852,L,02,020,000701,1000,-149.77061,61.216933999999995
9860,5901 E 6TH AVE,Anchorage,AK,99504,"5901 E 6TH AVE, Anchorage, AK, 99504",Match,Exact,"5901 E 6TH AVE, ANCHORAGE, AK, 99504",190810852,L,02,020,000701,1000,-149.77061,61.216933999999995
9861,5901 E 6TH AVE,Anchorage,AK,99504,"5901 E 6TH AVE, Anchorage, AK, 99504",Match,Exact,"5901 E 6TH AVE, ANCHORAGE, AK, 99504",190810852,L,02,020,000701,1000,-149.77061,61.216933999999995
9862,5901 E 6TH AVE,Anchorage,AK,99504,"5901 E 6TH AVE, Anchorage, AK, 99504",Match,Exact,"5901 E 6TH AVE, ANCHORAGE, AK, 99504",190810852,L,02,020,000701,1000,-149.77061,61.216933999999995
9863,348 IDAHO ST,Anchorage,AK,99504,"348 IDAHO ST, Anchorage, AK, 99504",Match,Exact,"348 IDAHO ST, ANCHORAGE, AK, 99504",190802900,R,02,020,000702,2002,-149.73723999999999,61.21926
9864,348 IDAHO ST,Anchorage,AK,99504,"348 IDAHO ST, Anchorage, AK, 99504",Match,Exact,"348 IDAHO ST, ANCHORAGE, AK, 99504",190802900,R,02,020,000702,2002,-149.73723999999999,61.21926
9865,348 IDAHO ST,Anchorage,AK,99504,"348 IDAHO ST, Anchorage, AK, 99504",Match,Exact,"348 IDAHO ST, ANCHORAGE, AK, 99504",190802900,R,02,020,000702,2002,-149.73723999999999,61.21926
9866,348 IDAHO ST,Anchorage,AK,99504,"348 IDAHO ST, Anchorage, AK, 99504",Match,Exact,"348 IDAHO ST, ANCHORAGE, AK, 99504",190802900,R,02,020,000702,2002,-149.73723999999999,61.21926
9867,6965 FREDRICKS DR,Anchorage,AK,99504,"6965 FREDRICKS DR, Anchorage, AK, 99504",No_Match,,,,,,,,,,
9868,355 STANDISH ST,Anchorage,AK,99504,"355 STANDISH ST, Anchorage, AK, 99504",Match,Exact,"355 STANDISH ST, ANCHORAGE, AK, 99504",190803259,L,02,020,000703,3013,-149.72523,61.219063
9869,355 STANDISH ST,Anchorage,AK,99504,"355 STANDISH ST, Anchorage, AK, 99504",Match,Exact,"355 STANDISH ST, ANCHORAGE, AK, 99504",190803259,L,02,020,000703,3013,-149.72523,61.219063
9870,431 CAMELOT DR,Anchorage,AK,99508,"431 CAMELOT DR, Anchorage, AK, 99508",Match,Exact,"431 CAMELOT DR, ANCHORAGE, AK, 99508",190801979,L,02,020,000801,4000,-149.78122,61.219967000000004
9871,346 STATE ST,Anchorage,AK,99504,"346 STATE ST, Anchorage, AK, 99504",Match,Exact,"346 STATE ST, ANCHORAGE, AK, 99504",190803229,R,02,020,000703,3008,-149.73131999999998,61.21948199999999
9872,351 FERN LN,Anchorage,AK,99504,"351 FERN LN, Anchorage, AK, 99504",Match,Exact,"351 FERN LN, ANCHORAGE, AK, 99504",190802804,L,02,020,000702,3009,-149.75385,61.219448
9873,8200 E 3RD AVE,Anchorage,AK,99504,"8200 E 3RD AVE, Anchorage, AK, 99504",Match,Exact,"8200 E 3RD AVE, ANCHORAGE, AK, 99504",190803254,R,02,020,000703,3007,-149.72833,61.219536
9874,8148 E 3RD AVE,Anchorage,AK,99504,"8148 E 3RD AVE, Anchorage, AK, 99504",Match,Exact,"8148 E 3RD AVE, ANCHORAGE, AK, 99504",190803254,R,02,020,000703,3007,-149.72902,61.219536
9875,8148 E 3RD AVE,Anchorage,AK,99504,"8148 E 3RD AVE, Anchorage, AK, 99504",Match,Exact,"8148 E 3RD AVE, ANCHORAGE, AK, 99504",190803254,R,02,020,000703,3007,-149.72902,61.219536
9876,8136 E 3RD AVE,Anchorage,AK,99504,"8136 E 3RD AVE, Anchorage, AK, 99504",Match,Exact,"8136 E 3RD AVE, ANCHORAGE, AK, 99504",190803254,R,02,020,000703,3007,-149.72916999999998,61.219531999999994
9877,8138 E 3RD AVE,Anchorage,AK,99504,"8138 E 3RD AVE, Anchorage, AK, 99504",Match,Exact,"8138 E 3RD AVE, ANCHORAGE, AK, 99504",190803254,R,02,020,000703,3007,-149.72914,61.219531999999994
9878,8124 E 3RD AVE,Anchorage,AK,99504,"8124 E 3RD AVE, Anchorage, AK, 99504",Match,Exact,"8124 E 3RD AVE, ANCHORAGE, AK, 99504",190803254,R,02,020,000703,3007,-149.72932,61.219531999999994
9879,8112 E 3RD AVE,Anchorage,AK,99504,"8112 E 3RD AVE, Anchorage, AK, 99504",Match,Exact,"8112 E 3RD AVE, ANCHORAGE, AK, 99504",190803254,R,02,020,000703,3007,-149.72948,61.219531999999994
9880,345 BUNNELL ST,Anchorage,AK,99508,"345 BUNNELL ST, Anchorage, AK, 99508",Match,Exact,"345 BUNNELL ST, ANCHORAGE, AK, 99508",624908506,L,02,020,000801,4003,-149.78968999999998,61.219666000000004
9881,8100 E 3RD AVE,Anchorage,AK,99504,"8100 E 3RD AVE, Anchorage, AK, 99504",Match,Exact,"8100 E 3RD AVE, ANCHORAGE, AK, 99504",190803254,R,02,020,000703,3007,-149.72964,61.219531999999994
9882,7536 E 4TH AVE,Anchorage,AK,99504,"7536 E 4TH AVE, Anchorage, AK, 99504",Match,Exact,"7536 E 4TH AVE, ANCHORAGE, AK, 99504",190808930,R,02,020,000702,2005,-149.73961,61.218745999999996
9883,7600 E 4TH AVE,Anchorage,AK,99504,"7600 E 4TH AVE, Anchorage, AK, 99504",Match,Exact,"7600 E 4TH AVE, ANCHORAGE, AK, 99504",190808930,R,02,020,000702,2005,-149.73875,61.218745999999996
9884,7600 E 4TH AVE,Anchorage,AK,99504,"7600 E 4TH AVE, Anchorage, AK, 99504",Match,Exact,"7600 E 4TH AVE, ANCHORAGE, AK, 99504",190808930,R,02,020,000702,2005,-149.73875,61.218745999999996
9885,7324 E 4TH AVE,Anchorage,AK,99504,"7324 E 4TH AVE, Anchorage, AK, 99504",Match,Exact,"7324 E 4TH AVE, ANCHORAGE, AK, 99504",190802878,R,02,020,000702,2003,-149.7442,61.218742000000006
9886,7324 E 4TH AVE,Anchorage,AK,99504,"7324 E 4TH AVE, Anchorage, AK, 99504",Match,Exact,"7324 E 4TH AVE, ANCHORAGE, AK, 99504",190802878,R,02,020,000702,2003,-149.7442,61.218742000000006
9887,7324 E 4TH AVE,Anchorage,AK,99504,"7324 E 4TH AVE, Anchorage, AK, 99504",Match,Exact,"7324 E 4TH AVE, ANCHORAGE, AK, 99504",190802878,R,02,020,000702,2003,-149.7442,61.218742000000006
9888,7324 E 4TH AVE,Anchorage,AK,99504,"7324 E 4TH AVE, Anchorage, AK, 99504",Match,Exact,"7324 E 4TH AVE, ANCHORAGE, AK, 99504",190802878,R,02,020,000702,2003,-149.7442,61.218742000000006
9889,7300 E 4TH AVE,Anchorage,AK,99504,"7300 E 4TH AVE, Anchorage, AK, 99504",Match,Exact,"7300 E 4TH AVE, ANCHORAGE, AK, 99504",190802878,R,02,020,000702,2003,-149.74458,61.218742000000006
9890,7300 E 4TH AVE,Anchorage,AK,99504,"7300 E 4TH AVE, Anchorage, AK, 99504",Match,Exact,"7300 E 4TH AVE, ANCHORAGE, AK, 99504",190802878,R,02,020,000702,2003,-149.74458,61.218742000000006
9891,7300 E 4TH AVE,Anchorage,AK,99504,"7300 E 4TH AVE, Anchorage, AK, 99504",Match,Exact,"7300 E 4TH AVE, ANCHORAGE, AK, 99504",190802878,R,02,020,000702,2003,-149.74458,61.218742000000006
9892,7416 E 4TH AVE,Anchorage,AK,99504,"7416 E 4TH AVE, Anchorage, AK, 99504",Match,Exact,"7416 E 4TH AVE, ANCHORAGE, AK, 99504",190802891,R,02,020,000702,2004,-149.74245,61.218742000000006
9893,7404 E 4TH AVE,Anchorage,AK,99504,"7404 E 4TH AVE, Anchorage, AK, 99504",Match,Exact,"7404 E 4TH AVE, ANCHORAGE, AK, 99504",190802891,R,02,020,000702,2004,-149.74265,61.218742000000006
9894,7150 E 4TH AVE,Anchorage,AK,99504,"7150 E 4TH AVE, Anchorage, AK, 99504",Match,Exact,"7150 E 4TH AVE, ANCHORAGE, AK, 99504",190812123,R,02,020,000702,3007,-149.74675,61.218742000000006
9895,383 PEPPERTREE LOOP,Anchorage,AK,99504,"383 PEPPERTREE LOOP, Anchorage, AK, 99504",Match,Exact,"383 PEPPERTREE LOOP, ANCHORAGE, AK, 99504",190826164,L,02,020,000701,1008,-149.76263,61.218982999999994
9896,7220 E 4TH AVE,Anchorage,AK,99504,"7220 E 4TH AVE, Anchorage, AK, 99504",Match,Exact,"7220 E 4TH AVE, ANCHORAGE, AK, 99504",190812123,R,02,020,000702,3007,-149.7459,61.218742000000006
9897,411 PAULINE ST,Anchorage,AK,99504,"411 PAULINE ST, Anchorage, AK, 99504",Match,Exact,"411 PAULINE ST, ANCHORAGE, AK, 99504",190816095,L,02,020,000703,3002,-149.7267,61.21873000000001
9898,6724 E 4TH AVE,Anchorage,AK,99504,"6724 E 4TH AVE, Anchorage, AK, 99504",Match,Exact,"6724 E 4TH AVE, ANCHORAGE, AK, 99504",190802805,R,02,020,000702,3010,-149.75536,61.21875
9899,120 ACES CIR,Anchorage,AK,99504,"120 ACES CIR, Anchorage, AK, 99504",Match,Exact,"120 ACES CIR, ANCHORAGE, AK, 99504",190820032,L,02,020,000702,3003,-149.75117,61.222680000000004
9900,121 ACES CIR,Anchorage,AK,99504,"121 ACES CIR, Anchorage, AK, 99504",Match,Exact,"121 ACES CIR, ANCHORAGE, AK, 99504",190820032,R,02,020,000702,3003,-149.75114,61.222680000000004
9901,122 NANOOK CIR,Anchorage,AK,99504,"122 NANOOK CIR, Anchorage, AK, 99504",Match,Exact,"122 NANOOK CIR, ANCHORAGE, AK, 99504",190820035,L,02,020,000702,3003,-149.74954,61.222669999999994
9902,180 RUSTY ALLEN PL,Anchorage,AK,99504,"180 RUSTY ALLEN PL, Anchorage, AK, 99504",Match,Exact,"180 RUSTY ALLEN PL, ANCHORAGE, AK, 99504",605185494,R,02,020,000701,1000,-149.76065,61.222781999999995
9903,182 RUSTY ALLEN PL,Anchorage,AK,99504,"182 RUSTY ALLEN PL, Anchorage, AK, 99504",Match,Exact,"182 RUSTY ALLEN PL, ANCHORAGE, AK, 99504",605185494,R,02,020,000701,1000,-149.76065,61.222763
9904,184 RUSTY ALLEN PL,Anchorage,AK,99504,"184 RUSTY ALLEN PL, Anchorage, AK, 99504",Match,Exact,"184 RUSTY ALLEN PL, ANCHORAGE, AK, 99504",605185494,R,02,020,000701,1000,-149.76065,61.222747999999996
9905,186 RUSTY ALLEN PL,Anchorage,AK,99504,"186 RUSTY ALLEN PL, Anchorage, AK, 99504",Match,Exact,"186 RUSTY ALLEN PL, ANCHORAGE, AK, 99504",605185494,R,02,020,000701,1000,-149.76065,61.222730000000006
9906,6531 KARA SUE LOOP,Anchorage,AK,99504,"6531 KARA SUE LOOP, Anchorage, AK, 99504",Match,Exact,"6531 KARA SUE LOOP, ANCHORAGE, AK, 99504",605185502,L,02,020,000701,1000,-149.75955,61.22261999999999
9907,190 RUSTY ALLEN PL,Anchorage,AK,99504,"190 RUSTY ALLEN PL, Anchorage, AK, 99504",Match,Exact,"190 RUSTY ALLEN PL, ANCHORAGE, AK, 99504",605185494,R,02,020,000701,1000,-149.76065,61.222694
9908,168 BURTON ST,Anchorage,AK,99504,"168 BURTON ST, Anchorage, AK, 99504",Match,Exact,"168 BURTON ST, ANCHORAGE, AK, 99504",190802857,R,02,020,000702,1006,-149.74196,61.222669999999994
9909,168 BURTON ST,Anchorage,AK,99504,"168 BURTON ST, Anchorage, AK, 99504",Match,Exact,"168 BURTON ST, ANCHORAGE, AK, 99504",190802857,R,02,020,000702,1006,-149.74196,61.222669999999994
9910,168 BURTON ST,Anchorage,AK,99504,"168 BURTON ST, Anchorage, AK, 99504",Match,Exact,"168 BURTON ST, ANCHORAGE, AK, 99504",190802857,R,02,020,000702,1006,-149.74196,61.222669999999994
9911,168 BURTON ST,Anchorage,AK,99504,"168 BURTON ST, Anchorage, AK, 99504",Match,Exact,"168 BURTON ST, ANCHORAGE, AK, 99504",190802857,R,02,020,000702,1006,-149.74196,61.222669999999994
9912,227 NEWELL ST,Anchorage,AK,99504,"227 NEWELL ST, Anchorage, AK, 99504",Match,Exact,"227 NEWELL ST, ANCHORAGE, AK, 99504",605167293,R,02,020,000701,1000,-149.77095,61.222637
9913,350 PEPPERTREE LOOP,Anchorage,AK,99504,"350 PEPPERTREE LOOP, Anchorage, AK, 99504",Match,Exact,"350 PEPPERTREE LOOP, ANCHORAGE, AK, 99504",190826164,R,02,020,000701,1000,-149.76265,61.219390000000004
9914,5901 E 6TH AVE,Anchorage,AK,99504,"5901 E 6TH AVE, Anchorage, AK, 99504",Match,Exact,"5901 E 6TH AVE, ANCHORAGE, AK, 99504",190810852,L,02,020,000701,1000,-149.77061,61.216933999999995
9915,5901 E 6TH AVE,Anchorage,AK,99504,"5901 E 6TH AVE, Anchorage, AK, 99504",Match,Exact,"5901 E 6TH AVE, ANCHORAGE, AK, 99504",190810852,L,02,020,000701,1000,-149.77061,61.216933999999995
9916,5901 E 6TH AVE,Anchorage,AK,99504,"5901 E 6TH AVE, Anchorage, AK, 99504",Match,Exact,"5901 E 6TH AVE, ANCHORAGE, AK, 99504",190810852,L,02,020,000701,1000,-149.77061,61.216933999999995
9917,348 PAULINE ST,Anchorage,AK,99504,"348 PAULINE ST, Anchorage, AK, 99504",Match,Exact,"348 PAULINE ST, ANCHORAGE, AK, 99504",190803255,R,02,020,000703,3007,-149.72673,61.219207999999995
9918,348 PAULINE ST,Anchorage,AK,99504,"348 PAULINE ST, Anchorage, AK, 99504",Match,Exact,"348 PAULINE ST, ANCHORAGE, AK, 99504",190803255,R,02,020,000703,3007,-149.72673,61.219207999999995
9919,324 KRANE DR,Anchorage,AK,99504,"324 KRANE DR, Anchorage, AK, 99504",Match,Exact,"324 KRANE DR, ANCHORAGE, AK, 99504",605167555,L,02,020,000701,2001,-149.7571,61.22011
9920,5901 E 6TH AVE,Anchorage,AK,99504,"5901 E 6TH AVE, Anchorage, AK, 99504",Match,Exact,"5901 E 6TH AVE, ANCHORAGE, AK, 99504",190810852,L,02,020,000701,1000,-149.77061,61.216933999999995
9921,5901 E 6TH AVE,Anchorage,AK,99504,"5901 E 6TH AVE, Anchorage, AK, 99504",Match,Exact,"5901 E 6TH AVE, ANCHORAGE, AK, 99504",190810852,L,02,020,000701,1000,-149.77061,61.216933999999995
9922,5901 E 6TH AVE,Anchorage,AK,99504,"5901 E 6TH AVE, Anchorage, AK, 99504",Match,Exact,"5901 E 6TH AVE, ANCHORAGE, AK, 99504",190810852,L,02,020,000701,1000,-149.77061,61.216933999999995
9923,365 STANDISH ST,Anchorage,AK,99504,"365 STANDISH ST, Anchorage, AK, 99504",Match,Exact,"365 STANDISH ST, ANCHORAGE, AK, 99504",190803259,L,02,020,000703,3013,-149.72523,61.21898
9924,5901 E 6TH AVE,Anchorage,AK,99504,"5901 E 6TH AVE, Anchorage, AK, 99504",Match,Exact,"5901 E 6TH AVE, ANCHORAGE, AK, 99504",190810852,L,02,020,000701,1000,-149.77061,61.216933999999995
9925,5901 E 6TH AVE,Anchorage,AK,99504,"5901 E 6TH AVE, Anchorage, AK, 99504",Match,Exact,"5901 E 6TH AVE, ANCHORAGE, AK, 99504",190810852,L,02,020,000701,1000,-149.77061,61.216933999999995
9926,5901 E 6TH AVE,Anchorage,AK,99504,"5901 E 6TH AVE, Anchorage, AK, 99504",Match,Exact,"5901 E 6TH AVE, ANCHORAGE, AK, 99504",190810852,L,02,020,000701,1000,-149.77061,61.216933999999995
9927,5901 E 6TH AVE,Anchorage,AK,99504,"5901 E 6TH AVE, Anchorage, AK, 99504",Match,Exact,"5901 E 6TH AVE, ANCHORAGE, AK, 99504",190810852,L,02,020,000701,1000,-149.77061,61.216933999999995
9928,5901 E 6TH AVE,Anchorage,AK,99504,"5901 E 6TH AVE, Anchorage, AK, 99504",Match,Exact,"5901 E 6TH AVE, ANCHORAGE, AK, 99504",190810852,L,02,020,000701,1000,-149.77061,61.216933999999995
9929,5901 E 6TH AVE,Anchorage,AK,99504,"5901 E 6TH AVE, Anchorage, AK, 99504",Match,Exact,"5901 E 6TH AVE, ANCHORAGE, AK, 99504",190810852,L,02,020,000701,1000,-149.77061,61.216933999999995
9930,5901 E 6TH AVE,Anchorage,AK,99504,"5901 E 6TH AVE, Anchorage, AK, 99504",Match,Exact,"5901 E 6TH AVE, ANCHORAGE, AK, 99504",190810852,L,02,020,000701,1000,-149.77061,61.216933999999995
9931,364 STANDISH ST,Anchorage,AK,99504,"364 STANDISH ST, Anchorage, AK, 99504",Match,Exact,"364 STANDISH ST, ANCHORAGE, AK, 99504",190803259,R,02,020,000703,3002,-149.72527,61.21898
9932,5901 E 6TH AVE,Anchorage,AK,99504,"5901 E 6TH AVE, Anchorage, AK, 99504",Match,Exact,"5901 E 6TH AVE, ANCHORAGE, AK, 99504",190810852,L,02,020,000701,1000,-149.77061,61.216933999999995
9933,364 EKLUTNA ST,Anchorage,AK,99504,"364 EKLUTNA ST, Anchorage, AK, 99504",Match,Exact,"364 EKLUTNA ST, ANCHORAGE, AK, 99504",190803261,R,02,020,000703,3002,-149.72421,61.22002
9934,301 KRANE DR,Anchorage,AK,99504,"301 KRANE DR, Anchorage, AK, 99504",Match,Exact,"301 KRANE DR, ANCHORAGE, AK, 99504",605167555,R,02,020,000701,2000,-149.75708,61.220413
9935,301 KRANE DR,Anchorage,AK,99504,"301 KRANE DR, Anchorage, AK, 99504",Match,Exact,"301 KRANE DR, ANCHORAGE, AK, 99504",605167555,R,02,020,000701,2000,-149.75708,61.220413
9936,301 KRANE DR,Anchorage,AK,99504,"301 KRANE DR, Anchorage, AK, 99504",Match,Exact,"301 KRANE DR, ANCHORAGE, AK, 99504",605167555,R,02,020,000701,2000,-149.75708,61.220413
9937,301 KRANE DR,Anchorage,AK,99504,"301 KRANE DR, Anchorage, AK, 99504",Match,Exact,"301 KRANE DR, ANCHORAGE, AK, 99504",605167555,R,02,020,000701,2000,-149.75708,61.220413
9938,301 KRANE DR,Anchorage,AK,99504,"301 KRANE DR, Anchorage, AK, 99504",Match,Exact,"301 KRANE DR, ANCHORAGE, AK, 99504",605167555,R,02,020,000701,2000,-149.75708,61.220413
9939,301 KRANE DR,Anchorage,AK,99504,"301 KRANE DR, Anchorage, AK, 99504",Match,Exact,"301 KRANE DR, ANCHORAGE, AK, 99504",605167555,R,02,020,000701,2000,-149.75708,61.220413
9940,301 KRANE DR,Anchorage,AK,99504,"301 KRANE DR, Anchorage, AK, 99504",Match,Exact,"301 KRANE DR, ANCHORAGE, AK, 99504",605167555,R,02,020,000701,2000,-149.75708,61.220413
9941,301 KRANE DR,Anchorage,AK,99504,"301 KRANE DR, Anchorage, AK, 99504",Match,Exact,"301 KRANE DR, ANCHORAGE, AK, 99504",605167555,R,02,020,000701,2000,-149.75708,61.220413
9942,301 KRANE DR,Anchorage,AK,99504,"301 KRANE DR, Anchorage, AK, 99504",Match,Exact,"301 KRANE DR, ANCHORAGE, AK, 99504",605167555,R,02,020,000701,2000,-149.75708,61.220413
9943,301 KRANE DR,Anchorage,AK,99504,"301 KRANE DR, Anchorage, AK, 99504",Match,Exact,"301 KRANE DR, ANCHORAGE, AK, 99504",605167555,R,02,020,000701,2000,-149.75708,61.220413
9944,301 KRANE DR,Anchorage,AK,99504,"301 KRANE DR, Anchorage, AK, 99504",Match,Exact,"301 KRANE DR, ANCHORAGE, AK, 99504",605167555,R,02,020,000701,2000,-149.75708,61.220413
9945,301 KRANE DR,Anchorage,AK,99504,"301 KRANE DR, Anchorage, AK, 99504",Match,Exact,"301 KRANE DR, ANCHORAGE, AK, 99504",605167555,R,02,020,000701,2000,-149.75708,61.220413
9946,330 PAMELA PL,Anchorage,AK,99504,"330 PAMELA PL, Anchorage, AK, 99504",Match,Exact,"330 PAMELA PL, ANCHORAGE, AK, 99504",190802889,R,02,020,000702,2002,-149.7421,61.220380000000006
9947,360 DANNILYN CIR,Anchorage,AK,99504,"360 DANNILYN CIR, Anchorage, AK, 99504",Match,Exact,"360 DANNILYN CIR, ANCHORAGE, AK, 99504",190808935,R,02,020,000702,2002,-149.74374,61.220264
9948,361 DANNILYN CIR,Anchorage,AK,99504,"361 DANNILYN CIR, Anchorage, AK, 99504",Match,Exact,"361 DANNILYN CIR, ANCHORAGE, AK, 99504",190808935,L,02,020,000702,2002,-149.74373,61.220264
9949,330 BOLIN ST,Anchorage,AK,99504,"330 BOLIN ST, Anchorage, AK, 99504",Match,Exact,"330 BOLIN ST, ANCHORAGE, AK, 99504",190803336,R,02,020,000703,3001,-149.71944,61.220130000000005
9950,336 PAMELA PL,Anchorage,AK,99504,"336 PAMELA PL, Anchorage, AK, 99504",Match,Exact,"336 PAMELA PL, ANCHORAGE, AK, 99504",190802889,R,02,020,000702,2002,-149.7421,61.220352
9951,329 GAYLENE CIR,Anchorage,AK,99504,"329 GAYLENE CIR, Anchorage, AK, 99504",Match,Exact,"329 GAYLENE CIR, ANCHORAGE, AK, 99504",190803322,L,02,020,000703,3001,-149.72128,61.220417000000005
9952,360 VILLA CIR,Anchorage,AK,99504,"360 VILLA CIR, Anchorage, AK, 99504",Match,Exact,"360 VILLA CIR, ANCHORAGE, AK, 99504",190816175,R,02,020,000702,2002,-149.74007,61.220264
9953,7131 SHOORESIN CIR,Anchorage,AK,99504,"7131 SHOORESIN CIR, Anchorage, AK, 99504",Match,Exact,"7131 SHOORESIN CIR, ANCHORAGE, AK, 99504",190802870,R,02,020,000702,3007,-149.74815,61.22005
9954,4702 KENAI AVE,Anchorage,AK,99508,"4702 KENAI AVE, Anchorage, AK, 99508",Match,Exact,"4702 KENAI AVE, ANCHORAGE, AK, 99508",624908526,R,02,020,000801,4004,-149.79214,61.220127000000005
9955,405 CAMELOT DR,Anchorage,AK,99508,"405 CAMELOT DR, Anchorage, AK, 99508",Match,Exact,"405 CAMELOT DR, ANCHORAGE, AK, 99508",190801979,L,02,020,000801,4000,-149.7815,61.219563
9956,213 PEPPERTREE LOOP,Anchorage,AK,99504,"213 PEPPERTREE LOOP, Anchorage, AK, 99504",Match,Exact,"213 PEPPERTREE LOOP, ANCHORAGE, AK, 99504",190826164,L,02,020,000701,1008,-149.76057,61.2201
9957,317 STATE ST,Anchorage,AK,99504,"317 STATE ST, Anchorage, AK, 99504",Match,Exact,"317 STATE ST, ANCHORAGE, AK, 99504",190807391,L,02,020,000703,3005,-149.73131,61.220158
9958,317 STATE ST,Anchorage,AK,99504,"317 STATE ST, Anchorage, AK, 99504",Match,Exact,"317 STATE ST, ANCHORAGE, AK, 99504",190807391,L,02,020,000703,3005,-149.73131,61.220158
9959,331 BOLIN ST,Anchorage,AK,99504,"331 BOLIN ST, Anchorage, AK, 99504",Match,Exact,"331 BOLIN ST, ANCHORAGE, AK, 99504",190803336,L,02,020,000703,3000,-149.7194,61.220130000000005
9960,331 BOLIN ST,Anchorage,AK,99504,"331 BOLIN ST, Anchorage, AK, 99504",Match,Exact,"331 BOLIN ST, ANCHORAGE, AK, 99504",190803336,L,02,020,000703,3000,-149.7194,61.220130000000005
9961,6441 PEPPERTREE CIR,Anchorage,AK,99504,"6441 PEPPERTREE CIR, Anchorage, AK, 99504",Match,Exact,"6441 PEPPERTREE CIR, ANCHORAGE, AK, 99504",190808603,R,02,020,000701,1008,-149.76051,61.21911
9962,374 EKLUTNA ST,Anchorage,AK,99504,"374 EKLUTNA ST, Anchorage, AK, 99504",Match,Exact,"374 EKLUTNA ST, ANCHORAGE, AK, 99504",190803261,R,02,020,000703,3002,-149.72421,61.21994
9963,373 PATTERSON ST,Anchorage,AK,99504,"373 PATTERSON ST, Anchorage, AK, 99504",No_Match,,,,,,,,,,
9964,400 CHERRY ST,Anchorage,AK,99504,"400 CHERRY ST, Anchorage, AK, 99504",Match,Exact,"400 CHERRY ST, ANCHORAGE, AK, 99504",190803319,R,02,020,000703,3012,-149.72224,61.218796
9965,334 KRANE DR,Anchorage,AK,99504,"334 KRANE DR, Anchorage, AK, 99504",Match,Exact,"334 KRANE DR, ANCHORAGE, AK, 99504",605167555,L,02,020,000701,2001,-149.7571,61.219986
9966,401 CHERRY ST,Anchorage,AK,99504,"401 CHERRY ST, Anchorage, AK, 99504",Match,Exact,"401 CHERRY ST, ANCHORAGE, AK, 99504",190803319,L,02,020,000703,3000,-149.72223,61.21913000000001
9967,381 PAULINE ST,Anchorage,AK,99504,"381 PAULINE ST, Anchorage, AK, 99504",Match,Exact,"381 PAULINE ST, ANCHORAGE, AK, 99504",190803255,L,02,020,000703,3002,-149.7267,61.21913000000001
9968,381 PAULINE ST,Anchorage,AK,99504,"381 PAULINE ST, Anchorage, AK, 99504",Match,Exact,"381 PAULINE ST, ANCHORAGE, AK, 99504",190803255,L,02,020,000703,3002,-149.7267,61.21913000000001
9969,5901 E 6TH AVE,Anchorage,AK,99504,"5901 E 6TH AVE, Anchorage, AK, 99504",Match,Exact,"5901 E 6TH AVE, ANCHORAGE, AK, 99504",190810852,L,02,020,000701,1000,-149.77061,61.216933999999995
9970,5901 E 6TH AVE,Anchorage,AK,99504,"5901 E 6TH AVE, Anchorage, AK, 99504",Match,Exact,"5901 E 6TH AVE, ANCHORAGE, AK, 99504",190810852,L,02,020,000701,1000,-149.77061,61.216933999999995
9971,5901 E 6TH AVE,Anchorage,AK,99504,"5901 E 6TH AVE, Anchorage, AK, 99504",Match,Exact,"5901 E 6TH AVE, ANCHORAGE, AK, 99504",190810852,L,02,020,000701,1000,-149.77061,61.216933999999995
9972,5901 E 6TH AVE,Anchorage,AK,99504,"5901 E 6TH AVE, Anchorage, AK, 99504",Match,Exact,"5901 E 6TH AVE, ANCHORAGE, AK, 99504",190810852,L,02,020,000701,1000,-149.77061,61.216933999999995
9973,5901 E 6TH AVE,Anchorage,AK,99504,"5901 E 6TH AVE, Anchorage, AK, 99504",Match,Exact,"5901 E 6TH AVE, ANCHORAGE, AK, 99504",190810852,L,02,020,000701,1000,-149.77061,61.216933999999995
9974,5901 E 6TH AVE,Anchorage,AK,99504,"5901 E 6TH AVE, Anchorage, AK, 99504",Match,Exact,"5901 E 6TH AVE, ANCHORAGE, AK, 99504",190810852,L,02,020,000701,1000,-149.77061,61.216933999999995
9975,5901 E 6TH AVE,Anchorage,AK,99504,"5901 E 6TH AVE, Anchorage, AK, 99504",Match,Exact,"5901 E 6TH AVE, ANCHORAGE, AK, 99504",190810852,L,02,020,000701,1000,-149.77061,61.216933999999995
9976,5901 E 6TH AVE,Anchorage,AK,99504,"5901 E 6TH AVE, Anchorage, AK, 99504",Match,Exact,"5901 E 6TH AVE, ANCHORAGE, AK, 99504",190810852,L,02,020,000701,1000,-149.77061,61.216933999999995
9977,7731 E 4TH AVE,Anchorage,AK,99504,"7731 E 4TH AVE, Anchorage, AK, 99504",Match,Exact,"7731 E 4TH AVE, ANCHORAGE, AK, 99504",190802903,L,02,020,000702,2002,-149.73662,61.218757999999994
9978,7729 E 4TH AVE,Anchorage,AK,99504,"7729 E 4TH AVE, Anchorage, AK, 99504",Match,Exact,"7729 E 4TH AVE, ANCHORAGE, AK, 99504",190802903,L,02,020,000702,2002,-149.73665,61.218757999999994
9979,7727 E 4TH AVE,Anchorage,AK,99504,"7727 E 4TH AVE, Anchorage, AK, 99504",Match,Exact,"7727 E 4TH AVE, ANCHORAGE, AK, 99504",190802903,L,02,020,000702,2002,-149.73668,61.218757999999994
9980,7623 E 4TH AVE,Anchorage,AK,99504,"7623 E 4TH AVE, Anchorage, AK, 99504",Match,Exact,"7623 E 4TH AVE, ANCHORAGE, AK, 99504",190808930,L,02,020,000702,2002,-149.7393,61.218757999999994
9981,7623 E 4TH AVE,Anchorage,AK,99504,"7623 E 4TH AVE, Anchorage, AK, 99504",Match,Exact,"7623 E 4TH AVE, ANCHORAGE, AK, 99504",190808930,L,02,020,000702,2002,-149.7393,61.218757999999994
9982,7623 E 4TH AVE,Anchorage,AK,99504,"7623 E 4TH AVE, Anchorage, AK, 99504",Match,Exact,"7623 E 4TH AVE, ANCHORAGE, AK, 99504",190808930,L,02,020,000702,2002,-149.7393,61.218757999999994
9983,7623 E 4TH AVE,Anchorage,AK,99504,"7623 E 4TH AVE, Anchorage, AK, 99504",Match,Exact,"7623 E 4TH AVE, ANCHORAGE, AK, 99504",190808930,L,02,020,000702,2002,-149.7393,61.218757999999994
9984,7725 E 4TH AVE,Anchorage,AK,99504,"7725 E 4TH AVE, Anchorage, AK, 99504",Match,Exact,"7725 E 4TH AVE, ANCHORAGE, AK, 99504",190802903,L,02,020,000702,2002,-149.73671000000002,61.218757999999994
9985,7723 E 4TH AVE,Anchorage,AK,99504,"7723 E 4TH AVE, Anchorage, AK, 99504",Match,Exact,"7723 E 4TH AVE, ANCHORAGE, AK, 99504",190802903,L,02,020,000702,2002,-149.73676,61.218757999999994
9986,7709 E 4TH AVE,Anchorage,AK,99504,"7709 E 4TH AVE, Anchorage, AK, 99504",Match,Exact,"7709 E 4TH AVE, ANCHORAGE, AK, 99504",190802903,L,02,020,000702,2002,-149.73696999999999,61.218757999999994
9987,5901 E 6TH AVE,Anchorage,AK,99504,"5901 E 6TH AVE, Anchorage, AK, 99504",Match,Exact,"5901 E 6TH AVE, ANCHORAGE, AK, 99504",190810852,L,02,020,000701,1000,-149.77061,61.216933999999995
9988,7617 E 4TH AVE,Anchorage,AK,99504,"7617 E 4TH AVE, Anchorage, AK, 99504",Match,Exact,"7617 E 4TH AVE, ANCHORAGE, AK, 99504",190808930,L,02,020,000702,2002,-149.73946,61.218757999999994
9989,7617 E 4TH AVE,Anchorage,AK,99504,"7617 E 4TH AVE, Anchorage, AK, 99504",Match,Exact,"7617 E 4TH AVE, ANCHORAGE, AK, 99504",190808930,L,02,020,000702,2002,-149.73946,61.218757999999994
9990,5901 E 6TH AVE,Anchorage,AK,99504,"5901 E 6TH AVE, Anchorage, AK, 99504",Match,Exact,"5901 E 6TH AVE, ANCHORAGE, AK, 99504",190810852,L,02,020,000701,1000,-149.77061,61.216933999999995
9991,7341 E 4TH AVE,Anchorage,AK,99504,"7341 E 4TH AVE, Anchorage, AK, 99504",Match,Exact,"7341 E 4TH AVE, ANCHORAGE, AK, 99504",190802878,L,02,020,000702,2002,-149.74393999999998,61.218754000000004
9992,7331 E 4TH AVE,Anchorage,AK,99504,"7331 E 4TH AVE, Anchorage, AK, 99504",Match,Exact,"7331 E 4TH AVE, ANCHORAGE, AK, 99504",190802878,L,02,020,000702,2002,-149.7441,61.218754000000004
9993,400 STATE ST,Anchorage,AK,99504,"400 STATE ST, Anchorage, AK, 99504",Match,Exact,"400 STATE ST, ANCHORAGE, AK, 99504",190803230,R,02,020,000703,3008,-149.73131999999998,61.218796
9994,400 STATE ST,Anchorage,AK,99504,"400 STATE ST, Anchorage, AK, 99504",Match,Exact,"400 STATE ST, ANCHORAGE, AK, 99504",190803230,R,02,020,000703,3008,-149.73131999999998,61.218796
9995,7321 E 4TH AVE,Anchorage,AK,99504,"7321 E 4TH AVE, Anchorage, AK, 99504",Match,Exact,"7321 E 4TH AVE, ANCHORAGE, AK, 99504",190802878,L,02,020,000702,2002,-149.74426,61.218754000000004
9996,7321 E 4TH AVE,Anchorage,AK,99504,"7321 E 4TH AVE, Anchorage, AK, 99504",Match,Exact,"7321 E 4TH AVE, ANCHORAGE, AK, 99504",190802878,L,02,020,000702,2002,-149.74426,61.218754000000004
9997,7309 E 4TH AVE,Anchorage,AK,99504,"7309 E 4TH AVE, Anchorage, AK, 99504",Match,Exact,"7309 E 4TH AVE, ANCHORAGE, AK, 99504",190802878,L,02,020,000702,2002,-149.74446,61.218754000000004
9998,7123 E 4TH AVE,Anchorage,AK,99504,"7123 E 4TH AVE, Anchorage, AK, 99504",Match,Exact,"7123 E 4TH AVE, ANCHORAGE, AK, 99504",190812123,L,02,020,000702,3007,-149.7471,61.218754000000004
9999,7139 E 4TH AVE,Anchorage,AK,99504,"7139 E 4TH AVE, Anchorage, AK, 99504",Match,Exact,"7139 E 4TH AVE, ANCHORAGE, AK, 99504",190812123,L,02,020,000702,3007,-149.7469,61.218754000000004
