id,address_x,city,state_x,postcode,address_y,result,match_type,address_match,tiger,side,state_y,county,tract,block,lat,long
6000,8500 BOUNDARY AVE,Anchorage,AK,99504,"8500 BOUNDARY AVE, Anchorage, AK, 99504",Match,Exact,"8500 BOUNDARY AVE, ANCHORAGE, AK, 99504",639710376,R,02,020,000703,1011,-149.72287,61.224136
6001,8500 BOUNDARY AVE,Anchorage,AK,99504,"8500 BOUNDARY AVE, Anchorage, AK, 99504",Match,Exact,"8500 BOUNDARY AVE, ANCHORAGE, AK, 99504",639710376,R,02,020,000703,1011,-149.72287,61.224136
6002,8632 BOUNDARY AVE,Anchorage,AK,99504,"8632 BOUNDARY AVE, Anchorage, AK, 99504",Match,Exact,"8632 BOUNDARY AVE, ANCHORAGE, AK, 99504",639710376,R,02,020,000703,1011,-149.72061000000002,61.224136
6003,8632 BOUNDARY AVE,Anchorage,AK,99504,"8632 BOUNDARY AVE, Anchorage, AK, 99504",Match,Exact,"8632 BOUNDARY AVE, ANCHORAGE, AK, 99504",639710376,R,02,020,000703,1011,-149.72061000000002,61.224136
6004,8632 BOUNDARY AVE,Anchorage,AK,99504,"8632 BOUNDARY AVE, Anchorage, AK, 99504",Match,Exact,"8632 BOUNDARY AVE, ANCHORAGE, AK, 99504",639710376,R,02,020,000703,1011,-149.72061000000002,61.224136
6005,8632 BOUNDARY AVE,Anchorage,AK,99504,"8632 BOUNDARY AVE, Anchorage, AK, 99504",Match,Exact,"8632 BOUNDARY AVE, ANCHORAGE, AK, 99504",639710376,R,02,020,000703,1011,-149.72061000000002,61.224136
6006,8632 BOUNDARY AVE,Anchorage,AK,99504,"8632 BOUNDARY AVE, Anchorage, AK, 99504",Match,Exact,"8632 BOUNDARY AVE, ANCHORAGE, AK, 99504",639710376,R,02,020,000703,1011,-149.72061000000002,61.224136
6007,8632 BOUNDARY AVE,Anchorage,AK,99504,"8632 BOUNDARY AVE, Anchorage, AK, 99504",Match,Exact,"8632 BOUNDARY AVE, ANCHORAGE, AK, 99504",639710376,R,02,020,000703,1011,-149.72061000000002,61.224136
6008,20730 MOUNTAINSIDE DR,Anchorage,AK,99577,"20730 MOUNTAINSIDE DR, Anchorage, AK, 99577",Match,Non_Exact,"20730 MOUNTAINSIDE DR, EAGLE RIVER, AK, 99577",625731930,R,02,020,000203,3000,-149.49612,61.301838000000004
6009,18324 CACHE CREEK CIR,Anchorage,AK,99577,"18324 CACHE CREEK CIR, Anchorage, AK, 99577",Match,Non_Exact,"18324 CACHE CREEK CIR, EAGLE RIVER, AK, 99577",190805556,R,02,020,000203,5004,-149.54093999999998,61.301880000000004
6010,18334 CACHE CREEK CIR,Anchorage,AK,99577,"18334 CACHE CREEK CIR, Anchorage, AK, 99577",Match,Non_Exact,"18334 CACHE CREEK CIR, EAGLE RIVER, AK, 99577",190805556,R,02,020,000203,5004,-149.54085,61.30189
6011,18831 KATELYN CIR,Anchorage,AK,99577,"18831 KATELYN CIR, Anchorage, AK, 99577",Match,Non_Exact,"18831 KATELYN CIR, EAGLE RIVER, AK, 99577",190818650,R,02,020,000203,3021,-149.5313,61.301883999999994
6012,20742 MOUNTAINSIDE DR,Anchorage,AK,99577,"20742 MOUNTAINSIDE DR, Anchorage, AK, 99577",Match,Non_Exact,"20742 MOUNTAINSIDE DR, EAGLE RIVER, AK, 99577",625731930,R,02,020,000203,3000,-149.49591,61.301815000000005
6013,20754 MOUNTAINSIDE DR,Anchorage,AK,99577,"20754 MOUNTAINSIDE DR, Anchorage, AK, 99577",Match,Non_Exact,"20754 MOUNTAINSIDE DR, EAGLE RIVER, AK, 99577",625731930,R,02,020,000203,3000,-149.4957,61.301792000000006
6014,20766 MOUNTAINSIDE DR,Anchorage,AK,99577,"20766 MOUNTAINSIDE DR, Anchorage, AK, 99577",Match,Non_Exact,"20766 MOUNTAINSIDE DR, EAGLE RIVER, AK, 99577",625731930,R,02,020,000203,3000,-149.49548000000001,61.30177
6015,20778 MOUNTAINSIDE DR,Anchorage,AK,99577,"20778 MOUNTAINSIDE DR, Anchorage, AK, 99577",Match,Non_Exact,"20778 MOUNTAINSIDE DR, EAGLE RIVER, AK, 99577",625731930,R,02,020,000203,3000,-149.49527,61.301743
6016,20802 MOUNTAINSIDE DR,Anchorage,AK,99577,"20802 MOUNTAINSIDE DR, Anchorage, AK, 99577",Match,Non_Exact,"20802 MOUNTAINSIDE DR, EAGLE RIVER, AK, 99577",625731930,R,02,020,000203,3000,-149.49483999999998,61.301697
6017,20790 MOUNTAINSIDE DR,Anchorage,AK,99577,"20790 MOUNTAINSIDE DR, Anchorage, AK, 99577",Match,Non_Exact,"20790 MOUNTAINSIDE DR, EAGLE RIVER, AK, 99577",625731930,R,02,020,000203,3000,-149.49506,61.301719999999996
6018,20814 MOUNTAINSIDE DR,Anchorage,AK,99577,"20814 MOUNTAINSIDE DR, Anchorage, AK, 99577",Match,Non_Exact,"20814 MOUNTAINSIDE DR, EAGLE RIVER, AK, 99577",625731930,R,02,020,000203,3000,-149.49463,61.30171
6019,18591 JUDE ISLAND CIR,Anchorage,AK,99577,"18591 JUDE ISLAND CIR, Anchorage, AK, 99577",Match,Non_Exact,"18591 JUDE ISLAND CIR, EAGLE RIVER, AK, 99577",190805567,R,02,020,000203,3014,-149.53603,61.301735
6020,8970 NORTHWOOD PARK CIR,Anchorage,AK,99577,"8970 NORTHWOOD PARK CIR, Anchorage, AK, 99577",Match,Non_Exact,"8970 NORTHWOOD PARK CIR, EAGLE RIVER, AK, 99577",190819645,L,02,020,000203,3022,-149.51741,61.301483
6021,8964 NORTHWOOD PARK CIR,Anchorage,AK,99577,"8964 NORTHWOOD PARK CIR, Anchorage, AK, 99577",Match,Non_Exact,"8964 NORTHWOOD PARK CIR, EAGLE RIVER, AK, 99577",190819645,L,02,020,000203,3022,-149.51748999999998,61.30143399999999
6022,8974 NORTHWOOD PARK CIR,Anchorage,AK,99577,"8974 NORTHWOOD PARK CIR, Anchorage, AK, 99577",Match,Non_Exact,"8974 NORTHWOOD PARK CIR, EAGLE RIVER, AK, 99577",190819645,L,02,020,000203,3022,-149.51735,61.301514000000005
6023,177 MICHEAL CT,Anchorage,AK,99504,"177 MICHEAL CT, Anchorage, AK, 99504",Match,Non_Exact,"177 MICHAEL CT, ANCHORAGE, AK, 99504",190812116,R,02,020,000702,2000,-149.73819,61.222606999999996
6024,177 MICHEAL CT,Anchorage,AK,99504,"177 MICHEAL CT, Anchorage, AK, 99504",Match,Non_Exact,"177 MICHAEL CT, ANCHORAGE, AK, 99504",190812116,R,02,020,000702,2000,-149.73819,61.222606999999996
6025,177 MICHEAL CT,Anchorage,AK,99504,"177 MICHEAL CT, Anchorage, AK, 99504",Match,Non_Exact,"177 MICHAEL CT, ANCHORAGE, AK, 99504",190812116,R,02,020,000702,2000,-149.73819,61.222606999999996
6026,177 MICHEAL CT,Anchorage,AK,99504,"177 MICHEAL CT, Anchorage, AK, 99504",Match,Non_Exact,"177 MICHAEL CT, ANCHORAGE, AK, 99504",190812116,R,02,020,000702,2000,-149.73819,61.222606999999996
6027,177 MICHEAL CT,Anchorage,AK,99504,"177 MICHEAL CT, Anchorage, AK, 99504",Match,Non_Exact,"177 MICHAEL CT, ANCHORAGE, AK, 99504",190812116,R,02,020,000702,2000,-149.73819,61.222606999999996
6028,177 MICHEAL CT,Anchorage,AK,99504,"177 MICHEAL CT, Anchorage, AK, 99504",Match,Non_Exact,"177 MICHAEL CT, ANCHORAGE, AK, 99504",190812116,R,02,020,000702,2000,-149.73819,61.222606999999996
6029,177 MICHEAL CT,Anchorage,AK,99504,"177 MICHEAL CT, Anchorage, AK, 99504",Match,Non_Exact,"177 MICHAEL CT, ANCHORAGE, AK, 99504",190812116,R,02,020,000702,2000,-149.73819,61.222606999999996
6030,177 MICHEAL CT,Anchorage,AK,99504,"177 MICHEAL CT, Anchorage, AK, 99504",Match,Non_Exact,"177 MICHAEL CT, ANCHORAGE, AK, 99504",190812116,R,02,020,000702,2000,-149.73819,61.222606999999996
6031,6800 ALL STAR CIR,Anchorage,AK,99504,"6800 ALL STAR CIR, Anchorage, AK, 99504",Match,Exact,"6800 ALL STAR CIR, ANCHORAGE, AK, 99504",190819820,L,02,020,000702,3002,-149.7543,61.22275500000001
6032,7786 BOUNDARY AVE,Anchorage,AK,99504,"7786 BOUNDARY AVE, Anchorage, AK, 99504",Match,Exact,"7786 BOUNDARY AVE, ANCHORAGE, AK, 99504",605167189,R,02,020,000702,2000,-149.73606999999998,61.224169999999994
6033,7790 BOUNDARY AVE,Anchorage,AK,99504,"7790 BOUNDARY AVE, Anchorage, AK, 99504",Match,Exact,"7790 BOUNDARY AVE, ANCHORAGE, AK, 99504",605167189,R,02,020,000702,2000,-149.73602,61.224169999999994
6034,205 DAVIS ST,Anchorage,AK,99508,"205 DAVIS ST, Anchorage, AK, 99508",Match,Exact,"205 DAVIS ST, ANCHORAGE, AK, 99508",190801935,L,02,020,000801,3005,-149.78607,61.222736
6035,170 JELINEK PL,Anchorage,AK,99504,"170 JELINEK PL, Anchorage, AK, 99504",Match,Exact,"170 JELINEK PL, ANCHORAGE, AK, 99504",190803206,R,02,020,000703,2000,-149.72508,61.222942
6036,194 RUSTY ALLEN PL,Anchorage,AK,99504,"194 RUSTY ALLEN PL, Anchorage, AK, 99504",Match,Exact,"194 RUSTY ALLEN PL, ANCHORAGE, AK, 99504",605185494,R,02,020,000701,1000,-149.76064,61.22265600000001
6037,200 BUNNELL ST,Anchorage,AK,99508,"200 BUNNELL ST, Anchorage, AK, 99508",Match,Exact,"200 BUNNELL ST, ANCHORAGE, AK, 99508",190801681,R,02,020,000801,2005,-149.78973,61.222725
6038,187 OKLAHOMA ST,Anchorage,AK,99504,"187 OKLAHOMA ST, Anchorage, AK, 99504",Match,Exact,"187 OKLAHOMA ST, ANCHORAGE, AK, 99504",190802853,L,02,020,000702,1006,-149.74477,61.222893000000006
6039,187 OKLAHOMA ST,Anchorage,AK,99504,"187 OKLAHOMA ST, Anchorage, AK, 99504",Match,Exact,"187 OKLAHOMA ST, ANCHORAGE, AK, 99504",190802853,L,02,020,000702,1006,-149.74477,61.222893000000006
6040,227 GRAND LARRY ST,Anchorage,AK,99504,"227 GRAND LARRY ST, Anchorage, AK, 99504",Match,Exact,"227 GRAND LARRY ST, ANCHORAGE, AK, 99504",190803200,L,02,020,000703,2003,-149.72975,61.22184
6041,227 GRAND LARRY ST,Anchorage,AK,99504,"227 GRAND LARRY ST, Anchorage, AK, 99504",Match,Exact,"227 GRAND LARRY ST, ANCHORAGE, AK, 99504",190803200,L,02,020,000703,2003,-149.72975,61.22184
6042,227 GRAND LARRY ST,Anchorage,AK,99504,"227 GRAND LARRY ST, Anchorage, AK, 99504",Match,Exact,"227 GRAND LARRY ST, ANCHORAGE, AK, 99504",190803200,L,02,020,000703,2003,-149.72975,61.22184
6043,221 FIREOVED DR,Anchorage,AK,99508,"221 FIREOVED DR, Anchorage, AK, 99508",Match,Exact,"221 FIREOVED DR, ANCHORAGE, AK, 99508",643733471,L,02,020,000801,3008,-149.78268,61.222027000000004
6044,225 RED LEAF CIR,Anchorage,AK,99504,"225 RED LEAF CIR, Anchorage, AK, 99504",Match,Exact,"225 RED LEAF CIR, ANCHORAGE, AK, 99504",190803306,R,02,020,000703,1013,-149.7213,61.22224
6045,221 PATTERSON ST,Anchorage,AK,99504,"221 PATTERSON ST, Anchorage, AK, 99504",Match,Exact,"221 PATTERSON ST, ANCHORAGE, AK, 99504",190802844,L,02,020,000702,2007,-149.7485,61.221954000000004
6046,221 PATTERSON ST,Anchorage,AK,99504,"221 PATTERSON ST, Anchorage, AK, 99504",Match,Exact,"221 PATTERSON ST, ANCHORAGE, AK, 99504",190802844,L,02,020,000702,2007,-149.7485,61.221954000000004
6047,209 STEWART ST,Anchorage,AK,99508,"209 STEWART ST, Anchorage, AK, 99508",Match,Exact,"209 STEWART ST, ANCHORAGE, AK, 99508",190801687,L,02,020,000801,2003,-149.78789,61.222637
6048,209 STEWART ST,Anchorage,AK,99508,"209 STEWART ST, Anchorage, AK, 99508",Match,Exact,"209 STEWART ST, ANCHORAGE, AK, 99508",190801687,L,02,020,000801,2003,-149.78789,61.222637
6049,225 ORANGE LEAF CIR,Anchorage,AK,99504,"225 ORANGE LEAF CIR, Anchorage, AK, 99504",Match,Exact,"225 ORANGE LEAF CIR, ANCHORAGE, AK, 99504",190803309,R,02,020,000703,1013,-149.71941999999999,61.22224
6050,8330 PECK AVE,Anchorage,AK,99504,"8330 PECK AVE, Anchorage, AK, 99504",Match,Exact,"8330 PECK AVE, ANCHORAGE, AK, 99504",190812129,R,02,020,000703,1013,-149.7249,61.22237
6051,208 BUNNELL ST,Anchorage,AK,99508,"208 BUNNELL ST, Anchorage, AK, 99508",Match,Exact,"208 BUNNELL ST, ANCHORAGE, AK, 99508",190801681,R,02,020,000801,2005,-149.78973,61.222637
6052,224 RED LEAF CIR,Anchorage,AK,99504,"224 RED LEAF CIR, Anchorage, AK, 99504",Match,Exact,"224 RED LEAF CIR, ANCHORAGE, AK, 99504",190803306,L,02,020,000703,1013,-149.72131000000002,61.22224
6053,209 BUNNELL ST,Anchorage,AK,99508,"209 BUNNELL ST, Anchorage, AK, 99508",Match,Exact,"209 BUNNELL ST, ANCHORAGE, AK, 99508",190801681,L,02,020,000801,2004,-149.7897,61.222637
6054,224 ORANGE LEAF CIR,Anchorage,AK,99504,"224 ORANGE LEAF CIR, Anchorage, AK, 99504",Match,Exact,"224 ORANGE LEAF CIR, ANCHORAGE, AK, 99504",190803309,L,02,020,000703,1013,-149.71944,61.22224
6055,208 STEWART ST,Anchorage,AK,99508,"208 STEWART ST, Anchorage, AK, 99508",Match,Exact,"208 STEWART ST, ANCHORAGE, AK, 99508",190801687,R,02,020,000801,2004,-149.78791999999999,61.222637
6056,227 NEWELL ST,Anchorage,AK,99504,"227 NEWELL ST, Anchorage, AK, 99504",Match,Exact,"227 NEWELL ST, ANCHORAGE, AK, 99504",605167293,R,02,020,000701,1000,-149.77095,61.222637
6057,6690 WHISPERING LOOP,Anchorage,AK,99504,"6690 WHISPERING LOOP, Anchorage, AK, 99504",Match,Exact,"6690 WHISPERING LOOP, ANCHORAGE, AK, 99504",624788736,L,02,020,000701,1000,-149.75708,61.221626
6058,277 WHISPER KNOLL CIR,Anchorage,AK,99504,"277 WHISPER KNOLL CIR, Anchorage, AK, 99504",Match,Exact,"277 WHISPER KNOLL CIR, ANCHORAGE, AK, 99504",605185014,L,02,020,000701,1013,-149.76088000000001,61.2219
6059,277 WHISPER KNOLL CIR,Anchorage,AK,99504,"277 WHISPER KNOLL CIR, Anchorage, AK, 99504",Match,Exact,"277 WHISPER KNOLL CIR, ANCHORAGE, AK, 99504",605185014,L,02,020,000701,1013,-149.76088000000001,61.2219
6060,234 MULDOON RD,Anchorage,AK,99504,"234 MULDOON RD, Anchorage, AK, 99504",Match,Exact,"234 MULDOON RD, ANCHORAGE, AK, 99504",190803191,R,02,020,000702,2000,-149.73352,61.2217
6061,6342 WHISPERING LOOP,Anchorage,AK,99504,"6342 WHISPERING LOOP, Anchorage, AK, 99504",Match,Exact,"6342 WHISPERING LOOP, ANCHORAGE, AK, 99504",624788733,R,02,020,000701,1000,-149.76253,61.22175
6062,6342 WHISPERING LOOP,Anchorage,AK,99504,"6342 WHISPERING LOOP, Anchorage, AK, 99504",Match,Exact,"6342 WHISPERING LOOP, ANCHORAGE, AK, 99504",624788733,R,02,020,000701,1000,-149.76253,61.22175
6063,220 MC CARREY ST,Anchorage,AK,99508,"220 MC CARREY ST, Anchorage, AK, 99508",Match,Exact,"220 MC CARREY ST, ANCHORAGE, AK, 99508",624266929,R,02,020,000801,1000,-149.79207,61.222159999999995
6064,220 MC CARREY ST,Anchorage,AK,99508,"220 MC CARREY ST, Anchorage, AK, 99508",Match,Exact,"220 MC CARREY ST, ANCHORAGE, AK, 99508",624266929,R,02,020,000801,1000,-149.79207,61.222159999999995
6065,220 MC CARREY ST,Anchorage,AK,99508,"220 MC CARREY ST, Anchorage, AK, 99508",Match,Exact,"220 MC CARREY ST, ANCHORAGE, AK, 99508",624266929,R,02,020,000801,1000,-149.79207,61.222159999999995
6066,220 MC CARREY ST,Anchorage,AK,99508,"220 MC CARREY ST, Anchorage, AK, 99508",Match,Exact,"220 MC CARREY ST, ANCHORAGE, AK, 99508",624266929,R,02,020,000801,1000,-149.79207,61.222159999999995
6067,258 FIREOVED DR,Anchorage,AK,99508,"258 FIREOVED DR, Anchorage, AK, 99508",Match,Exact,"258 FIREOVED DR, ANCHORAGE, AK, 99508",643733471,R,02,020,000801,3009,-149.7832,61.221793999999996
6068,8427 DUBEN AVE,Anchorage,AK,99504,"8427 DUBEN AVE, Anchorage, AK, 99504",Match,Exact,"8427 DUBEN AVE, ANCHORAGE, AK, 99504",605183645,L,02,020,000703,1013,-149.72293,61.22062
6069,8427 DUBEN AVE,Anchorage,AK,99504,"8427 DUBEN AVE, Anchorage, AK, 99504",Match,Exact,"8427 DUBEN AVE, ANCHORAGE, AK, 99504",605183645,L,02,020,000703,1013,-149.72293,61.22062
6070,8427 DUBEN AVE,Anchorage,AK,99504,"8427 DUBEN AVE, Anchorage, AK, 99504",Match,Exact,"8427 DUBEN AVE, ANCHORAGE, AK, 99504",605183645,L,02,020,000703,1013,-149.72293,61.22062
6071,8427 DUBEN AVE,Anchorage,AK,99504,"8427 DUBEN AVE, Anchorage, AK, 99504",Match,Exact,"8427 DUBEN AVE, ANCHORAGE, AK, 99504",605183645,L,02,020,000703,1013,-149.72293,61.22062
6072,8427 DUBEN AVE,Anchorage,AK,99504,"8427 DUBEN AVE, Anchorage, AK, 99504",Match,Exact,"8427 DUBEN AVE, ANCHORAGE, AK, 99504",605183645,L,02,020,000703,1013,-149.72293,61.22062
6073,8427 DUBEN AVE,Anchorage,AK,99504,"8427 DUBEN AVE, Anchorage, AK, 99504",Match,Exact,"8427 DUBEN AVE, ANCHORAGE, AK, 99504",605183645,L,02,020,000703,1013,-149.72293,61.22062
6074,8427 DUBEN AVE,Anchorage,AK,99504,"8427 DUBEN AVE, Anchorage, AK, 99504",Match,Exact,"8427 DUBEN AVE, ANCHORAGE, AK, 99504",605183645,L,02,020,000703,1013,-149.72293,61.22062
6075,8427 DUBEN AVE,Anchorage,AK,99504,"8427 DUBEN AVE, Anchorage, AK, 99504",Match,Exact,"8427 DUBEN AVE, ANCHORAGE, AK, 99504",605183645,L,02,020,000703,1013,-149.72293,61.22062
6076,8227 DUBEN AVE,Anchorage,AK,99504,"8227 DUBEN AVE, Anchorage, AK, 99504",Match,Exact,"8227 DUBEN AVE, ANCHORAGE, AK, 99504",190803253,L,02,020,000703,2003,-149.72666999999998,61.22062
6077,8227 DUBEN AVE,Anchorage,AK,99504,"8227 DUBEN AVE, Anchorage, AK, 99504",Match,Exact,"8227 DUBEN AVE, ANCHORAGE, AK, 99504",190803253,L,02,020,000703,2003,-149.72666999999998,61.22062
6078,8203 DUBEN AVE,Anchorage,AK,99504,"8203 DUBEN AVE, Anchorage, AK, 99504",Match,Exact,"8203 DUBEN AVE, ANCHORAGE, AK, 99504",190803251,L,02,020,000703,2003,-149.72775,61.220615
6079,8203 DUBEN AVE,Anchorage,AK,99504,"8203 DUBEN AVE, Anchorage, AK, 99504",Match,Exact,"8203 DUBEN AVE, ANCHORAGE, AK, 99504",190803251,L,02,020,000703,2003,-149.72775,61.220615
6080,8203 DUBEN AVE,Anchorage,AK,99504,"8203 DUBEN AVE, Anchorage, AK, 99504",Match,Exact,"8203 DUBEN AVE, ANCHORAGE, AK, 99504",190803251,L,02,020,000703,2003,-149.72775,61.220615
6081,8203 DUBEN AVE,Anchorage,AK,99504,"8203 DUBEN AVE, Anchorage, AK, 99504",Match,Exact,"8203 DUBEN AVE, ANCHORAGE, AK, 99504",190803251,L,02,020,000703,2003,-149.72775,61.220615
6082,8203 DUBEN AVE,Anchorage,AK,99504,"8203 DUBEN AVE, Anchorage, AK, 99504",Match,Exact,"8203 DUBEN AVE, ANCHORAGE, AK, 99504",190803251,L,02,020,000703,2003,-149.72775,61.220615
6083,5190 CHENA AVE,Anchorage,AK,99508,"5190 CHENA AVE, Anchorage, AK, 99508",Match,Exact,"5190 CHENA AVE, ANCHORAGE, AK, 99508",190801943,R,02,020,000801,3005,-149.78448,61.223240000000004
6084,5190 CHENA AVE,Anchorage,AK,99508,"5190 CHENA AVE, Anchorage, AK, 99508",Match,Exact,"5190 CHENA AVE, ANCHORAGE, AK, 99508",190801943,R,02,020,000801,3005,-149.78448,61.223240000000004
6085,5144 CHENA AVE,Anchorage,AK,99508,"5144 CHENA AVE, Anchorage, AK, 99508",Match,Exact,"5144 CHENA AVE, ANCHORAGE, AK, 99508",190801943,R,02,020,000801,3005,-149.78517,61.223236
6086,5144 CHENA AVE,Anchorage,AK,99508,"5144 CHENA AVE, Anchorage, AK, 99508",Match,Exact,"5144 CHENA AVE, ANCHORAGE, AK, 99508",190801943,R,02,020,000801,3005,-149.78517,61.223236
6087,5124 CHENA AVE,Anchorage,AK,99508,"5124 CHENA AVE, Anchorage, AK, 99508",Match,Exact,"5124 CHENA AVE, ANCHORAGE, AK, 99508",190801943,R,02,020,000801,3005,-149.78546,61.223236
6088,5124 CHENA AVE,Anchorage,AK,99508,"5124 CHENA AVE, Anchorage, AK, 99508",Match,Exact,"5124 CHENA AVE, ANCHORAGE, AK, 99508",190801943,R,02,020,000801,3005,-149.78546,61.223236
6089,5100 CHENA AVE,Anchorage,AK,99508,"5100 CHENA AVE, Anchorage, AK, 99508",Match,Exact,"5100 CHENA AVE, ANCHORAGE, AK, 99508",190801943,R,02,020,000801,3005,-149.78581,61.223236
6090,5414 CHENA AVE,Anchorage,AK,99508,"5414 CHENA AVE, Anchorage, AK, 99508",Match,Exact,"5414 CHENA AVE, ANCHORAGE, AK, 99508",190801958,R,02,020,000801,3006,-149.78056,61.223243999999994
6091,8101 PECK AVE,Anchorage,AK,99504,"8101 PECK AVE, Anchorage, AK, 99504",Match,Exact,"8101 PECK AVE, ANCHORAGE, AK, 99504",190803203,L,02,020,000703,2000,-149.72781,61.222378000000006
6092,8101 PECK AVE,Anchorage,AK,99504,"8101 PECK AVE, Anchorage, AK, 99504",Match,Exact,"8101 PECK AVE, ANCHORAGE, AK, 99504",190803203,L,02,020,000703,2000,-149.72781,61.222378000000006
6093,8101 PECK AVE,Anchorage,AK,99504,"8101 PECK AVE, Anchorage, AK, 99504",Match,Exact,"8101 PECK AVE, ANCHORAGE, AK, 99504",190803203,L,02,020,000703,2000,-149.72781,61.222378000000006
6094,8101 PECK AVE,Anchorage,AK,99504,"8101 PECK AVE, Anchorage, AK, 99504",Match,Exact,"8101 PECK AVE, ANCHORAGE, AK, 99504",190803203,L,02,020,000703,2000,-149.72781,61.222378000000006
6095,8101 PECK AVE,Anchorage,AK,99504,"8101 PECK AVE, Anchorage, AK, 99504",Match,Exact,"8101 PECK AVE, ANCHORAGE, AK, 99504",190803203,L,02,020,000703,2000,-149.72781,61.222378000000006
6096,8101 PECK AVE,Anchorage,AK,99504,"8101 PECK AVE, Anchorage, AK, 99504",Match,Exact,"8101 PECK AVE, ANCHORAGE, AK, 99504",190803203,L,02,020,000703,2000,-149.72781,61.222378000000006
6097,8101 PECK AVE,Anchorage,AK,99504,"8101 PECK AVE, Anchorage, AK, 99504",Match,Exact,"8101 PECK AVE, ANCHORAGE, AK, 99504",190803203,L,02,020,000703,2000,-149.72781,61.222378000000006
6098,8101 PECK AVE,Anchorage,AK,99504,"8101 PECK AVE, Anchorage, AK, 99504",Match,Exact,"8101 PECK AVE, ANCHORAGE, AK, 99504",190803203,L,02,020,000703,2000,-149.72781,61.222378000000006
6099,8101 PECK AVE,Anchorage,AK,99504,"8101 PECK AVE, Anchorage, AK, 99504",Match,Exact,"8101 PECK AVE, ANCHORAGE, AK, 99504",190803203,L,02,020,000703,2000,-149.72781,61.222378000000006
6100,8101 PECK AVE,Anchorage,AK,99504,"8101 PECK AVE, Anchorage, AK, 99504",Match,Exact,"8101 PECK AVE, ANCHORAGE, AK, 99504",190803203,L,02,020,000703,2000,-149.72781,61.222378000000006
6101,8101 PECK AVE,Anchorage,AK,99504,"8101 PECK AVE, Anchorage, AK, 99504",Match,Exact,"8101 PECK AVE, ANCHORAGE, AK, 99504",190803203,L,02,020,000703,2000,-149.72781,61.222378000000006
6102,8101 PECK AVE,Anchorage,AK,99504,"8101 PECK AVE, Anchorage, AK, 99504",Match,Exact,"8101 PECK AVE, ANCHORAGE, AK, 99504",190803203,L,02,020,000703,2000,-149.72781,61.222378000000006
6103,8101 PECK AVE,Anchorage,AK,99504,"8101 PECK AVE, Anchorage, AK, 99504",Match,Exact,"8101 PECK AVE, ANCHORAGE, AK, 99504",190803203,L,02,020,000703,2000,-149.72781,61.222378000000006
6104,8101 PECK AVE,Anchorage,AK,99504,"8101 PECK AVE, Anchorage, AK, 99504",Match,Exact,"8101 PECK AVE, ANCHORAGE, AK, 99504",190803203,L,02,020,000703,2000,-149.72781,61.222378000000006
6105,8101 PECK AVE,Anchorage,AK,99504,"8101 PECK AVE, Anchorage, AK, 99504",Match,Exact,"8101 PECK AVE, ANCHORAGE, AK, 99504",190803203,L,02,020,000703,2000,-149.72781,61.222378000000006
6106,8101 PECK AVE,Anchorage,AK,99504,"8101 PECK AVE, Anchorage, AK, 99504",Match,Exact,"8101 PECK AVE, ANCHORAGE, AK, 99504",190803203,L,02,020,000703,2000,-149.72781,61.222378000000006
6107,158 BURTON ST,Anchorage,AK,99504,"158 BURTON ST, Anchorage, AK, 99504",Match,Exact,"158 BURTON ST, ANCHORAGE, AK, 99504",190802857,R,02,020,000702,1006,-149.74196,61.222747999999996
6108,158 BURTON ST,Anchorage,AK,99504,"158 BURTON ST, Anchorage, AK, 99504",Match,Exact,"158 BURTON ST, ANCHORAGE, AK, 99504",190802857,R,02,020,000702,1006,-149.74196,61.222747999999996
6109,158 BURTON ST,Anchorage,AK,99504,"158 BURTON ST, Anchorage, AK, 99504",Match,Exact,"158 BURTON ST, ANCHORAGE, AK, 99504",190802857,R,02,020,000702,1006,-149.74196,61.222747999999996
6110,158 BURTON ST,Anchorage,AK,99504,"158 BURTON ST, Anchorage, AK, 99504",Match,Exact,"158 BURTON ST, ANCHORAGE, AK, 99504",190802857,R,02,020,000702,1006,-149.74196,61.222747999999996
6111,179 OKLAHOMA ST,Anchorage,AK,99504,"179 OKLAHOMA ST, Anchorage, AK, 99504",Match,Exact,"179 OKLAHOMA ST, ANCHORAGE, AK, 99504",190802853,L,02,020,000702,1006,-149.74477,61.223198
6112,5126 CARIBOU AVE,Anchorage,AK,99508,"5126 CARIBOU AVE, Anchorage, AK, 99508",Match,Exact,"5126 CARIBOU AVE, ANCHORAGE, AK, 99508",190801938,R,02,020,000801,3009,-149.78543,61.22238
6113,204 BUNNELL ST,Anchorage,AK,99508,"204 BUNNELL ST, Anchorage, AK, 99508",Match,Exact,"204 BUNNELL ST, ANCHORAGE, AK, 99508",190801681,R,02,020,000801,2005,-149.78973,61.222680000000004
6114,205 STEWART ST,Anchorage,AK,99508,"205 STEWART ST, Anchorage, AK, 99508",Match,Exact,"205 STEWART ST, ANCHORAGE, AK, 99508",190801687,L,02,020,000801,2003,-149.78789,61.222682999999996
6115,5110 CARIBOU AVE,Anchorage,AK,99508,"5110 CARIBOU AVE, Anchorage, AK, 99508",Match,Exact,"5110 CARIBOU AVE, ANCHORAGE, AK, 99508",190801938,R,02,020,000801,3009,-149.78566,61.22238
6116,6370 WHISPERWOOD PARK DR,Anchorage,AK,99504,"6370 WHISPERWOOD PARK DR, Anchorage, AK, 99504",Match,Exact,"6370 WHISPERWOOD PARK DR, ANCHORAGE, AK, 99504",624788670,R,02,020,000701,1013,-149.762,61.22237
6117,6370 WHISPERWOOD PARK DR,Anchorage,AK,99504,"6370 WHISPERWOOD PARK DR, Anchorage, AK, 99504",Match,Exact,"6370 WHISPERWOOD PARK DR, ANCHORAGE, AK, 99504",624788670,R,02,020,000701,1013,-149.762,61.22237
6118,5416 CARIBOU AVE,Anchorage,AK,99508,"5416 CARIBOU AVE, Anchorage, AK, 99508",Match,Exact,"5416 CARIBOU AVE, ANCHORAGE, AK, 99508",190820388,R,02,020,000801,3008,-149.78063999999998,61.222384999999996
6119,5406 CARIBOU AVE,Anchorage,AK,99508,"5406 CARIBOU AVE, Anchorage, AK, 99508",Match,Exact,"5406 CARIBOU AVE, ANCHORAGE, AK, 99508",190820388,R,02,020,000801,3008,-149.78079,61.22238
6120,5340 CARIBOU AVE,Anchorage,AK,99508,"5340 CARIBOU AVE, Anchorage, AK, 99508",Match,Exact,"5340 CARIBOU AVE, ANCHORAGE, AK, 99508",190820388,R,02,020,000801,3008,-149.78175,61.22238
6121,5328 CARIBOU AVE,Anchorage,AK,99508,"5328 CARIBOU AVE, Anchorage, AK, 99508",Match,Exact,"5328 CARIBOU AVE, ANCHORAGE, AK, 99508",190820388,R,02,020,000801,3008,-149.78194,61.22238
6122,5318 CARIBOU AVE,Anchorage,AK,99508,"5318 CARIBOU AVE, Anchorage, AK, 99508",Match,Exact,"5318 CARIBOU AVE, ANCHORAGE, AK, 99508",190820388,R,02,020,000801,3008,-149.78207,61.22238
6123,227 NEWELL ST,Anchorage,AK,99504,"227 NEWELL ST, Anchorage, AK, 99504",Match,Exact,"227 NEWELL ST, ANCHORAGE, AK, 99504",605167293,R,02,020,000701,1000,-149.77095,61.222637
6124,205 BUNNELL ST,Anchorage,AK,99508,"205 BUNNELL ST, Anchorage, AK, 99508",Match,Exact,"205 BUNNELL ST, ANCHORAGE, AK, 99508",190801681,L,02,020,000801,2004,-149.7897,61.222680000000004
6125,6811 GOLD KINGS CIR,Anchorage,AK,99504,"6811 GOLD KINGS CIR, Anchorage, AK, 99504",Match,Exact,"6811 GOLD KINGS CIR, ANCHORAGE, AK, 99504",190820029,R,02,020,000702,3002,-149.75395,61.22362
6126,100 MC CARREY ST,Anchorage,AK,99508,"100 MC CARREY ST, Anchorage, AK, 99508",Match,Exact,"100 MC CARREY ST, ANCHORAGE, AK, 99508",605167268,R,02,020,000801,1000,-149.79173,61.223273999999996
6127,119 BURTON ST,Anchorage,AK,99504,"119 BURTON ST, Anchorage, AK, 99504",Match,Exact,"119 BURTON ST, ANCHORAGE, AK, 99504",190802857,L,02,020,000702,2000,-149.74193,61.223057
6128,118 BURTON ST,Anchorage,AK,99504,"118 BURTON ST, Anchorage, AK, 99504",Match,Exact,"118 BURTON ST, ANCHORAGE, AK, 99504",190802857,R,02,020,000702,1006,-149.74196,61.223057
6129,125 IDAHO ST,Anchorage,AK,99504,"125 IDAHO ST, Anchorage, AK, 99504",Match,Exact,"125 IDAHO ST, ANCHORAGE, AK, 99504",190802864,L,02,020,000702,2000,-149.7368,61.223755000000004
6130,18925 CHRYSTAL ISLAND DR,Anchorage,AK,99577,"18925 CHRYSTAL ISLAND DR, Anchorage, AK, 99577",Match,Non_Exact,"18925 CHRYSTAL ISLAND DR, EAGLE RIVER, AK, 99577",190818620,L,02,020,000203,3023,-149.52982,61.300125
6131,19035 CHRYSTAL ISLAND DR,Anchorage,AK,99577,"19035 CHRYSTAL ISLAND DR, Anchorage, AK, 99577",Match,Non_Exact,"19035 CHRYSTAL ISLAND DR, EAGLE RIVER, AK, 99577",190818620,L,02,020,000203,3023,-149.52754,61.300019999999996
6132,8836 KAK ISLAND ST,Anchorage,AK,99577,"8836 KAK ISLAND ST, Anchorage, AK, 99577",Match,Non_Exact,"8836 KAK ISLAND ST, EAGLE RIVER, AK, 99577",190818619,R,02,020,000203,3014,-149.53075,61.30015
6133,20436 DRIFTWOOD BAY DR,Anchorage,AK,99577,"20436 DRIFTWOOD BAY DR, Anchorage, AK, 99577",Match,Non_Exact,"20436 DRIFTWOOD BAY DR, EAGLE RIVER, AK, 99577",625727883,L,02,020,000203,3000,-149.50072,61.300197999999995
6134,19043 CHRYSTAL ISLAND DR,Anchorage,AK,99577,"19043 CHRYSTAL ISLAND DR, Anchorage, AK, 99577",Match,Non_Exact,"19043 CHRYSTAL ISLAND DR, EAGLE RIVER, AK, 99577",190818620,L,02,020,000203,3023,-149.52737,61.30003000000001
6135,3875 MARIAH DR,Anchorage,AK,99577,"3875 MARIAH DR, Anchorage, AK, 99577",Match,Non_Exact,"3875 MARIAH DR, EAGLE RIVER, AK, 99577",190820019,L,02,020,000204,1006,-149.28905,61.254143000000006
6136,31100 PRUDHOE BAY AVE,Anchorage,AK,99577,"31100 PRUDHOE BAY AVE, Anchorage, AK, 99577",Match,Non_Exact,"31100 PRUDHOE BAY AVE, EAGLE RIVER, AK, 99577",645481794,R,02,020,000204,1017,-149.30264,61.253803000000005
6137,33101 EAGLE VISTA DR,Anchorage,AK,99577,"33101 EAGLE VISTA DR, Anchorage, AK, 99577",Match,Non_Exact,"33101 EAGLE VISTA DR, EAGLE RIVER, AK, 99577",605288110,L,02,020,000204,1006,-149.2751,61.25277
6138,30535 EAGLE RIVER RD,Anchorage,AK,99577,"30535 EAGLE RIVER RD, Anchorage, AK, 99577",Match,Non_Exact,"30535 EAGLE RIVER RD, EAGLE RIVER, AK, 99577",190818653,L,02,020,000204,1017,-149.31343,61.25371
6139,32450 EAGLE VISTA DR,Anchorage,AK,99577,"32450 EAGLE VISTA DR, Anchorage, AK, 99577",Match,Non_Exact,"32450 EAGLE VISTA DR, EAGLE RIVER, AK, 99577",605288110,R,02,020,000204,1006,-149.2731,61.249283
6140,32545 EAGLE VISTA DR,Anchorage,AK,99577,"32545 EAGLE VISTA DR, Anchorage, AK, 99577",Match,Non_Exact,"32545 EAGLE VISTA DR, EAGLE RIVER, AK, 99577",605288110,L,02,020,000204,1006,-149.27466,61.25199
6141,8516 BOUNDARY AVE,Anchorage,AK,99504,"8516 BOUNDARY AVE, Anchorage, AK, 99504",Match,Exact,"8516 BOUNDARY AVE, ANCHORAGE, AK, 99504",639710376,R,02,020,000703,1011,-149.7226,61.224136
6142,8512 BOUNDARY AVE,Anchorage,AK,99504,"8512 BOUNDARY AVE, Anchorage, AK, 99504",Match,Exact,"8512 BOUNDARY AVE, ANCHORAGE, AK, 99504",639710376,R,02,020,000703,1011,-149.72267,61.224136
6143,8512 BOUNDARY AVE,Anchorage,AK,99504,"8512 BOUNDARY AVE, Anchorage, AK, 99504",Match,Exact,"8512 BOUNDARY AVE, ANCHORAGE, AK, 99504",639710376,R,02,020,000703,1011,-149.72267,61.224136
6144,8512 BOUNDARY AVE,Anchorage,AK,99504,"8512 BOUNDARY AVE, Anchorage, AK, 99504",Match,Exact,"8512 BOUNDARY AVE, ANCHORAGE, AK, 99504",639710376,R,02,020,000703,1011,-149.72267,61.224136
6145,8512 BOUNDARY AVE,Anchorage,AK,99504,"8512 BOUNDARY AVE, Anchorage, AK, 99504",Match,Exact,"8512 BOUNDARY AVE, ANCHORAGE, AK, 99504",639710376,R,02,020,000703,1011,-149.72267,61.224136
6146,8512 BOUNDARY AVE,Anchorage,AK,99504,"8512 BOUNDARY AVE, Anchorage, AK, 99504",Match,Exact,"8512 BOUNDARY AVE, ANCHORAGE, AK, 99504",639710376,R,02,020,000703,1011,-149.72267,61.224136
6147,8512 BOUNDARY AVE,Anchorage,AK,99504,"8512 BOUNDARY AVE, Anchorage, AK, 99504",Match,Exact,"8512 BOUNDARY AVE, ANCHORAGE, AK, 99504",639710376,R,02,020,000703,1011,-149.72267,61.224136
6148,8508 BOUNDARY AVE,Anchorage,AK,99504,"8508 BOUNDARY AVE, Anchorage, AK, 99504",Match,Exact,"8508 BOUNDARY AVE, ANCHORAGE, AK, 99504",639710376,R,02,020,000703,1011,-149.72273,61.224136
6149,8508 BOUNDARY AVE,Anchorage,AK,99504,"8508 BOUNDARY AVE, Anchorage, AK, 99504",Match,Exact,"8508 BOUNDARY AVE, ANCHORAGE, AK, 99504",639710376,R,02,020,000703,1011,-149.72273,61.224136
6150,8508 BOUNDARY AVE,Anchorage,AK,99504,"8508 BOUNDARY AVE, Anchorage, AK, 99504",Match,Exact,"8508 BOUNDARY AVE, ANCHORAGE, AK, 99504",639710376,R,02,020,000703,1011,-149.72273,61.224136
6151,8508 BOUNDARY AVE,Anchorage,AK,99504,"8508 BOUNDARY AVE, Anchorage, AK, 99504",Match,Exact,"8508 BOUNDARY AVE, ANCHORAGE, AK, 99504",639710376,R,02,020,000703,1011,-149.72273,61.224136
6152,8508 BOUNDARY AVE,Anchorage,AK,99504,"8508 BOUNDARY AVE, Anchorage, AK, 99504",Match,Exact,"8508 BOUNDARY AVE, ANCHORAGE, AK, 99504",639710376,R,02,020,000703,1011,-149.72273,61.224136
6153,8508 BOUNDARY AVE,Anchorage,AK,99504,"8508 BOUNDARY AVE, Anchorage, AK, 99504",Match,Exact,"8508 BOUNDARY AVE, ANCHORAGE, AK, 99504",639710376,R,02,020,000703,1011,-149.72273,61.224136
6154,8504 BOUNDARY AVE,Anchorage,AK,99504,"8504 BOUNDARY AVE, Anchorage, AK, 99504",Match,Exact,"8504 BOUNDARY AVE, ANCHORAGE, AK, 99504",639710376,R,02,020,000703,1011,-149.72281,61.224136
6155,8504 BOUNDARY AVE,Anchorage,AK,99504,"8504 BOUNDARY AVE, Anchorage, AK, 99504",Match,Exact,"8504 BOUNDARY AVE, ANCHORAGE, AK, 99504",639710376,R,02,020,000703,1011,-149.72281,61.224136
6156,227 NEWELL ST,Anchorage,AK,99504,"227 NEWELL ST, Anchorage, AK, 99504",Match,Exact,"227 NEWELL ST, ANCHORAGE, AK, 99504",605167293,R,02,020,000701,1000,-149.77095,61.222637
6157,239 WHISPER RIDGE CIR,Anchorage,AK,99504,"239 WHISPER RIDGE CIR, Anchorage, AK, 99504",Match,Exact,"239 WHISPER RIDGE CIR, ANCHORAGE, AK, 99504",624788767,R,02,020,000701,1013,-149.75891000000001,61.222214
6158,239 WHISPER RIDGE CIR,Anchorage,AK,99504,"239 WHISPER RIDGE CIR, Anchorage, AK, 99504",Match,Exact,"239 WHISPER RIDGE CIR, ANCHORAGE, AK, 99504",624788767,R,02,020,000701,1013,-149.75891000000001,61.222214
6159,227 NEWELL ST,Anchorage,AK,99504,"227 NEWELL ST, Anchorage, AK, 99504",Match,Exact,"227 NEWELL ST, ANCHORAGE, AK, 99504",605167293,R,02,020,000701,1000,-149.77095,61.222637
6160,6821 DICKERSON DR,Anchorage,AK,99504,"6821 DICKERSON DR, Anchorage, AK, 99504",Match,Exact,"6821 DICKERSON DR, ANCHORAGE, AK, 99504",190802757,L,02,020,000702,3002,-149.75383,61.221855000000005
6161,208 DAVIS ST,Anchorage,AK,99508,"208 DAVIS ST, Anchorage, AK, 99508",Match,Exact,"208 DAVIS ST, ANCHORAGE, AK, 99508",190801936,R,02,020,000801,2003,-149.7861,61.222269999999995
6162,244 WHISPER KNOLL CIR,Anchorage,AK,99504,"244 WHISPER KNOLL CIR, Anchorage, AK, 99504",Match,Exact,"244 WHISPER KNOLL CIR, ANCHORAGE, AK, 99504",605185014,R,02,020,000701,1013,-149.76088000000001,61.22205699999999
6163,244 WHISPER KNOLL CIR,Anchorage,AK,99504,"244 WHISPER KNOLL CIR, Anchorage, AK, 99504",Match,Exact,"244 WHISPER KNOLL CIR, ANCHORAGE, AK, 99504",605185014,R,02,020,000701,1013,-149.76088000000001,61.22205699999999
6164,229 RED LEAF CIR,Anchorage,AK,99504,"229 RED LEAF CIR, Anchorage, AK, 99504",Match,Exact,"229 RED LEAF CIR, ANCHORAGE, AK, 99504",190803306,R,02,020,000703,1013,-149.7213,61.22221999999999
6165,227 NEWELL ST,Anchorage,AK,99504,"227 NEWELL ST, Anchorage, AK, 99504",Match,Exact,"227 NEWELL ST, ANCHORAGE, AK, 99504",605167293,R,02,020,000701,1000,-149.77095,61.222637
6166,227 NEWELL ST,Anchorage,AK,99504,"227 NEWELL ST, Anchorage, AK, 99504",Match,Exact,"227 NEWELL ST, ANCHORAGE, AK, 99504",605167293,R,02,020,000701,1000,-149.77095,61.222637
6167,227 NEWELL ST,Anchorage,AK,99504,"227 NEWELL ST, Anchorage, AK, 99504",Match,Exact,"227 NEWELL ST, ANCHORAGE, AK, 99504",605167293,R,02,020,000701,1000,-149.77095,61.222637
6168,360 BONIFACE PKWY,Anchorage,AK,99504,"360 BONIFACE PKWY, Anchorage, AK, 99504",Match,Exact,"360 BONIFACE PKWY, ANCHORAGE, AK, 99504",190801982,R,02,020,000801,4000,-149.77841,61.219356999999995
6169,360 BONIFACE PKWY,Anchorage,AK,99504,"360 BONIFACE PKWY, Anchorage, AK, 99504",Match,Exact,"360 BONIFACE PKWY, ANCHORAGE, AK, 99504",190801982,R,02,020,000801,4000,-149.77841,61.219356999999995
6170,360 BONIFACE PKWY,Anchorage,AK,99504,"360 BONIFACE PKWY, Anchorage, AK, 99504",Match,Exact,"360 BONIFACE PKWY, ANCHORAGE, AK, 99504",190801982,R,02,020,000801,4000,-149.77841,61.219356999999995
6171,360 BONIFACE PKWY,Anchorage,AK,99504,"360 BONIFACE PKWY, Anchorage, AK, 99504",Match,Exact,"360 BONIFACE PKWY, ANCHORAGE, AK, 99504",190801982,R,02,020,000801,4000,-149.77841,61.219356999999995
6172,360 BONIFACE PKWY,Anchorage,AK,99504,"360 BONIFACE PKWY, Anchorage, AK, 99504",Match,Exact,"360 BONIFACE PKWY, ANCHORAGE, AK, 99504",190801982,R,02,020,000801,4000,-149.77841,61.219356999999995
6173,360 BONIFACE PKWY,Anchorage,AK,99504,"360 BONIFACE PKWY, Anchorage, AK, 99504",Match,Exact,"360 BONIFACE PKWY, ANCHORAGE, AK, 99504",190801982,R,02,020,000801,4000,-149.77841,61.219356999999995
6174,360 BONIFACE PKWY,Anchorage,AK,99504,"360 BONIFACE PKWY, Anchorage, AK, 99504",Match,Exact,"360 BONIFACE PKWY, ANCHORAGE, AK, 99504",190801982,R,02,020,000801,4000,-149.77841,61.219356999999995
6175,360 BONIFACE PKWY,Anchorage,AK,99504,"360 BONIFACE PKWY, Anchorage, AK, 99504",Match,Exact,"360 BONIFACE PKWY, ANCHORAGE, AK, 99504",190801982,R,02,020,000801,4000,-149.77841,61.219356999999995
6176,360 BONIFACE PKWY,Anchorage,AK,99504,"360 BONIFACE PKWY, Anchorage, AK, 99504",Match,Exact,"360 BONIFACE PKWY, ANCHORAGE, AK, 99504",190801982,R,02,020,000801,4000,-149.77841,61.219356999999995
6177,360 BONIFACE PKWY,Anchorage,AK,99504,"360 BONIFACE PKWY, Anchorage, AK, 99504",Match,Exact,"360 BONIFACE PKWY, ANCHORAGE, AK, 99504",190801982,R,02,020,000801,4000,-149.77841,61.219356999999995
6178,360 BONIFACE PKWY,Anchorage,AK,99504,"360 BONIFACE PKWY, Anchorage, AK, 99504",Match,Exact,"360 BONIFACE PKWY, ANCHORAGE, AK, 99504",190801982,R,02,020,000801,4000,-149.77841,61.219356999999995
6179,360 BONIFACE PKWY,Anchorage,AK,99504,"360 BONIFACE PKWY, Anchorage, AK, 99504",Match,Exact,"360 BONIFACE PKWY, ANCHORAGE, AK, 99504",190801982,R,02,020,000801,4000,-149.77841,61.219356999999995
6180,260 FERN LN,Anchorage,AK,99504,"260 FERN LN, Anchorage, AK, 99504",Match,Exact,"260 FERN LN, ANCHORAGE, AK, 99504",190802801,R,02,020,000702,3005,-149.75429,61.22071999999999
6181,8389 DUBEN AVE,Anchorage,AK,99504,"8389 DUBEN AVE, Anchorage, AK, 99504",Match,Exact,"8389 DUBEN AVE, ANCHORAGE, AK, 99504",605183644,L,02,020,000703,1013,-149.72398,61.22062
6182,346 LIONHEART CT,Anchorage,AK,99508,"346 LIONHEART CT, Anchorage, AK, 99508",Match,Exact,"346 LIONHEART CT, ANCHORAGE, AK, 99508",190812092,L,02,020,000801,3008,-149.78246000000001,61.221171999999996
6183,6475 WHISPERING LOOP,Anchorage,AK,99504,"6475 WHISPERING LOOP, Anchorage, AK, 99504",Match,Exact,"6475 WHISPERING LOOP, ANCHORAGE, AK, 99504",624788733,L,02,020,000701,1013,-149.761,61.220980000000004
6184,6475 WHISPERING LOOP,Anchorage,AK,99504,"6475 WHISPERING LOOP, Anchorage, AK, 99504",Match,Exact,"6475 WHISPERING LOOP, ANCHORAGE, AK, 99504",624788733,L,02,020,000701,1013,-149.761,61.220980000000004
6185,305 STEWART ST,Anchorage,AK,99508,"305 STEWART ST, Anchorage, AK, 99508",Match,Exact,"305 STEWART ST, ANCHORAGE, AK, 99508",190801748,L,02,020,000801,2009,-149.78789,61.221382
6186,260 CREEKSIDE ST,Anchorage,AK,99504,"260 CREEKSIDE ST, Anchorage, AK, 99504",Match,Exact,"260 CREEKSIDE ST, ANCHORAGE, AK, 99504",190816630,L,02,020,000702,2001,-149.74101000000002,61.220924
6187,6593 WHISPERING LOOP,Anchorage,AK,99504,"6593 WHISPERING LOOP, Anchorage, AK, 99504",Match,Exact,"6593 WHISPERING LOOP, ANCHORAGE, AK, 99504",624788736,R,02,020,000701,1013,-149.75815,61.22099
6188,6593 WHISPERING LOOP,Anchorage,AK,99504,"6593 WHISPERING LOOP, Anchorage, AK, 99504",Match,Exact,"6593 WHISPERING LOOP, ANCHORAGE, AK, 99504",624788736,R,02,020,000701,1013,-149.75815,61.22099
6189,148 BURTON ST,Anchorage,AK,99504,"148 BURTON ST, Anchorage, AK, 99504",Match,Exact,"148 BURTON ST, ANCHORAGE, AK, 99504",190802857,R,02,020,000702,1006,-149.74196,61.222823999999996
6190,5214 CHENA AVE,Anchorage,AK,99508,"5214 CHENA AVE, Anchorage, AK, 99508",Match,Exact,"5214 CHENA AVE, ANCHORAGE, AK, 99508",190801943,R,02,020,000801,3005,-149.78413,61.223240000000004
6191,227 NEWELL ST,Anchorage,AK,99504,"227 NEWELL ST, Anchorage, AK, 99504",Match,Exact,"227 NEWELL ST, ANCHORAGE, AK, 99504",605167293,R,02,020,000701,1000,-149.77095,61.222637
6192,227 NEWELL ST,Anchorage,AK,99504,"227 NEWELL ST, Anchorage, AK, 99504",Match,Exact,"227 NEWELL ST, ANCHORAGE, AK, 99504",605167293,R,02,020,000701,1000,-149.77095,61.222637
6193,156 MULDOON RD,Anchorage,AK,99504,"156 MULDOON RD, Anchorage, AK, 99504",Match,Exact,"156 MULDOON RD, ANCHORAGE, AK, 99504",638990398,R,02,020,000702,2000,-149.73352,61.223164000000004
6194,227 NEWELL ST,Anchorage,AK,99504,"227 NEWELL ST, Anchorage, AK, 99504",Match,Exact,"227 NEWELL ST, ANCHORAGE, AK, 99504",605167293,R,02,020,000701,1000,-149.77095,61.222637
6195,227 NEWELL ST,Anchorage,AK,99504,"227 NEWELL ST, Anchorage, AK, 99504",Match,Exact,"227 NEWELL ST, ANCHORAGE, AK, 99504",605167293,R,02,020,000701,1000,-149.77095,61.222637
6196,227 NEWELL ST,Anchorage,AK,99504,"227 NEWELL ST, Anchorage, AK, 99504",Match,Exact,"227 NEWELL ST, ANCHORAGE, AK, 99504",605167293,R,02,020,000701,1000,-149.77095,61.222637
6197,227 NEWELL ST,Anchorage,AK,99504,"227 NEWELL ST, Anchorage, AK, 99504",Match,Exact,"227 NEWELL ST, ANCHORAGE, AK, 99504",605167293,R,02,020,000701,1000,-149.77095,61.222637
6198,227 NEWELL ST,Anchorage,AK,99504,"227 NEWELL ST, Anchorage, AK, 99504",Match,Exact,"227 NEWELL ST, ANCHORAGE, AK, 99504",605167293,R,02,020,000701,1000,-149.77095,61.222637
6199,158 DEAN PL,Anchorage,AK,99504,"158 DEAN PL, Anchorage, AK, 99504",Match,Exact,"158 DEAN PL, ANCHORAGE, AK, 99504",190802859,R,02,020,000702,2000,-149.7401,61.222919999999995
6200,158 DEAN PL,Anchorage,AK,99504,"158 DEAN PL, Anchorage, AK, 99504",Match,Exact,"158 DEAN PL, ANCHORAGE, AK, 99504",190802859,R,02,020,000702,2000,-149.7401,61.222919999999995
6201,158 DEAN PL,Anchorage,AK,99504,"158 DEAN PL, Anchorage, AK, 99504",Match,Exact,"158 DEAN PL, ANCHORAGE, AK, 99504",190802859,R,02,020,000702,2000,-149.7401,61.222919999999995
6202,158 DEAN PL,Anchorage,AK,99504,"158 DEAN PL, Anchorage, AK, 99504",Match,Exact,"158 DEAN PL, ANCHORAGE, AK, 99504",190802859,R,02,020,000702,2000,-149.7401,61.222919999999995
6203,157 DEAN PL,Anchorage,AK,99504,"157 DEAN PL, Anchorage, AK, 99504",Match,Exact,"157 DEAN PL, ANCHORAGE, AK, 99504",190802859,L,02,020,000702,2000,-149.74007,61.222942
6204,157 DEAN PL,Anchorage,AK,99504,"157 DEAN PL, Anchorage, AK, 99504",Match,Exact,"157 DEAN PL, ANCHORAGE, AK, 99504",190802859,L,02,020,000702,2000,-149.74007,61.222942
6205,158 KREINHEDER PL,Anchorage,AK,99504,"158 KREINHEDER PL, Anchorage, AK, 99504",No_Match,,,,,,,,,,
6206,7935 PECK AVE,Anchorage,AK,99504,"7935 PECK AVE, Anchorage, AK, 99504",Match,Exact,"7935 PECK AVE, ANCHORAGE, AK, 99504",190803199,L,02,020,000703,2001,-149.73306000000002,61.222374
6207,142 NANOOK CIR,Anchorage,AK,99504,"142 NANOOK CIR, Anchorage, AK, 99504",Match,Exact,"142 NANOOK CIR, ANCHORAGE, AK, 99504",190820035,L,02,020,000702,3003,-149.74954,61.2226
6208,143 NANOOK CIR,Anchorage,AK,99504,"143 NANOOK CIR, Anchorage, AK, 99504",Match,Exact,"143 NANOOK CIR, ANCHORAGE, AK, 99504",190820035,R,02,020,000702,3003,-149.74951000000001,61.2226
6209,227 NEWELL ST,Anchorage,AK,99504,"227 NEWELL ST, Anchorage, AK, 99504",Match,Exact,"227 NEWELL ST, ANCHORAGE, AK, 99504",605167293,R,02,020,000701,1000,-149.77095,61.222637
6210,7801 PECK AVE,Anchorage,AK,99504,"7801 PECK AVE, Anchorage, AK, 99504",Match,Exact,"7801 PECK AVE, ANCHORAGE, AK, 99504",190816652,L,02,020,000702,2000,-149.7353,61.222363
6211,7525 PECK AVE,Anchorage,AK,99504,"7525 PECK AVE, Anchorage, AK, 99504",Match,Exact,"7525 PECK AVE, ANCHORAGE, AK, 99504",190812117,L,02,020,000702,2000,-149.73993000000002,61.22237
6212,7601 PECK AVE,Anchorage,AK,99504,"7601 PECK AVE, Anchorage, AK, 99504",Match,Exact,"7601 PECK AVE, ANCHORAGE, AK, 99504",190812117,L,02,020,000702,2000,-149.73924,61.22237
6213,7601 PECK AVE,Anchorage,AK,99504,"7601 PECK AVE, Anchorage, AK, 99504",Match,Exact,"7601 PECK AVE, ANCHORAGE, AK, 99504",190812117,L,02,020,000702,2000,-149.73924,61.22237
6214,258 FIREOVED DR,Anchorage,AK,99508,"258 FIREOVED DR, Anchorage, AK, 99508",Match,Exact,"258 FIREOVED DR, ANCHORAGE, AK, 99508",643733471,R,02,020,000801,3009,-149.7832,61.221793999999996
6215,258 FIREOVED DR,Anchorage,AK,99508,"258 FIREOVED DR, Anchorage, AK, 99508",Match,Exact,"258 FIREOVED DR, ANCHORAGE, AK, 99508",643733471,R,02,020,000801,3009,-149.7832,61.221793999999996
6216,210 BUNNELL ST,Anchorage,AK,99508,"210 BUNNELL ST, Anchorage, AK, 99508",Match,Exact,"210 BUNNELL ST, ANCHORAGE, AK, 99508",190801681,R,02,020,000801,2005,-149.78973,61.222614
6217,281 WHISPER RIDGE CIR,Anchorage,AK,99504,"281 WHISPER RIDGE CIR, Anchorage, AK, 99504",Match,Exact,"281 WHISPER RIDGE CIR, ANCHORAGE, AK, 99504",624788767,R,02,020,000701,1013,-149.75891000000001,61.22212
6218,281 WHISPER RIDGE CIR,Anchorage,AK,99504,"281 WHISPER RIDGE CIR, Anchorage, AK, 99504",Match,Exact,"281 WHISPER RIDGE CIR, ANCHORAGE, AK, 99504",624788767,R,02,020,000701,1013,-149.75891000000001,61.22212
6219,239 ZAPPA PL,Anchorage,AK,99504,"239 ZAPPA PL, Anchorage, AK, 99504",Match,Exact,"239 ZAPPA PL, ANCHORAGE, AK, 99504",190803204,L,02,020,000703,1013,-149.726,61.22166
6220,239 ZAPPA PL,Anchorage,AK,99504,"239 ZAPPA PL, Anchorage, AK, 99504",Match,Exact,"239 ZAPPA PL, ANCHORAGE, AK, 99504",190803204,L,02,020,000703,1013,-149.726,61.22166
6221,267 DAVIS ST,Anchorage,AK,99508,"267 DAVIS ST, Anchorage, AK, 99508",Match,Exact,"267 DAVIS ST, ANCHORAGE, AK, 99508",190801936,L,02,020,000801,3009,-149.78607,61.22192
6222,290 WHISPER RIDGE CIR,Anchorage,AK,99504,"290 WHISPER RIDGE CIR, Anchorage, AK, 99504",Match,Exact,"290 WHISPER RIDGE CIR, ANCHORAGE, AK, 99504",624788767,L,02,020,000701,1013,-149.75893,61.222094999999996
6223,290 WHISPER RIDGE CIR,Anchorage,AK,99504,"290 WHISPER RIDGE CIR, Anchorage, AK, 99504",Match,Exact,"290 WHISPER RIDGE CIR, ANCHORAGE, AK, 99504",624788767,L,02,020,000701,1013,-149.75893,61.222094999999996
6224,204 ORANGE LEAF CIR,Anchorage,AK,99504,"204 ORANGE LEAF CIR, Anchorage, AK, 99504",Match,Exact,"204 ORANGE LEAF CIR, ANCHORAGE, AK, 99504",190803309,L,02,020,000703,1013,-149.71944,61.222324
6225,205 RED LEAF CIR,Anchorage,AK,99504,"205 RED LEAF CIR, Anchorage, AK, 99504",Match,Exact,"205 RED LEAF CIR, ANCHORAGE, AK, 99504",190803306,R,02,020,000703,1013,-149.7213,61.222324
6226,205 ORANGE LEAF CIR,Anchorage,AK,99504,"205 ORANGE LEAF CIR, Anchorage, AK, 99504",Match,Exact,"205 ORANGE LEAF CIR, ANCHORAGE, AK, 99504",190803309,R,02,020,000703,1013,-149.71941999999999,61.222324
6227,202 DAVIS ST,Anchorage,AK,99508,"202 DAVIS ST, Anchorage, AK, 99508",Match,Exact,"202 DAVIS ST, ANCHORAGE, AK, 99508",190801936,R,02,020,000801,2003,-149.7861,61.222317000000004
6228,204 RED LEAF CIR,Anchorage,AK,99504,"204 RED LEAF CIR, Anchorage, AK, 99504",Match,Exact,"204 RED LEAF CIR, ANCHORAGE, AK, 99504",190803306,L,02,020,000703,1013,-149.72131000000002,61.222324
6229,204 STEWART ST,Anchorage,AK,99508,"204 STEWART ST, Anchorage, AK, 99508",Match,Exact,"204 STEWART ST, ANCHORAGE, AK, 99508",190801687,R,02,020,000801,2004,-149.78791999999999,61.222682999999996
6230,322 BONIFACE PKWY,Anchorage,AK,99504,"322 BONIFACE PKWY, Anchorage, AK, 99504",Match,Exact,"322 BONIFACE PKWY, ANCHORAGE, AK, 99504",190801982,R,02,020,000801,4000,-149.77841,61.2199
6231,227 NEWELL ST,Anchorage,AK,99504,"227 NEWELL ST, Anchorage, AK, 99504",Match,Exact,"227 NEWELL ST, ANCHORAGE, AK, 99504",605167293,R,02,020,000701,1000,-149.77095,61.222637
6232,227 NEWELL ST,Anchorage,AK,99504,"227 NEWELL ST, Anchorage, AK, 99504",Match,Exact,"227 NEWELL ST, ANCHORAGE, AK, 99504",605167293,R,02,020,000701,1000,-149.77095,61.222637
6233,200 MULDOON RD,Anchorage,AK,99504,"200 MULDOON RD, Anchorage, AK, 99504",Match,Exact,"200 MULDOON RD, ANCHORAGE, AK, 99504",190803191,R,02,020,000702,2000,-149.73352,61.222225
6234,215 ALASKA PL,Anchorage,AK,99504,"215 ALASKA PL, Anchorage, AK, 99504",Match,Exact,"215 ALASKA PL, ANCHORAGE, AK, 99504",190810872,L,02,020,000702,2008,-149.74663,61.222004000000005
6235,208 ORANGE LEAF CIR,Anchorage,AK,99504,"208 ORANGE LEAF CIR, Anchorage, AK, 99504",Match,Exact,"208 ORANGE LEAF CIR, ANCHORAGE, AK, 99504",190803309,L,02,020,000703,1013,-149.71944,61.222305000000006
6236,258 ZAPPA PL,Anchorage,AK,99504,"258 ZAPPA PL, Anchorage, AK, 99504",Match,Exact,"258 ZAPPA PL, ANCHORAGE, AK, 99504",190803204,R,02,020,000703,2003,-149.72601,61.22136
6237,245 YELLOW LEAF CIR,Anchorage,AK,99504,"245 YELLOW LEAF CIR, Anchorage, AK, 99504",Match,Exact,"245 YELLOW LEAF CIR, ANCHORAGE, AK, 99504",190803334,L,02,020,000703,1013,-149.7194,61.220848
6238,301 STEWART ST,Anchorage,AK,99508,"301 STEWART ST, Anchorage, AK, 99508",Match,Exact,"301 STEWART ST, ANCHORAGE, AK, 99508",190801748,L,02,020,000801,2009,-149.78789,61.221428
6239,322 LIONHEART CT,Anchorage,AK,99508,"322 LIONHEART CT, Anchorage, AK, 99508",Match,Exact,"322 LIONHEART CT, ANCHORAGE, AK, 99508",190812092,L,02,020,000801,3008,-149.78201,61.22129399999999
6240,253 TURPIN ST,Anchorage,AK,99504,"253 TURPIN ST, Anchorage, AK, 99504",Match,Exact,"253 TURPIN ST, ANCHORAGE, AK, 99504",190802739,L,02,020,000702,3005,-149.75597,61.221157
6241,253 TURPIN ST,Anchorage,AK,99504,"253 TURPIN ST, Anchorage, AK, 99504",Match,Exact,"253 TURPIN ST, ANCHORAGE, AK, 99504",190802739,L,02,020,000702,3005,-149.75597,61.221157
6242,253 TURPIN ST,Anchorage,AK,99504,"253 TURPIN ST, Anchorage, AK, 99504",Match,Exact,"253 TURPIN ST, ANCHORAGE, AK, 99504",190802739,L,02,020,000702,3005,-149.75597,61.221157
6243,257 KESTER CIR,Anchorage,AK,99504,"257 KESTER CIR, Anchorage, AK, 99504",Match,Exact,"257 KESTER CIR, ANCHORAGE, AK, 99504",190803210,R,02,020,000702,2000,-149.73619,61.220898
6244,244 FALL LEAF CIR,Anchorage,AK,99504,"244 FALL LEAF CIR, Anchorage, AK, 99504",Match,Exact,"244 FALL LEAF CIR, ANCHORAGE, AK, 99504",190803320,R,02,020,000703,1013,-149.72131000000002,61.22084
6245,248 CREEKSIDE ST,Anchorage,AK,99504,"248 CREEKSIDE ST, Anchorage, AK, 99504",Match,Exact,"248 CREEKSIDE ST, ANCHORAGE, AK, 99504",190816630,L,02,020,000702,2001,-149.74101000000002,61.221016000000006
6246,241 FALL LEAF CIR,Anchorage,AK,99504,"241 FALL LEAF CIR, Anchorage, AK, 99504",Match,Exact,"241 FALL LEAF CIR, ANCHORAGE, AK, 99504",190803320,L,02,020,000703,1013,-149.72128,61.220859999999995
6247,8395 DUBEN AVE,Anchorage,AK,99504,"8395 DUBEN AVE, Anchorage, AK, 99504",Match,Exact,"8395 DUBEN AVE, ANCHORAGE, AK, 99504",605183644,L,02,020,000703,1013,-149.7238,61.22062
6248,313 DAVIS ST,Anchorage,AK,99508,"313 DAVIS ST, Anchorage, AK, 99508",Match,Exact,"313 DAVIS ST, ANCHORAGE, AK, 99508",190801967,L,02,020,000801,3009,-149.78607,61.22136
6249,248 FALL LEAF CIR,Anchorage,AK,99504,"248 FALL LEAF CIR, Anchorage, AK, 99504",Match,Exact,"248 FALL LEAF CIR, ANCHORAGE, AK, 99504",190803320,R,02,020,000703,1013,-149.72131000000002,61.220825
6250,245 FALL LEAF CIR,Anchorage,AK,99504,"245 FALL LEAF CIR, Anchorage, AK, 99504",Match,Exact,"245 FALL LEAF CIR, ANCHORAGE, AK, 99504",190803320,L,02,020,000703,1013,-149.72128,61.22084
6251,243 ALASKA PL,Anchorage,AK,99504,"243 ALASKA PL, Anchorage, AK, 99504",Match,Exact,"243 ALASKA PL, ANCHORAGE, AK, 99504",190810872,L,02,020,000702,2008,-149.74663,61.22156999999999
6252,243 ALASKA PL,Anchorage,AK,99504,"243 ALASKA PL, Anchorage, AK, 99504",Match,Exact,"243 ALASKA PL, ANCHORAGE, AK, 99504",190810872,L,02,020,000702,2008,-149.74663,61.22156999999999
6253,248 YELLOW LEAF CIR,Anchorage,AK,99504,"248 YELLOW LEAF CIR, Anchorage, AK, 99504",Match,Exact,"248 YELLOW LEAF CIR, ANCHORAGE, AK, 99504",190803334,R,02,020,000703,1013,-149.71944,61.22083000000001
6254,249 YELLOW LEAF CIR,Anchorage,AK,99504,"249 YELLOW LEAF CIR, Anchorage, AK, 99504",Match,Exact,"249 YELLOW LEAF CIR, ANCHORAGE, AK, 99504",190803334,L,02,020,000703,1013,-149.7194,61.22083000000001
6255,248 OKLAHOMA ST,Anchorage,AK,99504,"248 OKLAHOMA ST, Anchorage, AK, 99504",Match,Exact,"248 OKLAHOMA ST, ANCHORAGE, AK, 99504",190802855,R,02,020,000702,2008,-149.74477,61.221478000000005
6256,248 OKLAHOMA ST,Anchorage,AK,99504,"248 OKLAHOMA ST, Anchorage, AK, 99504",Match,Exact,"248 OKLAHOMA ST, ANCHORAGE, AK, 99504",190802855,R,02,020,000702,2008,-149.74477,61.221478000000005
6257,8405 DUBEN AVE,Anchorage,AK,99504,"8405 DUBEN AVE, Anchorage, AK, 99504",Match,Exact,"8405 DUBEN AVE, ANCHORAGE, AK, 99504",605183645,L,02,020,000703,1013,-149.72336,61.22062
6258,20412 DRIFTWOOD BAY DR,Anchorage,AK,99577,"20412 DRIFTWOOD BAY DR, Anchorage, AK, 99577",Match,Non_Exact,"20412 DRIFTWOOD BAY DR, EAGLE RIVER, AK, 99577",625727883,L,02,020,000203,3000,-149.50096000000002,61.300143999999996
6259,8820 KAK ISLAND ST,Anchorage,AK,99577,"8820 KAK ISLAND ST, Anchorage, AK, 99577",Match,Non_Exact,"8820 KAK ISLAND ST, EAGLE RIVER, AK, 99577",190818619,R,02,020,000203,3014,-149.53076000000001,61.300090000000004
6260,32530 EAGLE VISTA DR,Anchorage,AK,99577,"32530 EAGLE VISTA DR, Anchorage, AK, 99577",Match,Non_Exact,"32530 EAGLE VISTA DR, EAGLE RIVER, AK, 99577",605288110,R,02,020,000204,1006,-149.27397,61.2525
6261,32184 EAGLE VISTA DR,Anchorage,AK,99577,"32184 EAGLE VISTA DR, Anchorage, AK, 99577",Match,Non_Exact,"32184 EAGLE VISTA DR, EAGLE RIVER, AK, 99577",605288109,R,02,020,000204,1006,-149.28021,61.250004000000004
6262,3141 MISTY MOUNTAIN RD,Anchorage,AK,99577,"3141 MISTY MOUNTAIN RD, Anchorage, AK, 99577",Match,Non_Exact,"3141 MISTY MOUNTAIN RD, EAGLE RIVER, AK, 99577",190814366,R,02,020,000204,1006,-149.29018,61.248676
6263,3141 MISTY MOUNTAIN RD,Anchorage,AK,99577,"3141 MISTY MOUNTAIN RD, Anchorage, AK, 99577",Match,Non_Exact,"3141 MISTY MOUNTAIN RD, EAGLE RIVER, AK, 99577",190814366,R,02,020,000204,1006,-149.29018,61.248676
6264,3154 MISTY MOUNTAIN RD,Anchorage,AK,99577,"3154 MISTY MOUNTAIN RD, Anchorage, AK, 99577",Match,Non_Exact,"3154 MISTY MOUNTAIN RD, EAGLE RIVER, AK, 99577",190814366,L,02,020,000204,1017,-149.2899,61.24819
6265,31445 MISTY MOUNTAIN CIR,Anchorage,AK,99577,"31445 MISTY MOUNTAIN CIR, Anchorage, AK, 99577",Match,Non_Exact,"31445 MISTY MOUNTAIN CIR, EAGLE RIVER, AK, 99577",190814367,R,02,020,000204,1017,-149.29288,61.24839
6266,2947 MISTY MOUNTAIN RD,Anchorage,AK,99577,"2947 MISTY MOUNTAIN RD, Anchorage, AK, 99577",Match,Non_Exact,"2947 MISTY MOUNTAIN RD, EAGLE RIVER, AK, 99577",190827155,R,02,020,000204,1006,-149.29148999999998,61.24725
6267,3016 MISTY MOUNTAIN RD,Anchorage,AK,99577,"3016 MISTY MOUNTAIN RD, Anchorage, AK, 99577",Match,Non_Exact,"3016 MISTY MOUNTAIN RD, EAGLE RIVER, AK, 99577",190827155,L,02,020,000204,1017,-149.29148999999998,61.24722
6268,31807 EAGLE RIVER RD,Anchorage,AK,99577,"31807 EAGLE RIVER RD, Anchorage, AK, 99577",Match,Non_Exact,"31807 EAGLE RIVER RD, EAGLE RIVER, AK, 99577",614861871,L,02,020,000204,1000,-149.28534,61.243973
6269,2916 MISTY MOUNTAIN RD,Anchorage,AK,99577,"2916 MISTY MOUNTAIN RD, Anchorage, AK, 99577",Match,Non_Exact,"2916 MISTY MOUNTAIN RD, EAGLE RIVER, AK, 99577",190827155,L,02,020,000204,1006,-149.2904,61.24638
6270,31815 EAGLE RIVER RD,Anchorage,AK,99577,"31815 EAGLE RIVER RD, Anchorage, AK, 99577",Match,Non_Exact,"31815 EAGLE RIVER RD, EAGLE RIVER, AK, 99577",614861871,L,02,020,000204,1000,-149.28528,61.243958
6271,31805 EAGLE RIVER RD,Anchorage,AK,99577,"31805 EAGLE RIVER RD, Anchorage, AK, 99577",Match,Non_Exact,"31805 EAGLE RIVER RD, EAGLE RIVER, AK, 99577",614861871,L,02,020,000204,1000,-149.28535,61.243977
6272,2858 MISTY MOUNTAIN RD,Anchorage,AK,99577,"2858 MISTY MOUNTAIN RD, Anchorage, AK, 99577",Match,Non_Exact,"2858 MISTY MOUNTAIN RD, EAGLE RIVER, AK, 99577",190827155,L,02,020,000204,1017,-149.29086,61.245888
6273,2824 MISTY MOUNTAIN RD,Anchorage,AK,99577,"2824 MISTY MOUNTAIN RD, Anchorage, AK, 99577",Match,Non_Exact,"2824 MISTY MOUNTAIN RD, EAGLE RIVER, AK, 99577",190818213,L,02,020,000204,1016,-149.29396,61.24576999999999
6274,8628 BOUNDARY AVE,Anchorage,AK,99504,"8628 BOUNDARY AVE, Anchorage, AK, 99504",Match,Exact,"8628 BOUNDARY AVE, ANCHORAGE, AK, 99504",639710376,R,02,020,000703,1011,-149.72066999999998,61.224136
6275,8628 BOUNDARY AVE,Anchorage,AK,99504,"8628 BOUNDARY AVE, Anchorage, AK, 99504",Match,Exact,"8628 BOUNDARY AVE, ANCHORAGE, AK, 99504",639710376,R,02,020,000703,1011,-149.72066999999998,61.224136
6276,8628 BOUNDARY AVE,Anchorage,AK,99504,"8628 BOUNDARY AVE, Anchorage, AK, 99504",Match,Exact,"8628 BOUNDARY AVE, ANCHORAGE, AK, 99504",639710376,R,02,020,000703,1011,-149.72066999999998,61.224136
6277,8628 BOUNDARY AVE,Anchorage,AK,99504,"8628 BOUNDARY AVE, Anchorage, AK, 99504",Match,Exact,"8628 BOUNDARY AVE, ANCHORAGE, AK, 99504",639710376,R,02,020,000703,1011,-149.72066999999998,61.224136
6278,8628 BOUNDARY AVE,Anchorage,AK,99504,"8628 BOUNDARY AVE, Anchorage, AK, 99504",Match,Exact,"8628 BOUNDARY AVE, ANCHORAGE, AK, 99504",639710376,R,02,020,000703,1011,-149.72066999999998,61.224136
6279,8628 BOUNDARY AVE,Anchorage,AK,99504,"8628 BOUNDARY AVE, Anchorage, AK, 99504",Match,Exact,"8628 BOUNDARY AVE, ANCHORAGE, AK, 99504",639710376,R,02,020,000703,1011,-149.72066999999998,61.224136
6280,8624 BOUNDARY AVE,Anchorage,AK,99504,"8624 BOUNDARY AVE, Anchorage, AK, 99504",Match,Exact,"8624 BOUNDARY AVE, ANCHORAGE, AK, 99504",639710376,R,02,020,000703,1011,-149.72075,61.224136
6281,8624 BOUNDARY AVE,Anchorage,AK,99504,"8624 BOUNDARY AVE, Anchorage, AK, 99504",Match,Exact,"8624 BOUNDARY AVE, ANCHORAGE, AK, 99504",639710376,R,02,020,000703,1011,-149.72075,61.224136
6282,8624 BOUNDARY AVE,Anchorage,AK,99504,"8624 BOUNDARY AVE, Anchorage, AK, 99504",Match,Exact,"8624 BOUNDARY AVE, ANCHORAGE, AK, 99504",639710376,R,02,020,000703,1011,-149.72075,61.224136
6283,8624 BOUNDARY AVE,Anchorage,AK,99504,"8624 BOUNDARY AVE, Anchorage, AK, 99504",Match,Exact,"8624 BOUNDARY AVE, ANCHORAGE, AK, 99504",639710376,R,02,020,000703,1011,-149.72075,61.224136
6284,8608 BOUNDARY AVE,Anchorage,AK,99504,"8608 BOUNDARY AVE, Anchorage, AK, 99504",Match,Exact,"8608 BOUNDARY AVE, ANCHORAGE, AK, 99504",639710376,R,02,020,000703,1011,-149.72101999999998,61.224136
6285,8608 BOUNDARY AVE,Anchorage,AK,99504,"8608 BOUNDARY AVE, Anchorage, AK, 99504",Match,Exact,"8608 BOUNDARY AVE, ANCHORAGE, AK, 99504",639710376,R,02,020,000703,1011,-149.72101999999998,61.224136
6286,8608 BOUNDARY AVE,Anchorage,AK,99504,"8608 BOUNDARY AVE, Anchorage, AK, 99504",Match,Exact,"8608 BOUNDARY AVE, ANCHORAGE, AK, 99504",639710376,R,02,020,000703,1011,-149.72101999999998,61.224136
6287,8608 BOUNDARY AVE,Anchorage,AK,99504,"8608 BOUNDARY AVE, Anchorage, AK, 99504",Match,Exact,"8608 BOUNDARY AVE, ANCHORAGE, AK, 99504",639710376,R,02,020,000703,1011,-149.72101999999998,61.224136
6288,8620 BOUNDARY AVE,Anchorage,AK,99504,"8620 BOUNDARY AVE, Anchorage, AK, 99504",Match,Exact,"8620 BOUNDARY AVE, ANCHORAGE, AK, 99504",639710376,R,02,020,000703,1011,-149.72081,61.224136
6289,6515 WHISPERING LOOP,Anchorage,AK,99504,"6515 WHISPERING LOOP, Anchorage, AK, 99504",Match,Exact,"6515 WHISPERING LOOP, ANCHORAGE, AK, 99504",624788736,R,02,020,000701,1013,-149.7598,61.220966000000004
6290,6515 WHISPERING LOOP,Anchorage,AK,99504,"6515 WHISPERING LOOP, Anchorage, AK, 99504",Match,Exact,"6515 WHISPERING LOOP, ANCHORAGE, AK, 99504",624788736,R,02,020,000701,1013,-149.7598,61.220966000000004
6291,267 PATTERSON ST,Anchorage,AK,99504,"267 PATTERSON ST, Anchorage, AK, 99504",Match,Exact,"267 PATTERSON ST, ANCHORAGE, AK, 99504",190802866,L,02,020,000702,2007,-149.7485,61.221104000000004
6292,267 PATTERSON ST,Anchorage,AK,99504,"267 PATTERSON ST, Anchorage, AK, 99504",Match,Exact,"267 PATTERSON ST, ANCHORAGE, AK, 99504",190802866,L,02,020,000702,2007,-149.7485,61.221104000000004
6293,331 LIONHEART CT,Anchorage,AK,99508,"331 LIONHEART CT, Anchorage, AK, 99508",Match,Exact,"331 LIONHEART CT, ANCHORAGE, AK, 99508",190812092,R,02,020,000801,3008,-149.78215,61.221244999999996
6294,6457 WHISPERING LOOP,Anchorage,AK,99504,"6457 WHISPERING LOOP, Anchorage, AK, 99504",Match,Exact,"6457 WHISPERING LOOP, ANCHORAGE, AK, 99504",624788733,L,02,020,000701,1013,-149.76141,61.220955000000004
6295,6457 WHISPERING LOOP,Anchorage,AK,99504,"6457 WHISPERING LOOP, Anchorage, AK, 99504",Match,Exact,"6457 WHISPERING LOOP, ANCHORAGE, AK, 99504",624788733,L,02,020,000701,1013,-149.76141,61.220955000000004
6296,8415 DUBEN AVE,Anchorage,AK,99504,"8415 DUBEN AVE, Anchorage, AK, 99504",Match,Exact,"8415 DUBEN AVE, ANCHORAGE, AK, 99504",605183645,L,02,020,000703,1013,-149.72316,61.22062
6297,283 MULDOON RD,Anchorage,AK,99504,"283 MULDOON RD, Anchorage, AK, 99504",Match,Exact,"283 MULDOON RD, ANCHORAGE, AK, 99504",190803191,L,02,020,000703,2002,-149.73349,61.220955000000004
6298,264 FALL LEAF CIR,Anchorage,AK,99504,"264 FALL LEAF CIR, Anchorage, AK, 99504",Match,Exact,"264 FALL LEAF CIR, ANCHORAGE, AK, 99504",190803320,R,02,020,000703,1013,-149.72131000000002,61.22075699999999
6299,250 SKYHAVEN CIR,Anchorage,AK,99504,"250 SKYHAVEN CIR, Anchorage, AK, 99504",Match,Exact,"250 SKYHAVEN CIR, ANCHORAGE, AK, 99504",190816627,L,02,020,000702,2001,-149.74286999999998,61.220806
6300,251 SKYHAVEN CIR,Anchorage,AK,99504,"251 SKYHAVEN CIR, Anchorage, AK, 99504",Match,Exact,"251 SKYHAVEN CIR, ANCHORAGE, AK, 99504",190816627,R,02,020,000702,2001,-149.74284,61.220806
6301,100 MC CARREY ST,Anchorage,AK,99508,"100 MC CARREY ST, Anchorage, AK, 99508",Match,Exact,"100 MC CARREY ST, ANCHORAGE, AK, 99508",605167268,R,02,020,000801,1000,-149.79173,61.223273999999996
6302,106 STEWART ST,Anchorage,AK,99508,"106 STEWART ST, Anchorage, AK, 99508",Match,Exact,"106 STEWART ST, ANCHORAGE, AK, 99508",190801683,R,02,020,000801,2001,-149.78791999999999,61.223994999999995
6303,106 DAVIS ST,Anchorage,AK,99508,"106 DAVIS ST, Anchorage, AK, 99508",Match,Exact,"106 DAVIS ST, ANCHORAGE, AK, 99508",190801934,R,02,020,000801,2002,-149.7861,61.22405
6304,107 STEWART ST,Anchorage,AK,99508,"107 STEWART ST, Anchorage, AK, 99508",Match,Exact,"107 STEWART ST, ANCHORAGE, AK, 99508",190801683,L,02,020,000801,2002,-149.78789,61.223994999999995
6305,107 BUNNELL ST,Anchorage,AK,99508,"107 BUNNELL ST, Anchorage, AK, 99508",Match,Exact,"107 BUNNELL ST, ANCHORAGE, AK, 99508",190801680,L,02,020,000801,2001,-149.78972,61.223969999999994
6306,107 BUNNELL ST,Anchorage,AK,99508,"107 BUNNELL ST, Anchorage, AK, 99508",Match,Exact,"107 BUNNELL ST, ANCHORAGE, AK, 99508",190801680,L,02,020,000801,2001,-149.78972,61.223969999999994
6307,107 BUNNELL ST,Anchorage,AK,99508,"107 BUNNELL ST, Anchorage, AK, 99508",Match,Exact,"107 BUNNELL ST, ANCHORAGE, AK, 99508",190801680,L,02,020,000801,2001,-149.78972,61.223969999999994
6308,107 BUNNELL ST,Anchorage,AK,99508,"107 BUNNELL ST, Anchorage, AK, 99508",Match,Exact,"107 BUNNELL ST, ANCHORAGE, AK, 99508",190801680,L,02,020,000801,2001,-149.78972,61.223969999999994
6309,5405 CHENA AVE,Anchorage,AK,99508,"5405 CHENA AVE, Anchorage, AK, 99508",Match,Exact,"5405 CHENA AVE, ANCHORAGE, AK, 99508",190801958,L,02,020,000801,3003,-149.78072,61.22325
6310,5405 CHENA AVE,Anchorage,AK,99508,"5405 CHENA AVE, Anchorage, AK, 99508",Match,Exact,"5405 CHENA AVE, ANCHORAGE, AK, 99508",190801958,L,02,020,000801,3003,-149.78072,61.22325
6311,5405 CHENA AVE,Anchorage,AK,99508,"5405 CHENA AVE, Anchorage, AK, 99508",Match,Exact,"5405 CHENA AVE, ANCHORAGE, AK, 99508",190801958,L,02,020,000801,3003,-149.78072,61.22325
6312,5405 CHENA AVE,Anchorage,AK,99508,"5405 CHENA AVE, Anchorage, AK, 99508",Match,Exact,"5405 CHENA AVE, ANCHORAGE, AK, 99508",190801958,L,02,020,000801,3003,-149.78072,61.22325
6313,5403 CHENA AVE,Anchorage,AK,99508,"5403 CHENA AVE, Anchorage, AK, 99508",Match,Exact,"5403 CHENA AVE, ANCHORAGE, AK, 99508",190801958,L,02,020,000801,3003,-149.78075,61.22325
6314,5401 CHENA AVE,Anchorage,AK,99508,"5401 CHENA AVE, Anchorage, AK, 99508",Match,Exact,"5401 CHENA AVE, ANCHORAGE, AK, 99508",190801958,L,02,020,000801,3003,-149.78078,61.22325
6315,140 OKLAHOMA ST,Anchorage,AK,99504,"140 OKLAHOMA ST, Anchorage, AK, 99504",Match,Exact,"140 OKLAHOMA ST, ANCHORAGE, AK, 99504",190802853,R,02,020,000702,1005,-149.74478,61.223169999999996
6316,140 OKLAHOMA ST,Anchorage,AK,99504,"140 OKLAHOMA ST, Anchorage, AK, 99504",Match,Exact,"140 OKLAHOMA ST, ANCHORAGE, AK, 99504",190802853,R,02,020,000702,1005,-149.74478,61.223169999999996
6317,140 OKLAHOMA ST,Anchorage,AK,99504,"140 OKLAHOMA ST, Anchorage, AK, 99504",Match,Exact,"140 OKLAHOMA ST, ANCHORAGE, AK, 99504",190802853,R,02,020,000702,1005,-149.74478,61.223169999999996
6318,140 OKLAHOMA ST,Anchorage,AK,99504,"140 OKLAHOMA ST, Anchorage, AK, 99504",Match,Exact,"140 OKLAHOMA ST, ANCHORAGE, AK, 99504",190802853,R,02,020,000702,1005,-149.74478,61.223169999999996
6319,140 OKLAHOMA ST,Anchorage,AK,99504,"140 OKLAHOMA ST, Anchorage, AK, 99504",Match,Exact,"140 OKLAHOMA ST, ANCHORAGE, AK, 99504",190802853,R,02,020,000702,1005,-149.74478,61.223169999999996
6320,171 JELINEK PL,Anchorage,AK,99504,"171 JELINEK PL, Anchorage, AK, 99504",Match,Exact,"171 JELINEK PL, ANCHORAGE, AK, 99504",190803206,L,02,020,000703,1011,-149.72507,61.222942
6321,227 NEWELL ST,Anchorage,AK,99504,"227 NEWELL ST, Anchorage, AK, 99504",Match,Exact,"227 NEWELL ST, ANCHORAGE, AK, 99504",605167293,R,02,020,000701,1000,-149.77095,61.222637
6322,6855 PECK AVE,Anchorage,AK,99504,"6855 PECK AVE, Anchorage, AK, 99504",Match,Exact,"6855 PECK AVE, ANCHORAGE, AK, 99504",190820031,R,02,020,000702,3003,-149.75266000000002,61.222609999999996
6323,288 WHISPER KNOLL CIR,Anchorage,AK,99504,"288 WHISPER KNOLL CIR, Anchorage, AK, 99504",Match,Exact,"288 WHISPER KNOLL CIR, ANCHORAGE, AK, 99504",605185014,R,02,020,000701,1013,-149.7609,61.221844
6324,288 WHISPER KNOLL CIR,Anchorage,AK,99504,"288 WHISPER KNOLL CIR, Anchorage, AK, 99504",Match,Exact,"288 WHISPER KNOLL CIR, ANCHORAGE, AK, 99504",605185014,R,02,020,000701,1013,-149.7609,61.221844
6325,254 FRIENDLY ST,Anchorage,AK,99504,"254 FRIENDLY ST, Anchorage, AK, 99504",Match,Exact,"254 FRIENDLY ST, ANCHORAGE, AK, 99504",190823630,R,02,020,000703,2003,-149.72795,61.22084
6326,242 GRAND LARRY ST,Anchorage,AK,99504,"242 GRAND LARRY ST, Anchorage, AK, 99504",Match,Exact,"242 GRAND LARRY ST, ANCHORAGE, AK, 99504",190803200,R,02,020,000703,2002,-149.72978,61.221596
6327,242 GRAND LARRY ST,Anchorage,AK,99504,"242 GRAND LARRY ST, Anchorage, AK, 99504",Match,Exact,"242 GRAND LARRY ST, ANCHORAGE, AK, 99504",190803200,R,02,020,000703,2002,-149.72978,61.221596
6328,242 GRAND LARRY ST,Anchorage,AK,99504,"242 GRAND LARRY ST, Anchorage, AK, 99504",Match,Exact,"242 GRAND LARRY ST, ANCHORAGE, AK, 99504",190803200,R,02,020,000703,2002,-149.72978,61.221596
6329,242 GRAND LARRY ST,Anchorage,AK,99504,"242 GRAND LARRY ST, Anchorage, AK, 99504",Match,Exact,"242 GRAND LARRY ST, ANCHORAGE, AK, 99504",190803200,R,02,020,000703,2002,-149.72978,61.221596
6330,299 WHISPER KNOLL CIR,Anchorage,AK,99504,"299 WHISPER KNOLL CIR, Anchorage, AK, 99504",Match,Exact,"299 WHISPER KNOLL CIR, ANCHORAGE, AK, 99504",605185014,L,02,020,000701,1013,-149.76086,61.221798
6331,299 WHISPER KNOLL CIR,Anchorage,AK,99504,"299 WHISPER KNOLL CIR, Anchorage, AK, 99504",Match,Exact,"299 WHISPER KNOLL CIR, ANCHORAGE, AK, 99504",605185014,L,02,020,000701,1013,-149.76086,61.221798
6332,245 FIREOVED DR,Anchorage,AK,99508,"245 FIREOVED DR, Anchorage, AK, 99508",Match,Exact,"245 FIREOVED DR, ANCHORAGE, AK, 99508",643733471,L,02,020,000801,3008,-149.78296,61.22185
6333,268 FIREOVED DR,Anchorage,AK,99508,"268 FIREOVED DR, Anchorage, AK, 99508",Match,Exact,"268 FIREOVED DR, ANCHORAGE, AK, 99508",643733471,R,02,020,000801,3009,-149.78337,61.22175
6334,6345 WHISPERING LOOP,Anchorage,AK,99504,"6345 WHISPERING LOOP, Anchorage, AK, 99504",Match,Exact,"6345 WHISPERING LOOP, ANCHORAGE, AK, 99504",624788733,L,02,020,000701,1013,-149.76254,61.221664000000004
6335,6345 WHISPERING LOOP,Anchorage,AK,99504,"6345 WHISPERING LOOP, Anchorage, AK, 99504",Match,Exact,"6345 WHISPERING LOOP, ANCHORAGE, AK, 99504",624788733,L,02,020,000701,1013,-149.76254,61.221664000000004
6336,235 ALASKA PL,Anchorage,AK,99504,"235 ALASKA PL, Anchorage, AK, 99504",Match,Exact,"235 ALASKA PL, ANCHORAGE, AK, 99504",190810872,L,02,020,000702,2008,-149.74663,61.221695
6337,7025 TRAFFORD DR,Anchorage,AK,99504,"7025 TRAFFORD DR, Anchorage, AK, 99504",Match,Exact,"7025 TRAFFORD DR, ANCHORAGE, AK, 99504",638994280,R,02,020,000702,3002,-149.75018,61.221474
6338,6683 WHISPERING LOOP,Anchorage,AK,99504,"6683 WHISPERING LOOP, Anchorage, AK, 99504",Match,Exact,"6683 WHISPERING LOOP, ANCHORAGE, AK, 99504",624788736,R,02,020,000701,1013,-149.7571,61.22155
6339,6683 WHISPERING LOOP,Anchorage,AK,99504,"6683 WHISPERING LOOP, Anchorage, AK, 99504",Match,Exact,"6683 WHISPERING LOOP, ANCHORAGE, AK, 99504",624788736,R,02,020,000701,1013,-149.7571,61.22155
6340,7013 TRAFFORD DR,Anchorage,AK,99504,"7013 TRAFFORD DR, Anchorage, AK, 99504",Match,Exact,"7013 TRAFFORD DR, ANCHORAGE, AK, 99504",638994280,R,02,020,000702,3002,-149.7504,61.22147
6341,7001 TRAFFORD DR,Anchorage,AK,99504,"7001 TRAFFORD DR, Anchorage, AK, 99504",Match,Exact,"7001 TRAFFORD DR, ANCHORAGE, AK, 99504",638994280,R,02,020,000702,3002,-149.75061000000002,61.22147
6342,6939 TRAFFORD DR,Anchorage,AK,99504,"6939 TRAFFORD DR, Anchorage, AK, 99504",Match,Exact,"6939 TRAFFORD DR, ANCHORAGE, AK, 99504",638994280,R,02,020,000702,3002,-149.75172,61.22147
6343,238 ALASKA PL,Anchorage,AK,99504,"238 ALASKA PL, Anchorage, AK, 99504",Match,Exact,"238 ALASKA PL, ANCHORAGE, AK, 99504",190810872,R,02,020,000702,2007,-149.74663999999999,61.221633999999995
6344,7721 DUBEN AVE,Anchorage,AK,99504,"7721 DUBEN AVE, Anchorage, AK, 99504",Match,Exact,"7721 DUBEN AVE, ANCHORAGE, AK, 99504",190803212,L,02,020,000702,2000,-149.73596,61.220562
6345,6921 DICKERSON DR,Anchorage,AK,99504,"6921 DICKERSON DR, Anchorage, AK, 99504",Match,Exact,"6921 DICKERSON DR, ANCHORAGE, AK, 99504",190802810,L,02,020,000702,3004,-149.7525,61.220893999999994
6346,7247 DUBEN AVE,Anchorage,AK,99504,"7247 DUBEN AVE, Anchorage, AK, 99504",Match,Exact,"7247 DUBEN AVE, ANCHORAGE, AK, 99504",190808918,L,02,020,000702,2008,-149.74573999999998,61.220562
6347,7237 DUBEN AVE,Anchorage,AK,99504,"7237 DUBEN AVE, Anchorage, AK, 99504",Match,Exact,"7237 DUBEN AVE, ANCHORAGE, AK, 99504",190808918,L,02,020,000702,2008,-149.74591,61.220562
6348,7237 DUBEN AVE,Anchorage,AK,99504,"7237 DUBEN AVE, Anchorage, AK, 99504",Match,Exact,"7237 DUBEN AVE, ANCHORAGE, AK, 99504",190808918,L,02,020,000702,2008,-149.74591,61.220562
6349,7237 DUBEN AVE,Anchorage,AK,99504,"7237 DUBEN AVE, Anchorage, AK, 99504",Match,Exact,"7237 DUBEN AVE, ANCHORAGE, AK, 99504",190808918,L,02,020,000702,2008,-149.74591,61.220562
6350,7237 DUBEN AVE,Anchorage,AK,99504,"7237 DUBEN AVE, Anchorage, AK, 99504",Match,Exact,"7237 DUBEN AVE, ANCHORAGE, AK, 99504",190808918,L,02,020,000702,2008,-149.74591,61.220562
6351,7227 DUBEN AVE,Anchorage,AK,99504,"7227 DUBEN AVE, Anchorage, AK, 99504",Match,Exact,"7227 DUBEN AVE, ANCHORAGE, AK, 99504",190808918,L,02,020,000702,2008,-149.74606,61.220562
6352,7207 DUBEN AVE,Anchorage,AK,99504,"7207 DUBEN AVE, Anchorage, AK, 99504",Match,Exact,"7207 DUBEN AVE, ANCHORAGE, AK, 99504",190808918,L,02,020,000702,2008,-149.74638000000002,61.220562
6353,7207 DUBEN AVE,Anchorage,AK,99504,"7207 DUBEN AVE, Anchorage, AK, 99504",Match,Exact,"7207 DUBEN AVE, ANCHORAGE, AK, 99504",190808918,L,02,020,000702,2008,-149.74638000000002,61.220562
6354,7207 DUBEN AVE,Anchorage,AK,99504,"7207 DUBEN AVE, Anchorage, AK, 99504",Match,Exact,"7207 DUBEN AVE, ANCHORAGE, AK, 99504",190808918,L,02,020,000702,2008,-149.74638000000002,61.220562
6355,7207 DUBEN AVE,Anchorage,AK,99504,"7207 DUBEN AVE, Anchorage, AK, 99504",Match,Exact,"7207 DUBEN AVE, ANCHORAGE, AK, 99504",190808918,L,02,020,000702,2008,-149.74638000000002,61.220562
6356,7125 DUBEN AVE,Anchorage,AK,99504,"7125 DUBEN AVE, Anchorage, AK, 99504",Match,Exact,"7125 DUBEN AVE, ANCHORAGE, AK, 99504",190802872,L,02,020,000702,2007,-149.74797,61.220562
6357,249 FALL LEAF CIR,Anchorage,AK,99504,"249 FALL LEAF CIR, Anchorage, AK, 99504",Match,Exact,"249 FALL LEAF CIR, ANCHORAGE, AK, 99504",190803320,L,02,020,000703,1013,-149.72128,61.220825
6358,255 CREEKSIDE ST,Anchorage,AK,99504,"255 CREEKSIDE ST, Anchorage, AK, 99504",Match,Exact,"255 CREEKSIDE ST, ANCHORAGE, AK, 99504",190816630,R,02,020,000702,2001,-149.741,61.220969999999994
6359,252 FALL LEAF CIR,Anchorage,AK,99504,"252 FALL LEAF CIR, Anchorage, AK, 99504",Match,Exact,"252 FALL LEAF CIR, ANCHORAGE, AK, 99504",190803320,R,02,020,000703,1013,-149.72131000000002,61.220806
6360,257 PATTERSON ST,Anchorage,AK,99504,"257 PATTERSON ST, Anchorage, AK, 99504",Match,Exact,"257 PATTERSON ST, ANCHORAGE, AK, 99504",190802866,L,02,020,000702,2007,-149.7485,61.221252
6361,257 PATTERSON ST,Anchorage,AK,99504,"257 PATTERSON ST, Anchorage, AK, 99504",Match,Exact,"257 PATTERSON ST, ANCHORAGE, AK, 99504",190802866,L,02,020,000702,2007,-149.7485,61.221252
6362,312 FIREOVED DR,Anchorage,AK,99508,"312 FIREOVED DR, Anchorage, AK, 99508",Match,Exact,"312 FIREOVED DR, ANCHORAGE, AK, 99508",643733471,R,02,020,000801,3009,-149.78409,61.221523
6363,252 YELLOW LEAF CIR,Anchorage,AK,99504,"252 YELLOW LEAF CIR, Anchorage, AK, 99504",Match,Exact,"252 YELLOW LEAF CIR, ANCHORAGE, AK, 99504",190803334,R,02,020,000703,1013,-149.71944,61.220814000000004
6364,120 OKLAHOMA ST,Anchorage,AK,99504,"120 OKLAHOMA ST, Anchorage, AK, 99504",Match,Exact,"120 OKLAHOMA ST, ANCHORAGE, AK, 99504",190802852,R,02,020,000702,1005,-149.7448,61.223682
6365,120 OKLAHOMA ST,Anchorage,AK,99504,"120 OKLAHOMA ST, Anchorage, AK, 99504",Match,Exact,"120 OKLAHOMA ST, ANCHORAGE, AK, 99504",190802852,R,02,020,000702,1005,-149.7448,61.223682
6366,120 OKLAHOMA ST,Anchorage,AK,99504,"120 OKLAHOMA ST, Anchorage, AK, 99504",Match,Exact,"120 OKLAHOMA ST, ANCHORAGE, AK, 99504",190802852,R,02,020,000702,1005,-149.7448,61.223682
6367,120 OKLAHOMA ST,Anchorage,AK,99504,"120 OKLAHOMA ST, Anchorage, AK, 99504",Match,Exact,"120 OKLAHOMA ST, ANCHORAGE, AK, 99504",190802852,R,02,020,000702,1005,-149.7448,61.223682
6368,120 OKLAHOMA ST,Anchorage,AK,99504,"120 OKLAHOMA ST, Anchorage, AK, 99504",Match,Exact,"120 OKLAHOMA ST, ANCHORAGE, AK, 99504",190802852,R,02,020,000702,1005,-149.7448,61.223682
6369,120 OKLAHOMA ST,Anchorage,AK,99504,"120 OKLAHOMA ST, Anchorage, AK, 99504",Match,Exact,"120 OKLAHOMA ST, ANCHORAGE, AK, 99504",190802852,R,02,020,000702,1005,-149.7448,61.223682
6370,120 OKLAHOMA ST,Anchorage,AK,99504,"120 OKLAHOMA ST, Anchorage, AK, 99504",Match,Exact,"120 OKLAHOMA ST, ANCHORAGE, AK, 99504",190802852,R,02,020,000702,1005,-149.7448,61.223682
6371,120 OKLAHOMA ST,Anchorage,AK,99504,"120 OKLAHOMA ST, Anchorage, AK, 99504",Match,Exact,"120 OKLAHOMA ST, ANCHORAGE, AK, 99504",190802852,R,02,020,000702,1005,-149.7448,61.223682
6372,120 OKLAHOMA ST,Anchorage,AK,99504,"120 OKLAHOMA ST, Anchorage, AK, 99504",Match,Exact,"120 OKLAHOMA ST, ANCHORAGE, AK, 99504",190802852,R,02,020,000702,1005,-149.7448,61.223682
6373,120 OKLAHOMA ST,Anchorage,AK,99504,"120 OKLAHOMA ST, Anchorage, AK, 99504",Match,Exact,"120 OKLAHOMA ST, ANCHORAGE, AK, 99504",190802852,R,02,020,000702,1005,-149.7448,61.223682
6374,120 OKLAHOMA ST,Anchorage,AK,99504,"120 OKLAHOMA ST, Anchorage, AK, 99504",Match,Exact,"120 OKLAHOMA ST, ANCHORAGE, AK, 99504",190802852,R,02,020,000702,1005,-149.7448,61.223682
6375,120 OKLAHOMA ST,Anchorage,AK,99504,"120 OKLAHOMA ST, Anchorage, AK, 99504",Match,Exact,"120 OKLAHOMA ST, ANCHORAGE, AK, 99504",190802852,R,02,020,000702,1005,-149.7448,61.223682
6376,120 OKLAHOMA ST,Anchorage,AK,99504,"120 OKLAHOMA ST, Anchorage, AK, 99504",Match,Exact,"120 OKLAHOMA ST, ANCHORAGE, AK, 99504",190802852,R,02,020,000702,1005,-149.7448,61.223682
6377,104 DAVIS ST,Anchorage,AK,99508,"104 DAVIS ST, Anchorage, AK, 99508",Match,Exact,"104 DAVIS ST, ANCHORAGE, AK, 99508",190801934,R,02,020,000801,2002,-149.7861,61.224064
6378,7660 BOUNDARY AVE,Anchorage,AK,99504,"7660 BOUNDARY AVE, Anchorage, AK, 99504",Match,Exact,"7660 BOUNDARY AVE, ANCHORAGE, AK, 99504",605167202,R,02,020,000702,2000,-149.73811,61.224169999999994
6379,7662 BOUNDARY AVE,Anchorage,AK,99504,"7662 BOUNDARY AVE, Anchorage, AK, 99504",Match,Exact,"7662 BOUNDARY AVE, ANCHORAGE, AK, 99504",605167202,R,02,020,000702,2000,-149.73803999999998,61.224169999999994
6380,7664 BOUNDARY AVE,Anchorage,AK,99504,"7664 BOUNDARY AVE, Anchorage, AK, 99504",Match,Exact,"7664 BOUNDARY AVE, ANCHORAGE, AK, 99504",605167202,R,02,020,000702,2000,-149.73795,61.224169999999994
6381,7666 BOUNDARY AVE,Anchorage,AK,99504,"7666 BOUNDARY AVE, Anchorage, AK, 99504",Match,Exact,"7666 BOUNDARY AVE, ANCHORAGE, AK, 99504",605167202,R,02,020,000702,2000,-149.73785,61.224169999999994
6382,104 STEWART ST,Anchorage,AK,99508,"104 STEWART ST, Anchorage, AK, 99508",Match,Exact,"104 STEWART ST, ANCHORAGE, AK, 99508",190801683,R,02,020,000801,2001,-149.78791999999999,61.224019999999996
6383,105 STEWART ST,Anchorage,AK,99508,"105 STEWART ST, Anchorage, AK, 99508",Match,Exact,"105 STEWART ST, ANCHORAGE, AK, 99508",190801683,L,02,020,000801,2002,-149.78789,61.224019999999996
6384,105 BUNNELL ST,Anchorage,AK,99508,"105 BUNNELL ST, Anchorage, AK, 99508",Match,Exact,"105 BUNNELL ST, ANCHORAGE, AK, 99508",190801680,L,02,020,000801,2001,-149.78972,61.22399
6385,6810 GOLD KINGS CIR,Anchorage,AK,99504,"6810 GOLD KINGS CIR, Anchorage, AK, 99504",Match,Exact,"6810 GOLD KINGS CIR, ANCHORAGE, AK, 99504",190820029,L,02,020,000702,3002,-149.75395,61.223614000000005
6386,137 GRAND LARRY ST,Anchorage,AK,99504,"137 GRAND LARRY ST, Anchorage, AK, 99504",Match,Exact,"137 GRAND LARRY ST, ANCHORAGE, AK, 99504",625718476,L,02,020,000703,2000,-149.72975,61.223380000000006
6387,132 DEAN PL,Anchorage,AK,99504,"132 DEAN PL, Anchorage, AK, 99504",Match,Exact,"132 DEAN PL, ANCHORAGE, AK, 99504",190802859,R,02,020,000702,2000,-149.7401,61.223213
6388,6800 GOLD KINGS CIR,Anchorage,AK,99504,"6800 GOLD KINGS CIR, Anchorage, AK, 99504",Match,Exact,"6800 GOLD KINGS CIR, ANCHORAGE, AK, 99504",190820029,L,02,020,000702,3002,-149.75409,61.223614000000005
6389,133 DEAN PL,Anchorage,AK,99504,"133 DEAN PL, Anchorage, AK, 99504",Match,Exact,"133 DEAN PL, ANCHORAGE, AK, 99504",190802859,L,02,020,000702,2000,-149.74007,61.223213
6390,8604 BOUNDARY AVE,Anchorage,AK,99504,"8604 BOUNDARY AVE, Anchorage, AK, 99504",Match,Exact,"8604 BOUNDARY AVE, ANCHORAGE, AK, 99504",639710376,R,02,020,000703,1011,-149.72108,61.224136
6391,8604 BOUNDARY AVE,Anchorage,AK,99504,"8604 BOUNDARY AVE, Anchorage, AK, 99504",Match,Exact,"8604 BOUNDARY AVE, ANCHORAGE, AK, 99504",639710376,R,02,020,000703,1011,-149.72108,61.224136
6392,8604 BOUNDARY AVE,Anchorage,AK,99504,"8604 BOUNDARY AVE, Anchorage, AK, 99504",Match,Exact,"8604 BOUNDARY AVE, ANCHORAGE, AK, 99504",639710376,R,02,020,000703,1011,-149.72108,61.224136
6393,8604 BOUNDARY AVE,Anchorage,AK,99504,"8604 BOUNDARY AVE, Anchorage, AK, 99504",Match,Exact,"8604 BOUNDARY AVE, ANCHORAGE, AK, 99504",639710376,R,02,020,000703,1011,-149.72108,61.224136
6394,8600 BOUNDARY AVE,Anchorage,AK,99504,"8600 BOUNDARY AVE, Anchorage, AK, 99504",Match,Exact,"8600 BOUNDARY AVE, ANCHORAGE, AK, 99504",639710376,R,02,020,000703,1011,-149.72116,61.224136
6395,8600 BOUNDARY AVE,Anchorage,AK,99504,"8600 BOUNDARY AVE, Anchorage, AK, 99504",Match,Exact,"8600 BOUNDARY AVE, ANCHORAGE, AK, 99504",639710376,R,02,020,000703,1011,-149.72116,61.224136
6396,8600 BOUNDARY AVE,Anchorage,AK,99504,"8600 BOUNDARY AVE, Anchorage, AK, 99504",Match,Exact,"8600 BOUNDARY AVE, ANCHORAGE, AK, 99504",639710376,R,02,020,000703,1011,-149.72116,61.224136
6397,8600 BOUNDARY AVE,Anchorage,AK,99504,"8600 BOUNDARY AVE, Anchorage, AK, 99504",Match,Exact,"8600 BOUNDARY AVE, ANCHORAGE, AK, 99504",639710376,R,02,020,000703,1011,-149.72116,61.224136
6398,8616 BOUNDARY AVE,Anchorage,AK,99504,"8616 BOUNDARY AVE, Anchorage, AK, 99504",Match,Exact,"8616 BOUNDARY AVE, ANCHORAGE, AK, 99504",639710376,R,02,020,000703,1011,-149.72089,61.224136
6399,8616 BOUNDARY AVE,Anchorage,AK,99504,"8616 BOUNDARY AVE, Anchorage, AK, 99504",Match,Exact,"8616 BOUNDARY AVE, ANCHORAGE, AK, 99504",639710376,R,02,020,000703,1011,-149.72089,61.224136
6400,8616 BOUNDARY AVE,Anchorage,AK,99504,"8616 BOUNDARY AVE, Anchorage, AK, 99504",Match,Exact,"8616 BOUNDARY AVE, ANCHORAGE, AK, 99504",639710376,R,02,020,000703,1011,-149.72089,61.224136
6401,8616 BOUNDARY AVE,Anchorage,AK,99504,"8616 BOUNDARY AVE, Anchorage, AK, 99504",Match,Exact,"8616 BOUNDARY AVE, ANCHORAGE, AK, 99504",639710376,R,02,020,000703,1011,-149.72089,61.224136
6402,8616 BOUNDARY AVE,Anchorage,AK,99504,"8616 BOUNDARY AVE, Anchorage, AK, 99504",Match,Exact,"8616 BOUNDARY AVE, ANCHORAGE, AK, 99504",639710376,R,02,020,000703,1011,-149.72089,61.224136
6403,8616 BOUNDARY AVE,Anchorage,AK,99504,"8616 BOUNDARY AVE, Anchorage, AK, 99504",Match,Exact,"8616 BOUNDARY AVE, ANCHORAGE, AK, 99504",639710376,R,02,020,000703,1011,-149.72089,61.224136
6404,8612 BOUNDARY AVE,Anchorage,AK,99504,"8612 BOUNDARY AVE, Anchorage, AK, 99504",Match,Exact,"8612 BOUNDARY AVE, ANCHORAGE, AK, 99504",639710376,R,02,020,000703,1011,-149.72095,61.224136
6405,8612 BOUNDARY AVE,Anchorage,AK,99504,"8612 BOUNDARY AVE, Anchorage, AK, 99504",Match,Exact,"8612 BOUNDARY AVE, ANCHORAGE, AK, 99504",639710376,R,02,020,000703,1011,-149.72095,61.224136
6406,8944 NORTHWOOD PARK CIR,Anchorage,AK,99577,"8944 NORTHWOOD PARK CIR, Anchorage, AK, 99577",Match,Non_Exact,"8944 NORTHWOOD PARK CIR, EAGLE RIVER, AK, 99577",190819645,L,02,020,000203,3022,-149.51762,61.301230000000004
6407,8948 BIRCH PARK CIR,Anchorage,AK,99577,"8948 BIRCH PARK CIR, Anchorage, AK, 99577",Match,Non_Exact,"8948 BIRCH PARK CIR, EAGLE RIVER, AK, 99577",190827414,L,02,020,000203,3022,-149.51203999999998,61.30099499999999
6408,20630 ICEFALL DR,Anchorage,AK,99577,"20630 ICEFALL DR, Anchorage, AK, 99577",Match,Non_Exact,"20630 ICEFALL DR, EAGLE RIVER, AK, 99577",625731540,L,02,020,000203,3002,-149.49546999999998,61.301444999999994
6409,18514 JUDE ISLAND CIR,Anchorage,AK,99577,"18514 JUDE ISLAND CIR, Anchorage, AK, 99577",Match,Non_Exact,"18514 JUDE ISLAND CIR, EAGLE RIVER, AK, 99577",190805567,L,02,020,000203,3014,-149.53725,61.301494999999996
6410,8963 MEADOW PARK CIR,Anchorage,AK,99577,"8963 MEADOW PARK CIR, Anchorage, AK, 99577",Match,Non_Exact,"8963 MEADOW PARK CIR, EAGLE RIVER, AK, 99577",605288530,R,02,020,000203,3022,-149.51035,61.300990000000006
6411,8960 MEADOW PARK CIR,Anchorage,AK,99577,"8960 MEADOW PARK CIR, Anchorage, AK, 99577",Match,Non_Exact,"8960 MEADOW PARK CIR, EAGLE RIVER, AK, 99577",605288530,L,02,020,000203,3022,-149.51038,61.301003
6412,8931 EAGLE PLACE LOOP,Anchorage,AK,99577,"8931 EAGLE PLACE LOOP, Anchorage, AK, 99577",No_Match,,,,,,,,,,
6413,8929 EAGLE PLACE LOOP,Anchorage,AK,99577,"8929 EAGLE PLACE LOOP, Anchorage, AK, 99577",No_Match,,,,,,,,,,
6414,18608 JUDE ISLAND CIR,Anchorage,AK,99577,"18608 JUDE ISLAND CIR, Anchorage, AK, 99577",Match,Non_Exact,"18608 JUDE ISLAND CIR, EAGLE RIVER, AK, 99577",190805567,L,02,020,000203,3014,-149.53642,61.301517000000004
6415,8935 EAGLE PLACE LOOP,Anchorage,AK,99577,"8935 EAGLE PLACE LOOP, Anchorage, AK, 99577",No_Match,,,,,,,,,,
6416,8937 EAGLE PLACE LOOP,Anchorage,AK,99577,"8937 EAGLE PLACE LOOP, Anchorage, AK, 99577",No_Match,,,,,,,,,,
6417,18571 JUDE ISLAND CIR,Anchorage,AK,99577,"18571 JUDE ISLAND CIR, Anchorage, AK, 99577",Match,Non_Exact,"18571 JUDE ISLAND CIR, EAGLE RIVER, AK, 99577",190805567,R,02,020,000203,3014,-149.53638999999998,61.301536999999996
6418,20632 ICEFALL DR,Anchorage,AK,99577,"20632 ICEFALL DR, Anchorage, AK, 99577",Match,Non_Exact,"20632 ICEFALL DR, EAGLE RIVER, AK, 99577",625731540,L,02,020,000203,3002,-149.49545,61.30144
6419,8940 NORTHWOOD PARK CIR,Anchorage,AK,99577,"8940 NORTHWOOD PARK CIR, Anchorage, AK, 99577",Match,Non_Exact,"8940 NORTHWOOD PARK CIR, EAGLE RIVER, AK, 99577",190819645,L,02,020,000203,3022,-149.51762,61.301190000000005
6420,8959 MEADOW PARK CIR,Anchorage,AK,99577,"8959 MEADOW PARK CIR, Anchorage, AK, 99577",Match,Non_Exact,"8959 MEADOW PARK CIR, EAGLE RIVER, AK, 99577",605288530,R,02,020,000203,3022,-149.51035,61.300959999999996
6421,6830 ALL STAR CIR,Anchorage,AK,99504,"6830 ALL STAR CIR, Anchorage, AK, 99504",Match,Exact,"6830 ALL STAR CIR, ANCHORAGE, AK, 99504",190819820,L,02,020,000702,3002,-149.75392,61.22285
6422,201 BUNNELL ST,Anchorage,AK,99508,"201 BUNNELL ST, Anchorage, AK, 99508",Match,Exact,"201 BUNNELL ST, ANCHORAGE, AK, 99508",190801681,L,02,020,000801,2004,-149.7897,61.222725
6423,227 NEWELL ST,Anchorage,AK,99504,"227 NEWELL ST, Anchorage, AK, 99504",Match,Exact,"227 NEWELL ST, ANCHORAGE, AK, 99504",605167293,R,02,020,000701,1000,-149.77095,61.222637
6424,6850 PECK AVE,Anchorage,AK,99504,"6850 PECK AVE, Anchorage, AK, 99504",Match,Exact,"6850 PECK AVE, ANCHORAGE, AK, 99504",190820031,L,02,020,000702,3002,-149.75246,61.222443000000005
6425,6810 ALL STAR CIR,Anchorage,AK,99504,"6810 ALL STAR CIR, Anchorage, AK, 99504",Match,Exact,"6810 ALL STAR CIR, ANCHORAGE, AK, 99504",190819820,L,02,020,000702,3002,-149.75421,61.222809999999996
6426,227 NEWELL ST,Anchorage,AK,99504,"227 NEWELL ST, Anchorage, AK, 99504",Match,Exact,"227 NEWELL ST, ANCHORAGE, AK, 99504",605167293,R,02,020,000701,1000,-149.77095,61.222637
6427,196 RUSTY ALLEN PL,Anchorage,AK,99504,"196 RUSTY ALLEN PL, Anchorage, AK, 99504",Match,Exact,"196 RUSTY ALLEN PL, ANCHORAGE, AK, 99504",605185494,R,02,020,000701,1000,-149.76064,61.222640000000006
6428,201 MC CARREY ST,Anchorage,AK,99508,"201 MC CARREY ST, Anchorage, AK, 99508",Match,Exact,"201 MC CARREY ST, ANCHORAGE, AK, 99508",624266929,L,02,020,000801,2006,-149.79187,61.222640000000006
6429,201 MC CARREY ST,Anchorage,AK,99508,"201 MC CARREY ST, Anchorage, AK, 99508",Match,Exact,"201 MC CARREY ST, ANCHORAGE, AK, 99508",624266929,L,02,020,000801,2006,-149.79187,61.222640000000006
6430,201 MC CARREY ST,Anchorage,AK,99508,"201 MC CARREY ST, Anchorage, AK, 99508",Match,Exact,"201 MC CARREY ST, ANCHORAGE, AK, 99508",624266929,L,02,020,000801,2006,-149.79187,61.222640000000006
6431,201 MC CARREY ST,Anchorage,AK,99508,"201 MC CARREY ST, Anchorage, AK, 99508",Match,Exact,"201 MC CARREY ST, ANCHORAGE, AK, 99508",624266929,L,02,020,000801,2006,-149.79187,61.222640000000006
6432,201 MC CARREY ST,Anchorage,AK,99508,"201 MC CARREY ST, Anchorage, AK, 99508",Match,Exact,"201 MC CARREY ST, ANCHORAGE, AK, 99508",624266929,L,02,020,000801,2006,-149.79187,61.222640000000006
6433,201 MC CARREY ST,Anchorage,AK,99508,"201 MC CARREY ST, Anchorage, AK, 99508",Match,Exact,"201 MC CARREY ST, ANCHORAGE, AK, 99508",624266929,L,02,020,000801,2006,-149.79187,61.222640000000006
6434,201 MC CARREY ST,Anchorage,AK,99508,"201 MC CARREY ST, Anchorage, AK, 99508",Match,Exact,"201 MC CARREY ST, ANCHORAGE, AK, 99508",624266929,L,02,020,000801,2006,-149.79187,61.222640000000006
6435,201 MC CARREY ST,Anchorage,AK,99508,"201 MC CARREY ST, Anchorage, AK, 99508",Match,Exact,"201 MC CARREY ST, ANCHORAGE, AK, 99508",624266929,L,02,020,000801,2006,-149.79187,61.222640000000006
6436,201 MC CARREY ST,Anchorage,AK,99508,"201 MC CARREY ST, Anchorage, AK, 99508",Match,Exact,"201 MC CARREY ST, ANCHORAGE, AK, 99508",624266929,L,02,020,000801,2006,-149.79187,61.222640000000006
6437,201 MC CARREY ST,Anchorage,AK,99508,"201 MC CARREY ST, Anchorage, AK, 99508",Match,Exact,"201 MC CARREY ST, ANCHORAGE, AK, 99508",624266929,L,02,020,000801,2006,-149.79187,61.222640000000006
6438,201 MC CARREY ST,Anchorage,AK,99508,"201 MC CARREY ST, Anchorage, AK, 99508",Match,Exact,"201 MC CARREY ST, ANCHORAGE, AK, 99508",624266929,L,02,020,000801,2006,-149.79187,61.222640000000006
6439,201 MC CARREY ST,Anchorage,AK,99508,"201 MC CARREY ST, Anchorage, AK, 99508",Match,Exact,"201 MC CARREY ST, ANCHORAGE, AK, 99508",624266929,L,02,020,000801,2006,-149.79187,61.222640000000006
6440,201 MC CARREY ST,Anchorage,AK,99508,"201 MC CARREY ST, Anchorage, AK, 99508",Match,Exact,"201 MC CARREY ST, ANCHORAGE, AK, 99508",624266929,L,02,020,000801,2006,-149.79187,61.222640000000006
6441,201 MC CARREY ST,Anchorage,AK,99508,"201 MC CARREY ST, Anchorage, AK, 99508",Match,Exact,"201 MC CARREY ST, ANCHORAGE, AK, 99508",624266929,L,02,020,000801,2006,-149.79187,61.222640000000006
6442,201 MC CARREY ST,Anchorage,AK,99508,"201 MC CARREY ST, Anchorage, AK, 99508",Match,Exact,"201 MC CARREY ST, ANCHORAGE, AK, 99508",624266929,L,02,020,000801,2006,-149.79187,61.222640000000006
6443,201 MC CARREY ST,Anchorage,AK,99508,"201 MC CARREY ST, Anchorage, AK, 99508",Match,Exact,"201 MC CARREY ST, ANCHORAGE, AK, 99508",624266929,L,02,020,000801,2006,-149.79187,61.222640000000006
6444,201 MC CARREY ST,Anchorage,AK,99508,"201 MC CARREY ST, Anchorage, AK, 99508",Match,Exact,"201 MC CARREY ST, ANCHORAGE, AK, 99508",624266929,L,02,020,000801,2006,-149.79187,61.222640000000006
6445,201 MC CARREY ST,Anchorage,AK,99508,"201 MC CARREY ST, Anchorage, AK, 99508",Match,Exact,"201 MC CARREY ST, ANCHORAGE, AK, 99508",624266929,L,02,020,000801,2006,-149.79187,61.222640000000006
6446,201 MC CARREY ST,Anchorage,AK,99508,"201 MC CARREY ST, Anchorage, AK, 99508",Match,Exact,"201 MC CARREY ST, ANCHORAGE, AK, 99508",624266929,L,02,020,000801,2006,-149.79187,61.222640000000006
6447,227 NEWELL ST,Anchorage,AK,99504,"227 NEWELL ST, Anchorage, AK, 99504",Match,Exact,"227 NEWELL ST, ANCHORAGE, AK, 99504",605167293,R,02,020,000701,1000,-149.77095,61.222637
6448,228 ORANGE LEAF CIR,Anchorage,AK,99504,"228 ORANGE LEAF CIR, Anchorage, AK, 99504",Match,Exact,"228 ORANGE LEAF CIR, ANCHORAGE, AK, 99504",190803309,L,02,020,000703,1013,-149.71944,61.22221999999999
6449,229 ORANGE LEAF CIR,Anchorage,AK,99504,"229 ORANGE LEAF CIR, Anchorage, AK, 99504",Match,Exact,"229 ORANGE LEAF CIR, ANCHORAGE, AK, 99504",190803309,R,02,020,000703,1013,-149.71941999999999,61.22221999999999
6450,227 NEWELL ST,Anchorage,AK,99504,"227 NEWELL ST, Anchorage, AK, 99504",Match,Exact,"227 NEWELL ST, ANCHORAGE, AK, 99504",605167293,R,02,020,000701,1000,-149.77095,61.222637
6451,220 MULDOON RD,Anchorage,AK,99504,"220 MULDOON RD, Anchorage, AK, 99504",Match,Exact,"220 MULDOON RD, ANCHORAGE, AK, 99504",190803191,R,02,020,000702,2000,-149.73352,61.221916
6452,227 NEWELL ST,Anchorage,AK,99504,"227 NEWELL ST, Anchorage, AK, 99504",Match,Exact,"227 NEWELL ST, ANCHORAGE, AK, 99504",605167293,R,02,020,000701,1000,-149.77095,61.222637
6453,334 BONIFACE PKWY,Anchorage,AK,99504,"334 BONIFACE PKWY, Anchorage, AK, 99504",Match,Exact,"334 BONIFACE PKWY, ANCHORAGE, AK, 99504",190801982,R,02,020,000801,4000,-149.77841,61.219727
6454,228 PATTERSON ST,Anchorage,AK,99504,"228 PATTERSON ST, Anchorage, AK, 99504",Match,Exact,"228 PATTERSON ST, ANCHORAGE, AK, 99504",190802844,R,02,020,000702,3002,-149.74851999999998,61.221740000000004
6455,7021 DICKERSON DR,Anchorage,AK,99504,"7021 DICKERSON DR, Anchorage, AK, 99504",Match,Exact,"7021 DICKERSON DR, ANCHORAGE, AK, 99504",190802810,L,02,020,000702,3004,-149.75163,61.22048
6456,306 DAVIS ST,Anchorage,AK,99508,"306 DAVIS ST, Anchorage, AK, 99508",Match,Exact,"306 DAVIS ST, ANCHORAGE, AK, 99508",190801967,R,02,020,000801,2010,-149.78609,61.22141
6457,7011 DICKERSON DR,Anchorage,AK,99504,"7011 DICKERSON DR, Anchorage, AK, 99504",Match,Exact,"7011 DICKERSON DR, ANCHORAGE, AK, 99504",190802810,L,02,020,000702,3004,-149.75175,61.220496999999995
6458,308 BUNNELL ST,Anchorage,AK,99508,"308 BUNNELL ST, Anchorage, AK, 99508",Match,Exact,"308 BUNNELL ST, ANCHORAGE, AK, 99508",624266934,R,02,020,000801,2005,-149.78972,61.22067
6459,8414 DUBEN AVE,Anchorage,AK,99504,"8414 DUBEN AVE, Anchorage, AK, 99504",Match,Exact,"8414 DUBEN AVE, ANCHORAGE, AK, 99504",605183645,R,02,020,000703,3001,-149.72324,61.220608
6460,8414 DUBEN AVE,Anchorage,AK,99504,"8414 DUBEN AVE, Anchorage, AK, 99504",Match,Exact,"8414 DUBEN AVE, ANCHORAGE, AK, 99504",605183645,R,02,020,000703,3001,-149.72324,61.220608
6461,8414 DUBEN AVE,Anchorage,AK,99504,"8414 DUBEN AVE, Anchorage, AK, 99504",Match,Exact,"8414 DUBEN AVE, ANCHORAGE, AK, 99504",605183645,R,02,020,000703,3001,-149.72324,61.220608
6462,8414 DUBEN AVE,Anchorage,AK,99504,"8414 DUBEN AVE, Anchorage, AK, 99504",Match,Exact,"8414 DUBEN AVE, ANCHORAGE, AK, 99504",605183645,R,02,020,000703,3001,-149.72324,61.220608
6463,8414 DUBEN AVE,Anchorage,AK,99504,"8414 DUBEN AVE, Anchorage, AK, 99504",Match,Exact,"8414 DUBEN AVE, ANCHORAGE, AK, 99504",605183645,R,02,020,000703,3001,-149.72324,61.220608
6464,8414 DUBEN AVE,Anchorage,AK,99504,"8414 DUBEN AVE, Anchorage, AK, 99504",Match,Exact,"8414 DUBEN AVE, ANCHORAGE, AK, 99504",605183645,R,02,020,000703,3001,-149.72324,61.220608
6465,8414 DUBEN AVE,Anchorage,AK,99504,"8414 DUBEN AVE, Anchorage, AK, 99504",Match,Exact,"8414 DUBEN AVE, ANCHORAGE, AK, 99504",605183645,R,02,020,000703,3001,-149.72324,61.220608
6466,8426 DUBEN AVE,Anchorage,AK,99504,"8426 DUBEN AVE, Anchorage, AK, 99504",Match,Exact,"8426 DUBEN AVE, ANCHORAGE, AK, 99504",605183645,R,02,020,000703,3001,-149.72298999999998,61.220608
6467,8426 DUBEN AVE,Anchorage,AK,99504,"8426 DUBEN AVE, Anchorage, AK, 99504",Match,Exact,"8426 DUBEN AVE, ANCHORAGE, AK, 99504",605183645,R,02,020,000703,3001,-149.72298999999998,61.220608
6468,8426 DUBEN AVE,Anchorage,AK,99504,"8426 DUBEN AVE, Anchorage, AK, 99504",Match,Exact,"8426 DUBEN AVE, ANCHORAGE, AK, 99504",605183645,R,02,020,000703,3001,-149.72298999999998,61.220608
6469,8426 DUBEN AVE,Anchorage,AK,99504,"8426 DUBEN AVE, Anchorage, AK, 99504",Match,Exact,"8426 DUBEN AVE, ANCHORAGE, AK, 99504",605183645,R,02,020,000703,3001,-149.72298999999998,61.220608
6470,8426 DUBEN AVE,Anchorage,AK,99504,"8426 DUBEN AVE, Anchorage, AK, 99504",Match,Exact,"8426 DUBEN AVE, ANCHORAGE, AK, 99504",605183645,R,02,020,000703,3001,-149.72298999999998,61.220608
6471,8426 DUBEN AVE,Anchorage,AK,99504,"8426 DUBEN AVE, Anchorage, AK, 99504",Match,Exact,"8426 DUBEN AVE, ANCHORAGE, AK, 99504",605183645,R,02,020,000703,3001,-149.72298999999998,61.220608
6472,156 MICHEAL CT,Anchorage,AK,99504,"156 MICHEAL CT, Anchorage, AK, 99504",Match,Non_Exact,"156 MICHAEL CT, ANCHORAGE, AK, 99504",190812116,L,02,020,000702,2000,-149.7382,61.222763
6473,156 MICHEAL CT,Anchorage,AK,99504,"156 MICHEAL CT, Anchorage, AK, 99504",Match,Non_Exact,"156 MICHAEL CT, ANCHORAGE, AK, 99504",190812116,L,02,020,000702,2000,-149.7382,61.222763
6474,156 MICHEAL CT,Anchorage,AK,99504,"156 MICHEAL CT, Anchorage, AK, 99504",Match,Non_Exact,"156 MICHAEL CT, ANCHORAGE, AK, 99504",190812116,L,02,020,000702,2000,-149.7382,61.222763
6475,156 MICHEAL CT,Anchorage,AK,99504,"156 MICHEAL CT, Anchorage, AK, 99504",Match,Non_Exact,"156 MICHAEL CT, ANCHORAGE, AK, 99504",190812116,L,02,020,000702,2000,-149.7382,61.222763
6476,157 MICHEAL CT,Anchorage,AK,99504,"157 MICHEAL CT, Anchorage, AK, 99504",Match,Non_Exact,"157 MICHAEL CT, ANCHORAGE, AK, 99504",190812116,R,02,020,000702,2000,-149.73819,61.222763
6477,157 MICHEAL CT,Anchorage,AK,99504,"157 MICHEAL CT, Anchorage, AK, 99504",Match,Non_Exact,"157 MICHAEL CT, ANCHORAGE, AK, 99504",190812116,R,02,020,000702,2000,-149.73819,61.222763
6478,157 MICHEAL CT,Anchorage,AK,99504,"157 MICHEAL CT, Anchorage, AK, 99504",Match,Non_Exact,"157 MICHAEL CT, ANCHORAGE, AK, 99504",190812116,R,02,020,000702,2000,-149.73819,61.222763
6479,157 MICHEAL CT,Anchorage,AK,99504,"157 MICHEAL CT, Anchorage, AK, 99504",Match,Non_Exact,"157 MICHAEL CT, ANCHORAGE, AK, 99504",190812116,R,02,020,000702,2000,-149.73819,61.222763
6480,7766 BOUNDARY AVE,Anchorage,AK,99504,"7766 BOUNDARY AVE, Anchorage, AK, 99504",Match,Exact,"7766 BOUNDARY AVE, ANCHORAGE, AK, 99504",605167189,R,02,020,000702,2000,-149.73625,61.224169999999994
6481,7760 BOUNDARY AVE,Anchorage,AK,99504,"7760 BOUNDARY AVE, Anchorage, AK, 99504",Match,Exact,"7760 BOUNDARY AVE, ANCHORAGE, AK, 99504",605167189,R,02,020,000702,2000,-149.73631,61.224169999999994
6482,7764 BOUNDARY AVE,Anchorage,AK,99504,"7764 BOUNDARY AVE, Anchorage, AK, 99504",Match,Exact,"7764 BOUNDARY AVE, ANCHORAGE, AK, 99504",605167189,R,02,020,000702,2000,-149.73627,61.224169999999994
6483,7768 BOUNDARY AVE,Anchorage,AK,99504,"7768 BOUNDARY AVE, Anchorage, AK, 99504",Match,Exact,"7768 BOUNDARY AVE, ANCHORAGE, AK, 99504",605167189,R,02,020,000702,2000,-149.73623999999998,61.224169999999994
6484,7758 BOUNDARY AVE,Anchorage,AK,99504,"7758 BOUNDARY AVE, Anchorage, AK, 99504",Match,Exact,"7758 BOUNDARY AVE, ANCHORAGE, AK, 99504",605167189,R,02,020,000702,2000,-149.73633,61.224169999999994
6485,7738 BOUNDARY AVE,Anchorage,AK,99504,"7738 BOUNDARY AVE, Anchorage, AK, 99504",Match,Exact,"7738 BOUNDARY AVE, ANCHORAGE, AK, 99504",605167189,R,02,020,000702,2000,-149.73651,61.224169999999994
6486,7762 BOUNDARY AVE,Anchorage,AK,99504,"7762 BOUNDARY AVE, Anchorage, AK, 99504",Match,Exact,"7762 BOUNDARY AVE, ANCHORAGE, AK, 99504",605167189,R,02,020,000702,2000,-149.7363,61.224169999999994
6487,160 GRAND LARRY ST,Anchorage,AK,99504,"160 GRAND LARRY ST, Anchorage, AK, 99504",Match,Exact,"160 GRAND LARRY ST, ANCHORAGE, AK, 99504",625718476,R,02,020,000703,2001,-149.72978,61.22304499999999
6488,160 GRAND LARRY ST,Anchorage,AK,99504,"160 GRAND LARRY ST, Anchorage, AK, 99504",Match,Exact,"160 GRAND LARRY ST, ANCHORAGE, AK, 99504",625718476,R,02,020,000703,2001,-149.72978,61.22304499999999
6489,143 RUSTY ALLEN PL,Anchorage,AK,99504,"143 RUSTY ALLEN PL, Anchorage, AK, 99504",Match,Exact,"143 RUSTY ALLEN PL, ANCHORAGE, AK, 99504",605185494,L,02,020,000701,1000,-149.76068,61.223119999999994
6490,130 JELINEK PL,Anchorage,AK,99504,"130 JELINEK PL, Anchorage, AK, 99504",Match,Exact,"130 JELINEK PL, ANCHORAGE, AK, 99504",190803206,R,02,020,000703,2000,-149.72508,61.22355
6491,179 OKLAHOMA ST,Anchorage,AK,99504,"179 OKLAHOMA ST, Anchorage, AK, 99504",Match,Exact,"179 OKLAHOMA ST, ANCHORAGE, AK, 99504",190802853,L,02,020,000702,1006,-149.74477,61.223198
6492,179 OKLAHOMA ST,Anchorage,AK,99504,"179 OKLAHOMA ST, Anchorage, AK, 99504",Match,Exact,"179 OKLAHOMA ST, ANCHORAGE, AK, 99504",190802853,L,02,020,000702,1006,-149.74477,61.223198
6493,179 OKLAHOMA ST,Anchorage,AK,99504,"179 OKLAHOMA ST, Anchorage, AK, 99504",Match,Exact,"179 OKLAHOMA ST, ANCHORAGE, AK, 99504",190802853,L,02,020,000702,1006,-149.74477,61.223198
6494,179 OKLAHOMA ST,Anchorage,AK,99504,"179 OKLAHOMA ST, Anchorage, AK, 99504",Match,Exact,"179 OKLAHOMA ST, ANCHORAGE, AK, 99504",190802853,L,02,020,000702,1006,-149.74477,61.223198
6495,179 OKLAHOMA ST,Anchorage,AK,99504,"179 OKLAHOMA ST, Anchorage, AK, 99504",Match,Exact,"179 OKLAHOMA ST, ANCHORAGE, AK, 99504",190802853,L,02,020,000702,1006,-149.74477,61.223198
6496,179 OKLAHOMA ST,Anchorage,AK,99504,"179 OKLAHOMA ST, Anchorage, AK, 99504",Match,Exact,"179 OKLAHOMA ST, ANCHORAGE, AK, 99504",190802853,L,02,020,000702,1006,-149.74477,61.223198
6497,179 OKLAHOMA ST,Anchorage,AK,99504,"179 OKLAHOMA ST, Anchorage, AK, 99504",Match,Exact,"179 OKLAHOMA ST, ANCHORAGE, AK, 99504",190802853,L,02,020,000702,1006,-149.74477,61.223198
6498,179 OKLAHOMA ST,Anchorage,AK,99504,"179 OKLAHOMA ST, Anchorage, AK, 99504",Match,Exact,"179 OKLAHOMA ST, ANCHORAGE, AK, 99504",190802853,L,02,020,000702,1006,-149.74477,61.223198
6499,179 OKLAHOMA ST,Anchorage,AK,99504,"179 OKLAHOMA ST, Anchorage, AK, 99504",Match,Exact,"179 OKLAHOMA ST, ANCHORAGE, AK, 99504",190802853,L,02,020,000702,1006,-149.74477,61.223198
6500,167 DEAN PL,Anchorage,AK,99504,"167 DEAN PL, Anchorage, AK, 99504",Match,Exact,"167 DEAN PL, ANCHORAGE, AK, 99504",190802859,L,02,020,000702,2000,-149.74007,61.22283
6501,168 DEAN PL,Anchorage,AK,99504,"168 DEAN PL, Anchorage, AK, 99504",Match,Exact,"168 DEAN PL, ANCHORAGE, AK, 99504",190802859,R,02,020,000702,2000,-149.7401,61.222809999999996
6502,168 DEAN PL,Anchorage,AK,99504,"168 DEAN PL, Anchorage, AK, 99504",Match,Exact,"168 DEAN PL, ANCHORAGE, AK, 99504",190802859,R,02,020,000702,2000,-149.7401,61.222809999999996
6503,168 DEAN PL,Anchorage,AK,99504,"168 DEAN PL, Anchorage, AK, 99504",Match,Exact,"168 DEAN PL, ANCHORAGE, AK, 99504",190802859,R,02,020,000702,2000,-149.7401,61.222809999999996
6504,168 DEAN PL,Anchorage,AK,99504,"168 DEAN PL, Anchorage, AK, 99504",Match,Exact,"168 DEAN PL, ANCHORAGE, AK, 99504",190802859,R,02,020,000702,2000,-149.7401,61.222809999999996
6505,110 ACES CIR,Anchorage,AK,99504,"110 ACES CIR, Anchorage, AK, 99504",Match,Exact,"110 ACES CIR, ANCHORAGE, AK, 99504",190820032,L,02,020,000702,3003,-149.75117,61.222717
6506,111 ACES CIR,Anchorage,AK,99504,"111 ACES CIR, Anchorage, AK, 99504",Match,Exact,"111 ACES CIR, ANCHORAGE, AK, 99504",190820032,R,02,020,000702,3003,-149.75114,61.222717
6507,112 NANOOK CIR,Anchorage,AK,99504,"112 NANOOK CIR, Anchorage, AK, 99504",Match,Exact,"112 NANOOK CIR, ANCHORAGE, AK, 99504",190820035,L,02,020,000702,3003,-149.74954,61.222706
6508,113 NANOOK CIR,Anchorage,AK,99504,"113 NANOOK CIR, Anchorage, AK, 99504",Match,Exact,"113 NANOOK CIR, ANCHORAGE, AK, 99504",190820035,R,02,020,000702,3003,-149.74951000000001,61.222706
6509,6825 ALL STAR CIR,Anchorage,AK,99504,"6825 ALL STAR CIR, Anchorage, AK, 99504",Match,Exact,"6825 ALL STAR CIR, ANCHORAGE, AK, 99504",190819820,R,02,020,000702,3002,-149.75401000000002,61.22286
6510,167 MICHEAL CT,Anchorage,AK,99504,"167 MICHEAL CT, Anchorage, AK, 99504",Match,Non_Exact,"167 MICHAEL CT, ANCHORAGE, AK, 99504",190812116,R,02,020,000702,2000,-149.73819,61.222682999999996
6511,167 MICHEAL CT,Anchorage,AK,99504,"167 MICHEAL CT, Anchorage, AK, 99504",Match,Non_Exact,"167 MICHAEL CT, ANCHORAGE, AK, 99504",190812116,R,02,020,000702,2000,-149.73819,61.222682999999996
6512,167 MICHEAL CT,Anchorage,AK,99504,"167 MICHEAL CT, Anchorage, AK, 99504",Match,Non_Exact,"167 MICHAEL CT, ANCHORAGE, AK, 99504",190812116,R,02,020,000702,2000,-149.73819,61.222682999999996
6513,167 MICHEAL CT,Anchorage,AK,99504,"167 MICHEAL CT, Anchorage, AK, 99504",Match,Non_Exact,"167 MICHAEL CT, ANCHORAGE, AK, 99504",190812116,R,02,020,000702,2000,-149.73819,61.222682999999996
6514,166 MICHEAL CT,Anchorage,AK,99504,"166 MICHEAL CT, Anchorage, AK, 99504",Match,Non_Exact,"166 MICHAEL CT, ANCHORAGE, AK, 99504",190812116,L,02,020,000702,2000,-149.7382,61.222682999999996
6515,166 MICHEAL CT,Anchorage,AK,99504,"166 MICHEAL CT, Anchorage, AK, 99504",Match,Non_Exact,"166 MICHAEL CT, ANCHORAGE, AK, 99504",190812116,L,02,020,000702,2000,-149.7382,61.222682999999996
6516,166 MICHEAL CT,Anchorage,AK,99504,"166 MICHEAL CT, Anchorage, AK, 99504",Match,Non_Exact,"166 MICHAEL CT, ANCHORAGE, AK, 99504",190812116,L,02,020,000702,2000,-149.7382,61.222682999999996
6517,166 MICHEAL CT,Anchorage,AK,99504,"166 MICHEAL CT, Anchorage, AK, 99504",Match,Non_Exact,"166 MICHAEL CT, ANCHORAGE, AK, 99504",190812116,L,02,020,000702,2000,-149.7382,61.222682999999996
6518,150 FIREOVED DR,Anchorage,AK,99508,"150 FIREOVED DR, Anchorage, AK, 99508",Match,Exact,"150 FIREOVED DR, ANCHORAGE, AK, 99508",190801944,R,02,020,000801,3005,-149.78264,61.222935
6519,180 MULDOON RD,Anchorage,AK,99504,"180 MULDOON RD, Anchorage, AK, 99504",Match,Exact,"180 MULDOON RD, ANCHORAGE, AK, 99504",638990398,R,02,020,000702,2000,-149.73352,61.22279399999999
6520,170 OKLAHOMA ST,Anchorage,AK,99504,"170 OKLAHOMA ST, Anchorage, AK, 99504",Match,Exact,"170 OKLAHOMA ST, ANCHORAGE, AK, 99504",190802853,R,02,020,000702,1005,-149.74478,61.22279399999999
6521,6535 KARA SUE LOOP,Anchorage,AK,99504,"6535 KARA SUE LOOP, Anchorage, AK, 99504",Match,Exact,"6535 KARA SUE LOOP, ANCHORAGE, AK, 99504",605185502,L,02,020,000701,1000,-149.75946000000002,61.222621999999994
6522,209 ORANGE LEAF CIR,Anchorage,AK,99504,"209 ORANGE LEAF CIR, Anchorage, AK, 99504",Match,Exact,"209 ORANGE LEAF CIR, ANCHORAGE, AK, 99504",190803309,R,02,020,000703,1013,-149.71941999999999,61.222305000000006
6523,5515 WILD MOUNTAIN DR,Anchorage,AK,99577,"5515 WILD MOUNTAIN DR, Anchorage, AK, 99577",Match,Non_Exact,"5515 WILD MOUNTAIN DR, EAGLE RIVER, AK, 99577",190826839,L,02,020,000204,2012,-149.47398,61.271423
6524,8612 BOUNDARY AVE,Anchorage,AK,99504,"8612 BOUNDARY AVE, Anchorage, AK, 99504",Match,Exact,"8612 BOUNDARY AVE, ANCHORAGE, AK, 99504",639710376,R,02,020,000703,1011,-149.72095,61.224136
6525,8612 BOUNDARY AVE,Anchorage,AK,99504,"8612 BOUNDARY AVE, Anchorage, AK, 99504",Match,Exact,"8612 BOUNDARY AVE, ANCHORAGE, AK, 99504",639710376,R,02,020,000703,1011,-149.72095,61.224136
6526,8612 BOUNDARY AVE,Anchorage,AK,99504,"8612 BOUNDARY AVE, Anchorage, AK, 99504",Match,Exact,"8612 BOUNDARY AVE, ANCHORAGE, AK, 99504",639710376,R,02,020,000703,1011,-149.72095,61.224136
6527,8612 BOUNDARY AVE,Anchorage,AK,99504,"8612 BOUNDARY AVE, Anchorage, AK, 99504",Match,Exact,"8612 BOUNDARY AVE, ANCHORAGE, AK, 99504",639710376,R,02,020,000703,1011,-149.72095,61.224136
6528,8200 BOUNDARY AVE,Anchorage,AK,99504,"8200 BOUNDARY AVE, Anchorage, AK, 99504",Match,Exact,"8200 BOUNDARY AVE, ANCHORAGE, AK, 99504",190808824,R,02,020,000703,2000,-149.72716,61.224136
6529,8040 BOUNDARY AVE,Anchorage,AK,99504,"8040 BOUNDARY AVE, Anchorage, AK, 99504",Match,Exact,"8040 BOUNDARY AVE, ANCHORAGE, AK, 99504",190796071,R,02,020,000703,2001,-149.73076,61.224132999999995
6530,8040 BOUNDARY AVE,Anchorage,AK,99504,"8040 BOUNDARY AVE, Anchorage, AK, 99504",Match,Exact,"8040 BOUNDARY AVE, ANCHORAGE, AK, 99504",190796071,R,02,020,000703,2001,-149.73076,61.224132999999995
6531,8040 BOUNDARY AVE,Anchorage,AK,99504,"8040 BOUNDARY AVE, Anchorage, AK, 99504",Match,Exact,"8040 BOUNDARY AVE, ANCHORAGE, AK, 99504",190796071,R,02,020,000703,2001,-149.73076,61.224132999999995
6532,8040 BOUNDARY AVE,Anchorage,AK,99504,"8040 BOUNDARY AVE, Anchorage, AK, 99504",Match,Exact,"8040 BOUNDARY AVE, ANCHORAGE, AK, 99504",190796071,R,02,020,000703,2001,-149.73076,61.224132999999995
6533,8040 BOUNDARY AVE,Anchorage,AK,99504,"8040 BOUNDARY AVE, Anchorage, AK, 99504",Match,Exact,"8040 BOUNDARY AVE, ANCHORAGE, AK, 99504",190796071,R,02,020,000703,2001,-149.73076,61.224132999999995
6534,8040 BOUNDARY AVE,Anchorage,AK,99504,"8040 BOUNDARY AVE, Anchorage, AK, 99504",Match,Exact,"8040 BOUNDARY AVE, ANCHORAGE, AK, 99504",190796071,R,02,020,000703,2001,-149.73076,61.224132999999995
6535,8040 BOUNDARY AVE,Anchorage,AK,99504,"8040 BOUNDARY AVE, Anchorage, AK, 99504",Match,Exact,"8040 BOUNDARY AVE, ANCHORAGE, AK, 99504",190796071,R,02,020,000703,2001,-149.73076,61.224132999999995
6536,8040 BOUNDARY AVE,Anchorage,AK,99504,"8040 BOUNDARY AVE, Anchorage, AK, 99504",Match,Exact,"8040 BOUNDARY AVE, ANCHORAGE, AK, 99504",190796071,R,02,020,000703,2001,-149.73076,61.224132999999995
6537,8040 BOUNDARY AVE,Anchorage,AK,99504,"8040 BOUNDARY AVE, Anchorage, AK, 99504",Match,Exact,"8040 BOUNDARY AVE, ANCHORAGE, AK, 99504",190796071,R,02,020,000703,2001,-149.73076,61.224132999999995
6538,8040 BOUNDARY AVE,Anchorage,AK,99504,"8040 BOUNDARY AVE, Anchorage, AK, 99504",Match,Exact,"8040 BOUNDARY AVE, ANCHORAGE, AK, 99504",190796071,R,02,020,000703,2001,-149.73076,61.224132999999995
6539,8040 BOUNDARY AVE,Anchorage,AK,99504,"8040 BOUNDARY AVE, Anchorage, AK, 99504",Match,Exact,"8040 BOUNDARY AVE, ANCHORAGE, AK, 99504",190796071,R,02,020,000703,2001,-149.73076,61.224132999999995
6540,8040 BOUNDARY AVE,Anchorage,AK,99504,"8040 BOUNDARY AVE, Anchorage, AK, 99504",Match,Exact,"8040 BOUNDARY AVE, ANCHORAGE, AK, 99504",190796071,R,02,020,000703,2001,-149.73076,61.224132999999995
6541,8010 BOUNDARY AVE,Anchorage,AK,99504,"8010 BOUNDARY AVE, Anchorage, AK, 99504",Match,Exact,"8010 BOUNDARY AVE, ANCHORAGE, AK, 99504",190796071,R,02,020,000703,2001,-149.7312,61.224132999999995
6542,8010 BOUNDARY AVE,Anchorage,AK,99504,"8010 BOUNDARY AVE, Anchorage, AK, 99504",Match,Exact,"8010 BOUNDARY AVE, ANCHORAGE, AK, 99504",190796071,R,02,020,000703,2001,-149.7312,61.224132999999995
6543,8010 BOUNDARY AVE,Anchorage,AK,99504,"8010 BOUNDARY AVE, Anchorage, AK, 99504",Match,Exact,"8010 BOUNDARY AVE, ANCHORAGE, AK, 99504",190796071,R,02,020,000703,2001,-149.7312,61.224132999999995
6544,8010 BOUNDARY AVE,Anchorage,AK,99504,"8010 BOUNDARY AVE, Anchorage, AK, 99504",Match,Exact,"8010 BOUNDARY AVE, ANCHORAGE, AK, 99504",190796071,R,02,020,000703,2001,-149.7312,61.224132999999995
6545,8010 BOUNDARY AVE,Anchorage,AK,99504,"8010 BOUNDARY AVE, Anchorage, AK, 99504",Match,Exact,"8010 BOUNDARY AVE, ANCHORAGE, AK, 99504",190796071,R,02,020,000703,2001,-149.7312,61.224132999999995
6546,8010 BOUNDARY AVE,Anchorage,AK,99504,"8010 BOUNDARY AVE, Anchorage, AK, 99504",Match,Exact,"8010 BOUNDARY AVE, ANCHORAGE, AK, 99504",190796071,R,02,020,000703,2001,-149.7312,61.224132999999995
6547,8010 BOUNDARY AVE,Anchorage,AK,99504,"8010 BOUNDARY AVE, Anchorage, AK, 99504",Match,Exact,"8010 BOUNDARY AVE, ANCHORAGE, AK, 99504",190796071,R,02,020,000703,2001,-149.7312,61.224132999999995
6548,8010 BOUNDARY AVE,Anchorage,AK,99504,"8010 BOUNDARY AVE, Anchorage, AK, 99504",Match,Exact,"8010 BOUNDARY AVE, ANCHORAGE, AK, 99504",190796071,R,02,020,000703,2001,-149.7312,61.224132999999995
6549,8010 BOUNDARY AVE,Anchorage,AK,99504,"8010 BOUNDARY AVE, Anchorage, AK, 99504",Match,Exact,"8010 BOUNDARY AVE, ANCHORAGE, AK, 99504",190796071,R,02,020,000703,2001,-149.7312,61.224132999999995
6550,8010 BOUNDARY AVE,Anchorage,AK,99504,"8010 BOUNDARY AVE, Anchorage, AK, 99504",Match,Exact,"8010 BOUNDARY AVE, ANCHORAGE, AK, 99504",190796071,R,02,020,000703,2001,-149.7312,61.224132999999995
6551,8010 BOUNDARY AVE,Anchorage,AK,99504,"8010 BOUNDARY AVE, Anchorage, AK, 99504",Match,Exact,"8010 BOUNDARY AVE, ANCHORAGE, AK, 99504",190796071,R,02,020,000703,2001,-149.7312,61.224132999999995
6552,8960 NORTHWOOD PARK CIR,Anchorage,AK,99577,"8960 NORTHWOOD PARK CIR, Anchorage, AK, 99577",Match,Non_Exact,"8960 NORTHWOOD PARK CIR, EAGLE RIVER, AK, 99577",190819645,L,02,020,000203,3022,-149.51753,61.30139499999999
6553,18841 KATELYN CIR,Anchorage,AK,99577,"18841 KATELYN CIR, Anchorage, AK, 99577",Match,Non_Exact,"18841 KATELYN CIR, EAGLE RIVER, AK, 99577",190818650,R,02,020,000203,3021,-149.53113000000002,61.301853
6554,19454 HIGHLAND RIDGE DR,Anchorage,AK,99577,"19454 HIGHLAND RIDGE DR, Anchorage, AK, 99577",Match,Non_Exact,"19454 HIGHLAND RIDGE DR, EAGLE RIVER, AK, 99577",190819652,R,02,020,000203,3022,-149.5192,61.301567000000006
6555,227 NEWELL ST,Anchorage,AK,99504,"227 NEWELL ST, Anchorage, AK, 99504",Match,Exact,"227 NEWELL ST, ANCHORAGE, AK, 99504",605167293,R,02,020,000701,1000,-149.77095,61.222637
6556,227 NEWELL ST,Anchorage,AK,99504,"227 NEWELL ST, Anchorage, AK, 99504",Match,Exact,"227 NEWELL ST, ANCHORAGE, AK, 99504",605167293,R,02,020,000701,1000,-149.77095,61.222637
6557,232 GRAND LARRY ST,Anchorage,AK,99504,"232 GRAND LARRY ST, Anchorage, AK, 99504",Match,Exact,"232 GRAND LARRY ST, ANCHORAGE, AK, 99504",190803200,R,02,020,000703,2002,-149.72978,61.22175
6558,232 GRAND LARRY ST,Anchorage,AK,99504,"232 GRAND LARRY ST, Anchorage, AK, 99504",Match,Exact,"232 GRAND LARRY ST, ANCHORAGE, AK, 99504",190803200,R,02,020,000703,2002,-149.72978,61.22175
6559,233 ORANGE LEAF CIR,Anchorage,AK,99504,"233 ORANGE LEAF CIR, Anchorage, AK, 99504",Match,Exact,"233 ORANGE LEAF CIR, ANCHORAGE, AK, 99504",190803309,R,02,020,000703,1013,-149.71941999999999,61.22220600000001
6560,257 DAVIS ST,Anchorage,AK,99508,"257 DAVIS ST, Anchorage, AK, 99508",Match,Exact,"257 DAVIS ST, ANCHORAGE, AK, 99508",190801936,L,02,020,000801,3009,-149.78607,61.22201999999999
6561,232 ORANGE LEAF CIR,Anchorage,AK,99504,"232 ORANGE LEAF CIR, Anchorage, AK, 99504",Match,Exact,"232 ORANGE LEAF CIR, ANCHORAGE, AK, 99504",190803309,L,02,020,000703,1013,-149.71944,61.22220600000001
6562,336 BONIFACE PKWY,Anchorage,AK,99504,"336 BONIFACE PKWY, Anchorage, AK, 99504",Match,Exact,"336 BONIFACE PKWY, ANCHORAGE, AK, 99504",190801982,R,02,020,000801,4000,-149.77841,61.2197
6563,229 ZAPPA PL,Anchorage,AK,99504,"229 ZAPPA PL, Anchorage, AK, 99504",Match,Exact,"229 ZAPPA PL, ANCHORAGE, AK, 99504",190803204,L,02,020,000703,1013,-149.726,61.221813
6564,6328 WHISPERING LOOP,Anchorage,AK,99504,"6328 WHISPERING LOOP, Anchorage, AK, 99504",Match,Exact,"6328 WHISPERING LOOP, ANCHORAGE, AK, 99504",624788733,R,02,020,000701,1000,-149.76253,61.221880000000006
6565,6328 WHISPERING LOOP,Anchorage,AK,99504,"6328 WHISPERING LOOP, Anchorage, AK, 99504",Match,Exact,"6328 WHISPERING LOOP, ANCHORAGE, AK, 99504",624788733,R,02,020,000701,1000,-149.76253,61.221880000000006
6566,236 ORANGE LEAF CIR,Anchorage,AK,99504,"236 ORANGE LEAF CIR, Anchorage, AK, 99504",Match,Exact,"236 ORANGE LEAF CIR, ANCHORAGE, AK, 99504",190803309,L,02,020,000703,1013,-149.71944,61.222187
6567,7643 MELODY COMMONS CT,Anchorage,AK,99504,"7643 MELODY COMMONS CT, Anchorage, AK, 99504",Match,Exact,"7643 MELODY COMMONS CT, ANCHORAGE, AK, 99504",605182954,L,02,020,000702,2001,-149.73825,61.22169
6568,233 RED LEAF CIR,Anchorage,AK,99504,"233 RED LEAF CIR, Anchorage, AK, 99504",Match,Exact,"233 RED LEAF CIR, ANCHORAGE, AK, 99504",190803306,R,02,020,000703,1013,-149.7213,61.22220600000001
6569,232 RED LEAF CIR,Anchorage,AK,99504,"232 RED LEAF CIR, Anchorage, AK, 99504",Match,Exact,"232 RED LEAF CIR, ANCHORAGE, AK, 99504",190803306,L,02,020,000703,1013,-149.72131000000002,61.22220600000001
6570,237 ORANGE LEAF CIR,Anchorage,AK,99504,"237 ORANGE LEAF CIR, Anchorage, AK, 99504",Match,Exact,"237 ORANGE LEAF CIR, ANCHORAGE, AK, 99504",190803309,R,02,020,000703,1013,-149.71941999999999,61.222187
6571,7645 MELODY COMMONS CT,Anchorage,AK,99504,"7645 MELODY COMMONS CT, Anchorage, AK, 99504",Match,Exact,"7645 MELODY COMMONS CT, ANCHORAGE, AK, 99504",605182954,L,02,020,000702,2001,-149.7382,61.22169
6572,229 PATTERSON ST,Anchorage,AK,99504,"229 PATTERSON ST, Anchorage, AK, 99504",Match,Exact,"229 PATTERSON ST, ANCHORAGE, AK, 99504",190802844,L,02,020,000702,2007,-149.7485,61.221817
6573,7615 MELODY COMMONS CT,Anchorage,AK,99504,"7615 MELODY COMMONS CT, Anchorage, AK, 99504",Match,Exact,"7615 MELODY COMMONS CT, ANCHORAGE, AK, 99504",605182954,L,02,020,000702,2001,-149.73892,61.221683999999996
6574,228 RED LEAF CIR,Anchorage,AK,99504,"228 RED LEAF CIR, Anchorage, AK, 99504",Match,Exact,"228 RED LEAF CIR, ANCHORAGE, AK, 99504",190803306,L,02,020,000703,1013,-149.72131000000002,61.22221999999999
6575,237 RED LEAF CIR,Anchorage,AK,99504,"237 RED LEAF CIR, Anchorage, AK, 99504",Match,Exact,"237 RED LEAF CIR, ANCHORAGE, AK, 99504",190803306,R,02,020,000703,1013,-149.7213,61.222190000000005
6576,7601 MELODY COMMONS CT,Anchorage,AK,99504,"7601 MELODY COMMONS CT, Anchorage, AK, 99504",Match,Exact,"7601 MELODY COMMONS CT, ANCHORAGE, AK, 99504",605182954,L,02,020,000702,2001,-149.73914,61.22156999999999
6577,7603 MELODY COMMONS CT,Anchorage,AK,99504,"7603 MELODY COMMONS CT, Anchorage, AK, 99504",Match,Exact,"7603 MELODY COMMONS CT, ANCHORAGE, AK, 99504",605182954,L,02,020,000702,2001,-149.73911999999999,61.221592
6578,7629 MELODY COMMONS CT,Anchorage,AK,99504,"7629 MELODY COMMONS CT, Anchorage, AK, 99504",Match,Exact,"7629 MELODY COMMONS CT, ANCHORAGE, AK, 99504",605182954,L,02,020,000702,2001,-149.73859,61.22169
6579,264 YELLOW LEAF CIR,Anchorage,AK,99504,"264 YELLOW LEAF CIR, Anchorage, AK, 99504",Match,Exact,"264 YELLOW LEAF CIR, ANCHORAGE, AK, 99504",190803334,R,02,020,000703,1013,-149.71944,61.22076
6580,265 FALL LEAF CIR,Anchorage,AK,99504,"265 FALL LEAF CIR, Anchorage, AK, 99504",Match,Exact,"265 FALL LEAF CIR, ANCHORAGE, AK, 99504",190803320,L,02,020,000703,1013,-149.72128,61.22075699999999
6581,6581 WHISPERING LOOP,Anchorage,AK,99504,"6581 WHISPERING LOOP, Anchorage, AK, 99504",Match,Exact,"6581 WHISPERING LOOP, ANCHORAGE, AK, 99504",624788736,R,02,020,000701,1013,-149.7584,61.220980000000004
6582,6581 WHISPERING LOOP,Anchorage,AK,99504,"6581 WHISPERING LOOP, Anchorage, AK, 99504",Match,Exact,"6581 WHISPERING LOOP, ANCHORAGE, AK, 99504",624788736,R,02,020,000701,1013,-149.7584,61.220980000000004
6583,265 YELLOW LEAF CIR,Anchorage,AK,99504,"265 YELLOW LEAF CIR, Anchorage, AK, 99504",Match,Exact,"265 YELLOW LEAF CIR, ANCHORAGE, AK, 99504",190803334,L,02,020,000703,1013,-149.7194,61.22076
6584,264 MULDOON RD,Anchorage,AK,99504,"264 MULDOON RD, Anchorage, AK, 99504",Match,Exact,"264 MULDOON RD, ANCHORAGE, AK, 99504",190803191,R,02,020,000702,2000,-149.73352,61.221233
6585,6441 WHISPERING LOOP,Anchorage,AK,99504,"6441 WHISPERING LOOP, Anchorage, AK, 99504",Match,Exact,"6441 WHISPERING LOOP, ANCHORAGE, AK, 99504",624788733,L,02,020,000701,1013,-149.76178000000002,61.220924
6586,6441 WHISPERING LOOP,Anchorage,AK,99504,"6441 WHISPERING LOOP, Anchorage, AK, 99504",Match,Exact,"6441 WHISPERING LOOP, ANCHORAGE, AK, 99504",624788733,L,02,020,000701,1013,-149.76178000000002,61.220924
6587,6529 WHISPERING LOOP,Anchorage,AK,99504,"6529 WHISPERING LOOP, Anchorage, AK, 99504",Match,Exact,"6529 WHISPERING LOOP, ANCHORAGE, AK, 99504",624788736,R,02,020,000701,1013,-149.7595,61.220955000000004
6588,160 GRAND LARRY ST,Anchorage,AK,99504,"160 GRAND LARRY ST, Anchorage, AK, 99504",Match,Exact,"160 GRAND LARRY ST, ANCHORAGE, AK, 99504",625718476,R,02,020,000703,2001,-149.72978,61.22304499999999
6589,160 GRAND LARRY ST,Anchorage,AK,99504,"160 GRAND LARRY ST, Anchorage, AK, 99504",Match,Exact,"160 GRAND LARRY ST, ANCHORAGE, AK, 99504",625718476,R,02,020,000703,2001,-149.72978,61.22304499999999
6590,160 GRAND LARRY ST,Anchorage,AK,99504,"160 GRAND LARRY ST, Anchorage, AK, 99504",Match,Exact,"160 GRAND LARRY ST, ANCHORAGE, AK, 99504",625718476,R,02,020,000703,2001,-149.72978,61.22304499999999
6591,160 GRAND LARRY ST,Anchorage,AK,99504,"160 GRAND LARRY ST, Anchorage, AK, 99504",Match,Exact,"160 GRAND LARRY ST, ANCHORAGE, AK, 99504",625718476,R,02,020,000703,2001,-149.72978,61.22304499999999
6592,160 GRAND LARRY ST,Anchorage,AK,99504,"160 GRAND LARRY ST, Anchorage, AK, 99504",Match,Exact,"160 GRAND LARRY ST, ANCHORAGE, AK, 99504",625718476,R,02,020,000703,2001,-149.72978,61.22304499999999
6593,160 GRAND LARRY ST,Anchorage,AK,99504,"160 GRAND LARRY ST, Anchorage, AK, 99504",Match,Exact,"160 GRAND LARRY ST, ANCHORAGE, AK, 99504",625718476,R,02,020,000703,2001,-149.72978,61.22304499999999
6594,160 GRAND LARRY ST,Anchorage,AK,99504,"160 GRAND LARRY ST, Anchorage, AK, 99504",Match,Exact,"160 GRAND LARRY ST, ANCHORAGE, AK, 99504",625718476,R,02,020,000703,2001,-149.72978,61.22304499999999
6595,160 GRAND LARRY ST,Anchorage,AK,99504,"160 GRAND LARRY ST, Anchorage, AK, 99504",Match,Exact,"160 GRAND LARRY ST, ANCHORAGE, AK, 99504",625718476,R,02,020,000703,2001,-149.72978,61.22304499999999
6596,7601 PECK AVE,Anchorage,AK,99504,"7601 PECK AVE, Anchorage, AK, 99504",Match,Exact,"7601 PECK AVE, ANCHORAGE, AK, 99504",190812117,L,02,020,000702,2000,-149.73924,61.22237
6597,7601 PECK AVE,Anchorage,AK,99504,"7601 PECK AVE, Anchorage, AK, 99504",Match,Exact,"7601 PECK AVE, ANCHORAGE, AK, 99504",190812117,L,02,020,000702,2000,-149.73924,61.22237
6598,7541 PECK AVE,Anchorage,AK,99504,"7541 PECK AVE, Anchorage, AK, 99504",Match,Exact,"7541 PECK AVE, ANCHORAGE, AK, 99504",190812117,L,02,020,000702,2000,-149.73978,61.22237
6599,7541 PECK AVE,Anchorage,AK,99504,"7541 PECK AVE, Anchorage, AK, 99504",Match,Exact,"7541 PECK AVE, ANCHORAGE, AK, 99504",190812117,L,02,020,000702,2000,-149.73978,61.22237
6600,7541 PECK AVE,Anchorage,AK,99504,"7541 PECK AVE, Anchorage, AK, 99504",Match,Exact,"7541 PECK AVE, ANCHORAGE, AK, 99504",190812117,L,02,020,000702,2000,-149.73978,61.22237
6601,7541 PECK AVE,Anchorage,AK,99504,"7541 PECK AVE, Anchorage, AK, 99504",Match,Exact,"7541 PECK AVE, ANCHORAGE, AK, 99504",190812117,L,02,020,000702,2000,-149.73978,61.22237
6602,7531 PECK AVE,Anchorage,AK,99504,"7531 PECK AVE, Anchorage, AK, 99504",Match,Exact,"7531 PECK AVE, ANCHORAGE, AK, 99504",190812117,L,02,020,000702,2000,-149.73987,61.22237
6603,7531 PECK AVE,Anchorage,AK,99504,"7531 PECK AVE, Anchorage, AK, 99504",Match,Exact,"7531 PECK AVE, ANCHORAGE, AK, 99504",190812117,L,02,020,000702,2000,-149.73987,61.22237
6604,7531 PECK AVE,Anchorage,AK,99504,"7531 PECK AVE, Anchorage, AK, 99504",Match,Exact,"7531 PECK AVE, ANCHORAGE, AK, 99504",190812117,L,02,020,000702,2000,-149.73987,61.22237
6605,7531 PECK AVE,Anchorage,AK,99504,"7531 PECK AVE, Anchorage, AK, 99504",Match,Exact,"7531 PECK AVE, ANCHORAGE, AK, 99504",190812117,L,02,020,000702,2000,-149.73987,61.22237
6606,7501 PECK AVE,Anchorage,AK,99504,"7501 PECK AVE, Anchorage, AK, 99504",Match,Exact,"7501 PECK AVE, ANCHORAGE, AK, 99504",190802860,L,02,020,000702,2000,-149.7406,61.22237
6607,7501 PECK AVE,Anchorage,AK,99504,"7501 PECK AVE, Anchorage, AK, 99504",Match,Exact,"7501 PECK AVE, ANCHORAGE, AK, 99504",190802860,L,02,020,000702,2000,-149.7406,61.22237
6608,7501 PECK AVE,Anchorage,AK,99504,"7501 PECK AVE, Anchorage, AK, 99504",Match,Exact,"7501 PECK AVE, ANCHORAGE, AK, 99504",190802860,L,02,020,000702,2000,-149.7406,61.22237
6609,7501 PECK AVE,Anchorage,AK,99504,"7501 PECK AVE, Anchorage, AK, 99504",Match,Exact,"7501 PECK AVE, ANCHORAGE, AK, 99504",190802860,L,02,020,000702,2000,-149.7406,61.22237
6610,7409 PECK AVE,Anchorage,AK,99504,"7409 PECK AVE, Anchorage, AK, 99504",Match,Exact,"7409 PECK AVE, ANCHORAGE, AK, 99504",190802858,L,02,020,000702,1006,-149.74254,61.22237
6611,7435 PECK AVE,Anchorage,AK,99504,"7435 PECK AVE, Anchorage, AK, 99504",Match,Exact,"7435 PECK AVE, ANCHORAGE, AK, 99504",190802860,L,02,020,000702,2000,-149.74173000000002,61.22237
6612,7433 PECK AVE,Anchorage,AK,99504,"7433 PECK AVE, Anchorage, AK, 99504",Match,Exact,"7433 PECK AVE, ANCHORAGE, AK, 99504",190802860,L,02,020,000702,2000,-149.74176,61.22237
6613,7431 PECK AVE,Anchorage,AK,99504,"7431 PECK AVE, Anchorage, AK, 99504",Match,Exact,"7431 PECK AVE, ANCHORAGE, AK, 99504",190802860,L,02,020,000702,2000,-149.7418,61.22237
6614,7417 PECK AVE,Anchorage,AK,99504,"7417 PECK AVE, Anchorage, AK, 99504",Match,Exact,"7417 PECK AVE, ANCHORAGE, AK, 99504",190802858,L,02,020,000702,1006,-149.7424,61.22237
6615,7425 PECK AVE,Anchorage,AK,99504,"7425 PECK AVE, Anchorage, AK, 99504",Match,Exact,"7425 PECK AVE, ANCHORAGE, AK, 99504",190802858,L,02,020,000702,1006,-149.74225,61.22237
6616,7335 PECK AVE,Anchorage,AK,99504,"7335 PECK AVE, Anchorage, AK, 99504",Match,Exact,"7335 PECK AVE, ANCHORAGE, AK, 99504",190802858,L,02,020,000702,1006,-149.74391,61.22237
6617,7335 PECK AVE,Anchorage,AK,99504,"7335 PECK AVE, Anchorage, AK, 99504",Match,Exact,"7335 PECK AVE, ANCHORAGE, AK, 99504",190802858,L,02,020,000702,1006,-149.74391,61.22237
6618,227 NEWELL ST,Anchorage,AK,99504,"227 NEWELL ST, Anchorage, AK, 99504",Match,Exact,"227 NEWELL ST, ANCHORAGE, AK, 99504",605167293,R,02,020,000701,1000,-149.77095,61.222637
6619,227 NEWELL ST,Anchorage,AK,99504,"227 NEWELL ST, Anchorage, AK, 99504",Match,Exact,"227 NEWELL ST, ANCHORAGE, AK, 99504",605167293,R,02,020,000701,1000,-149.77095,61.222637
6620,5201 CARIBOU AVE,Anchorage,AK,99508,"5201 CARIBOU AVE, Anchorage, AK, 99508",Match,Exact,"5201 CARIBOU AVE, ANCHORAGE, AK, 99508",190801938,L,02,020,000801,3005,-149.78433,61.222393000000004
6621,5201 CARIBOU AVE,Anchorage,AK,99508,"5201 CARIBOU AVE, Anchorage, AK, 99508",Match,Exact,"5201 CARIBOU AVE, ANCHORAGE, AK, 99508",190801938,L,02,020,000801,3005,-149.78433,61.222393000000004
6622,211 SKYHAVEN CIR,Anchorage,AK,99504,"211 SKYHAVEN CIR, Anchorage, AK, 99504",Match,Exact,"211 SKYHAVEN CIR, ANCHORAGE, AK, 99504",190816627,R,02,020,000702,2001,-149.74284,61.220978
6623,257 GRAND LARRY ST,Anchorage,AK,99504,"257 GRAND LARRY ST, Anchorage, AK, 99504",Match,Exact,"257 GRAND LARRY ST, ANCHORAGE, AK, 99504",190803200,L,02,020,000703,2003,-149.72975,61.221385999999995
6624,252 CREEKSIDE ST,Anchorage,AK,99504,"252 CREEKSIDE ST, Anchorage, AK, 99504",Match,Exact,"252 CREEKSIDE ST, ANCHORAGE, AK, 99504",190816630,L,02,020,000702,2001,-149.74101000000002,61.220985
6625,305 LIONHEART CT,Anchorage,AK,99508,"305 LIONHEART CT, Anchorage, AK, 99508",Match,Exact,"305 LIONHEART CT, ANCHORAGE, AK, 99508",190812092,R,02,020,000801,3008,-149.78168,61.22136999999999
6626,220 SKYHAVEN CIR,Anchorage,AK,99504,"220 SKYHAVEN CIR, Anchorage, AK, 99504",Match,Exact,"220 SKYHAVEN CIR, ANCHORAGE, AK, 99504",190816627,L,02,020,000702,2001,-149.74286999999998,61.220932
6627,332 LIONHEART CT,Anchorage,AK,99508,"332 LIONHEART CT, Anchorage, AK, 99508",Match,Exact,"332 LIONHEART CT, ANCHORAGE, AK, 99508",190812092,L,02,020,000801,3008,-149.7822,61.221244999999996
6628,332 LIONHEART CT,Anchorage,AK,99508,"332 LIONHEART CT, Anchorage, AK, 99508",Match,Exact,"332 LIONHEART CT, ANCHORAGE, AK, 99508",190812092,L,02,020,000801,3008,-149.7822,61.221244999999996
6629,307 LIONHEART CT,Anchorage,AK,99508,"307 LIONHEART CT, Anchorage, AK, 99508",Match,Exact,"307 LIONHEART CT, ANCHORAGE, AK, 99508",190812092,R,02,020,000801,3008,-149.78171,61.221363000000004
6630,302 BUNNELL ST,Anchorage,AK,99508,"302 BUNNELL ST, Anchorage, AK, 99508",Match,Exact,"302 BUNNELL ST, ANCHORAGE, AK, 99508",624266934,R,02,020,000801,2005,-149.78972,61.22126
6631,221 SKYHAVEN CIR,Anchorage,AK,99504,"221 SKYHAVEN CIR, Anchorage, AK, 99504",Match,Exact,"221 SKYHAVEN CIR, ANCHORAGE, AK, 99504",190816627,R,02,020,000702,2001,-149.74284,61.220932
6632,240 MELODY PL,Anchorage,AK,99504,"240 MELODY PL, Anchorage, AK, 99504",Match,Exact,"240 MELODY PL, ANCHORAGE, AK, 99504",190802898,R,02,020,000702,2001,-149.73914,61.220665000000004
6633,240 MELODY PL,Anchorage,AK,99504,"240 MELODY PL, Anchorage, AK, 99504",Match,Exact,"240 MELODY PL, ANCHORAGE, AK, 99504",190802898,R,02,020,000702,2001,-149.73914,61.220665000000004
6634,240 MELODY PL,Anchorage,AK,99504,"240 MELODY PL, Anchorage, AK, 99504",Match,Exact,"240 MELODY PL, ANCHORAGE, AK, 99504",190802898,R,02,020,000702,2001,-149.73914,61.220665000000004
6635,259 ZAPPA PL,Anchorage,AK,99504,"259 ZAPPA PL, Anchorage, AK, 99504",Match,Exact,"259 ZAPPA PL, ANCHORAGE, AK, 99504",190803204,L,02,020,000703,1013,-149.726,61.22136
6636,256 FALL LEAF CIR,Anchorage,AK,99504,"256 FALL LEAF CIR, Anchorage, AK, 99504",Match,Exact,"256 FALL LEAF CIR, ANCHORAGE, AK, 99504",190803320,R,02,020,000703,1013,-149.72131000000002,61.22079
6637,129 BURTON ST,Anchorage,AK,99504,"129 BURTON ST, Anchorage, AK, 99504",Match,Exact,"129 BURTON ST, ANCHORAGE, AK, 99504",190802857,L,02,020,000702,2000,-149.74193,61.22298000000001
6638,100 MC CARREY ST,Anchorage,AK,99508,"100 MC CARREY ST, Anchorage, AK, 99508",Match,Exact,"100 MC CARREY ST, ANCHORAGE, AK, 99508",605167268,R,02,020,000801,1000,-149.79173,61.223273999999996
6639,100 MC CARREY ST,Anchorage,AK,99508,"100 MC CARREY ST, Anchorage, AK, 99508",Match,Exact,"100 MC CARREY ST, ANCHORAGE, AK, 99508",605167268,R,02,020,000801,1000,-149.79173,61.223273999999996
6640,135 GRAND LARRY ST,Anchorage,AK,99504,"135 GRAND LARRY ST, Anchorage, AK, 99504",Match,Exact,"135 GRAND LARRY ST, ANCHORAGE, AK, 99504",625718476,L,02,020,000703,2000,-149.72975,61.22341
6641,7652 BOUNDARY AVE,Anchorage,AK,99504,"7652 BOUNDARY AVE, Anchorage, AK, 99504",Match,Exact,"7652 BOUNDARY AVE, ANCHORAGE, AK, 99504",605167217,R,02,020,000702,2000,-149.73851000000002,61.224169999999994
6642,145 RUSTY ALLEN PL,Anchorage,AK,99504,"145 RUSTY ALLEN PL, Anchorage, AK, 99504",Match,Exact,"145 RUSTY ALLEN PL, ANCHORAGE, AK, 99504",605185494,L,02,020,000701,1000,-149.76067,61.223103
6643,108 MULDOON RD,Anchorage,AK,99504,"108 MULDOON RD, Anchorage, AK, 99504",Match,Exact,"108 MULDOON RD, ANCHORAGE, AK, 99504",638990398,R,02,020,000702,2000,-149.73353999999998,61.223904000000005
6644,120 RUSTY ALLEN PL,Anchorage,AK,99504,"120 RUSTY ALLEN PL, Anchorage, AK, 99504",Match,Exact,"120 RUSTY ALLEN PL, ANCHORAGE, AK, 99504",605185494,R,02,020,000701,1000,-149.76071000000002,61.223316000000004
6645,7044 GOLD KINGS AVE,Anchorage,AK,99504,"7044 GOLD KINGS AVE, Anchorage, AK, 99504",Match,Exact,"7044 GOLD KINGS AVE, ANCHORAGE, AK, 99504",190820028,L,02,020,000702,3003,-149.7495,61.223602
6646,7034 GOLD KINGS AVE,Anchorage,AK,99504,"7034 GOLD KINGS AVE, Anchorage, AK, 99504",Match,Exact,"7034 GOLD KINGS AVE, ANCHORAGE, AK, 99504",190820028,L,02,020,000702,3003,-149.74962,61.223606000000004
6647,7024 GOLD KINGS AVE,Anchorage,AK,99504,"7024 GOLD KINGS AVE, Anchorage, AK, 99504",Match,Exact,"7024 GOLD KINGS AVE, ANCHORAGE, AK, 99504",190820028,L,02,020,000702,3003,-149.74974,61.223606000000004
6648,7014 GOLD KINGS AVE,Anchorage,AK,99504,"7014 GOLD KINGS AVE, Anchorage, AK, 99504",Match,Exact,"7014 GOLD KINGS AVE, ANCHORAGE, AK, 99504",190820028,L,02,020,000702,3003,-149.74986,61.223606000000004
6649,7004 GOLD KINGS AVE,Anchorage,AK,99504,"7004 GOLD KINGS AVE, Anchorage, AK, 99504",Match,Exact,"7004 GOLD KINGS AVE, ANCHORAGE, AK, 99504",190820028,L,02,020,000702,3003,-149.74997,61.223606000000004
6650,6952 GOLD KINGS AVE,Anchorage,AK,99504,"6952 GOLD KINGS AVE, Anchorage, AK, 99504",Match,Exact,"6952 GOLD KINGS AVE, ANCHORAGE, AK, 99504",190820028,L,02,020,000702,3003,-149.7506,61.223606000000004
6651,6942 GOLD KINGS AVE,Anchorage,AK,99504,"6942 GOLD KINGS AVE, Anchorage, AK, 99504",Match,Exact,"6942 GOLD KINGS AVE, ANCHORAGE, AK, 99504",190820028,L,02,020,000702,3003,-149.7507,61.223606000000004
6652,6932 GOLD KINGS AVE,Anchorage,AK,99504,"6932 GOLD KINGS AVE, Anchorage, AK, 99504",Match,Exact,"6932 GOLD KINGS AVE, ANCHORAGE, AK, 99504",190820028,L,02,020,000702,3003,-149.75082,61.223606000000004
6653,6922 GOLD KINGS AVE,Anchorage,AK,99504,"6922 GOLD KINGS AVE, Anchorage, AK, 99504",Match,Exact,"6922 GOLD KINGS AVE, ANCHORAGE, AK, 99504",190820028,L,02,020,000702,3003,-149.75095,61.223606000000004
6654,6912 GOLD KINGS AVE,Anchorage,AK,99504,"6912 GOLD KINGS AVE, Anchorage, AK, 99504",Match,Exact,"6912 GOLD KINGS AVE, ANCHORAGE, AK, 99504",190820028,L,02,020,000702,3003,-149.75105,61.223606000000004
6655,8956 MEADOW PARK CIR,Anchorage,AK,99577,"8956 MEADOW PARK CIR, Anchorage, AK, 99577",Match,Non_Exact,"8956 MEADOW PARK CIR, EAGLE RIVER, AK, 99577",605288530,L,02,020,000203,3022,-149.51038,61.300971999999994
6656,18861 KATELYN CIR,Anchorage,AK,99577,"18861 KATELYN CIR, Anchorage, AK, 99577",Match,Non_Exact,"18861 KATELYN CIR, EAGLE RIVER, AK, 99577",190818650,R,02,020,000203,3021,-149.53087,61.301735
6657,8941 EAGLE PLACE LOOP,Anchorage,AK,99577,"8941 EAGLE PLACE LOOP, Anchorage, AK, 99577",No_Match,,,,,,,,,,
6658,8947 EAGLE PLACE LOOP,Anchorage,AK,99577,"8947 EAGLE PLACE LOOP, Anchorage, AK, 99577",No_Match,,,,,,,,,,
6659,8943 EAGLE PLACE LOOP,Anchorage,AK,99577,"8943 EAGLE PLACE LOOP, Anchorage, AK, 99577",No_Match,,,,,,,,,,
6660,19442 HIGHLAND RIDGE DR,Anchorage,AK,99577,"19442 HIGHLAND RIDGE DR, Anchorage, AK, 99577",Match,Non_Exact,"19442 HIGHLAND RIDGE DR, EAGLE RIVER, AK, 99577",190819652,R,02,020,000203,3022,-149.51918,61.301464
6661,19443 HIGHLAND RIDGE DR,Anchorage,AK,99577,"19443 HIGHLAND RIDGE DR, Anchorage, AK, 99577",Match,Non_Exact,"19443 HIGHLAND RIDGE DR, EAGLE RIVER, AK, 99577",190819652,L,02,020,000203,3015,-149.51921000000002,61.301342000000005
6662,8972 W PARKVIEW TERRACE LOOP,Anchorage,AK,99577,"8972 W PARKVIEW TERRACE LOOP, Anchorage, AK, 99577",Match,Non_Exact,"8972 W PARKVIEW TER LP, EAGLE RIVER, AK, 99577",190805555,L,02,020,000203,5000,-149.54185,61.30226999999999
6663,19051 CHRYSTAL ISLAND DR,Anchorage,AK,99577,"19051 CHRYSTAL ISLAND DR, Anchorage, AK, 99577",Match,Non_Exact,"19051 CHRYSTAL ISLAND DR, EAGLE RIVER, AK, 99577",190818620,L,02,020,000203,3023,-149.52719,61.300036999999996
6664,18566 MILLS BAY DR,Anchorage,AK,99577,"18566 MILLS BAY DR, Anchorage, AK, 99577",Match,Non_Exact,"18566 MILLS BAY DR, EAGLE RIVER, AK, 99577",190805578,R,02,020,000203,3011,-149.53648,61.29999
6665,18602 LITTLE CAPE CIR,Anchorage,AK,99577,"18602 LITTLE CAPE CIR, Anchorage, AK, 99577",Match,Non_Exact,"18602 LITTLE CAPE CIR, EAGLE RIVER, AK, 99577",190805581,R,02,020,000203,3011,-149.53575,61.299973
6666,8788 KAK ISLAND ST,Anchorage,AK,99577,"8788 KAK ISLAND ST, Anchorage, AK, 99577",Match,Non_Exact,"8788 KAK ISLAND ST, EAGLE RIVER, AK, 99577",190818619,R,02,020,000203,3014,-149.5308,61.299969999999995
6667,32461 MOUNT KOROHUSK CIR,Anchorage,AK,99577,"32461 MOUNT KOROHUSK CIR, Anchorage, AK, 99577",Match,Non_Exact,"32461 MT KOROHUSK CIR, EAGLE RIVER, AK, 99577",190819781,L,02,020,000204,1003,-149.2761,61.24089
6668,32451 EAGLE RIVER RD,Anchorage,AK,99577,"32451 EAGLE RIVER RD, Anchorage, AK, 99577",Match,Non_Exact,"32451 EAGLE RIVER RD, EAGLE RIVER, AK, 99577",190825944,R,02,020,000204,1003,-149.27545,61.238514
6669,27717 EAGLE RIVER RD,Anchorage,AK,99577,"27717 EAGLE RIVER RD, Anchorage, AK, 99577",No_Match,,,,,,,,,,
6670,27717 EAGLE RIVER RD,Anchorage,AK,99577,"27717 EAGLE RIVER RD, Anchorage, AK, 99577",No_Match,,,,,,,,,,
6671,24585 KEN LOGAN CIR,Anchorage,AK,99577,"24585 KEN LOGAN CIR, Anchorage, AK, 99577",No_Match,,,,,,,,,,
6672,27730 KEN LOGAN CIR,Anchorage,AK,99577,"27730 KEN LOGAN CIR, Anchorage, AK, 99577",No_Match,,,,,,,,,,
6673,5932 WILD MOUNTAIN DR,Anchorage,AK,99577,"5932 WILD MOUNTAIN DR, Anchorage, AK, 99577",Match,Non_Exact,"5932 WILD MOUNTAIN DR, EAGLE RIVER, AK, 99577",190826839,R,02,020,000204,2012,-149.47467,61.274440000000006
6674,5909 HILAND RD,Anchorage,AK,99577,"5909 HILAND RD, Anchorage, AK, 99577",Match,Non_Exact,"5909 HILAND RD, EAGLE RIVER, AK, 99577",190827423,L,02,020,000204,2012,-149.47806,61.27356700000001
6675,5910 HILAND RD,Anchorage,AK,99577,"5910 HILAND RD, Anchorage, AK, 99577",Match,Non_Exact,"5910 HILAND RD, EAGLE RIVER, AK, 99577",190827423,R,02,020,000204,2013,-149.47807,61.273582
6676,5898 WILD MOUNTAIN DR,Anchorage,AK,99577,"5898 WILD MOUNTAIN DR, Anchorage, AK, 99577",Match,Non_Exact,"5898 WILD MOUNTAIN DR, EAGLE RIVER, AK, 99577",190826839,R,02,020,000204,2012,-149.47473,61.274190000000004
6677,5828 HILAND RD,Anchorage,AK,99577,"5828 HILAND RD, Anchorage, AK, 99577",Match,Non_Exact,"5828 HILAND RD, EAGLE RIVER, AK, 99577",190827423,R,02,020,000204,2013,-149.47806,61.272940000000006
6678,5823 HILAND RD,Anchorage,AK,99577,"5823 HILAND RD, Anchorage, AK, 99577",Match,Non_Exact,"5823 HILAND RD, EAGLE RIVER, AK, 99577",190827423,L,02,020,000204,2012,-149.47804,61.272895999999996
6679,22350 KEN LOGAN CIR,Anchorage,AK,99577,"22350 KEN LOGAN CIR, Anchorage, AK, 99577",No_Match,,,,,,,,,,
6680,5750 WILD MOUNTAIN DR,Anchorage,AK,99577,"5750 WILD MOUNTAIN DR, Anchorage, AK, 99577",Match,Non_Exact,"5750 WILD MOUNTAIN DR, EAGLE RIVER, AK, 99577",190826839,R,02,020,000204,2012,-149.47498000000002,61.273098
6681,5720 HILAND RD,Anchorage,AK,99577,"5720 HILAND RD, Anchorage, AK, 99577",Match,Non_Exact,"5720 HILAND RD, EAGLE RIVER, AK, 99577",190827423,R,02,020,000204,2013,-149.4779,61.27210600000001
6682,5717 HILAND RD,Anchorage,AK,99577,"5717 HILAND RD, Anchorage, AK, 99577",Match,Non_Exact,"5717 HILAND RD, EAGLE RIVER, AK, 99577",190827423,L,02,020,000204,2012,-149.47787,61.272076
6683,5636 WILD MOUNTAIN DR,Anchorage,AK,99577,"5636 WILD MOUNTAIN DR, Anchorage, AK, 99577",Match,Non_Exact,"5636 WILD MOUNTAIN DR, EAGLE RIVER, AK, 99577",190826839,R,02,020,000204,2012,-149.47458,61.27228
6684,5630 HILAND RD,Anchorage,AK,99577,"5630 HILAND RD, Anchorage, AK, 99577",Match,Non_Exact,"5630 HILAND RD, EAGLE RIVER, AK, 99577",190827423,R,02,020,000204,2013,-149.47775,61.271407999999994
6685,5540 HILAND RD,Anchorage,AK,99577,"5540 HILAND RD, Anchorage, AK, 99577",Match,Non_Exact,"5540 HILAND RD, EAGLE RIVER, AK, 99577",190827423,R,02,020,000204,2013,-149.47757,61.270714
6686,5525 HILAND RD,Anchorage,AK,99577,"5525 HILAND RD, Anchorage, AK, 99577",Match,Non_Exact,"5525 HILAND RD, EAGLE RIVER, AK, 99577",190827423,L,02,020,000204,2012,-149.47746,61.270596
6687,6529 WHISPERING LOOP,Anchorage,AK,99504,"6529 WHISPERING LOOP, Anchorage, AK, 99504",Match,Exact,"6529 WHISPERING LOOP, ANCHORAGE, AK, 99504",624788736,R,02,020,000701,1013,-149.7595,61.220955000000004
6688,6634 WHISPERING LOOP,Anchorage,AK,99504,"6634 WHISPERING LOOP, Anchorage, AK, 99504",Match,Exact,"6634 WHISPERING LOOP, ANCHORAGE, AK, 99504",624788736,L,02,020,000701,1000,-149.75735,61.22107
6689,6634 WHISPERING LOOP,Anchorage,AK,99504,"6634 WHISPERING LOOP, Anchorage, AK, 99504",Match,Exact,"6634 WHISPERING LOOP, ANCHORAGE, AK, 99504",624788736,L,02,020,000701,1000,-149.75735,61.22107
6690,6573 WHISPERING LOOP,Anchorage,AK,99504,"6573 WHISPERING LOOP, Anchorage, AK, 99504",Match,Exact,"6573 WHISPERING LOOP, ANCHORAGE, AK, 99504",624788736,R,02,020,000701,1013,-149.75858,61.220978
6691,6573 WHISPERING LOOP,Anchorage,AK,99504,"6573 WHISPERING LOOP, Anchorage, AK, 99504",Match,Exact,"6573 WHISPERING LOOP, ANCHORAGE, AK, 99504",624788736,R,02,020,000701,1013,-149.75858,61.220978
6692,6543 WHISPERING LOOP,Anchorage,AK,99504,"6543 WHISPERING LOOP, Anchorage, AK, 99504",Match,Exact,"6543 WHISPERING LOOP, ANCHORAGE, AK, 99504",624788736,R,02,020,000701,1013,-149.7592,61.220946999999995
6693,6543 WHISPERING LOOP,Anchorage,AK,99504,"6543 WHISPERING LOOP, Anchorage, AK, 99504",Match,Exact,"6543 WHISPERING LOOP, ANCHORAGE, AK, 99504",624788736,R,02,020,000701,1013,-149.7592,61.220946999999995
6694,8387 DUBEN AVE,Anchorage,AK,99504,"8387 DUBEN AVE, Anchorage, AK, 99504",Match,Exact,"8387 DUBEN AVE, ANCHORAGE, AK, 99504",605183644,L,02,020,000703,1013,-149.72404,61.22062
6695,6398 WHISPERING LOOP,Anchorage,AK,99504,"6398 WHISPERING LOOP, Anchorage, AK, 99504",Match,Exact,"6398 WHISPERING LOOP, ANCHORAGE, AK, 99504",624788733,R,02,020,000701,1000,-149.76273999999998,61.221230000000006
6696,6398 WHISPERING LOOP,Anchorage,AK,99504,"6398 WHISPERING LOOP, Anchorage, AK, 99504",Match,Exact,"6398 WHISPERING LOOP, ANCHORAGE, AK, 99504",624788733,R,02,020,000701,1000,-149.76273999999998,61.221230000000006
6697,6559 WHISPERING LOOP,Anchorage,AK,99504,"6559 WHISPERING LOOP, Anchorage, AK, 99504",Match,Exact,"6559 WHISPERING LOOP, ANCHORAGE, AK, 99504",624788736,R,02,020,000701,1013,-149.75887,61.22096
6698,6559 WHISPERING LOOP,Anchorage,AK,99504,"6559 WHISPERING LOOP, Anchorage, AK, 99504",Match,Exact,"6559 WHISPERING LOOP, ANCHORAGE, AK, 99504",624788736,R,02,020,000701,1013,-149.75887,61.22096
6699,304 BUNNELL ST,Anchorage,AK,99508,"304 BUNNELL ST, Anchorage, AK, 99508",Match,Exact,"304 BUNNELL ST, ANCHORAGE, AK, 99508",624266934,R,02,020,000801,2005,-149.78972,61.221059999999994
6700,8417 DUBEN AVE,Anchorage,AK,99504,"8417 DUBEN AVE, Anchorage, AK, 99504",Match,Exact,"8417 DUBEN AVE, ANCHORAGE, AK, 99504",605183645,L,02,020,000703,1013,-149.72313,61.22062
6701,276 FRIENDLY ST,Anchorage,AK,99504,"276 FRIENDLY ST, Anchorage, AK, 99504",Match,Exact,"276 FRIENDLY ST, ANCHORAGE, AK, 99504",190823630,R,02,020,000703,2003,-149.72795,61.22076
6702,264 CREEKSIDE ST,Anchorage,AK,99504,"264 CREEKSIDE ST, Anchorage, AK, 99504",Match,Exact,"264 CREEKSIDE ST, ANCHORAGE, AK, 99504",190816630,L,02,020,000702,2001,-149.74101000000002,61.220893999999994
6703,261 SKYHAVEN CIR,Anchorage,AK,99504,"261 SKYHAVEN CIR, Anchorage, AK, 99504",Match,Exact,"261 SKYHAVEN CIR, ANCHORAGE, AK, 99504",190816627,R,02,020,000702,2001,-149.74284,61.220764
6704,265 CREEKSIDE ST,Anchorage,AK,99504,"265 CREEKSIDE ST, Anchorage, AK, 99504",Match,Exact,"265 CREEKSIDE ST, ANCHORAGE, AK, 99504",190816630,R,02,020,000702,2001,-149.741,61.220893999999994
6705,265 CREEKSIDE ST,Anchorage,AK,99504,"265 CREEKSIDE ST, Anchorage, AK, 99504",Match,Exact,"265 CREEKSIDE ST, ANCHORAGE, AK, 99504",190816630,R,02,020,000702,2001,-149.741,61.220893999999994
6706,265 CREEKSIDE ST,Anchorage,AK,99504,"265 CREEKSIDE ST, Anchorage, AK, 99504",Match,Exact,"265 CREEKSIDE ST, ANCHORAGE, AK, 99504",190816630,R,02,020,000702,2001,-149.741,61.220893999999994
6707,260 SKYHAVEN CIR,Anchorage,AK,99504,"260 SKYHAVEN CIR, Anchorage, AK, 99504",Match,Exact,"260 SKYHAVEN CIR, ANCHORAGE, AK, 99504",190816627,L,02,020,000702,2001,-149.74286999999998,61.220764
6708,5141 CHENA AVE,Anchorage,AK,99508,"5141 CHENA AVE, Anchorage, AK, 99508",Match,Exact,"5141 CHENA AVE, ANCHORAGE, AK, 99508",190801943,L,02,020,000801,3004,-149.78521999999998,61.223248
6709,5141 CHENA AVE,Anchorage,AK,99508,"5141 CHENA AVE, Anchorage, AK, 99508",Match,Exact,"5141 CHENA AVE, ANCHORAGE, AK, 99508",190801943,L,02,020,000801,3004,-149.78521999999998,61.223248
6710,5141 CHENA AVE,Anchorage,AK,99508,"5141 CHENA AVE, Anchorage, AK, 99508",Match,Exact,"5141 CHENA AVE, ANCHORAGE, AK, 99508",190801943,L,02,020,000801,3004,-149.78521999999998,61.223248
6711,5141 CHENA AVE,Anchorage,AK,99508,"5141 CHENA AVE, Anchorage, AK, 99508",Match,Exact,"5141 CHENA AVE, ANCHORAGE, AK, 99508",190801943,L,02,020,000801,3004,-149.78521999999998,61.223248
6712,5121 CHENA AVE,Anchorage,AK,99508,"5121 CHENA AVE, Anchorage, AK, 99508",Match,Exact,"5121 CHENA AVE, ANCHORAGE, AK, 99508",190801943,L,02,020,000801,3004,-149.78552,61.223248
6713,5121 CHENA AVE,Anchorage,AK,99508,"5121 CHENA AVE, Anchorage, AK, 99508",Match,Exact,"5121 CHENA AVE, ANCHORAGE, AK, 99508",190801943,L,02,020,000801,3004,-149.78552,61.223248
6714,5121 CHENA AVE,Anchorage,AK,99508,"5121 CHENA AVE, Anchorage, AK, 99508",Match,Exact,"5121 CHENA AVE, ANCHORAGE, AK, 99508",190801943,L,02,020,000801,3004,-149.78552,61.223248
6715,5121 CHENA AVE,Anchorage,AK,99508,"5121 CHENA AVE, Anchorage, AK, 99508",Match,Exact,"5121 CHENA AVE, ANCHORAGE, AK, 99508",190801943,L,02,020,000801,3004,-149.78552,61.223248
6716,5121 CHENA AVE,Anchorage,AK,99508,"5121 CHENA AVE, Anchorage, AK, 99508",Match,Exact,"5121 CHENA AVE, ANCHORAGE, AK, 99508",190801943,L,02,020,000801,3004,-149.78552,61.223248
6717,5121 CHENA AVE,Anchorage,AK,99508,"5121 CHENA AVE, Anchorage, AK, 99508",Match,Exact,"5121 CHENA AVE, ANCHORAGE, AK, 99508",190801943,L,02,020,000801,3004,-149.78552,61.223248
6718,7756 BOUNDARY AVE,Anchorage,AK,99504,"7756 BOUNDARY AVE, Anchorage, AK, 99504",Match,Exact,"7756 BOUNDARY AVE, ANCHORAGE, AK, 99504",605167189,R,02,020,000702,2000,-149.73633999999998,61.224169999999994
6719,7798 BOUNDARY AVE,Anchorage,AK,99504,"7798 BOUNDARY AVE, Anchorage, AK, 99504",Match,Exact,"7798 BOUNDARY AVE, ANCHORAGE, AK, 99504",605167189,R,02,020,000702,2000,-149.73595,61.224169999999994
6720,5409 CARIBOU AVE,Anchorage,AK,99508,"5409 CARIBOU AVE, Anchorage, AK, 99508",Match,Exact,"5409 CARIBOU AVE, ANCHORAGE, AK, 99508",190820388,L,02,020,000801,3006,-149.78076000000001,61.222393000000004
6721,6927 TRAFFORD DR,Anchorage,AK,99504,"6927 TRAFFORD DR, Anchorage, AK, 99504",Match,Exact,"6927 TRAFFORD DR, ANCHORAGE, AK, 99504",638994280,R,02,020,000702,3002,-149.75194,61.22146600000001
6722,6911 TRAFFORD DR,Anchorage,AK,99504,"6911 TRAFFORD DR, Anchorage, AK, 99504",Match,Exact,"6911 TRAFFORD DR, ANCHORAGE, AK, 99504",638994280,R,02,020,000702,3002,-149.75223,61.22146600000001
6723,6901 TRAFFORD DR,Anchorage,AK,99504,"6901 TRAFFORD DR, Anchorage, AK, 99504",Match,Exact,"6901 TRAFFORD DR, ANCHORAGE, AK, 99504",638994280,R,02,020,000702,3002,-149.7524,61.22146600000001
6724,5005 KOBUK AVE,Anchorage,AK,99508,"5005 KOBUK AVE, Anchorage, AK, 99508",Match,Exact,"5005 KOBUK AVE, ANCHORAGE, AK, 99508",624549305,L,02,020,000801,2003,-149.7869,61.221540000000005
6725,5001 KOBUK AVE,Anchorage,AK,99508,"5001 KOBUK AVE, Anchorage, AK, 99508",Match,Exact,"5001 KOBUK AVE, ANCHORAGE, AK, 99508",624549304,L,02,020,000801,2003,-149.78783,61.221540000000005
6726,237 PATTERSON ST,Anchorage,AK,99504,"237 PATTERSON ST, Anchorage, AK, 99504",Match,Exact,"237 PATTERSON ST, ANCHORAGE, AK, 99504",190802844,L,02,020,000702,2007,-149.7485,61.221680000000006
6727,276 FIREOVED DR,Anchorage,AK,99508,"276 FIREOVED DR, Anchorage, AK, 99508",Match,Exact,"276 FIREOVED DR, ANCHORAGE, AK, 99508",643733471,R,02,020,000801,3009,-149.78351,61.221709999999995
6728,276 FIREOVED DR,Anchorage,AK,99508,"276 FIREOVED DR, Anchorage, AK, 99508",Match,Exact,"276 FIREOVED DR, ANCHORAGE, AK, 99508",643733471,R,02,020,000801,3009,-149.78351,61.221709999999995
6729,276 FIREOVED DR,Anchorage,AK,99508,"276 FIREOVED DR, Anchorage, AK, 99508",Match,Exact,"276 FIREOVED DR, ANCHORAGE, AK, 99508",643733471,R,02,020,000801,3009,-149.78351,61.221709999999995
6730,240 OKLAHOMA ST,Anchorage,AK,99504,"240 OKLAHOMA ST, Anchorage, AK, 99504",Match,Exact,"240 OKLAHOMA ST, ANCHORAGE, AK, 99504",190802855,R,02,020,000702,2008,-149.74477,61.221603
6731,257 FIREOVED DR,Anchorage,AK,99508,"257 FIREOVED DR, Anchorage, AK, 99508",Match,Exact,"257 FIREOVED DR, ANCHORAGE, AK, 99508",643733471,L,02,020,000801,3008,-149.78316,61.221793999999996
6732,257 FIREOVED DR,Anchorage,AK,99508,"257 FIREOVED DR, Anchorage, AK, 99508",Match,Exact,"257 FIREOVED DR, ANCHORAGE, AK, 99508",643733471,L,02,020,000801,3008,-149.78316,61.221793999999996
6733,257 FIREOVED DR,Anchorage,AK,99508,"257 FIREOVED DR, Anchorage, AK, 99508",Match,Exact,"257 FIREOVED DR, ANCHORAGE, AK, 99508",643733471,L,02,020,000801,3008,-149.78316,61.221793999999996
6734,257 FIREOVED DR,Anchorage,AK,99508,"257 FIREOVED DR, Anchorage, AK, 99508",Match,Exact,"257 FIREOVED DR, ANCHORAGE, AK, 99508",643733471,L,02,020,000801,3008,-149.78316,61.221793999999996
6735,6682 WHISPERING LOOP,Anchorage,AK,99504,"6682 WHISPERING LOOP, Anchorage, AK, 99504",Match,Exact,"6682 WHISPERING LOOP, ANCHORAGE, AK, 99504",624788736,L,02,020,000701,1000,-149.75708,61.221540000000005
6736,6682 WHISPERING LOOP,Anchorage,AK,99504,"6682 WHISPERING LOOP, Anchorage, AK, 99504",Match,Exact,"6682 WHISPERING LOOP, ANCHORAGE, AK, 99504",624788736,L,02,020,000701,1000,-149.75708,61.221540000000005
6737,312 LIONHEART CT,Anchorage,AK,99508,"312 LIONHEART CT, Anchorage, AK, 99508",Match,Exact,"312 LIONHEART CT, ANCHORAGE, AK, 99508",190812092,L,02,020,000801,3008,-149.78183,61.221343999999995
6738,302 LIONHEART CT,Anchorage,AK,99508,"302 LIONHEART CT, Anchorage, AK, 99508",Match,Exact,"302 LIONHEART CT, ANCHORAGE, AK, 99508",190812092,L,02,020,000801,3008,-149.78163,61.22138
6739,302 LIONHEART CT,Anchorage,AK,99508,"302 LIONHEART CT, Anchorage, AK, 99508",Match,Exact,"302 LIONHEART CT, ANCHORAGE, AK, 99508",190812092,L,02,020,000801,3008,-149.78163,61.22138
6740,302 LIONHEART CT,Anchorage,AK,99508,"302 LIONHEART CT, Anchorage, AK, 99508",Match,Exact,"302 LIONHEART CT, ANCHORAGE, AK, 99508",190812092,L,02,020,000801,3008,-149.78163,61.22138
6741,302 LIONHEART CT,Anchorage,AK,99508,"302 LIONHEART CT, Anchorage, AK, 99508",Match,Exact,"302 LIONHEART CT, ANCHORAGE, AK, 99508",190812092,L,02,020,000801,3008,-149.78163,61.22138
6742,6356 WHISPERING LOOP,Anchorage,AK,99504,"6356 WHISPERING LOOP, Anchorage, AK, 99504",Match,Exact,"6356 WHISPERING LOOP, ANCHORAGE, AK, 99504",624788733,R,02,020,000701,1000,-149.76259,61.221619999999994
6743,6356 WHISPERING LOOP,Anchorage,AK,99504,"6356 WHISPERING LOOP, Anchorage, AK, 99504",Match,Exact,"6356 WHISPERING LOOP, ANCHORAGE, AK, 99504",624788733,R,02,020,000701,1000,-149.76259,61.221619999999994
6744,248 ZAPPA PL,Anchorage,AK,99504,"248 ZAPPA PL, Anchorage, AK, 99504",Match,Exact,"248 ZAPPA PL, ANCHORAGE, AK, 99504",190803204,R,02,020,000703,2003,-149.72601,61.221509999999995
6745,6550 WHISPERING LOOP,Anchorage,AK,99504,"6550 WHISPERING LOOP, Anchorage, AK, 99504",Match,Exact,"6550 WHISPERING LOOP, ANCHORAGE, AK, 99504",624788736,L,02,020,000701,1000,-149.75922,61.220936
6746,6550 WHISPERING LOOP,Anchorage,AK,99504,"6550 WHISPERING LOOP, Anchorage, AK, 99504",Match,Exact,"6550 WHISPERING LOOP, ANCHORAGE, AK, 99504",624788736,L,02,020,000701,1000,-149.75922,61.220936
6747,6440 WHISPERING LOOP,Anchorage,AK,99504,"6440 WHISPERING LOOP, Anchorage, AK, 99504",Match,Exact,"6440 WHISPERING LOOP, ANCHORAGE, AK, 99504",624788733,R,02,020,000701,1000,-149.7622,61.220936
6748,6440 WHISPERING LOOP,Anchorage,AK,99504,"6440 WHISPERING LOOP, Anchorage, AK, 99504",Match,Exact,"6440 WHISPERING LOOP, ANCHORAGE, AK, 99504",624788733,R,02,020,000701,1000,-149.7622,61.220936
6749,277 YELLOW LEAF CIR,Anchorage,AK,99504,"277 YELLOW LEAF CIR, Anchorage, AK, 99504",Match,Exact,"277 YELLOW LEAF CIR, ANCHORAGE, AK, 99504",190803334,L,02,020,000703,1013,-149.7194,61.22071
6750,276 YELLOW LEAF CIR,Anchorage,AK,99504,"276 YELLOW LEAF CIR, Anchorage, AK, 99504",Match,Exact,"276 YELLOW LEAF CIR, ANCHORAGE, AK, 99504",190803334,R,02,020,000703,1013,-149.71944,61.22071
6751,277 FALL LEAF CIR,Anchorage,AK,99504,"277 FALL LEAF CIR, Anchorage, AK, 99504",Match,Exact,"277 FALL LEAF CIR, ANCHORAGE, AK, 99504",190803320,L,02,020,000703,1013,-149.72128,61.220707
6752,276 FALL LEAF CIR,Anchorage,AK,99504,"276 FALL LEAF CIR, Anchorage, AK, 99504",Match,Exact,"276 FALL LEAF CIR, ANCHORAGE, AK, 99504",190803320,R,02,020,000703,1013,-149.72131000000002,61.220707
6753,7776 BOUNDARY AVE,Anchorage,AK,99504,"7776 BOUNDARY AVE, Anchorage, AK, 99504",Match,Exact,"7776 BOUNDARY AVE, ANCHORAGE, AK, 99504",605167189,R,02,020,000702,2000,-149.73616,61.224169999999994
6754,7778 BOUNDARY AVE,Anchorage,AK,99504,"7778 BOUNDARY AVE, Anchorage, AK, 99504",Match,Exact,"7778 BOUNDARY AVE, ANCHORAGE, AK, 99504",605167189,R,02,020,000702,2000,-149.73615,61.224169999999994
6755,7780 BOUNDARY AVE,Anchorage,AK,99504,"7780 BOUNDARY AVE, Anchorage, AK, 99504",Match,Exact,"7780 BOUNDARY AVE, ANCHORAGE, AK, 99504",605167189,R,02,020,000702,2000,-149.73613,61.224169999999994
6756,7782 BOUNDARY AVE,Anchorage,AK,99504,"7782 BOUNDARY AVE, Anchorage, AK, 99504",Match,Exact,"7782 BOUNDARY AVE, ANCHORAGE, AK, 99504",605167189,R,02,020,000702,2000,-149.7361,61.224169999999994
6757,7784 BOUNDARY AVE,Anchorage,AK,99504,"7784 BOUNDARY AVE, Anchorage, AK, 99504",Match,Exact,"7784 BOUNDARY AVE, ANCHORAGE, AK, 99504",605167189,R,02,020,000702,2000,-149.73608000000002,61.224169999999994
6758,6533 KARA SUE LOOP,Anchorage,AK,99504,"6533 KARA SUE LOOP, Anchorage, AK, 99504",Match,Exact,"6533 KARA SUE LOOP, ANCHORAGE, AK, 99504",605185502,L,02,020,000701,1000,-149.7595,61.222621999999994
6759,202 WHISPER RIDGE CIR,Anchorage,AK,99504,"202 WHISPER RIDGE CIR, Anchorage, AK, 99504",Match,Exact,"202 WHISPER RIDGE CIR, ANCHORAGE, AK, 99504",624788767,L,02,020,000701,1013,-149.75894,61.22229
6760,202 WHISPER RIDGE CIR,Anchorage,AK,99504,"202 WHISPER RIDGE CIR, Anchorage, AK, 99504",Match,Exact,"202 WHISPER RIDGE CIR, ANCHORAGE, AK, 99504",624788767,L,02,020,000701,1013,-149.75894,61.22229
6761,211 WHISPER KNOLL CIR,Anchorage,AK,99504,"211 WHISPER KNOLL CIR, Anchorage, AK, 99504",Match,Exact,"211 WHISPER KNOLL CIR, ANCHORAGE, AK, 99504",605185014,L,02,020,000701,1013,-149.7608,61.222218000000005
6762,211 WHISPER KNOLL CIR,Anchorage,AK,99504,"211 WHISPER KNOLL CIR, Anchorage, AK, 99504",Match,Exact,"211 WHISPER KNOLL CIR, ANCHORAGE, AK, 99504",605185014,L,02,020,000701,1013,-149.7608,61.222218000000005
6763,213 RED LEAF CIR,Anchorage,AK,99504,"213 RED LEAF CIR, Anchorage, AK, 99504",Match,Exact,"213 RED LEAF CIR, ANCHORAGE, AK, 99504",190803306,R,02,020,000703,1013,-149.7213,61.22229
6764,212 ORANGE LEAF CIR,Anchorage,AK,99504,"212 ORANGE LEAF CIR, Anchorage, AK, 99504",Match,Exact,"212 ORANGE LEAF CIR, ANCHORAGE, AK, 99504",190803309,L,02,020,000703,1013,-149.71944,61.22229
6765,200 GRAND LARRY ST,Anchorage,AK,99504,"200 GRAND LARRY ST, Anchorage, AK, 99504",Match,Exact,"200 GRAND LARRY ST, ANCHORAGE, AK, 99504",190803200,R,02,020,000703,2002,-149.72977,61.222232999999996
6766,206 BUNNELL ST,Anchorage,AK,99508,"206 BUNNELL ST, Anchorage, AK, 99508",Match,Exact,"206 BUNNELL ST, ANCHORAGE, AK, 99508",190801681,R,02,020,000801,2005,-149.78973,61.22266
6767,207 BUNNELL ST,Anchorage,AK,99508,"207 BUNNELL ST, Anchorage, AK, 99508",Match,Exact,"207 BUNNELL ST, ANCHORAGE, AK, 99508",190801681,L,02,020,000801,2004,-149.7897,61.22266
6768,206 DAVIS ST,Anchorage,AK,99508,"206 DAVIS ST, Anchorage, AK, 99508",Match,Exact,"206 DAVIS ST, ANCHORAGE, AK, 99508",190801936,R,02,020,000801,2003,-149.7861,61.222286
6769,206 STEWART ST,Anchorage,AK,99508,"206 STEWART ST, Anchorage, AK, 99508",Match,Exact,"206 STEWART ST, ANCHORAGE, AK, 99508",190801687,R,02,020,000801,2004,-149.78791999999999,61.22266
6770,8336 PECK AVE,Anchorage,AK,99504,"8336 PECK AVE, Anchorage, AK, 99504",Match,Exact,"8336 PECK AVE, ANCHORAGE, AK, 99504",190812129,R,02,020,000703,1013,-149.72484,61.22237
6771,217 RED LEAF CIR,Anchorage,AK,99504,"217 RED LEAF CIR, Anchorage, AK, 99504",Match,Exact,"217 RED LEAF CIR, ANCHORAGE, AK, 99504",190803306,R,02,020,000703,1013,-149.7213,61.222275
6772,335 BONIFACE PKWY,Anchorage,AK,99504,"335 BONIFACE PKWY, Anchorage, AK, 99504",Match,Exact,"335 BONIFACE PKWY, ANCHORAGE, AK, 99504",190812090,L,02,020,000701,1000,-149.7784,61.220369999999996
6773,335 BONIFACE PKWY,Anchorage,AK,99504,"335 BONIFACE PKWY, Anchorage, AK, 99504",Match,Exact,"335 BONIFACE PKWY, ANCHORAGE, AK, 99504",190812090,L,02,020,000701,1000,-149.7784,61.220369999999996
6774,335 BONIFACE PKWY,Anchorage,AK,99504,"335 BONIFACE PKWY, Anchorage, AK, 99504",Match,Exact,"335 BONIFACE PKWY, ANCHORAGE, AK, 99504",190812090,L,02,020,000701,1000,-149.7784,61.220369999999996
6775,335 BONIFACE PKWY,Anchorage,AK,99504,"335 BONIFACE PKWY, Anchorage, AK, 99504",Match,Exact,"335 BONIFACE PKWY, ANCHORAGE, AK, 99504",190812090,L,02,020,000701,1000,-149.7784,61.220369999999996
6776,335 BONIFACE PKWY,Anchorage,AK,99504,"335 BONIFACE PKWY, Anchorage, AK, 99504",Match,Exact,"335 BONIFACE PKWY, ANCHORAGE, AK, 99504",190812090,L,02,020,000701,1000,-149.7784,61.220369999999996
6777,335 BONIFACE PKWY,Anchorage,AK,99504,"335 BONIFACE PKWY, Anchorage, AK, 99504",Match,Exact,"335 BONIFACE PKWY, ANCHORAGE, AK, 99504",190812090,L,02,020,000701,1000,-149.7784,61.220369999999996
6778,335 BONIFACE PKWY,Anchorage,AK,99504,"335 BONIFACE PKWY, Anchorage, AK, 99504",Match,Exact,"335 BONIFACE PKWY, ANCHORAGE, AK, 99504",190812090,L,02,020,000701,1000,-149.7784,61.220369999999996
6779,335 BONIFACE PKWY,Anchorage,AK,99504,"335 BONIFACE PKWY, Anchorage, AK, 99504",Match,Exact,"335 BONIFACE PKWY, ANCHORAGE, AK, 99504",190812090,L,02,020,000701,1000,-149.7784,61.220369999999996
6780,335 BONIFACE PKWY,Anchorage,AK,99504,"335 BONIFACE PKWY, Anchorage, AK, 99504",Match,Exact,"335 BONIFACE PKWY, ANCHORAGE, AK, 99504",190812090,L,02,020,000701,1000,-149.7784,61.220369999999996
6781,335 BONIFACE PKWY,Anchorage,AK,99504,"335 BONIFACE PKWY, Anchorage, AK, 99504",Match,Exact,"335 BONIFACE PKWY, ANCHORAGE, AK, 99504",190812090,L,02,020,000701,1000,-149.7784,61.220369999999996
6782,217 ORANGE LEAF CIR,Anchorage,AK,99504,"217 ORANGE LEAF CIR, Anchorage, AK, 99504",Match,Exact,"217 ORANGE LEAF CIR, ANCHORAGE, AK, 99504",190803309,R,02,020,000703,1013,-149.71941999999999,61.222269999999995
6783,328 BONIFACE PKWY,Anchorage,AK,99504,"328 BONIFACE PKWY, Anchorage, AK, 99504",Match,Exact,"328 BONIFACE PKWY, ANCHORAGE, AK, 99504",190801982,R,02,020,000801,4000,-149.77841,61.219814
6784,216 ORANGE LEAF CIR,Anchorage,AK,99504,"216 ORANGE LEAF CIR, Anchorage, AK, 99504",Match,Exact,"216 ORANGE LEAF CIR, ANCHORAGE, AK, 99504",190803309,L,02,020,000703,1013,-149.71944,61.222269999999995
6785,206 MULDOON RD,Anchorage,AK,99504,"206 MULDOON RD, Anchorage, AK, 99504",Match,Exact,"206 MULDOON RD, ANCHORAGE, AK, 99504",190803191,R,02,020,000702,2000,-149.73352,61.222134
6786,8982 W PARKVIEW TERRACE LOOP,Anchorage,AK,99577,"8982 W PARKVIEW TERRACE LOOP, Anchorage, AK, 99577",Match,Non_Exact,"8982 W PARKVIEW TER LP, EAGLE RIVER, AK, 99577",190805555,L,02,020,000203,5000,-149.54193,61.30230699999999
6787,8954 NORTHWOOD PARK CIR,Anchorage,AK,99577,"8954 NORTHWOOD PARK CIR, Anchorage, AK, 99577",Match,Non_Exact,"8954 NORTHWOOD PARK CIR, EAGLE RIVER, AK, 99577",190819645,L,02,020,000203,3022,-149.51758,61.30134
6788,18452 JUDE ISLAND CIR,Anchorage,AK,99577,"18452 JUDE ISLAND CIR, Anchorage, AK, 99577",Match,Non_Exact,"18452 JUDE ISLAND CIR, EAGLE RIVER, AK, 99577",190805567,L,02,020,000203,3014,-149.53763999999998,61.301685
6789,18618 JUDE ISLAND CIR,Anchorage,AK,99577,"18618 JUDE ISLAND CIR, Anchorage, AK, 99577",Match,Non_Exact,"18618 JUDE ISLAND CIR, EAGLE RIVER, AK, 99577",190805567,L,02,020,000203,3014,-149.53633,61.30154
6790,8950 NORTHWOOD PARK CIR,Anchorage,AK,99577,"8950 NORTHWOOD PARK CIR, Anchorage, AK, 99577",Match,Non_Exact,"8950 NORTHWOOD PARK CIR, EAGLE RIVER, AK, 99577",190819645,L,02,020,000203,3022,-149.51761000000002,61.301295999999994
6791,18851 KATELYN CIR,Anchorage,AK,99577,"18851 KATELYN CIR, Anchorage, AK, 99577",Match,Non_Exact,"18851 KATELYN CIR, EAGLE RIVER, AK, 99577",190818650,R,02,020,000203,3021,-149.53098,61.301804000000004
6792,20612 ICEFALL DR,Anchorage,AK,99577,"20612 ICEFALL DR, Anchorage, AK, 99577",Match,Non_Exact,"20612 ICEFALL DR, EAGLE RIVER, AK, 99577",625731540,L,02,020,000203,3002,-149.49567,61.301464
6793,8973 W PARKVIEW TERRACE LOOP,Anchorage,AK,99577,"8973 W PARKVIEW TERRACE LOOP, Anchorage, AK, 99577",Match,Non_Exact,"8973 W PARKVIEW TER LP, EAGLE RIVER, AK, 99577",190805555,R,02,020,000203,5004,-149.54182,61.30226999999999
6794,19449 HIGHLAND RIDGE DR,Anchorage,AK,99577,"19449 HIGHLAND RIDGE DR, Anchorage, AK, 99577",Match,Non_Exact,"19449 HIGHLAND RIDGE DR, EAGLE RIVER, AK, 99577",190819652,L,02,020,000203,3015,-149.51921000000002,61.301376
6795,18561 JUDE ISLAND CIR,Anchorage,AK,99577,"18561 JUDE ISLAND CIR, Anchorage, AK, 99577",Match,Non_Exact,"18561 JUDE ISLAND CIR, EAGLE RIVER, AK, 99577",190805567,R,02,020,000203,3014,-149.53663999999998,61.301483
6796,18581 JUDE ISLAND CIR,Anchorage,AK,99577,"18581 JUDE ISLAND CIR, Anchorage, AK, 99577",Match,Non_Exact,"18581 JUDE ISLAND CIR, EAGLE RIVER, AK, 99577",190805567,R,02,020,000203,3014,-149.5362,61.30163
6797,19448 HIGHLAND RIDGE DR,Anchorage,AK,99577,"19448 HIGHLAND RIDGE DR, Anchorage, AK, 99577",Match,Non_Exact,"19448 HIGHLAND RIDGE DR, EAGLE RIVER, AK, 99577",190819652,R,02,020,000203,3022,-149.51918,61.301517000000004
6798,20614 ICEFALL DR,Anchorage,AK,99577,"20614 ICEFALL DR, Anchorage, AK, 99577",Match,Non_Exact,"20614 ICEFALL DR, EAGLE RIVER, AK, 99577",625731540,L,02,020,000203,3002,-149.49565,61.30146
6799,8951 BIRCH PARK CIR,Anchorage,AK,99577,"8951 BIRCH PARK CIR, Anchorage, AK, 99577",Match,Non_Exact,"8951 BIRCH PARK CIR, EAGLE RIVER, AK, 99577",190827414,R,02,020,000203,3022,-149.51202,61.301018000000006
6800,20101 RIVERSIDE DR,Anchorage,AK,99577,"20101 RIVERSIDE DR, Anchorage, AK, 99577",Match,Non_Exact,"20101 RIVERSIDE DR, EAGLE RIVER, AK, 99577",605336335,L,02,020,000203,3000,-149.50793000000002,61.299774
6801,8727 ACADIA DR,Anchorage,AK,99577,"8727 ACADIA DR, Anchorage, AK, 99577",Match,Non_Exact,"8727 ACADIA DR, EAGLE RIVER, AK, 99577",605336267,R,02,020,000204,2038,-149.56813,61.299380000000006
6802,20103 RIVERSIDE DR,Anchorage,AK,99577,"20103 RIVERSIDE DR, Anchorage, AK, 99577",Match,Non_Exact,"20103 RIVERSIDE DR, EAGLE RIVER, AK, 99577",605336335,L,02,020,000203,3000,-149.50793000000002,61.299755000000005
6803,20115 RIVERSIDE DR,Anchorage,AK,99577,"20115 RIVERSIDE DR, Anchorage, AK, 99577",Match,Non_Exact,"20115 RIVERSIDE DR, EAGLE RIVER, AK, 99577",605336335,L,02,020,000203,3000,-149.50793000000002,61.29965
6804,18616 LITTLE CAPE CIR,Anchorage,AK,99577,"18616 LITTLE CAPE CIR, Anchorage, AK, 99577",Match,Non_Exact,"18616 LITTLE CAPE CIR, EAGLE RIVER, AK, 99577",190805581,R,02,020,000203,3011,-149.53574,61.2999
6805,20117 RIVERSIDE DR,Anchorage,AK,99577,"20117 RIVERSIDE DR, Anchorage, AK, 99577",Match,Non_Exact,"20117 RIVERSIDE DR, EAGLE RIVER, AK, 99577",605336335,L,02,020,000203,3000,-149.50791999999998,61.29963000000001
6806,5500 WILD MOUNTAIN DR,Anchorage,AK,99577,"5500 WILD MOUNTAIN DR, Anchorage, AK, 99577",Match,Non_Exact,"5500 WILD MOUNTAIN DR, EAGLE RIVER, AK, 99577",190826839,R,02,020,000204,2012,-149.47398,61.271319999999996
6807,5427 WILD MOUNTAIN DR,Anchorage,AK,99577,"5427 WILD MOUNTAIN DR, Anchorage, AK, 99577",Match,Non_Exact,"5427 WILD MOUNTAIN DR, EAGLE RIVER, AK, 99577",190826839,L,02,020,000204,2012,-149.47392,61.27077
6808,5414 HILAND RD,Anchorage,AK,99577,"5414 HILAND RD, Anchorage, AK, 99577",Match,Non_Exact,"5414 HILAND RD, EAGLE RIVER, AK, 99577",190827423,R,02,020,000204,2013,-149.47728,61.269753
6809,5465 HILAND RD,Anchorage,AK,99577,"5465 HILAND RD, Anchorage, AK, 99577",Match,Non_Exact,"5465 HILAND RD, EAGLE RIVER, AK, 99577",190827423,L,02,020,000204,2012,-149.47723,61.270140000000005
6810,5416 WILD MOUNTAIN DR,Anchorage,AK,99577,"5416 WILD MOUNTAIN DR, Anchorage, AK, 99577",Match,Non_Exact,"5416 WILD MOUNTAIN DR, EAGLE RIVER, AK, 99577",190826839,R,02,020,000204,2012,-149.47397,61.270702
6811,5345 WILD MOUNTAIN DR,Anchorage,AK,99577,"5345 WILD MOUNTAIN DR, Anchorage, AK, 99577",Match,Non_Exact,"5345 WILD MOUNTAIN DR, EAGLE RIVER, AK, 99577",190826839,L,02,020,000204,2012,-149.47432,61.270194999999994
6812,5300 WILD MOUNTAIN DR,Anchorage,AK,99577,"5300 WILD MOUNTAIN DR, Anchorage, AK, 99577",Match,Non_Exact,"5300 WILD MOUNTAIN DR, EAGLE RIVER, AK, 99577",190826839,R,02,020,000204,2012,-149.47449,61.26988000000001
6813,5300 HILAND RD,Anchorage,AK,99577,"5300 HILAND RD, Anchorage, AK, 99577",Match,Non_Exact,"5300 HILAND RD, EAGLE RIVER, AK, 99577",190827423,R,02,020,000204,2013,-149.47751,61.268875
6814,5317 HILAND RD,Anchorage,AK,99577,"5317 HILAND RD, Anchorage, AK, 99577",Match,Non_Exact,"5317 HILAND RD, EAGLE RIVER, AK, 99577",190827423,L,02,020,000204,2012,-149.4775,61.269
6815,5241 WILD MOUNTAIN DR,Anchorage,AK,99577,"5241 WILD MOUNTAIN DR, Anchorage, AK, 99577",Match,Non_Exact,"5241 WILD MOUNTAIN DR, EAGLE RIVER, AK, 99577",190826839,L,02,020,000204,2012,-149.47455,61.269436
6816,5221 WILD MOUNTAIN DR,Anchorage,AK,99577,"5221 WILD MOUNTAIN DR, Anchorage, AK, 99577",Match,Non_Exact,"5221 WILD MOUNTAIN DR, EAGLE RIVER, AK, 99577",190826839,L,02,020,000204,2012,-149.47455,61.269287
6817,5240 WILD MOUNTAIN DR,Anchorage,AK,99577,"5240 WILD MOUNTAIN DR, Anchorage, AK, 99577",Match,Non_Exact,"5240 WILD MOUNTAIN DR, EAGLE RIVER, AK, 99577",190826839,R,02,020,000204,2012,-149.47456,61.269436
6818,8530 DUNLAP CT,Anchorage,AK,99504,"8530 DUNLAP CT, Anchorage, AK, 99504",Match,Exact,"8530 DUNLAP CT, ANCHORAGE, AK, 99504",645477653,R,02,020,000703,1012,-149.72154,61.223240000000004
6819,8518 DUNLAP CT,Anchorage,AK,99504,"8518 DUNLAP CT, Anchorage, AK, 99504",Match,Exact,"8518 DUNLAP CT, ANCHORAGE, AK, 99504",645477653,R,02,020,000703,1012,-149.72171,61.223240000000004
6820,8506 DUNLAP CT,Anchorage,AK,99504,"8506 DUNLAP CT, Anchorage, AK, 99504",Match,Exact,"8506 DUNLAP CT, ANCHORAGE, AK, 99504",645477653,R,02,020,000703,1012,-149.72188,61.223240000000004
6821,8442 DUNLAP CT,Anchorage,AK,99504,"8442 DUNLAP CT, Anchorage, AK, 99504",Match,Exact,"8442 DUNLAP CT, ANCHORAGE, AK, 99504",645477653,R,02,020,000703,1012,-149.72276000000002,61.223240000000004
6822,6800 PECK AVE,Anchorage,AK,99504,"6800 PECK AVE, Anchorage, AK, 99504",Match,Exact,"6800 PECK AVE, ANCHORAGE, AK, 99504",190820031,L,02,020,000702,3002,-149.75271999999998,61.22277
6823,8400 DUNLAP CT,Anchorage,AK,99504,"8400 DUNLAP CT, Anchorage, AK, 99504",Match,Exact,"8400 DUNLAP CT, ANCHORAGE, AK, 99504",190803300,R,02,020,000703,1011,-149.72406,61.223240000000004
6824,7774 BOUNDARY AVE,Anchorage,AK,99504,"7774 BOUNDARY AVE, Anchorage, AK, 99504",Match,Exact,"7774 BOUNDARY AVE, ANCHORAGE, AK, 99504",605167189,R,02,020,000702,2000,-149.73618000000002,61.224169999999994
6825,8408 DUNLAP CT,Anchorage,AK,99504,"8408 DUNLAP CT, Anchorage, AK, 99504",Match,Exact,"8408 DUNLAP CT, ANCHORAGE, AK, 99504",190803300,R,02,020,000703,1011,-149.7238,61.223240000000004
6826,7772 BOUNDARY AVE,Anchorage,AK,99504,"7772 BOUNDARY AVE, Anchorage, AK, 99504",Match,Exact,"7772 BOUNDARY AVE, ANCHORAGE, AK, 99504",605167189,R,02,020,000702,2000,-149.73619,61.224169999999994
6827,6801 PECK AVE,Anchorage,AK,99504,"6801 PECK AVE, Anchorage, AK, 99504",Match,Exact,"6801 PECK AVE, ANCHORAGE, AK, 99504",190820026,R,02,020,000702,3003,-149.7527,61.223553
6828,7724 BOUNDARY AVE,Anchorage,AK,99504,"7724 BOUNDARY AVE, Anchorage, AK, 99504",Match,Exact,"7724 BOUNDARY AVE, ANCHORAGE, AK, 99504",605167189,R,02,020,000702,2000,-149.73665,61.224169999999994
6829,7754 BOUNDARY AVE,Anchorage,AK,99504,"7754 BOUNDARY AVE, Anchorage, AK, 99504",Match,Exact,"7754 BOUNDARY AVE, ANCHORAGE, AK, 99504",605167189,R,02,020,000702,2000,-149.73637,61.224169999999994
6830,7748 BOUNDARY AVE,Anchorage,AK,99504,"7748 BOUNDARY AVE, Anchorage, AK, 99504",Match,Exact,"7748 BOUNDARY AVE, ANCHORAGE, AK, 99504",605167189,R,02,020,000702,2000,-149.73641999999998,61.224169999999994
6831,7748 BOUNDARY AVE,Anchorage,AK,99504,"7748 BOUNDARY AVE, Anchorage, AK, 99504",Match,Exact,"7748 BOUNDARY AVE, ANCHORAGE, AK, 99504",605167189,R,02,020,000702,2000,-149.73641999999998,61.224169999999994
6832,7728 BOUNDARY AVE,Anchorage,AK,99504,"7728 BOUNDARY AVE, Anchorage, AK, 99504",Match,Exact,"7728 BOUNDARY AVE, ANCHORAGE, AK, 99504",605167189,R,02,020,000702,2000,-149.73662,61.224169999999994
6833,7732 BOUNDARY AVE,Anchorage,AK,99504,"7732 BOUNDARY AVE, Anchorage, AK, 99504",Match,Exact,"7732 BOUNDARY AVE, ANCHORAGE, AK, 99504",605167189,R,02,020,000702,2000,-149.73657,61.224169999999994
6834,7726 BOUNDARY AVE,Anchorage,AK,99504,"7726 BOUNDARY AVE, Anchorage, AK, 99504",Match,Exact,"7726 BOUNDARY AVE, ANCHORAGE, AK, 99504",605167189,R,02,020,000702,2000,-149.73663,61.224169999999994
6835,150 MULDOON RD,Anchorage,AK,99504,"150 MULDOON RD, Anchorage, AK, 99504",Match,Exact,"150 MULDOON RD, ANCHORAGE, AK, 99504",638990398,R,02,020,000702,2000,-149.73352,61.223255
6836,149 BURTON ST,Anchorage,AK,99504,"149 BURTON ST, Anchorage, AK, 99504",Match,Exact,"149 BURTON ST, ANCHORAGE, AK, 99504",190802857,L,02,020,000702,2000,-149.74194,61.222823999999996
6837,201 MC CARREY ST,Anchorage,AK,99508,"201 MC CARREY ST, Anchorage, AK, 99508",Match,Exact,"201 MC CARREY ST, ANCHORAGE, AK, 99508",624266929,L,02,020,000801,2006,-149.79187,61.222640000000006
6838,201 MC CARREY ST,Anchorage,AK,99508,"201 MC CARREY ST, Anchorage, AK, 99508",Match,Exact,"201 MC CARREY ST, ANCHORAGE, AK, 99508",624266929,L,02,020,000801,2006,-149.79187,61.222640000000006
6839,201 MC CARREY ST,Anchorage,AK,99508,"201 MC CARREY ST, Anchorage, AK, 99508",Match,Exact,"201 MC CARREY ST, ANCHORAGE, AK, 99508",624266929,L,02,020,000801,2006,-149.79187,61.222640000000006
6840,201 MC CARREY ST,Anchorage,AK,99508,"201 MC CARREY ST, Anchorage, AK, 99508",Match,Exact,"201 MC CARREY ST, ANCHORAGE, AK, 99508",624266929,L,02,020,000801,2006,-149.79187,61.222640000000006
6841,201 MC CARREY ST,Anchorage,AK,99508,"201 MC CARREY ST, Anchorage, AK, 99508",Match,Exact,"201 MC CARREY ST, ANCHORAGE, AK, 99508",624266929,L,02,020,000801,2006,-149.79187,61.222640000000006
6842,201 MC CARREY ST,Anchorage,AK,99508,"201 MC CARREY ST, Anchorage, AK, 99508",Match,Exact,"201 MC CARREY ST, ANCHORAGE, AK, 99508",624266929,L,02,020,000801,2006,-149.79187,61.222640000000006
6843,201 MC CARREY ST,Anchorage,AK,99508,"201 MC CARREY ST, Anchorage, AK, 99508",Match,Exact,"201 MC CARREY ST, ANCHORAGE, AK, 99508",624266929,L,02,020,000801,2006,-149.79187,61.222640000000006
6844,201 MC CARREY ST,Anchorage,AK,99508,"201 MC CARREY ST, Anchorage, AK, 99508",Match,Exact,"201 MC CARREY ST, ANCHORAGE, AK, 99508",624266929,L,02,020,000801,2006,-149.79187,61.222640000000006
6845,201 MC CARREY ST,Anchorage,AK,99508,"201 MC CARREY ST, Anchorage, AK, 99508",Match,Exact,"201 MC CARREY ST, ANCHORAGE, AK, 99508",624266929,L,02,020,000801,2006,-149.79187,61.222640000000006
6846,201 MC CARREY ST,Anchorage,AK,99508,"201 MC CARREY ST, Anchorage, AK, 99508",Match,Exact,"201 MC CARREY ST, ANCHORAGE, AK, 99508",624266929,L,02,020,000801,2006,-149.79187,61.222640000000006
6847,201 MC CARREY ST,Anchorage,AK,99508,"201 MC CARREY ST, Anchorage, AK, 99508",Match,Exact,"201 MC CARREY ST, ANCHORAGE, AK, 99508",624266929,L,02,020,000801,2006,-149.79187,61.222640000000006
6848,201 MC CARREY ST,Anchorage,AK,99508,"201 MC CARREY ST, Anchorage, AK, 99508",Match,Exact,"201 MC CARREY ST, ANCHORAGE, AK, 99508",624266929,L,02,020,000801,2006,-149.79187,61.222640000000006
6849,201 MC CARREY ST,Anchorage,AK,99508,"201 MC CARREY ST, Anchorage, AK, 99508",Match,Exact,"201 MC CARREY ST, ANCHORAGE, AK, 99508",624266929,L,02,020,000801,2006,-149.79187,61.222640000000006
6850,201 MC CARREY ST,Anchorage,AK,99508,"201 MC CARREY ST, Anchorage, AK, 99508",Match,Exact,"201 MC CARREY ST, ANCHORAGE, AK, 99508",624266929,L,02,020,000801,2006,-149.79187,61.222640000000006
6851,201 MC CARREY ST,Anchorage,AK,99508,"201 MC CARREY ST, Anchorage, AK, 99508",Match,Exact,"201 MC CARREY ST, ANCHORAGE, AK, 99508",624266929,L,02,020,000801,2006,-149.79187,61.222640000000006
6852,281 OKLAHOMA ST,Anchorage,AK,99504,"281 OKLAHOMA ST, Anchorage, AK, 99504",Match,Exact,"281 OKLAHOMA ST, ANCHORAGE, AK, 99504",190802855,L,02,020,000702,2001,-149.74475,61.220980000000004
6853,275 CREEKSIDE ST,Anchorage,AK,99504,"275 CREEKSIDE ST, Anchorage, AK, 99504",Match,Exact,"275 CREEKSIDE ST, ANCHORAGE, AK, 99504",190816630,R,02,020,000702,2001,-149.741,61.22081800000001
6854,270 PATTERSON ST,Anchorage,AK,99504,"270 PATTERSON ST, Anchorage, AK, 99504",Match,Exact,"270 PATTERSON ST, ANCHORAGE, AK, 99504",190802866,R,02,020,000702,3004,-149.74851999999998,61.221016000000006
6855,286 FERN LN,Anchorage,AK,99504,"286 FERN LN, Anchorage, AK, 99504",Match,Exact,"286 FERN LN, ANCHORAGE, AK, 99504",190802801,R,02,020,000702,3005,-149.75429,61.22062
6856,287 PATTERSON ST,Anchorage,AK,99504,"287 PATTERSON ST, Anchorage, AK, 99504",Match,Exact,"287 PATTERSON ST, ANCHORAGE, AK, 99504",190802866,L,02,020,000702,2007,-149.7485,61.22081
6857,290 SKYHAVEN CIR,Anchorage,AK,99504,"290 SKYHAVEN CIR, Anchorage, AK, 99504",Match,Exact,"290 SKYHAVEN CIR, ANCHORAGE, AK, 99504",190816627,L,02,020,000702,2001,-149.74286999999998,61.220634
6858,291 SKYHAVEN CIR,Anchorage,AK,99504,"291 SKYHAVEN CIR, Anchorage, AK, 99504",Match,Exact,"291 SKYHAVEN CIR, ANCHORAGE, AK, 99504",190816627,R,02,020,000702,2001,-149.74284,61.220634
6859,307 BUNNELL ST,Anchorage,AK,99508,"307 BUNNELL ST, Anchorage, AK, 99508",Match,Exact,"307 BUNNELL ST, ANCHORAGE, AK, 99508",624266934,L,02,020,000801,2008,-149.7897,61.22067
6860,8307 DUBEN AVE,Anchorage,AK,99504,"8307 DUBEN AVE, Anchorage, AK, 99504",Match,Exact,"8307 DUBEN AVE, ANCHORAGE, AK, 99504",190803260,L,02,020,000703,1013,-149.72575,61.22062
6861,8307 DUBEN AVE,Anchorage,AK,99504,"8307 DUBEN AVE, Anchorage, AK, 99504",Match,Exact,"8307 DUBEN AVE, ANCHORAGE, AK, 99504",190803260,L,02,020,000703,1013,-149.72575,61.22062
6862,342 FIREOVED DR,Anchorage,AK,99508,"342 FIREOVED DR, Anchorage, AK, 99508",Match,Exact,"342 FIREOVED DR, ANCHORAGE, AK, 99508",643733471,R,02,020,000801,3009,-149.78436000000002,61.221275
6863,342 FIREOVED DR,Anchorage,AK,99508,"342 FIREOVED DR, Anchorage, AK, 99508",Match,Exact,"342 FIREOVED DR, ANCHORAGE, AK, 99508",643733471,R,02,020,000801,3009,-149.78436000000002,61.221275
6864,8349 DUBEN AVE,Anchorage,AK,99504,"8349 DUBEN AVE, Anchorage, AK, 99504",Match,Exact,"8349 DUBEN AVE, ANCHORAGE, AK, 99504",190803260,L,02,020,000703,1013,-149.72496,61.22062
6865,8437 DUBEN AVE,Anchorage,AK,99504,"8437 DUBEN AVE, Anchorage, AK, 99504",Match,Exact,"8437 DUBEN AVE, ANCHORAGE, AK, 99504",605183645,L,02,020,000703,1013,-149.72271999999998,61.22062
6866,8437 DUBEN AVE,Anchorage,AK,99504,"8437 DUBEN AVE, Anchorage, AK, 99504",Match,Exact,"8437 DUBEN AVE, ANCHORAGE, AK, 99504",605183645,L,02,020,000703,1013,-149.72271999999998,61.22062
6867,8437 DUBEN AVE,Anchorage,AK,99504,"8437 DUBEN AVE, Anchorage, AK, 99504",Match,Exact,"8437 DUBEN AVE, ANCHORAGE, AK, 99504",605183645,L,02,020,000703,1013,-149.72271999999998,61.22062
6868,8437 DUBEN AVE,Anchorage,AK,99504,"8437 DUBEN AVE, Anchorage, AK, 99504",Match,Exact,"8437 DUBEN AVE, ANCHORAGE, AK, 99504",605183645,L,02,020,000703,1013,-149.72271999999998,61.22062
6869,8437 DUBEN AVE,Anchorage,AK,99504,"8437 DUBEN AVE, Anchorage, AK, 99504",Match,Exact,"8437 DUBEN AVE, ANCHORAGE, AK, 99504",605183645,L,02,020,000703,1013,-149.72271999999998,61.22062
6870,8437 DUBEN AVE,Anchorage,AK,99504,"8437 DUBEN AVE, Anchorage, AK, 99504",Match,Exact,"8437 DUBEN AVE, ANCHORAGE, AK, 99504",605183645,L,02,020,000703,1013,-149.72271999999998,61.22062
6871,8437 DUBEN AVE,Anchorage,AK,99504,"8437 DUBEN AVE, Anchorage, AK, 99504",Match,Exact,"8437 DUBEN AVE, ANCHORAGE, AK, 99504",605183645,L,02,020,000703,1013,-149.72271999999998,61.22062
6872,8437 DUBEN AVE,Anchorage,AK,99504,"8437 DUBEN AVE, Anchorage, AK, 99504",Match,Exact,"8437 DUBEN AVE, ANCHORAGE, AK, 99504",605183645,L,02,020,000703,1013,-149.72271999999998,61.22062
6873,8315 DUBEN AVE,Anchorage,AK,99504,"8315 DUBEN AVE, Anchorage, AK, 99504",Match,Exact,"8315 DUBEN AVE, ANCHORAGE, AK, 99504",190803260,L,02,020,000703,1013,-149.7256,61.22062
6874,341 FIREOVED DR,Anchorage,AK,99508,"341 FIREOVED DR, Anchorage, AK, 99508",Match,Exact,"341 FIREOVED DR, ANCHORAGE, AK, 99508",643733471,L,02,020,000801,3008,-149.78433,61.22129399999999
6875,341 FIREOVED DR,Anchorage,AK,99508,"341 FIREOVED DR, Anchorage, AK, 99508",Match,Exact,"341 FIREOVED DR, ANCHORAGE, AK, 99508",643733471,L,02,020,000801,3008,-149.78433,61.22129399999999
6876,160 GRAND LARRY ST,Anchorage,AK,99504,"160 GRAND LARRY ST, Anchorage, AK, 99504",Match,Exact,"160 GRAND LARRY ST, ANCHORAGE, AK, 99504",625718476,R,02,020,000703,2001,-149.72978,61.22304499999999
6877,160 GRAND LARRY ST,Anchorage,AK,99504,"160 GRAND LARRY ST, Anchorage, AK, 99504",Match,Exact,"160 GRAND LARRY ST, ANCHORAGE, AK, 99504",625718476,R,02,020,000703,2001,-149.72978,61.22304499999999
6878,7730 BOUNDARY AVE,Anchorage,AK,99504,"7730 BOUNDARY AVE, Anchorage, AK, 99504",Match,Exact,"7730 BOUNDARY AVE, ANCHORAGE, AK, 99504",605167189,R,02,020,000702,2000,-149.73658999999998,61.224169999999994
6879,7734 BOUNDARY AVE,Anchorage,AK,99504,"7734 BOUNDARY AVE, Anchorage, AK, 99504",Match,Exact,"7734 BOUNDARY AVE, ANCHORAGE, AK, 99504",605167189,R,02,020,000702,2000,-149.73656,61.224169999999994
6880,7736 BOUNDARY AVE,Anchorage,AK,99504,"7736 BOUNDARY AVE, Anchorage, AK, 99504",Match,Exact,"7736 BOUNDARY AVE, ANCHORAGE, AK, 99504",605167189,R,02,020,000702,2000,-149.73654,61.224169999999994
6881,170 GRAND LARRY ST,Anchorage,AK,99504,"170 GRAND LARRY ST, Anchorage, AK, 99504",Match,Exact,"170 GRAND LARRY ST, ANCHORAGE, AK, 99504",625718476,R,02,020,000703,2001,-149.72978,61.22289
6882,170 GRAND LARRY ST,Anchorage,AK,99504,"170 GRAND LARRY ST, Anchorage, AK, 99504",Match,Exact,"170 GRAND LARRY ST, ANCHORAGE, AK, 99504",625718476,R,02,020,000703,2001,-149.72978,61.22289
6883,170 GRAND LARRY ST,Anchorage,AK,99504,"170 GRAND LARRY ST, Anchorage, AK, 99504",Match,Exact,"170 GRAND LARRY ST, ANCHORAGE, AK, 99504",625718476,R,02,020,000703,2001,-149.72978,61.22289
6884,170 GRAND LARRY ST,Anchorage,AK,99504,"170 GRAND LARRY ST, Anchorage, AK, 99504",Match,Exact,"170 GRAND LARRY ST, ANCHORAGE, AK, 99504",625718476,R,02,020,000703,2001,-149.72978,61.22289
6885,170 GRAND LARRY ST,Anchorage,AK,99504,"170 GRAND LARRY ST, Anchorage, AK, 99504",Match,Exact,"170 GRAND LARRY ST, ANCHORAGE, AK, 99504",625718476,R,02,020,000703,2001,-149.72978,61.22289
6886,208 RED LEAF CIR,Anchorage,AK,99504,"208 RED LEAF CIR, Anchorage, AK, 99504",Match,Exact,"208 RED LEAF CIR, ANCHORAGE, AK, 99504",190803306,L,02,020,000703,1013,-149.72131000000002,61.222305000000006
6887,209 RED LEAF CIR,Anchorage,AK,99504,"209 RED LEAF CIR, Anchorage, AK, 99504",Match,Exact,"209 RED LEAF CIR, ANCHORAGE, AK, 99504",190803306,R,02,020,000703,1013,-149.7213,61.222305000000006
6888,324 BONIFACE PKWY,Anchorage,AK,99504,"324 BONIFACE PKWY, Anchorage, AK, 99504",Match,Exact,"324 BONIFACE PKWY, ANCHORAGE, AK, 99504",190801982,R,02,020,000801,4000,-149.77841,61.21986999999999
6889,326 BONIFACE PKWY,Anchorage,AK,99504,"326 BONIFACE PKWY, Anchorage, AK, 99504",Match,Exact,"326 BONIFACE PKWY, ANCHORAGE, AK, 99504",190801982,R,02,020,000801,4000,-149.77841,61.219840000000005
6890,200 WHISPER KNOLL CIR,Anchorage,AK,99504,"200 WHISPER KNOLL CIR, Anchorage, AK, 99504",Match,Exact,"200 WHISPER KNOLL CIR, ANCHORAGE, AK, 99504",605185014,R,02,020,000701,1013,-149.7608,61.222267
6891,200 WHISPER KNOLL CIR,Anchorage,AK,99504,"200 WHISPER KNOLL CIR, Anchorage, AK, 99504",Match,Exact,"200 WHISPER KNOLL CIR, ANCHORAGE, AK, 99504",605185014,R,02,020,000701,1013,-149.7608,61.222267
6892,227 NEWELL ST,Anchorage,AK,99504,"227 NEWELL ST, Anchorage, AK, 99504",Match,Exact,"227 NEWELL ST, ANCHORAGE, AK, 99504",605167293,R,02,020,000701,1000,-149.77095,61.222637
6893,6602 WHISPERWOOD PARK DR,Anchorage,AK,99504,"6602 WHISPERWOOD PARK DR, Anchorage, AK, 99504",Match,Exact,"6602 WHISPERWOOD PARK DR, ANCHORAGE, AK, 99504",624788729,R,02,020,000701,1013,-149.75812,61.22225
6894,6602 WHISPERWOOD PARK DR,Anchorage,AK,99504,"6602 WHISPERWOOD PARK DR, Anchorage, AK, 99504",Match,Exact,"6602 WHISPERWOOD PARK DR, ANCHORAGE, AK, 99504",624788729,R,02,020,000701,1013,-149.75812,61.22225
6895,200 ZAPPA PL,Anchorage,AK,99504,"200 ZAPPA PL, Anchorage, AK, 99504",Match,Exact,"200 ZAPPA PL, ANCHORAGE, AK, 99504",190803204,R,02,020,000703,2003,-149.72603,61.222237
6896,200 ZAPPA PL,Anchorage,AK,99504,"200 ZAPPA PL, Anchorage, AK, 99504",Match,Exact,"200 ZAPPA PL, ANCHORAGE, AK, 99504",190803204,R,02,020,000703,2003,-149.72603,61.222237
6897,200 ZAPPA PL,Anchorage,AK,99504,"200 ZAPPA PL, Anchorage, AK, 99504",Match,Exact,"200 ZAPPA PL, ANCHORAGE, AK, 99504",190803204,R,02,020,000703,2003,-149.72603,61.222237
6898,6300 WHISPERING LOOP,Anchorage,AK,99504,"6300 WHISPERING LOOP, Anchorage, AK, 99504",Match,Exact,"6300 WHISPERING LOOP, ANCHORAGE, AK, 99504",624788733,R,02,020,000701,1000,-149.76265,61.22214
6899,6300 WHISPERING LOOP,Anchorage,AK,99504,"6300 WHISPERING LOOP, Anchorage, AK, 99504",Match,Exact,"6300 WHISPERING LOOP, ANCHORAGE, AK, 99504",624788733,R,02,020,000701,1000,-149.76265,61.22214
6900,204 MULDOON RD,Anchorage,AK,99504,"204 MULDOON RD, Anchorage, AK, 99504",Match,Exact,"204 MULDOON RD, ANCHORAGE, AK, 99504",190803191,R,02,020,000702,2000,-149.73352,61.222164
6901,204 MULDOON RD,Anchorage,AK,99504,"204 MULDOON RD, Anchorage, AK, 99504",Match,Exact,"204 MULDOON RD, ANCHORAGE, AK, 99504",190803191,R,02,020,000702,2000,-149.73352,61.222164
6902,200 OKLAHOMA ST,Anchorage,AK,99504,"200 OKLAHOMA ST, Anchorage, AK, 99504",Match,Exact,"200 OKLAHOMA ST, ANCHORAGE, AK, 99504",190802855,R,02,020,000702,2008,-149.74478,61.22221999999999
6903,200 OKLAHOMA ST,Anchorage,AK,99504,"200 OKLAHOMA ST, Anchorage, AK, 99504",Match,Exact,"200 OKLAHOMA ST, ANCHORAGE, AK, 99504",190802855,R,02,020,000702,2008,-149.74478,61.22221999999999
6904,200 OKLAHOMA ST,Anchorage,AK,99504,"200 OKLAHOMA ST, Anchorage, AK, 99504",Match,Exact,"200 OKLAHOMA ST, ANCHORAGE, AK, 99504",190802855,R,02,020,000702,2008,-149.74478,61.22221999999999
6905,217 GRAND LARRY ST,Anchorage,AK,99504,"217 GRAND LARRY ST, Anchorage, AK, 99504",Match,Exact,"217 GRAND LARRY ST, ANCHORAGE, AK, 99504",190803200,L,02,020,000703,2003,-149.72975,61.221990000000005
6906,213 ORANGE LEAF CIR,Anchorage,AK,99504,"213 ORANGE LEAF CIR, Anchorage, AK, 99504",Match,Exact,"213 ORANGE LEAF CIR, ANCHORAGE, AK, 99504",190803309,R,02,020,000703,1013,-149.71941999999999,61.22229
6907,207 STEWART ST,Anchorage,AK,99508,"207 STEWART ST, Anchorage, AK, 99508",Match,Exact,"207 STEWART ST, ANCHORAGE, AK, 99508",190801687,L,02,020,000801,2003,-149.78789,61.22266
6908,212 RED LEAF CIR,Anchorage,AK,99504,"212 RED LEAF CIR, Anchorage, AK, 99504",Match,Exact,"212 RED LEAF CIR, ANCHORAGE, AK, 99504",190803306,L,02,020,000703,1013,-149.72131000000002,61.22229
6909,8393 DUBEN AVE,Anchorage,AK,99504,"8393 DUBEN AVE, Anchorage, AK, 99504",Match,Exact,"8393 DUBEN AVE, ANCHORAGE, AK, 99504",605183644,L,02,020,000703,1013,-149.72386,61.22062
6910,253 FALL LEAF CIR,Anchorage,AK,99504,"253 FALL LEAF CIR, Anchorage, AK, 99504",Match,Exact,"253 FALL LEAF CIR, ANCHORAGE, AK, 99504",190803320,L,02,020,000703,1013,-149.72128,61.220806
6911,6658 WHISPERING LOOP,Anchorage,AK,99504,"6658 WHISPERING LOOP, Anchorage, AK, 99504",Match,Exact,"6658 WHISPERING LOOP, ANCHORAGE, AK, 99504",624788736,L,02,020,000701,1000,-149.75706,61.22128000000001
6912,6658 WHISPERING LOOP,Anchorage,AK,99504,"6658 WHISPERING LOOP, Anchorage, AK, 99504",Match,Exact,"6658 WHISPERING LOOP, ANCHORAGE, AK, 99504",624788736,L,02,020,000701,1000,-149.75706,61.22128000000001
6913,210 SKYHAVEN CIR,Anchorage,AK,99504,"210 SKYHAVEN CIR, Anchorage, AK, 99504",Match,Exact,"210 SKYHAVEN CIR, ANCHORAGE, AK, 99504",190816627,L,02,020,000702,2001,-149.74286999999998,61.220978
6914,259 KESTER CIR,Anchorage,AK,99504,"259 KESTER CIR, Anchorage, AK, 99504",Match,Exact,"259 KESTER CIR, ANCHORAGE, AK, 99504",190803210,R,02,020,000702,2000,-149.73619,61.220881999999996
6915,253 YELLOW LEAF CIR,Anchorage,AK,99504,"253 YELLOW LEAF CIR, Anchorage, AK, 99504",Match,Exact,"253 YELLOW LEAF CIR, ANCHORAGE, AK, 99504",190803334,L,02,020,000703,1013,-149.7194,61.220814000000004
6916,201 SKYHAVEN CIR,Anchorage,AK,99504,"201 SKYHAVEN CIR, Anchorage, AK, 99504",Match,Exact,"201 SKYHAVEN CIR, ANCHORAGE, AK, 99504",190816627,R,02,020,000702,2001,-149.74284,61.221019999999996
6917,200 SKYHAVEN CIR,Anchorage,AK,99504,"200 SKYHAVEN CIR, Anchorage, AK, 99504",Match,Exact,"200 SKYHAVEN CIR, ANCHORAGE, AK, 99504",190816627,L,02,020,000702,2001,-149.74286999999998,61.221019999999996
6918,8407 DUBEN AVE,Anchorage,AK,99504,"8407 DUBEN AVE, Anchorage, AK, 99504",Match,Exact,"8407 DUBEN AVE, ANCHORAGE, AK, 99504",605183645,L,02,020,000703,1013,-149.72333,61.22062
6919,5235 HILAND RD,Anchorage,AK,99577,"5235 HILAND RD, Anchorage, AK, 99577",Match,Non_Exact,"5235 HILAND RD, EAGLE RIVER, AK, 99577",190827423,L,02,020,000204,2012,-149.47731000000002,61.268368
6920,5061 RANDI CT,Anchorage,AK,99577,"5061 RANDI CT, Anchorage, AK, 99577",Match,Non_Exact,"5061 RANDI CT, EAGLE RIVER, AK, 99577",190826849,R,02,020,000204,2012,-149.47453000000002,61.266234999999995
6921,5039 RANDI CT,Anchorage,AK,99577,"5039 RANDI CT, Anchorage, AK, 99577",Match,Non_Exact,"5039 RANDI CT, EAGLE RIVER, AK, 99577",190826849,R,02,020,000204,2012,-149.47475,61.26608
6922,4455 COTTON GRASS DR,Anchorage,AK,99577,"4455 COTTON GRASS DR, Anchorage, AK, 99577",No_Match,,,,,,,,,,
6923,5007 RANDI CT,Anchorage,AK,99577,"5007 RANDI CT, Anchorage, AK, 99577",Match,Non_Exact,"5007 RANDI CT, EAGLE RIVER, AK, 99577",190826849,R,02,020,000204,2012,-149.47513,61.265873
6924,5038 HILAND RD,Anchorage,AK,99577,"5038 HILAND RD, Anchorage, AK, 99577",Match,Non_Exact,"5038 HILAND RD, EAGLE RIVER, AK, 99577",190815030,R,02,020,000204,2013,-149.47711,61.26574
6925,4933 HILAND RD,Anchorage,AK,99577,"4933 HILAND RD, Anchorage, AK, 99577",Match,Non_Exact,"4933 HILAND RD, EAGLE RIVER, AK, 99577",190815030,L,02,020,000204,2059,-149.47737,61.264793000000004
6926,4916 HILAND RD,Anchorage,AK,99577,"4916 HILAND RD, Anchorage, AK, 99577",Match,Non_Exact,"4916 HILAND RD, EAGLE RIVER, AK, 99577",190815030,R,02,020,000204,2013,-149.47738999999999,61.264915
6927,4929 BIRDSONG DR,Anchorage,AK,99577,"4929 BIRDSONG DR, Anchorage, AK, 99577",Match,Non_Exact,"4929 BIRDSONG DR, EAGLE RIVER, AK, 99577",190826804,L,02,020,000204,2012,-149.47513999999998,61.264731999999995
6928,4901 HILAND RD,Anchorage,AK,99577,"4901 HILAND RD, Anchorage, AK, 99577",Match,Non_Exact,"4901 HILAND RD, EAGLE RIVER, AK, 99577",190815030,L,02,020,000204,2059,-149.47736,61.264534
6929,4815 BIRDSONG DR,Anchorage,AK,99577,"4815 BIRDSONG DR, Anchorage, AK, 99577",Match,Non_Exact,"4815 BIRDSONG DR, EAGLE RIVER, AK, 99577",190826804,L,02,020,000204,2012,-149.47478,61.263794
6930,4815 HILAND RD,Anchorage,AK,99577,"4815 HILAND RD, Anchorage, AK, 99577",Match,Non_Exact,"4815 HILAND RD, EAGLE RIVER, AK, 99577",190815030,L,02,020,000204,2059,-149.47704,61.26384399999999
6931,4722 BIRDSONG DR,Anchorage,AK,99577,"4722 BIRDSONG DR, Anchorage, AK, 99577",Match,Non_Exact,"4722 BIRDSONG DR, EAGLE RIVER, AK, 99577",190826804,R,02,020,000204,2059,-149.47447,61.263034999999995
6932,8010 BOUNDARY AVE,Anchorage,AK,99504,"8010 BOUNDARY AVE, Anchorage, AK, 99504",Match,Exact,"8010 BOUNDARY AVE, ANCHORAGE, AK, 99504",190796071,R,02,020,000703,2001,-149.7312,61.224132999999995
6933,8230 BOUNDARY AVE,Anchorage,AK,99504,"8230 BOUNDARY AVE, Anchorage, AK, 99504",Match,Exact,"8230 BOUNDARY AVE, ANCHORAGE, AK, 99504",190808824,R,02,020,000703,2000,-149.7267,61.224136
6934,8100 BOUNDARY AVE,Anchorage,AK,99504,"8100 BOUNDARY AVE, Anchorage, AK, 99504",Match,Exact,"8100 BOUNDARY AVE, ANCHORAGE, AK, 99504",190803205,R,02,020,000703,2000,-149.72968999999998,61.224136
6935,8100 BOUNDARY AVE,Anchorage,AK,99504,"8100 BOUNDARY AVE, Anchorage, AK, 99504",Match,Exact,"8100 BOUNDARY AVE, ANCHORAGE, AK, 99504",190803205,R,02,020,000703,2000,-149.72968999999998,61.224136
6936,8100 BOUNDARY AVE,Anchorage,AK,99504,"8100 BOUNDARY AVE, Anchorage, AK, 99504",Match,Exact,"8100 BOUNDARY AVE, ANCHORAGE, AK, 99504",190803205,R,02,020,000703,2000,-149.72968999999998,61.224136
6937,8100 BOUNDARY AVE,Anchorage,AK,99504,"8100 BOUNDARY AVE, Anchorage, AK, 99504",Match,Exact,"8100 BOUNDARY AVE, ANCHORAGE, AK, 99504",190803205,R,02,020,000703,2000,-149.72968999999998,61.224136
6938,8100 BOUNDARY AVE,Anchorage,AK,99504,"8100 BOUNDARY AVE, Anchorage, AK, 99504",Match,Exact,"8100 BOUNDARY AVE, ANCHORAGE, AK, 99504",190803205,R,02,020,000703,2000,-149.72968999999998,61.224136
6939,8124 BOUNDARY AVE,Anchorage,AK,99504,"8124 BOUNDARY AVE, Anchorage, AK, 99504",Match,Exact,"8124 BOUNDARY AVE, ANCHORAGE, AK, 99504",190808824,R,02,020,000703,2000,-149.72833,61.224136
6940,7712 BOUNDARY AVE,Anchorage,AK,99504,"7712 BOUNDARY AVE, Anchorage, AK, 99504",Match,Exact,"7712 BOUNDARY AVE, ANCHORAGE, AK, 99504",605167189,R,02,020,000702,2000,-149.73676,61.224169999999994
6941,7722 BOUNDARY AVE,Anchorage,AK,99504,"7722 BOUNDARY AVE, Anchorage, AK, 99504",Match,Exact,"7722 BOUNDARY AVE, ANCHORAGE, AK, 99504",605167189,R,02,020,000702,2000,-149.73666,61.224169999999994
6942,7710 BOUNDARY AVE,Anchorage,AK,99504,"7710 BOUNDARY AVE, Anchorage, AK, 99504",Match,Exact,"7710 BOUNDARY AVE, ANCHORAGE, AK, 99504",605167189,R,02,020,000702,2000,-149.73678999999998,61.224169999999994
6943,7714 BOUNDARY AVE,Anchorage,AK,99504,"7714 BOUNDARY AVE, Anchorage, AK, 99504",Match,Exact,"7714 BOUNDARY AVE, ANCHORAGE, AK, 99504",605167189,R,02,020,000702,2000,-149.73674,61.224169999999994
6944,7716 BOUNDARY AVE,Anchorage,AK,99504,"7716 BOUNDARY AVE, Anchorage, AK, 99504",Match,Exact,"7716 BOUNDARY AVE, ANCHORAGE, AK, 99504",605167189,R,02,020,000702,2000,-149.73672,61.224169999999994
6945,7718 BOUNDARY AVE,Anchorage,AK,99504,"7718 BOUNDARY AVE, Anchorage, AK, 99504",Match,Exact,"7718 BOUNDARY AVE, ANCHORAGE, AK, 99504",605167189,R,02,020,000702,2000,-149.73671000000002,61.224169999999994
6946,7720 BOUNDARY AVE,Anchorage,AK,99504,"7720 BOUNDARY AVE, Anchorage, AK, 99504",Match,Exact,"7720 BOUNDARY AVE, ANCHORAGE, AK, 99504",605167189,R,02,020,000702,2000,-149.7367,61.224169999999994
6947,7702 BOUNDARY AVE,Anchorage,AK,99504,"7702 BOUNDARY AVE, Anchorage, AK, 99504",Match,Exact,"7702 BOUNDARY AVE, ANCHORAGE, AK, 99504",605167189,R,02,020,000702,2000,-149.73686,61.224169999999994
6948,7704 BOUNDARY AVE,Anchorage,AK,99504,"7704 BOUNDARY AVE, Anchorage, AK, 99504",Match,Exact,"7704 BOUNDARY AVE, ANCHORAGE, AK, 99504",605167189,R,02,020,000702,2000,-149.73683,61.224169999999994
6949,7706 BOUNDARY AVE,Anchorage,AK,99504,"7706 BOUNDARY AVE, Anchorage, AK, 99504",Match,Exact,"7706 BOUNDARY AVE, ANCHORAGE, AK, 99504",605167189,R,02,020,000702,2000,-149.73682,61.224169999999994
6950,7708 BOUNDARY AVE,Anchorage,AK,99504,"7708 BOUNDARY AVE, Anchorage, AK, 99504",Match,Exact,"7708 BOUNDARY AVE, ANCHORAGE, AK, 99504",605167189,R,02,020,000702,2000,-149.7368,61.224169999999994
6951,7700 BOUNDARY AVE,Anchorage,AK,99504,"7700 BOUNDARY AVE, Anchorage, AK, 99504",Match,Exact,"7700 BOUNDARY AVE, ANCHORAGE, AK, 99504",605167189,R,02,020,000702,2000,-149.73688,61.224169999999994
6952,201 MC CARREY ST,Anchorage,AK,99508,"201 MC CARREY ST, Anchorage, AK, 99508",Match,Exact,"201 MC CARREY ST, ANCHORAGE, AK, 99508",624266929,L,02,020,000801,2006,-149.79187,61.222640000000006
6953,201 MC CARREY ST,Anchorage,AK,99508,"201 MC CARREY ST, Anchorage, AK, 99508",Match,Exact,"201 MC CARREY ST, ANCHORAGE, AK, 99508",624266929,L,02,020,000801,2006,-149.79187,61.222640000000006
6954,190 OKLAHOMA ST,Anchorage,AK,99504,"190 OKLAHOMA ST, Anchorage, AK, 99504",Match,Exact,"190 OKLAHOMA ST, ANCHORAGE, AK, 99504",190802853,R,02,020,000702,1005,-149.74478,61.222538
6955,7631 MELODY COMMONS CT,Anchorage,AK,99504,"7631 MELODY COMMONS CT, Anchorage, AK, 99504",Match,Exact,"7631 MELODY COMMONS CT, ANCHORAGE, AK, 99504",605182954,L,02,020,000702,2001,-149.73854,61.22169
6956,7617 MELODY COMMONS CT,Anchorage,AK,99504,"7617 MELODY COMMONS CT, Anchorage, AK, 99504",Match,Exact,"7617 MELODY COMMONS CT, ANCHORAGE, AK, 99504",605182954,L,02,020,000702,2001,-149.73888,61.221687
6957,236 RED LEAF CIR,Anchorage,AK,99504,"236 RED LEAF CIR, Anchorage, AK, 99504",Match,Exact,"236 RED LEAF CIR, ANCHORAGE, AK, 99504",190803306,L,02,020,000703,1013,-149.72131000000002,61.222190000000005
6958,246 WHISPER RIDGE CIR,Anchorage,AK,99504,"246 WHISPER RIDGE CIR, Anchorage, AK, 99504",Match,Exact,"246 WHISPER RIDGE CIR, ANCHORAGE, AK, 99504",624788767,L,02,020,000701,1013,-149.75894,61.22219499999999
6959,246 WHISPER RIDGE CIR,Anchorage,AK,99504,"246 WHISPER RIDGE CIR, Anchorage, AK, 99504",Match,Exact,"246 WHISPER RIDGE CIR, ANCHORAGE, AK, 99504",624788767,L,02,020,000701,1013,-149.75894,61.22219499999999
6960,6740 DICKERSON DR,Anchorage,AK,99504,"6740 DICKERSON DR, Anchorage, AK, 99504",Match,Exact,"6740 DICKERSON DR, ANCHORAGE, AK, 99504",190802757,R,02,020,000702,3005,-149.75444,61.221844
6961,6730 DICKERSON DR,Anchorage,AK,99504,"6730 DICKERSON DR, Anchorage, AK, 99504",Match,Exact,"6730 DICKERSON DR, ANCHORAGE, AK, 99504",190802757,R,02,020,000702,3005,-149.75475,61.221844
6962,6720 DICKERSON DR,Anchorage,AK,99504,"6720 DICKERSON DR, Anchorage, AK, 99504",Match,Exact,"6720 DICKERSON DR, ANCHORAGE, AK, 99504",190802757,R,02,020,000702,3005,-149.75507,61.221844
6963,6710 DICKERSON DR,Anchorage,AK,99504,"6710 DICKERSON DR, Anchorage, AK, 99504",Match,Exact,"6710 DICKERSON DR, ANCHORAGE, AK, 99504",190802757,R,02,020,000702,3005,-149.75537,61.221844
6964,231 FRIENDLY ST,Anchorage,AK,99504,"231 FRIENDLY ST, Anchorage, AK, 99504",Match,Exact,"231 FRIENDLY ST, ANCHORAGE, AK, 99504",190823630,L,02,020,000703,2003,-149.72794,61.22093
6965,231 FRIENDLY ST,Anchorage,AK,99504,"231 FRIENDLY ST, Anchorage, AK, 99504",Match,Exact,"231 FRIENDLY ST, ANCHORAGE, AK, 99504",190823630,L,02,020,000703,2003,-149.72794,61.22093
6966,229 FIREOVED DR,Anchorage,AK,99508,"229 FIREOVED DR, Anchorage, AK, 99508",Match,Exact,"229 FIREOVED DR, ANCHORAGE, AK, 99508",643733471,L,02,020,000801,3008,-149.78275,61.221962
6967,6700 DICKERSON DR,Anchorage,AK,99504,"6700 DICKERSON DR, Anchorage, AK, 99504",Match,Exact,"6700 DICKERSON DR, ANCHORAGE, AK, 99504",190802757,R,02,020,000702,3005,-149.75569,61.22184
6968,6700 DICKERSON DR,Anchorage,AK,99504,"6700 DICKERSON DR, Anchorage, AK, 99504",Match,Exact,"6700 DICKERSON DR, ANCHORAGE, AK, 99504",190802757,R,02,020,000702,3005,-149.75569,61.22184
6969,6700 DICKERSON DR,Anchorage,AK,99504,"6700 DICKERSON DR, Anchorage, AK, 99504",Match,Exact,"6700 DICKERSON DR, ANCHORAGE, AK, 99504",190802757,R,02,020,000702,3005,-149.75569,61.22184
6970,6331 WHISPERING LOOP,Anchorage,AK,99504,"6331 WHISPERING LOOP, Anchorage, AK, 99504",Match,Exact,"6331 WHISPERING LOOP, ANCHORAGE, AK, 99504",624788733,L,02,020,000701,1013,-149.76251000000002,61.221817
6971,6331 WHISPERING LOOP,Anchorage,AK,99504,"6331 WHISPERING LOOP, Anchorage, AK, 99504",Match,Exact,"6331 WHISPERING LOOP, ANCHORAGE, AK, 99504",624788733,L,02,020,000701,1013,-149.76251000000002,61.221817
6972,227 NEWELL ST,Anchorage,AK,99504,"227 NEWELL ST, Anchorage, AK, 99504",Match,Exact,"227 NEWELL ST, ANCHORAGE, AK, 99504",605167293,R,02,020,000701,1000,-149.77095,61.222637
6973,8500 PECK AVE,Anchorage,AK,99504,"8500 PECK AVE, Anchorage, AK, 99504",Match,Exact,"8500 PECK AVE, ANCHORAGE, AK, 99504",190803305,R,02,020,000703,1013,-149.72305,61.222374
6974,6750 DICKERSON DR,Anchorage,AK,99504,"6750 DICKERSON DR, Anchorage, AK, 99504",Match,Exact,"6750 DICKERSON DR, ANCHORAGE, AK, 99504",190802757,R,02,020,000702,3005,-149.75412,61.221844
6975,255 WHISPER KNOLL CIR,Anchorage,AK,99504,"255 WHISPER KNOLL CIR, Anchorage, AK, 99504",Match,Exact,"255 WHISPER KNOLL CIR, ANCHORAGE, AK, 99504",605185014,L,02,020,000701,1013,-149.76088000000001,61.222007999999995
6976,255 WHISPER KNOLL CIR,Anchorage,AK,99504,"255 WHISPER KNOLL CIR, Anchorage, AK, 99504",Match,Exact,"255 WHISPER KNOLL CIR, ANCHORAGE, AK, 99504",605185014,L,02,020,000701,1013,-149.76088000000001,61.222007999999995
6977,225 ALASKA PL,Anchorage,AK,99504,"225 ALASKA PL, Anchorage, AK, 99504",Match,Exact,"225 ALASKA PL, ANCHORAGE, AK, 99504",190810872,L,02,020,000702,2008,-149.74663,61.221848
6978,269 FALL LEAF CIR,Anchorage,AK,99504,"269 FALL LEAF CIR, Anchorage, AK, 99504",Match,Exact,"269 FALL LEAF CIR, ANCHORAGE, AK, 99504",190803320,L,02,020,000703,1013,-149.72128,61.22074
6979,268 YELLOW LEAF CIR,Anchorage,AK,99504,"268 YELLOW LEAF CIR, Anchorage, AK, 99504",Match,Exact,"268 YELLOW LEAF CIR, ANCHORAGE, AK, 99504",190803334,R,02,020,000703,1013,-149.71944,61.220744999999994
6980,269 YELLOW LEAF CIR,Anchorage,AK,99504,"269 YELLOW LEAF CIR, Anchorage, AK, 99504",Match,Exact,"269 YELLOW LEAF CIR, ANCHORAGE, AK, 99504",190803334,L,02,020,000703,1013,-149.7194,61.220744999999994
6981,268 FALL LEAF CIR,Anchorage,AK,99504,"268 FALL LEAF CIR, Anchorage, AK, 99504",Match,Exact,"268 FALL LEAF CIR, ANCHORAGE, AK, 99504",190803320,R,02,020,000703,1013,-149.72131000000002,61.22074
6982,354 LIONHEART CT,Anchorage,AK,99508,"354 LIONHEART CT, Anchorage, AK, 99508",Match,Exact,"354 LIONHEART CT, ANCHORAGE, AK, 99508",190812092,L,02,020,000801,3008,-149.78258,61.221109999999996
6983,260 PATTERSON ST,Anchorage,AK,99504,"260 PATTERSON ST, Anchorage, AK, 99504",Match,Exact,"260 PATTERSON ST, ANCHORAGE, AK, 99504",190802866,R,02,020,000702,3004,-149.74851999999998,61.221140000000005
6984,6622 WHISPERING LOOP,Anchorage,AK,99504,"6622 WHISPERING LOOP, Anchorage, AK, 99504",Match,Exact,"6622 WHISPERING LOOP, ANCHORAGE, AK, 99504",624788736,L,02,020,000701,1000,-149.7576,61.221012
6985,170 GRAND LARRY ST,Anchorage,AK,99504,"170 GRAND LARRY ST, Anchorage, AK, 99504",Match,Exact,"170 GRAND LARRY ST, ANCHORAGE, AK, 99504",625718476,R,02,020,000703,2001,-149.72978,61.22289
6986,170 GRAND LARRY ST,Anchorage,AK,99504,"170 GRAND LARRY ST, Anchorage, AK, 99504",Match,Exact,"170 GRAND LARRY ST, ANCHORAGE, AK, 99504",625718476,R,02,020,000703,2001,-149.72978,61.22289
6987,170 GRAND LARRY ST,Anchorage,AK,99504,"170 GRAND LARRY ST, Anchorage, AK, 99504",Match,Exact,"170 GRAND LARRY ST, ANCHORAGE, AK, 99504",625718476,R,02,020,000703,2001,-149.72978,61.22289
6988,170 GRAND LARRY ST,Anchorage,AK,99504,"170 GRAND LARRY ST, Anchorage, AK, 99504",Match,Exact,"170 GRAND LARRY ST, ANCHORAGE, AK, 99504",625718476,R,02,020,000703,2001,-149.72978,61.22289
6989,170 GRAND LARRY ST,Anchorage,AK,99504,"170 GRAND LARRY ST, Anchorage, AK, 99504",Match,Exact,"170 GRAND LARRY ST, ANCHORAGE, AK, 99504",625718476,R,02,020,000703,2001,-149.72978,61.22289
6990,170 GRAND LARRY ST,Anchorage,AK,99504,"170 GRAND LARRY ST, Anchorage, AK, 99504",Match,Exact,"170 GRAND LARRY ST, ANCHORAGE, AK, 99504",625718476,R,02,020,000703,2001,-149.72978,61.22289
6991,170 GRAND LARRY ST,Anchorage,AK,99504,"170 GRAND LARRY ST, Anchorage, AK, 99504",Match,Exact,"170 GRAND LARRY ST, ANCHORAGE, AK, 99504",625718476,R,02,020,000703,2001,-149.72978,61.22289
6992,7740 BOUNDARY AVE,Anchorage,AK,99504,"7740 BOUNDARY AVE, Anchorage, AK, 99504",Match,Exact,"7740 BOUNDARY AVE, ANCHORAGE, AK, 99504",605167189,R,02,020,000702,2000,-149.7365,61.224169999999994
6993,227 NEWELL ST,Anchorage,AK,99504,"227 NEWELL ST, Anchorage, AK, 99504",Match,Exact,"227 NEWELL ST, ANCHORAGE, AK, 99504",605167293,R,02,020,000701,1000,-149.77095,61.222637
6994,160 OKLAHOMA ST,Anchorage,AK,99504,"160 OKLAHOMA ST, Anchorage, AK, 99504",Match,Exact,"160 OKLAHOMA ST, ANCHORAGE, AK, 99504",190802853,R,02,020,000702,1005,-149.74478,61.222919999999995
6995,160 OKLAHOMA ST,Anchorage,AK,99504,"160 OKLAHOMA ST, Anchorage, AK, 99504",Match,Exact,"160 OKLAHOMA ST, ANCHORAGE, AK, 99504",190802853,R,02,020,000702,1005,-149.74478,61.222919999999995
6996,160 OKLAHOMA ST,Anchorage,AK,99504,"160 OKLAHOMA ST, Anchorage, AK, 99504",Match,Exact,"160 OKLAHOMA ST, ANCHORAGE, AK, 99504",190802853,R,02,020,000702,1005,-149.74478,61.222919999999995
6997,160 OKLAHOMA ST,Anchorage,AK,99504,"160 OKLAHOMA ST, Anchorage, AK, 99504",Match,Exact,"160 OKLAHOMA ST, ANCHORAGE, AK, 99504",190802853,R,02,020,000702,1005,-149.74478,61.222919999999995
6998,160 OKLAHOMA ST,Anchorage,AK,99504,"160 OKLAHOMA ST, Anchorage, AK, 99504",Match,Exact,"160 OKLAHOMA ST, ANCHORAGE, AK, 99504",190802853,R,02,020,000702,1005,-149.74478,61.222919999999995
6999,160 OKLAHOMA ST,Anchorage,AK,99504,"160 OKLAHOMA ST, Anchorage, AK, 99504",Match,Exact,"160 OKLAHOMA ST, ANCHORAGE, AK, 99504",190802853,R,02,020,000702,1005,-149.74478,61.222919999999995
