id,address_x,city,state_x,postcode,address_y,result,match_type,address_match,tiger,side,state_y,county,tract,block,lat,long
4000,11401 HERITAGE CT,Anchorage,AK,99577,"11401 HERITAGE CT, Anchorage, AK, 99577",Match,Non_Exact,"11401 HERITAGE CT, EAGLE RIVER, AK, 99577",190814054,L,02,020,000201,2002,-149.57748,61.323406000000006
4001,11401 HERITAGE CT,Anchorage,AK,99577,"11401 HERITAGE CT, Anchorage, AK, 99577",Match,Non_Exact,"11401 HERITAGE CT, EAGLE RIVER, AK, 99577",190814054,L,02,020,000201,2002,-149.57748,61.323406000000006
4002,11401 HERITAGE CT,Anchorage,AK,99577,"11401 HERITAGE CT, Anchorage, AK, 99577",Match,Non_Exact,"11401 HERITAGE CT, EAGLE RIVER, AK, 99577",190814054,L,02,020,000201,2002,-149.57748,61.323406000000006
4003,11335 MAUSEL ST,Anchorage,AK,99577,"11335 MAUSEL ST, Anchorage, AK, 99577",Match,Non_Exact,"11335 MAUSEL ST, EAGLE RIVER, AK, 99577",190825992,R,02,020,000201,2013,-149.58073000000002,61.32311
4004,11323 MAUSEL ST,Anchorage,AK,99577,"11323 MAUSEL ST, Anchorage, AK, 99577",Match,Non_Exact,"11323 MAUSEL ST, EAGLE RIVER, AK, 99577",190825992,R,02,020,000201,2013,-149.58066000000002,61.32303
4005,11315 MAUSEL ST,Anchorage,AK,99577,"11315 MAUSEL ST, Anchorage, AK, 99577",Match,Non_Exact,"11315 MAUSEL ST, EAGLE RIVER, AK, 99577",190825992,R,02,020,000201,2013,-149.58061,61.32297
4006,16431 HOME PL,Anchorage,AK,99577,"16431 HOME PL, Anchorage, AK, 99577",Match,Non_Exact,"16431 HOME PL, EAGLE RIVER, AK, 99577",190827490,R,02,020,000201,2002,-149.57631999999998,61.322745999999995
4007,16431 HOME PL,Anchorage,AK,99577,"16431 HOME PL, Anchorage, AK, 99577",Match,Non_Exact,"16431 HOME PL, EAGLE RIVER, AK, 99577",190827490,R,02,020,000201,2002,-149.57631999999998,61.322745999999995
4008,16431 HOME PL,Anchorage,AK,99577,"16431 HOME PL, Anchorage, AK, 99577",Match,Non_Exact,"16431 HOME PL, EAGLE RIVER, AK, 99577",190827490,R,02,020,000201,2002,-149.57631999999998,61.322745999999995
4009,16431 HOME PL,Anchorage,AK,99577,"16431 HOME PL, Anchorage, AK, 99577",Match,Non_Exact,"16431 HOME PL, EAGLE RIVER, AK, 99577",190827490,R,02,020,000201,2002,-149.57631999999998,61.322745999999995
4010,16431 HOME PL,Anchorage,AK,99577,"16431 HOME PL, Anchorage, AK, 99577",Match,Non_Exact,"16431 HOME PL, EAGLE RIVER, AK, 99577",190827490,R,02,020,000201,2002,-149.57631999999998,61.322745999999995
4011,16431 HOME PL,Anchorage,AK,99577,"16431 HOME PL, Anchorage, AK, 99577",Match,Non_Exact,"16431 HOME PL, EAGLE RIVER, AK, 99577",190827490,R,02,020,000201,2002,-149.57631999999998,61.322745999999995
4012,16515 CENTERFIELD DR,Anchorage,AK,99577,"16515 CENTERFIELD DR, Anchorage, AK, 99577",Match,Non_Exact,"16515 CENTERFIELD DR, EAGLE RIVER, AK, 99577",605335238,R,02,020,000201,2008,-149.57471999999999,61.322826
4013,16515 CENTERFIELD DR,Anchorage,AK,99577,"16515 CENTERFIELD DR, Anchorage, AK, 99577",Match,Non_Exact,"16515 CENTERFIELD DR, EAGLE RIVER, AK, 99577",605335238,R,02,020,000201,2008,-149.57471999999999,61.322826
4014,16421 HOME PL,Anchorage,AK,99577,"16421 HOME PL, Anchorage, AK, 99577",Match,Non_Exact,"16421 HOME PL, EAGLE RIVER, AK, 99577",190827490,R,02,020,000201,2002,-149.57646,61.32272
4015,16421 HOME PL,Anchorage,AK,99577,"16421 HOME PL, Anchorage, AK, 99577",Match,Non_Exact,"16421 HOME PL, EAGLE RIVER, AK, 99577",190827490,R,02,020,000201,2002,-149.57646,61.32272
4016,25560 DENAINA DR,Anchorage,AK,99577,"25560 DENAINA DR, Anchorage, AK, 99577",Match,Non_Exact,"25560 DENAINA DR, EAGLE RIVER, AK, 99577",190827461,R,02,020,000204,1009,-149.4039,61.28536999999999
4017,25605 DENAINA DR,Anchorage,AK,99577,"25605 DENAINA DR, Anchorage, AK, 99577",Match,Non_Exact,"25605 DENAINA DR, EAGLE RIVER, AK, 99577",190827461,L,02,020,000204,1009,-149.4031,61.285152000000004
4018,25831 LOUINDA CIR,Anchorage,AK,99577,"25831 LOUINDA CIR, Anchorage, AK, 99577",Match,Non_Exact,"25831 LOUINDA CIR, EAGLE RIVER, AK, 99577",190818664,L,02,020,000204,1005,-149.39938,61.285571999999995
4019,25865 LOUINDA CIR,Anchorage,AK,99577,"25865 LOUINDA CIR, Anchorage, AK, 99577",Match,Non_Exact,"25865 LOUINDA CIR, EAGLE RIVER, AK, 99577",190818664,L,02,020,000204,1005,-149.39844,61.285515000000004
4020,25610 DENAINA DR,Anchorage,AK,99577,"25610 DENAINA DR, Anchorage, AK, 99577",Match,Non_Exact,"25610 DENAINA DR, EAGLE RIVER, AK, 99577",190827461,R,02,020,000204,1009,-149.40338,61.285219999999995
4021,25635 DENAINA DR,Anchorage,AK,99577,"25635 DENAINA DR, Anchorage, AK, 99577",Match,Non_Exact,"25635 DENAINA DR, EAGLE RIVER, AK, 99577",190827461,L,02,020,000204,1009,-149.40276,61.285053000000005
4022,25636 DENAINA DR,Anchorage,AK,99577,"25636 DENAINA DR, Anchorage, AK, 99577",Match,Non_Exact,"25636 DENAINA DR, EAGLE RIVER, AK, 99577",190827461,R,02,020,000204,1009,-149.40312,61.285140000000006
4023,25701 DENAINA DR,Anchorage,AK,99577,"25701 DENAINA DR, Anchorage, AK, 99577",Match,Non_Exact,"25701 DENAINA DR, EAGLE RIVER, AK, 99577",190827461,L,02,020,000204,1009,-149.40201000000002,61.284836
4024,26067 LOG CABIN CIR,Anchorage,AK,99577,"26067 LOG CABIN CIR, Anchorage, AK, 99577",Match,Non_Exact,"26067 LOG CABIN CIR, EAGLE RIVER, AK, 99577",190826921,L,02,020,000204,1005,-149.39571999999998,61.28471999999999
4025,26045 LOG CABIN CIR,Anchorage,AK,99577,"26045 LOG CABIN CIR, Anchorage, AK, 99577",Match,Non_Exact,"26045 LOG CABIN CIR, EAGLE RIVER, AK, 99577",190826921,L,02,020,000204,1005,-149.3962,61.284656999999996
4026,25700 DENAINA DR,Anchorage,AK,99577,"25700 DENAINA DR, Anchorage, AK, 99577",Match,Non_Exact,"25700 DENAINA DR, EAGLE RIVER, AK, 99577",190827461,R,02,020,000204,1009,-149.40245,61.28495
4027,26066 LOG CABIN CIR,Anchorage,AK,99577,"26066 LOG CABIN CIR, Anchorage, AK, 99577",Match,Non_Exact,"26066 LOG CABIN CIR, EAGLE RIVER, AK, 99577",190826921,R,02,020,000204,1005,-149.3957,61.28471
4028,7137 CLEMENS CIR,Anchorage,AK,99577,"7137 CLEMENS CIR, Anchorage, AK, 99577",No_Match,,,,,,,,,,
4029,25731 DENAINA DR,Anchorage,AK,99577,"25731 DENAINA DR, Anchorage, AK, 99577",Match,Non_Exact,"25731 DENAINA DR, EAGLE RIVER, AK, 99577",190827461,L,02,020,000204,1009,-149.40166000000002,61.284737
4030,9710 SININA CIR,Anchorage,AK,99577,"9710 SININA CIR, Anchorage, AK, 99577",Match,Non_Exact,"9710 SININA CIR, EAGLE RIVER, AK, 99577",190805531,R,02,020,000203,5005,-149.55478,61.30842
4031,17424 TOAKOANA DR,Anchorage,AK,99577,"17424 TOAKOANA DR, Anchorage, AK, 99577",Match,Non_Exact,"17424 TOAKOANA DR, EAGLE RIVER, AK, 99577",190805525,R,02,020,000203,5000,-149.55687,61.308353000000004
4032,18719 N LOWRIE LOOP,Anchorage,AK,99577,"18719 N LOWRIE LOOP, Anchorage, AK, 99577",Match,Non_Exact,"18719 N LOWRIE LOOP, EAGLE RIVER, AK, 99577",190826070,R,02,020,000203,4006,-149.5334,61.307494999999996
4033,9645 DINAAKA DR,Anchorage,AK,99577,"9645 DINAAKA DR, Anchorage, AK, 99577",Match,Non_Exact,"9645 DINAAKA DR, EAGLE RIVER, AK, 99577",643735526,R,02,020,000203,5000,-149.55281000000002,61.307990000000004
4034,18803 SARICHEF LOOP,Anchorage,AK,99577,"18803 SARICHEF LOOP, Anchorage, AK, 99577",Match,Non_Exact,"18803 SARICHEF LOOP, EAGLE RIVER, AK, 99577",605287919,L,02,020,000203,4006,-149.53214,61.305769999999995
4035,18266 N PARKVIEW TERRACE LOOP,Anchorage,AK,99577,"18266 N PARKVIEW TERRACE LOOP, Anchorage, AK, 99577",Match,Non_Exact,"18266 N PARKVIEW TER LP, EAGLE RIVER, AK, 99577",190820860,R,02,020,000203,5006,-149.54183999999998,61.306132999999996
4036,9440 W KANAGA LOOP,Anchorage,AK,99577,"9440 W KANAGA LOOP, Anchorage, AK, 99577",Match,Non_Exact,"9440 W KANAGA LOOP, EAGLE RIVER, AK, 99577",605287939,R,02,020,000203,3015,-149.5377,61.305454000000005
4037,18140 MISTY FALLS CIR,Anchorage,AK,99577,"18140 MISTY FALLS CIR, Anchorage, AK, 99577",Match,Non_Exact,"18140 MISTY FALLS CIR, EAGLE RIVER, AK, 99577",190805549,R,02,020,000203,5006,-149.54422,61.305912
4038,18761 SARICHEF LOOP,Anchorage,AK,99577,"18761 SARICHEF LOOP, Anchorage, AK, 99577",Match,Non_Exact,"18761 SARICHEF LOOP, EAGLE RIVER, AK, 99577",605287919,L,02,020,000203,4006,-149.5327,61.305530000000005
4039,9441 AGATTU CIR,Anchorage,AK,99577,"9441 AGATTU CIR, Anchorage, AK, 99577",Match,Non_Exact,"9441 AGATTU CIR, EAGLE RIVER, AK, 99577",190805600,R,02,020,000203,4006,-149.53453000000002,61.305533999999994
4040,18306 N PARKVIEW TERRACE LOOP,Anchorage,AK,99577,"18306 N PARKVIEW TERRACE LOOP, Anchorage, AK, 99577",Match,Non_Exact,"18306 N PARKVIEW TER LP, EAGLE RIVER, AK, 99577",190820860,R,02,020,000203,5006,-149.5412,61.305980000000005
4041,9445 AGATTU CIR,Anchorage,AK,99577,"9445 AGATTU CIR, Anchorage, AK, 99577",Match,Non_Exact,"9445 AGATTU CIR, EAGLE RIVER, AK, 99577",190805600,R,02,020,000203,4006,-149.53456,61.305546
4042,9436 W KANAGA LOOP,Anchorage,AK,99577,"9436 W KANAGA LOOP, Anchorage, AK, 99577",Match,Non_Exact,"9436 W KANAGA LOOP, EAGLE RIVER, AK, 99577",605287939,R,02,020,000203,3015,-149.53772,61.305457999999994
4043,18136 MISTY FALLS CIR,Anchorage,AK,99577,"18136 MISTY FALLS CIR, Anchorage, AK, 99577",Match,Non_Exact,"18136 MISTY FALLS CIR, EAGLE RIVER, AK, 99577",190805549,R,02,020,000203,5006,-149.54425,61.305912
4044,20134 HIGHLAND RIDGE DR,Anchorage,AK,99577,"20134 HIGHLAND RIDGE DR, Anchorage, AK, 99577",Match,Non_Exact,"20134 HIGHLAND RIDGE DR, EAGLE RIVER, AK, 99577",625718494,L,02,020,000203,3002,-149.50748000000002,61.303074
4045,20113 HIGHLAND RIDGE DR,Anchorage,AK,99577,"20113 HIGHLAND RIDGE DR, Anchorage, AK, 99577",Match,Non_Exact,"20113 HIGHLAND RIDGE DR, EAGLE RIVER, AK, 99577",190819652,L,02,020,000203,3015,-149.51263,61.302284
4046,20126 HIGHLAND RIDGE DR,Anchorage,AK,99577,"20126 HIGHLAND RIDGE DR, Anchorage, AK, 99577",Match,Non_Exact,"20126 HIGHLAND RIDGE DR, EAGLE RIVER, AK, 99577",625718494,L,02,020,000203,3002,-149.50757,61.303043
4047,9180 W PARKVIEW TERRACE LOOP,Anchorage,AK,99577,"9180 W PARKVIEW TERRACE LOOP, Anchorage, AK, 99577",Match,Non_Exact,"9180 W PARKVIEW TER LP, EAGLE RIVER, AK, 99577",190805557,L,02,020,000203,5000,-149.54477,61.30324
4048,18521 GIBENS CIR,Anchorage,AK,99577,"18521 GIBENS CIR, Anchorage, AK, 99577",Match,Non_Exact,"18521 GIBENS CIR, EAGLE RIVER, AK, 99577",190823671,R,02,020,000203,3015,-149.53603999999999,61.303180000000005
4049,20118 HIGHLAND RIDGE DR,Anchorage,AK,99577,"20118 HIGHLAND RIDGE DR, Anchorage, AK, 99577",Match,Non_Exact,"20118 HIGHLAND RIDGE DR, EAGLE RIVER, AK, 99577",625718494,L,02,020,000203,3002,-149.50766000000002,61.303013
4050,9170 W PARKVIEW TERRACE LOOP,Anchorage,AK,99577,"9170 W PARKVIEW TERRACE LOOP, Anchorage, AK, 99577",Match,Non_Exact,"9170 W PARKVIEW TER LP, EAGLE RIVER, AK, 99577",190805557,L,02,020,000203,5000,-149.5446,61.303192
4051,23901 SUNNY GLEN DR,Anchorage,AK,99577,"23901 SUNNY GLEN DR, Anchorage, AK, 99577",Match,Non_Exact,"23901 SUNNY GLEN DR, EAGLE RIVER, AK, 99577",190793562,R,02,020,000204,1009,-149.43646,61.29835
4052,23841 SUNNY GLEN DR,Anchorage,AK,99577,"23841 SUNNY GLEN DR, Anchorage, AK, 99577",Match,Non_Exact,"23841 SUNNY GLEN DR, EAGLE RIVER, AK, 99577",190793562,R,02,020,000204,1009,-149.43723,61.29835
4053,23805 SUNNY GLEN DR,Anchorage,AK,99577,"23805 SUNNY GLEN DR, Anchorage, AK, 99577",Match,Non_Exact,"23805 SUNNY GLEN DR, EAGLE RIVER, AK, 99577",190793562,R,02,020,000204,1009,-149.43767,61.29835
4054,23715 SUNNY GLEN DR,Anchorage,AK,99577,"23715 SUNNY GLEN DR, Anchorage, AK, 99577",Match,Non_Exact,"23715 SUNNY GLEN DR, EAGLE RIVER, AK, 99577",190793562,R,02,020,000204,1009,-149.4388,61.29835
4055,23739 SUNNY GLEN DR,Anchorage,AK,99577,"23739 SUNNY GLEN DR, Anchorage, AK, 99577",Match,Non_Exact,"23739 SUNNY GLEN DR, EAGLE RIVER, AK, 99577",190793562,R,02,020,000204,1009,-149.43849,61.29835
4056,23619 SUNNY GLEN DR,Anchorage,AK,99577,"23619 SUNNY GLEN DR, Anchorage, AK, 99577",Match,Non_Exact,"23619 SUNNY GLEN DR, EAGLE RIVER, AK, 99577",190793562,R,02,020,000204,1009,-149.44,61.29835
4057,23641 SUNNY GLEN DR,Anchorage,AK,99577,"23641 SUNNY GLEN DR, Anchorage, AK, 99577",Match,Non_Exact,"23641 SUNNY GLEN DR, EAGLE RIVER, AK, 99577",190793562,R,02,020,000204,1009,-149.43973,61.29835
4058,24005 ALPENGLOW DR,Anchorage,AK,99577,"24005 ALPENGLOW DR, Anchorage, AK, 99577",Match,Non_Exact,"24005 ALPENGLOW DR, EAGLE RIVER, AK, 99577",190807951,L,02,020,000204,1010,-149.43407,61.29818
4059,24636 COLEMAN CIR,Anchorage,AK,99577,"24636 COLEMAN CIR, Anchorage, AK, 99577",Match,Non_Exact,"24636 COLEMAN CIR, EAGLE RIVER, AK, 99577",190793566,R,02,020,000204,1007,-149.42494,61.298393000000004
4060,23557 SUNNY GLEN DR,Anchorage,AK,99577,"23557 SUNNY GLEN DR, Anchorage, AK, 99577",Match,Non_Exact,"23557 SUNNY GLEN DR, EAGLE RIVER, AK, 99577",190793562,R,02,020,000204,1009,-149.44078000000002,61.29835
4061,24516 COLEMAN CIR,Anchorage,AK,99577,"24516 COLEMAN CIR, Anchorage, AK, 99577",Match,Non_Exact,"24516 COLEMAN CIR, EAGLE RIVER, AK, 99577",190793566,R,02,020,000204,1007,-149.42618000000002,61.298477
4062,22300 GLACIER VIEW DR,Anchorage,AK,99577,"22300 GLACIER VIEW DR, Anchorage, AK, 99577",Match,Non_Exact,"22300 GLACIER VIEW DR, EAGLE RIVER, AK, 99577",190825498,R,02,020,000204,1007,-149.46017,61.305580000000006
4063,18920 N CHICHAGOF LOOP,Anchorage,AK,99577,"18920 N CHICHAGOF LOOP, Anchorage, AK, 99577",Match,Non_Exact,"18920 N CHICHAGOF LOOP, EAGLE RIVER, AK, 99577",190805663,R,02,020,000203,4005,-149.52946,61.309574
4064,18917 N CHICHAGOF LOOP,Anchorage,AK,99577,"18917 N CHICHAGOF LOOP, Anchorage, AK, 99577",Match,Non_Exact,"18917 N CHICHAGOF LOOP, EAGLE RIVER, AK, 99577",190805663,L,02,020,000203,4001,-149.52951000000002,61.309456000000004
4065,17606 LAOANA CIR,Anchorage,AK,99577,"17606 LAOANA CIR, Anchorage, AK, 99577",Match,Non_Exact,"17606 LAOANA CIR, EAGLE RIVER, AK, 99577",190805526,R,02,020,000203,5007,-149.55391,61.30984
4066,17422 LAOANA CT,Anchorage,AK,99577,"17422 LAOANA CT, Anchorage, AK, 99577",Match,Non_Exact,"17422 LAOANA CT, EAGLE RIVER, AK, 99577",190805520,R,02,020,000203,5002,-149.55798000000001,61.30996999999999
4067,17546 LAOANA CIR,Anchorage,AK,99577,"17546 LAOANA CIR, Anchorage, AK, 99577",Match,Non_Exact,"17546 LAOANA CIR, EAGLE RIVER, AK, 99577",190805526,R,02,020,000203,5007,-149.55418,61.309837
4068,17436 LAOANA CT,Anchorage,AK,99577,"17436 LAOANA CT, Anchorage, AK, 99577",Match,Non_Exact,"17436 LAOANA CT, EAGLE RIVER, AK, 99577",190805520,R,02,020,000203,5002,-149.55788,61.30996700000001
4069,17538 LAOANA CIR,Anchorage,AK,99577,"17538 LAOANA CIR, Anchorage, AK, 99577",Match,Non_Exact,"17538 LAOANA CIR, EAGLE RIVER, AK, 99577",190805526,R,02,020,000203,5007,-149.55423000000002,61.309837
4070,9836 WREN LN,Anchorage,AK,99577,"9836 WREN LN, Anchorage, AK, 99577",Match,Non_Exact,"9836 WREN LN, EAGLE RIVER, AK, 99577",190793449,L,02,020,000203,3008,-149.50229,61.30934
4071,17502 LAOANA CT,Anchorage,AK,99577,"17502 LAOANA CT, Anchorage, AK, 99577",Match,Non_Exact,"17502 LAOANA CT, EAGLE RIVER, AK, 99577",190805520,R,02,020,000203,5002,-149.55733999999998,61.309932999999994
4072,17246 LAOANA DR,Anchorage,AK,99577,"17246 LAOANA DR, Anchorage, AK, 99577",Match,Non_Exact,"17246 LAOANA DR, EAGLE RIVER, AK, 99577",190805716,R,02,020,000203,5000,-149.56046,61.3098
4073,9837 WREN LN,Anchorage,AK,99577,"9837 WREN LN, Anchorage, AK, 99577",Match,Non_Exact,"9837 WREN LN, EAGLE RIVER, AK, 99577",190793449,R,02,020,000203,3007,-149.50226999999998,61.30934
4074,9833 EAGLE RIVER LN,Anchorage,AK,99577,"9833 EAGLE RIVER LN, Anchorage, AK, 99577",Match,Non_Exact,"9833 EAGLE RIVER LN, EAGLE RIVER, AK, 99577",190792853,R,02,020,000203,3008,-149.50974,61.310074
4075,9846 SAAYA CIR,Anchorage,AK,99577,"9846 SAAYA CIR, Anchorage, AK, 99577",Match,Non_Exact,"9846 SAAYA CIR, EAGLE RIVER, AK, 99577",190805519,R,02,020,000203,5000,-149.56462,61.309704
4076,9901 LEE ST,Anchorage,AK,99577,"9901 LEE ST, Anchorage, AK, 99577",Match,Non_Exact,"9901 LEE ST, EAGLE RIVER, AK, 99577",190814279,R,02,020,000203,5000,-149.55031,61.31021
4077,9524 NOAK CIR,Anchorage,AK,99577,"9524 NOAK CIR, Anchorage, AK, 99577",Match,Non_Exact,"9524 NOAK CIR, EAGLE RIVER, AK, 99577",190808439,L,02,020,000203,5000,-149.55125,61.30647
4078,18306 GAVIN CIR,Anchorage,AK,99577,"18306 GAVIN CIR, Anchorage, AK, 99577",Match,Non_Exact,"18306 GAVIN CIR, EAGLE RIVER, AK, 99577",190805542,R,02,020,000203,5000,-149.54106000000002,61.30676
4079,18244 GAVIN CIR,Anchorage,AK,99577,"18244 GAVIN CIR, Anchorage, AK, 99577",Match,Non_Exact,"18244 GAVIN CIR, EAGLE RIVER, AK, 99577",190805542,R,02,020,000203,5000,-149.54164,61.30676
4080,9518 W PARKVIEW TERRACE LOOP,Anchorage,AK,99577,"9518 W PARKVIEW TERRACE LOOP, Anchorage, AK, 99577",Match,Non_Exact,"9518 W PARKVIEW TER LP, EAGLE RIVER, AK, 99577",190805548,L,02,020,000203,5000,-149.54564,61.306335
4081,18226 GAVIN CIR,Anchorage,AK,99577,"18226 GAVIN CIR, Anchorage, AK, 99577",Match,Non_Exact,"18226 GAVIN CIR, EAGLE RIVER, AK, 99577",190805542,R,02,020,000203,5000,-149.54181,61.306746999999994
4082,18314 GAVIN CIR,Anchorage,AK,99577,"18314 GAVIN CIR, Anchorage, AK, 99577",Match,Non_Exact,"18314 GAVIN CIR, EAGLE RIVER, AK, 99577",190805542,R,02,020,000203,5000,-149.54099,61.30676
4083,18144 N PARKVIEW TERRACE LOOP,Anchorage,AK,99577,"18144 N PARKVIEW TERRACE LOOP, Anchorage, AK, 99577",Match,Non_Exact,"18144 N PARKVIEW TER LP, EAGLE RIVER, AK, 99577",190808441,R,02,020,000203,5006,-149.54346999999999,61.30673
4084,18034 N PARKVIEW TERRACE LOOP,Anchorage,AK,99577,"18034 N PARKVIEW TERRACE LOOP, Anchorage, AK, 99577",Match,Non_Exact,"18034 N PARKVIEW TER LP, EAGLE RIVER, AK, 99577",190808441,R,02,020,000203,5006,-149.54488,61.306736
4085,9523 NOAK CIR,Anchorage,AK,99577,"9523 NOAK CIR, Anchorage, AK, 99577",Match,Non_Exact,"9523 NOAK CIR, EAGLE RIVER, AK, 99577",190808439,R,02,020,000203,5000,-149.55123999999998,61.306459999999994
4086,9522 QUAIL CIR,Anchorage,AK,99577,"9522 QUAIL CIR, Anchorage, AK, 99577",Match,Non_Exact,"9522 QUAIL CIR, EAGLE RIVER, AK, 99577",190805654,R,02,020,000203,4006,-149.52986,61.306743999999995
4087,18539 CULROSS CIR,Anchorage,AK,99577,"18539 CULROSS CIR, Anchorage, AK, 99577",Match,Non_Exact,"18539 CULROSS CIR, EAGLE RIVER, AK, 99577",190825843,R,02,020,000203,3015,-149.53745,61.30653
4088,18527 CULROSS CIR,Anchorage,AK,99577,"18527 CULROSS CIR, Anchorage, AK, 99577",Match,Non_Exact,"18527 CULROSS CIR, EAGLE RIVER, AK, 99577",190825843,R,02,020,000203,3015,-149.53766000000002,61.306484
4089,18044 N PARKVIEW TERRACE LOOP,Anchorage,AK,99577,"18044 N PARKVIEW TERRACE LOOP, Anchorage, AK, 99577",Match,Non_Exact,"18044 N PARKVIEW TER LP, EAGLE RIVER, AK, 99577",190808441,R,02,020,000203,5006,-149.54475,61.306725
4090,18545 CULROSS CIR,Anchorage,AK,99577,"18545 CULROSS CIR, Anchorage, AK, 99577",Match,Non_Exact,"18545 CULROSS CIR, EAGLE RIVER, AK, 99577",190825843,R,02,020,000203,3015,-149.53734,61.30655
4091,18521 CULROSS CIR,Anchorage,AK,99577,"18521 CULROSS CIR, Anchorage, AK, 99577",Match,Non_Exact,"18521 CULROSS CIR, EAGLE RIVER, AK, 99577",190825843,R,02,020,000203,3015,-149.53777,61.306459999999994
4092,18132 N PARKVIEW TERRACE LOOP,Anchorage,AK,99577,"18132 N PARKVIEW TERRACE LOOP, Anchorage, AK, 99577",Match,Non_Exact,"18132 N PARKVIEW TER LP, EAGLE RIVER, AK, 99577",190808441,R,02,020,000203,5006,-149.54362,61.306717000000006
4093,18758 S LOWRIE LOOP,Anchorage,AK,99577,"18758 S LOWRIE LOOP, Anchorage, AK, 99577",Match,Non_Exact,"18758 S LOWRIE LOOP, EAGLE RIVER, AK, 99577",190818934,R,02,020,000203,4006,-149.5341,61.306416000000006
4094,18106 N PARKVIEW TERRACE LOOP,Anchorage,AK,99577,"18106 N PARKVIEW TERRACE LOOP, Anchorage, AK, 99577",Match,Non_Exact,"18106 N PARKVIEW TER LP, EAGLE RIVER, AK, 99577",190808441,R,02,020,000203,5006,-149.54396,61.306698
4095,100 BUNNELL ST,Anchorage,AK,99508,"100 BUNNELL ST, Anchorage, AK, 99508",Match,Exact,"100 BUNNELL ST, ANCHORAGE, AK, 99508",190801680,R,02,020,000801,2000,-149.78975,61.224037
4096,100 BUNNELL ST,Anchorage,AK,99508,"100 BUNNELL ST, Anchorage, AK, 99508",Match,Exact,"100 BUNNELL ST, ANCHORAGE, AK, 99508",190801680,R,02,020,000801,2000,-149.78975,61.224037
4097,100 BUNNELL ST,Anchorage,AK,99508,"100 BUNNELL ST, Anchorage, AK, 99508",Match,Exact,"100 BUNNELL ST, ANCHORAGE, AK, 99508",190801680,R,02,020,000801,2000,-149.78975,61.224037
4098,100 BUNNELL ST,Anchorage,AK,99508,"100 BUNNELL ST, Anchorage, AK, 99508",Match,Exact,"100 BUNNELL ST, ANCHORAGE, AK, 99508",190801680,R,02,020,000801,2000,-149.78975,61.224037
4099,100 BUNNELL ST,Anchorage,AK,99508,"100 BUNNELL ST, Anchorage, AK, 99508",Match,Exact,"100 BUNNELL ST, ANCHORAGE, AK, 99508",190801680,R,02,020,000801,2000,-149.78975,61.224037
4100,100 BUNNELL ST,Anchorage,AK,99508,"100 BUNNELL ST, Anchorage, AK, 99508",Match,Exact,"100 BUNNELL ST, ANCHORAGE, AK, 99508",190801680,R,02,020,000801,2000,-149.78975,61.224037
4101,100 BUNNELL ST,Anchorage,AK,99508,"100 BUNNELL ST, Anchorage, AK, 99508",Match,Exact,"100 BUNNELL ST, ANCHORAGE, AK, 99508",190801680,R,02,020,000801,2000,-149.78975,61.224037
4102,100 BUNNELL ST,Anchorage,AK,99508,"100 BUNNELL ST, Anchorage, AK, 99508",Match,Exact,"100 BUNNELL ST, ANCHORAGE, AK, 99508",190801680,R,02,020,000801,2000,-149.78975,61.224037
4103,100 BUNNELL ST,Anchorage,AK,99508,"100 BUNNELL ST, Anchorage, AK, 99508",Match,Exact,"100 BUNNELL ST, ANCHORAGE, AK, 99508",190801680,R,02,020,000801,2000,-149.78975,61.224037
4104,100 BUNNELL ST,Anchorage,AK,99508,"100 BUNNELL ST, Anchorage, AK, 99508",Match,Exact,"100 BUNNELL ST, ANCHORAGE, AK, 99508",190801680,R,02,020,000801,2000,-149.78975,61.224037
4105,100 BUNNELL ST,Anchorage,AK,99508,"100 BUNNELL ST, Anchorage, AK, 99508",Match,Exact,"100 BUNNELL ST, ANCHORAGE, AK, 99508",190801680,R,02,020,000801,2000,-149.78975,61.224037
4106,100 BUNNELL ST,Anchorage,AK,99508,"100 BUNNELL ST, Anchorage, AK, 99508",Match,Exact,"100 BUNNELL ST, ANCHORAGE, AK, 99508",190801680,R,02,020,000801,2000,-149.78975,61.224037
4107,100 BUNNELL ST,Anchorage,AK,99508,"100 BUNNELL ST, Anchorage, AK, 99508",Match,Exact,"100 BUNNELL ST, ANCHORAGE, AK, 99508",190801680,R,02,020,000801,2000,-149.78975,61.224037
4108,100 BUNNELL ST,Anchorage,AK,99508,"100 BUNNELL ST, Anchorage, AK, 99508",Match,Exact,"100 BUNNELL ST, ANCHORAGE, AK, 99508",190801680,R,02,020,000801,2000,-149.78975,61.224037
4109,100 BUNNELL ST,Anchorage,AK,99508,"100 BUNNELL ST, Anchorage, AK, 99508",Match,Exact,"100 BUNNELL ST, ANCHORAGE, AK, 99508",190801680,R,02,020,000801,2000,-149.78975,61.224037
4110,100 BUNNELL ST,Anchorage,AK,99508,"100 BUNNELL ST, Anchorage, AK, 99508",Match,Exact,"100 BUNNELL ST, ANCHORAGE, AK, 99508",190801680,R,02,020,000801,2000,-149.78975,61.224037
4111,100 BUNNELL ST,Anchorage,AK,99508,"100 BUNNELL ST, Anchorage, AK, 99508",Match,Exact,"100 BUNNELL ST, ANCHORAGE, AK, 99508",190801680,R,02,020,000801,2000,-149.78975,61.224037
4112,100 BUNNELL ST,Anchorage,AK,99508,"100 BUNNELL ST, Anchorage, AK, 99508",Match,Exact,"100 BUNNELL ST, ANCHORAGE, AK, 99508",190801680,R,02,020,000801,2000,-149.78975,61.224037
4113,100 BUNNELL ST,Anchorage,AK,99508,"100 BUNNELL ST, Anchorage, AK, 99508",Match,Exact,"100 BUNNELL ST, ANCHORAGE, AK, 99508",190801680,R,02,020,000801,2000,-149.78975,61.224037
4114,100 BUNNELL ST,Anchorage,AK,99508,"100 BUNNELL ST, Anchorage, AK, 99508",Match,Exact,"100 BUNNELL ST, ANCHORAGE, AK, 99508",190801680,R,02,020,000801,2000,-149.78975,61.224037
4115,100 BUNNELL ST,Anchorage,AK,99508,"100 BUNNELL ST, Anchorage, AK, 99508",Match,Exact,"100 BUNNELL ST, ANCHORAGE, AK, 99508",190801680,R,02,020,000801,2000,-149.78975,61.224037
4116,100 BUNNELL ST,Anchorage,AK,99508,"100 BUNNELL ST, Anchorage, AK, 99508",Match,Exact,"100 BUNNELL ST, ANCHORAGE, AK, 99508",190801680,R,02,020,000801,2000,-149.78975,61.224037
4117,100 BUNNELL ST,Anchorage,AK,99508,"100 BUNNELL ST, Anchorage, AK, 99508",Match,Exact,"100 BUNNELL ST, ANCHORAGE, AK, 99508",190801680,R,02,020,000801,2000,-149.78975,61.224037
4118,100 BUNNELL ST,Anchorage,AK,99508,"100 BUNNELL ST, Anchorage, AK, 99508",Match,Exact,"100 BUNNELL ST, ANCHORAGE, AK, 99508",190801680,R,02,020,000801,2000,-149.78975,61.224037
4119,19406 HIGHLAND RIDGE DR,Anchorage,AK,99577,"19406 HIGHLAND RIDGE DR, Anchorage, AK, 99577",Match,Non_Exact,"19406 HIGHLAND RIDGE DR, EAGLE RIVER, AK, 99577",190819652,R,02,020,000203,3022,-149.5192,61.301147
4120,20219 GLACIER PARK CIR,Anchorage,AK,99577,"20219 GLACIER PARK CIR, Anchorage, AK, 99577",Match,Non_Exact,"20219 GLACIER PARK CIR, EAGLE RIVER, AK, 99577",605336517,L,02,020,000203,3002,-149.50546,61.300518000000004
4121,8905 EAGLE PLACE LOOP,Anchorage,AK,99577,"8905 EAGLE PLACE LOOP, Anchorage, AK, 99577",No_Match,,,,,,,,,,
4122,8908 BIRCH PARK CIR,Anchorage,AK,99577,"8908 BIRCH PARK CIR, Anchorage, AK, 99577",Match,Non_Exact,"8908 BIRCH PARK CIR, EAGLE RIVER, AK, 99577",190827414,L,02,020,000203,3022,-149.51195,61.300625
4123,8977 EAGLE PLACE LOOP,Anchorage,AK,99577,"8977 EAGLE PLACE LOOP, Anchorage, AK, 99577",No_Match,,,,,,,,,,
4124,18767 PRICE ISLAND CIR,Anchorage,AK,99577,"18767 PRICE ISLAND CIR, Anchorage, AK, 99577",Match,Non_Exact,"18767 PRICE ISLAND CIR, EAGLE RIVER, AK, 99577",190805571,L,02,020,000203,3014,-149.53325,61.301247
4125,8919 MEADOW PARK CIR,Anchorage,AK,99577,"8919 MEADOW PARK CIR, Anchorage, AK, 99577",Match,Non_Exact,"8919 MEADOW PARK CIR, EAGLE RIVER, AK, 99577",605288530,R,02,020,000203,3022,-149.51031,61.30066
4126,19401 HIGHLAND RIDGE DR,Anchorage,AK,99577,"19401 HIGHLAND RIDGE DR, Anchorage, AK, 99577",Match,Non_Exact,"19401 HIGHLAND RIDGE DR, EAGLE RIVER, AK, 99577",190819652,L,02,020,000203,3015,-149.51923,61.301097999999996
4127,11401 OLD GLENN HWY,Anchorage,AK,99577,"11401 OLD GLENN HWY, Anchorage, AK, 99577",Match,Non_Exact,"11401 OLD GLENN HWY, EAGLE RIVER, AK, 99577",190792415,L,02,020,000202,1018,-149.57054,61.323368
4128,11339 MAUSEL ST,Anchorage,AK,99577,"11339 MAUSEL ST, Anchorage, AK, 99577",Match,Non_Exact,"11339 MAUSEL ST, EAGLE RIVER, AK, 99577",190825992,R,02,020,000201,2013,-149.58075,61.323135
4129,11403 HERITAGE CT,Anchorage,AK,99577,"11403 HERITAGE CT, Anchorage, AK, 99577",Match,Non_Exact,"11403 HERITAGE CT, EAGLE RIVER, AK, 99577",190814054,L,02,020,000201,2002,-149.5775,61.323418000000004
4130,11403 HERITAGE CT,Anchorage,AK,99577,"11403 HERITAGE CT, Anchorage, AK, 99577",Match,Non_Exact,"11403 HERITAGE CT, EAGLE RIVER, AK, 99577",190814054,L,02,020,000201,2002,-149.5775,61.323418000000004
4131,11403 HERITAGE CT,Anchorage,AK,99577,"11403 HERITAGE CT, Anchorage, AK, 99577",Match,Non_Exact,"11403 HERITAGE CT, EAGLE RIVER, AK, 99577",190814054,L,02,020,000201,2002,-149.5775,61.323418000000004
4132,11403 HERITAGE CT,Anchorage,AK,99577,"11403 HERITAGE CT, Anchorage, AK, 99577",Match,Non_Exact,"11403 HERITAGE CT, EAGLE RIVER, AK, 99577",190814054,L,02,020,000201,2002,-149.5775,61.323418000000004
4133,11403 HERITAGE CT,Anchorage,AK,99577,"11403 HERITAGE CT, Anchorage, AK, 99577",Match,Non_Exact,"11403 HERITAGE CT, EAGLE RIVER, AK, 99577",190814054,L,02,020,000201,2002,-149.5775,61.323418000000004
4134,11403 HERITAGE CT,Anchorage,AK,99577,"11403 HERITAGE CT, Anchorage, AK, 99577",Match,Non_Exact,"11403 HERITAGE CT, EAGLE RIVER, AK, 99577",190814054,L,02,020,000201,2002,-149.5775,61.323418000000004
4135,25900 BERRYHILL RD,Anchorage,AK,99577,"25900 BERRYHILL RD, Anchorage, AK, 99577",Match,Non_Exact,"25900 BERRYHILL RD, EAGLE RIVER, AK, 99577",614862057,R,02,020,000204,1005,-149.39848,61.290287
4136,26000 BERRYHILL RD,Anchorage,AK,99577,"26000 BERRYHILL RD, Anchorage, AK, 99577",Match,Non_Exact,"26000 BERRYHILL RD, EAGLE RIVER, AK, 99577",614862057,R,02,020,000204,1005,-149.39687,61.29010400000001
4137,25650 WHITE SPRUCE DR,Anchorage,AK,99577,"25650 WHITE SPRUCE DR, Anchorage, AK, 99577",Match,Non_Exact,"25650 WHITE SPRUCE DR, EAGLE RIVER, AK, 99577",641432676,R,02,020,000204,1005,-149.40337,61.290043000000004
4138,26032 BERRYHILL RD,Anchorage,AK,99577,"26032 BERRYHILL RD, Anchorage, AK, 99577",Match,Non_Exact,"26032 BERRYHILL RD, EAGLE RIVER, AK, 99577",614862057,R,02,020,000204,1005,-149.39635,61.290034999999996
4139,25685 WHITE SPRUCE DR,Anchorage,AK,99577,"25685 WHITE SPRUCE DR, Anchorage, AK, 99577",Match,Non_Exact,"25685 WHITE SPRUCE DR, EAGLE RIVER, AK, 99577",641432676,L,02,020,000204,1005,-149.40305,61.289753000000005
4140,25700 WHITE SPRUCE DR,Anchorage,AK,99577,"25700 WHITE SPRUCE DR, Anchorage, AK, 99577",Match,Non_Exact,"25700 WHITE SPRUCE DR, EAGLE RIVER, AK, 99577",641432676,R,02,020,000204,1005,-149.4029,61.28961999999999
4141,25935 WHITE SPRUCE DR,Anchorage,AK,99577,"25935 WHITE SPRUCE DR, Anchorage, AK, 99577",Match,Non_Exact,"25935 WHITE SPRUCE DR, EAGLE RIVER, AK, 99577",641432676,L,02,020,000204,1005,-149.39857,61.28911
4142,25427 BLACK PINE CIR,Anchorage,AK,99577,"25427 BLACK PINE CIR, Anchorage, AK, 99577",Match,Non_Exact,"25427 BLACK PINE CIR, EAGLE RIVER, AK, 99577",190818695,L,02,020,000204,1009,-149.40935,61.2891
4143,25838 WHITE SPRUCE DR,Anchorage,AK,99577,"25838 WHITE SPRUCE DR, Anchorage, AK, 99577",Match,Non_Exact,"25838 WHITE SPRUCE DR, EAGLE RIVER, AK, 99577",641432676,R,02,020,000204,1005,-149.4005,61.28909300000001
4144,25814 WHITE SPRUCE DR,Anchorage,AK,99577,"25814 WHITE SPRUCE DR, Anchorage, AK, 99577",Match,Non_Exact,"25814 WHITE SPRUCE DR, EAGLE RIVER, AK, 99577",641432676,R,02,020,000204,1005,-149.40098999999998,61.28909300000001
4145,25949 WHITE SPRUCE DR,Anchorage,AK,99577,"25949 WHITE SPRUCE DR, Anchorage, AK, 99577",Match,Non_Exact,"25949 WHITE SPRUCE DR, EAGLE RIVER, AK, 99577",641432676,L,02,020,000204,1005,-149.39828,61.28911
4146,25702 IMPERIAL DR,Anchorage,AK,99577,"25702 IMPERIAL DR, Anchorage, AK, 99577",Match,Non_Exact,"25702 IMPERIAL DR, EAGLE RIVER, AK, 99577",614874085,L,02,020,000204,1005,-149.4007,61.287876000000004
4147,25960 WHITE SPRUCE DR,Anchorage,AK,99577,"25960 WHITE SPRUCE DR, Anchorage, AK, 99577",Match,Non_Exact,"25960 WHITE SPRUCE DR, EAGLE RIVER, AK, 99577",641432676,R,02,020,000204,1005,-149.39803999999998,61.289097
4148,25752 IMPERIAL DR,Anchorage,AK,99577,"25752 IMPERIAL DR, Anchorage, AK, 99577",Match,Non_Exact,"25752 IMPERIAL DR, EAGLE RIVER, AK, 99577",614874085,L,02,020,000204,1005,-149.40022,61.287727000000004
4149,12647 BRECKENRIDGE DR,Anchorage,AK,99577,"12647 BRECKENRIDGE DR, Anchorage, AK, 99577",Match,Non_Exact,"12647 BRECKENRIDGE DR, EAGLE RIVER, AK, 99577",190810762,R,02,020,000201,1013,-149.57887,61.334681999999994
4150,12631 BRECKENRIDGE DR,Anchorage,AK,99577,"12631 BRECKENRIDGE DR, Anchorage, AK, 99577",Match,Non_Exact,"12631 BRECKENRIDGE DR, EAGLE RIVER, AK, 99577",190810762,R,02,020,000201,1013,-149.579,61.33461
4151,16321 KILLINGTON CT,Anchorage,AK,99577,"16321 KILLINGTON CT, Anchorage, AK, 99577",Match,Non_Exact,"16321 KILLINGTON CT, EAGLE RIVER, AK, 99577",190794376,R,02,020,000201,1013,-149.57811,61.334281999999995
4152,11912 TOWN PARK CIR,Anchorage,AK,99577,"11912 TOWN PARK CIR, Anchorage, AK, 99577",Match,Non_Exact,"11912 TOWN PARK CIR, EAGLE RIVER, AK, 99577",190819998,R,02,020,000201,2001,-149.57766999999998,61.328469999999996
4153,11910 TOWN PARK CIR,Anchorage,AK,99577,"11910 TOWN PARK CIR, Anchorage, AK, 99577",Match,Non_Exact,"11910 TOWN PARK CIR, EAGLE RIVER, AK, 99577",190819998,R,02,020,000201,2001,-149.57768000000002,61.32846
4154,11901 BUSINESS BLVD,Anchorage,AK,99577,"11901 BUSINESS BLVD, Anchorage, AK, 99577",Match,Non_Exact,"11901 BUSINESS BLVD, EAGLE RIVER, AK, 99577",605266942,L,02,020,000201,2021,-149.57307,61.32792
4155,11901 BUSINESS BLVD,Anchorage,AK,99577,"11901 BUSINESS BLVD, Anchorage, AK, 99577",Match,Non_Exact,"11901 BUSINESS BLVD, EAGLE RIVER, AK, 99577",605266942,L,02,020,000201,2021,-149.57307,61.32792
4156,11901 BUSINESS BLVD,Anchorage,AK,99577,"11901 BUSINESS BLVD, Anchorage, AK, 99577",Match,Non_Exact,"11901 BUSINESS BLVD, EAGLE RIVER, AK, 99577",605266942,L,02,020,000201,2021,-149.57307,61.32792
4157,11901 BUSINESS BLVD,Anchorage,AK,99577,"11901 BUSINESS BLVD, Anchorage, AK, 99577",Match,Non_Exact,"11901 BUSINESS BLVD, EAGLE RIVER, AK, 99577",605266942,L,02,020,000201,2021,-149.57307,61.32792
4158,23916 SUNNY GLEN DR,Anchorage,AK,99577,"23916 SUNNY GLEN DR, Anchorage, AK, 99577",Match,Non_Exact,"23916 SUNNY GLEN DR, EAGLE RIVER, AK, 99577",190793562,L,02,020,000204,1009,-149.43652,61.29834
4159,23740 SUNNY GLEN DR,Anchorage,AK,99577,"23740 SUNNY GLEN DR, Anchorage, AK, 99577",Match,Non_Exact,"23740 SUNNY GLEN DR, EAGLE RIVER, AK, 99577",190793562,L,02,020,000204,1009,-149.43929,61.29834
4160,23820 SUNNY GLEN DR,Anchorage,AK,99577,"23820 SUNNY GLEN DR, Anchorage, AK, 99577",Match,Non_Exact,"23820 SUNNY GLEN DR, EAGLE RIVER, AK, 99577",190793562,L,02,020,000204,1009,-149.43803,61.29834
4161,23650 SUNNY GLEN DR,Anchorage,AK,99577,"23650 SUNNY GLEN DR, Anchorage, AK, 99577",Match,Non_Exact,"23650 SUNNY GLEN DR, EAGLE RIVER, AK, 99577",190793562,L,02,020,000204,1009,-149.44069,61.29834
4162,23616 SUNNY GLEN DR,Anchorage,AK,99577,"23616 SUNNY GLEN DR, Anchorage, AK, 99577",Match,Non_Exact,"23616 SUNNY GLEN DR, EAGLE RIVER, AK, 99577",190793562,L,02,020,000204,1009,-149.44122,61.29834
4163,24023 ALPENGLOW DR,Anchorage,AK,99577,"24023 ALPENGLOW DR, Anchorage, AK, 99577",Match,Non_Exact,"24023 ALPENGLOW DR, EAGLE RIVER, AK, 99577",190807951,L,02,020,000204,1010,-149.43376,61.298083999999996
4164,23554 THE CLEARING DR,Anchorage,AK,99577,"23554 THE CLEARING DR, Anchorage, AK, 99577",Match,Non_Exact,"23554 THE CLEARING DR, EAGLE RIVER, AK, 99577",190818685,R,02,020,000204,1009,-149.44146999999998,61.297869999999996
4165,24251 HAMANN RD,Anchorage,AK,99577,"24251 HAMANN RD, Anchorage, AK, 99577",Match,Non_Exact,"24251 HAMANN RD, EAGLE RIVER, AK, 99577",190793561,L,02,020,000204,1011,-149.4304,61.298416
4166,23626 THE CLEARING DR,Anchorage,AK,99577,"23626 THE CLEARING DR, Anchorage, AK, 99577",Match,Non_Exact,"23626 THE CLEARING DR, EAGLE RIVER, AK, 99577",190818685,R,02,020,000204,1009,-149.44086000000001,61.297573
4167,24044 ALPENGLOW DR,Anchorage,AK,99577,"24044 ALPENGLOW DR, Anchorage, AK, 99577",Match,Non_Exact,"24044 ALPENGLOW DR, EAGLE RIVER, AK, 99577",190807951,R,02,020,000204,1009,-149.43338,61.297955
4168,24243 ALPENGLOW DR,Anchorage,AK,99577,"24243 ALPENGLOW DR, Anchorage, AK, 99577",Match,Non_Exact,"24243 ALPENGLOW DR, EAGLE RIVER, AK, 99577",190807951,L,02,020,000204,1010,-149.4296,61.2972
4169,24313 HAMANN RD,Anchorage,AK,99577,"24313 HAMANN RD, Anchorage, AK, 99577",Match,Non_Exact,"24313 HAMANN RD, EAGLE RIVER, AK, 99577",190793561,L,02,020,000204,1011,-149.42943,61.297934999999995
4170,23923 THE CLEARING DR,Anchorage,AK,99577,"23923 THE CLEARING DR, Anchorage, AK, 99577",Match,Non_Exact,"23923 THE CLEARING DR, EAGLE RIVER, AK, 99577",190818685,L,02,020,000204,1009,-149.43791000000002,61.29724
4171,23831 THE CLEARING DR,Anchorage,AK,99577,"23831 THE CLEARING DR, Anchorage, AK, 99577",Match,Non_Exact,"23831 THE CLEARING DR, EAGLE RIVER, AK, 99577",190818685,L,02,020,000204,1009,-149.43925,61.297245
4172,24132 ALPENGLOW DR,Anchorage,AK,99577,"24132 ALPENGLOW DR, Anchorage, AK, 99577",Match,Non_Exact,"24132 ALPENGLOW DR, EAGLE RIVER, AK, 99577",190807951,R,02,020,000204,1009,-149.43182,61.297474
4173,23745 THE CLEARING DR,Anchorage,AK,99577,"23745 THE CLEARING DR, Anchorage, AK, 99577",Match,Non_Exact,"23745 THE CLEARING DR, EAGLE RIVER, AK, 99577",190818685,L,02,020,000204,1009,-149.44043,61.297385999999996
4174,24206 ALPENGLOW DR,Anchorage,AK,99577,"24206 ALPENGLOW DR, Anchorage, AK, 99577",Match,Non_Exact,"24206 ALPENGLOW DR, EAGLE RIVER, AK, 99577",190807951,R,02,020,000204,1009,-149.43034,61.29727
4175,23708 THE CLEARING DR,Anchorage,AK,99577,"23708 THE CLEARING DR, Anchorage, AK, 99577",Match,Non_Exact,"23708 THE CLEARING DR, EAGLE RIVER, AK, 99577",190818685,R,02,020,000204,1009,-149.44008,61.29727
4176,23932 THE CLEARING DR,Anchorage,AK,99577,"23932 THE CLEARING DR, Anchorage, AK, 99577",Match,Non_Exact,"23932 THE CLEARING DR, EAGLE RIVER, AK, 99577",190818685,R,02,020,000204,1009,-149.43735,61.297230000000006
4177,23834 THE CLEARING DR,Anchorage,AK,99577,"23834 THE CLEARING DR, Anchorage, AK, 99577",Match,Non_Exact,"23834 THE CLEARING DR, EAGLE RIVER, AK, 99577",190818685,R,02,020,000204,1009,-149.43855,61.297233999999996
4178,23914 THE CLEARING DR,Anchorage,AK,99577,"23914 THE CLEARING DR, Anchorage, AK, 99577",Match,Non_Exact,"23914 THE CLEARING DR, EAGLE RIVER, AK, 99577",190818685,R,02,020,000204,1009,-149.43758,61.297230000000006
4179,18621 N LOWRIE LOOP,Anchorage,AK,99577,"18621 N LOWRIE LOOP, Anchorage, AK, 99577",Match,Non_Exact,"18621 N LOWRIE LOOP, EAGLE RIVER, AK, 99577",190826070,R,02,020,000203,4006,-149.53482,61.307964
4180,18629 N LOWRIE LOOP,Anchorage,AK,99577,"18629 N LOWRIE LOOP, Anchorage, AK, 99577",Match,Non_Exact,"18629 N LOWRIE LOOP, EAGLE RIVER, AK, 99577",190826070,R,02,020,000203,4006,-149.53464,61.307964
4181,18609 N LOWRIE LOOP,Anchorage,AK,99577,"18609 N LOWRIE LOOP, Anchorage, AK, 99577",Match,Non_Exact,"18609 N LOWRIE LOOP, EAGLE RIVER, AK, 99577",190826070,R,02,020,000203,4006,-149.53508,61.307964
4182,18615 N LOWRIE LOOP,Anchorage,AK,99577,"18615 N LOWRIE LOOP, Anchorage, AK, 99577",Match,Non_Exact,"18615 N LOWRIE LOOP, EAGLE RIVER, AK, 99577",190826070,R,02,020,000203,4006,-149.53493999999998,61.307964
4183,18543 CHEKOK CIR,Anchorage,AK,99577,"18543 CHEKOK CIR, Anchorage, AK, 99577",Match,Non_Exact,"18543 CHEKOK CIR, EAGLE RIVER, AK, 99577",190805598,R,02,020,000203,3015,-149.53654,61.307964
4184,18555 CHEKOK CIR,Anchorage,AK,99577,"18555 CHEKOK CIR, Anchorage, AK, 99577",Match,Non_Exact,"18555 CHEKOK CIR, EAGLE RIVER, AK, 99577",190805598,R,02,020,000203,3015,-149.5364,61.307964
4185,18531 CHEKOK CIR,Anchorage,AK,99577,"18531 CHEKOK CIR, Anchorage, AK, 99577",Match,Non_Exact,"18531 CHEKOK CIR, EAGLE RIVER, AK, 99577",190805598,R,02,020,000203,3015,-149.53668000000002,61.307964
4186,18537 CHEKOK CIR,Anchorage,AK,99577,"18537 CHEKOK CIR, Anchorage, AK, 99577",Match,Non_Exact,"18537 CHEKOK CIR, EAGLE RIVER, AK, 99577",190805598,R,02,020,000203,3015,-149.5366,61.307964
4187,18507 CHEKOK CIR,Anchorage,AK,99577,"18507 CHEKOK CIR, Anchorage, AK, 99577",Match,Non_Exact,"18507 CHEKOK CIR, EAGLE RIVER, AK, 99577",190805598,R,02,020,000203,3015,-149.53694,61.307964
4188,18549 CHEKOK CIR,Anchorage,AK,99577,"18549 CHEKOK CIR, Anchorage, AK, 99577",Match,Non_Exact,"18549 CHEKOK CIR, EAGLE RIVER, AK, 99577",190805598,R,02,020,000203,3015,-149.53648,61.307964
4189,18517 CHEKOK CIR,Anchorage,AK,99577,"18517 CHEKOK CIR, Anchorage, AK, 99577",Match,Non_Exact,"18517 CHEKOK CIR, EAGLE RIVER, AK, 99577",190805598,R,02,020,000203,3015,-149.53683,61.307964
4190,9247 W KANAGA LOOP,Anchorage,AK,99577,"9247 W KANAGA LOOP, Anchorage, AK, 99577",No_Match,,,,,,,,,,
4191,18123 HARBOR POINT LOOP,Anchorage,AK,99577,"18123 HARBOR POINT LOOP, Anchorage, AK, 99577",Match,Non_Exact,"18123 HARBOR PT LP, EAGLE RIVER, AK, 99577",190805554,L,02,020,000203,5016,-149.54419,61.3046
4192,18124 HARBOR POINT LOOP,Anchorage,AK,99577,"18124 HARBOR POINT LOOP, Anchorage, AK, 99577",Match,Non_Exact,"18124 HARBOR PT LP, EAGLE RIVER, AK, 99577",190805554,R,02,020,000203,5008,-149.5442,61.30458
4193,9245 W KANAGA LOOP,Anchorage,AK,99577,"9245 W KANAGA LOOP, Anchorage, AK, 99577",No_Match,,,,,,,,,,
4194,27520 VANTAGE AVE,Anchorage,AK,99577,"27520 VANTAGE AVE, Anchorage, AK, 99577",Match,Non_Exact,"27520 VANTAGE AVE, EAGLE RIVER, AK, 99577",614874151,R,02,020,000204,1005,-149.36778,61.275459999999995
4195,27530 VANTAGE AVE,Anchorage,AK,99577,"27530 VANTAGE AVE, Anchorage, AK, 99577",Match,Non_Exact,"27530 VANTAGE AVE, EAGLE RIVER, AK, 99577",614874151,R,02,020,000204,1005,-149.36761,61.275448
4196,27606 VANTAGE AVE,Anchorage,AK,99577,"27606 VANTAGE AVE, Anchorage, AK, 99577",Match,Non_Exact,"27606 VANTAGE AVE, EAGLE RIVER, AK, 99577",614874151,R,02,020,000204,1005,-149.36643999999998,61.275314
4197,27640 VANTAGE AVE,Anchorage,AK,99577,"27640 VANTAGE AVE, Anchorage, AK, 99577",Match,Non_Exact,"27640 VANTAGE AVE, EAGLE RIVER, AK, 99577",614874151,R,02,020,000204,1005,-149.3659,61.27529499999999
4198,21324 EAGLE RIVER RD,Anchorage,AK,99577,"21324 EAGLE RIVER RD, Anchorage, AK, 99577",Match,Non_Exact,"21324 EAGLE RIVER RD, EAGLE RIVER, AK, 99577",190815324,R,02,020,000203,3000,-149.48443999999998,61.310726
4199,21446 EAGLE RIVER RD,Anchorage,AK,99577,"21446 EAGLE RIVER RD, Anchorage, AK, 99577",Match,Non_Exact,"21446 EAGLE RIVER RD, EAGLE RIVER, AK, 99577",190815324,R,02,020,000203,3000,-149.48215,61.310726
4200,20922 EAGLE RIVER RD,Anchorage,AK,99577,"20922 EAGLE RIVER RD, Anchorage, AK, 99577",Match,Non_Exact,"20922 EAGLE RIVER RD, EAGLE RIVER, AK, 99577",190826911,R,02,020,000203,3000,-149.49232,61.310726
4201,22033 LAKE VIEW DR,Anchorage,AK,99577,"22033 LAKE VIEW DR, Anchorage, AK, 99577",Match,Non_Exact,"22033 LAKE VIEW DR, EAGLE RIVER, AK, 99577",645480515,L,02,020,000204,1007,-149.47127,61.310066000000006
4202,9923 GREENHOUSE ST,Anchorage,AK,99577,"9923 GREENHOUSE ST, Anchorage, AK, 99577",Match,Non_Exact,"9923 GREENHOUSE ST, EAGLE RIVER, AK, 99577",190825492,L,02,020,000203,3000,-149.48727,61.309853000000004
4203,22133 LAKE VIEW DR,Anchorage,AK,99577,"22133 LAKE VIEW DR, Anchorage, AK, 99577",Match,Non_Exact,"22133 LAKE VIEW DR, EAGLE RIVER, AK, 99577",645480515,L,02,020,000204,1007,-149.4696,61.309740000000005
4204,22223 LAKE VIEW DR,Anchorage,AK,99577,"22223 LAKE VIEW DR, Anchorage, AK, 99577",Match,Non_Exact,"22223 LAKE VIEW DR, EAGLE RIVER, AK, 99577",645480515,L,02,020,000204,1007,-149.46812,61.30944399999999
4205,22144 LAKE VIEW DR,Anchorage,AK,99577,"22144 LAKE VIEW DR, Anchorage, AK, 99577",Match,Non_Exact,"22144 LAKE VIEW DR, EAGLE RIVER, AK, 99577",645480515,R,02,020,000204,1007,-149.46941999999999,61.30969
4206,9901 GREENHOUSE ST,Anchorage,AK,99577,"9901 GREENHOUSE ST, Anchorage, AK, 99577",Match,Non_Exact,"9901 GREENHOUSE ST, EAGLE RIVER, AK, 99577",190825492,L,02,020,000203,3000,-149.48727,61.309684999999995
4207,21344 EAGLE RIVER RD,Anchorage,AK,99577,"21344 EAGLE RIVER RD, Anchorage, AK, 99577",Match,Non_Exact,"21344 EAGLE RIVER RD, EAGLE RIVER, AK, 99577",190815324,R,02,020,000203,3000,-149.48407,61.310726
4208,22031 EAGLE RIVER RD,Anchorage,AK,99577,"22031 EAGLE RIVER RD, Anchorage, AK, 99577",Match,Non_Exact,"22031 EAGLE RIVER RD, EAGLE RIVER, AK, 99577",635209669,L,02,020,000204,1007,-149.4726,61.30925
4209,9845 GREENHOUSE ST,Anchorage,AK,99577,"9845 GREENHOUSE ST, Anchorage, AK, 99577",Match,Non_Exact,"9845 GREENHOUSE ST, EAGLE RIVER, AK, 99577",190825492,L,02,020,000203,3000,-149.48726000000002,61.30925
4210,22343 LAKE VIEW DR,Anchorage,AK,99577,"22343 LAKE VIEW DR, Anchorage, AK, 99577",Match,Non_Exact,"22343 LAKE VIEW DR, EAGLE RIVER, AK, 99577",645480515,L,02,020,000204,1007,-149.4662,61.30899
4211,9620 WEST LAKE DR,Anchorage,AK,99577,"9620 WEST LAKE DR, Anchorage, AK, 99577",Match,Non_Exact,"9620 W LAKE DR, EAGLE RIVER, AK, 99577",190823663,R,02,020,000203,3000,-149.46971000000002,61.3077
4212,22340 LAKE VIEW DR,Anchorage,AK,99577,"22340 LAKE VIEW DR, Anchorage, AK, 99577",Match,Non_Exact,"22340 LAKE VIEW DR, EAGLE RIVER, AK, 99577",645480515,R,02,020,000204,1007,-149.46623,61.30899
4213,9805 GREENHOUSE ST,Anchorage,AK,99577,"9805 GREENHOUSE ST, Anchorage, AK, 99577",Match,Non_Exact,"9805 GREENHOUSE ST, EAGLE RIVER, AK, 99577",190825492,L,02,020,000203,3000,-149.48726000000002,61.30894
4214,9735 GREENHOUSE ST,Anchorage,AK,99577,"9735 GREENHOUSE ST, Anchorage, AK, 99577",Match,Non_Exact,"9735 GREENHOUSE ST, EAGLE RIVER, AK, 99577",190825492,L,02,020,000203,3000,-149.48726000000002,61.308403000000006
4215,22221 EAGLE RIVER RD,Anchorage,AK,99577,"22221 EAGLE RIVER RD, Anchorage, AK, 99577",Match,Non_Exact,"22221 EAGLE RIVER RD, EAGLE RIVER, AK, 99577",635209669,L,02,020,000204,1007,-149.47035,61.308353000000004
4216,9640 WEST LAKE DR,Anchorage,AK,99577,"9640 WEST LAKE DR, Anchorage, AK, 99577",Match,Non_Exact,"9640 W LAKE DR, EAGLE RIVER, AK, 99577",190823663,R,02,020,000203,3000,-149.46948,61.30769
4217,9625 WEST LAKE DR,Anchorage,AK,99577,"9625 WEST LAKE DR, Anchorage, AK, 99577",Match,Non_Exact,"9625 W LAKE DR, EAGLE RIVER, AK, 99577",190827281,L,02,020,000203,3000,-149.46817,61.3062
4218,9610 GREENHOUSE ST,Anchorage,AK,99577,"9610 GREENHOUSE ST, Anchorage, AK, 99577",Match,Non_Exact,"9610 GREENHOUSE ST, EAGLE RIVER, AK, 99577",190825492,R,02,020,000203,3000,-149.48726000000002,61.307446
4219,22335 EAGLE RIVER RD,Anchorage,AK,99577,"22335 EAGLE RIVER RD, Anchorage, AK, 99577",Match,Non_Exact,"22335 EAGLE RIVER RD, EAGLE RIVER, AK, 99577",190826914,L,02,020,000204,1007,-149.46692,61.307076
4220,9544 WEST LAKE DR,Anchorage,AK,99577,"9544 WEST LAKE DR, Anchorage, AK, 99577",Match,Non_Exact,"9544 W LAKE DR, EAGLE RIVER, AK, 99577",190823663,R,02,020,000203,3000,-149.47055,61.30775500000001
4221,9535 WEST LAKE DR,Anchorage,AK,99577,"9535 WEST LAKE DR, Anchorage, AK, 99577",Match,Non_Exact,"9535 W LAKE DR, EAGLE RIVER, AK, 99577",190827281,L,02,020,000203,3000,-149.46573,61.305369999999996
4222,20456 GRANITE PARK CIR,Anchorage,AK,99577,"20456 GRANITE PARK CIR, Anchorage, AK, 99577",Match,Non_Exact,"20456 GRANITE PARK CIR, EAGLE RIVER, AK, 99577",605336471,R,02,020,000203,3002,-149.50133,61.30063199999999
4223,8905 BIRCH PARK CIR,Anchorage,AK,99577,"8905 BIRCH PARK CIR, Anchorage, AK, 99577",Match,Non_Exact,"8905 BIRCH PARK CIR, EAGLE RIVER, AK, 99577",190827414,R,02,020,000203,3022,-149.51192,61.300587
4224,8916 MEADOW PARK CIR,Anchorage,AK,99577,"8916 MEADOW PARK CIR, Anchorage, AK, 99577",Match,Non_Exact,"8916 MEADOW PARK CIR, EAGLE RIVER, AK, 99577",605288530,L,02,020,000203,3022,-149.51033,61.300697
4225,20452 GRANITE PARK CIR,Anchorage,AK,99577,"20452 GRANITE PARK CIR, Anchorage, AK, 99577",Match,Non_Exact,"20452 GRANITE PARK CIR, EAGLE RIVER, AK, 99577",605336471,R,02,020,000203,3002,-149.50145,61.300613
4226,8833 DOME CIR,Anchorage,AK,99577,"8833 DOME CIR, Anchorage, AK, 99577",Match,Non_Exact,"8833 DOME CIR, EAGLE RIVER, AK, 99577",190805577,R,02,020,000203,3014,-149.53505,61.300422999999995
4227,8979 EAGLE PLACE LOOP,Anchorage,AK,99577,"8979 EAGLE PLACE LOOP, Anchorage, AK, 99577",No_Match,,,,,,,,,,
4228,18440 BERNARD DR,Anchorage,AK,99577,"18440 BERNARD DR, Anchorage, AK, 99577",Match,Non_Exact,"18440 BERNARD DR, EAGLE RIVER, AK, 99577",190814288,R,02,020,000204,2052,-149.53793000000002,61.29165
4229,19230 BERNARD DR,Anchorage,AK,99577,"19230 BERNARD DR, Anchorage, AK, 99577",Match,Non_Exact,"19230 BERNARD DR, EAGLE RIVER, AK, 99577",645482161,R,02,020,000204,2010,-149.52495,61.2915
4230,8153 STEWART MOUNTAIN DR,Anchorage,AK,99577,"8153 STEWART MOUNTAIN DR, Anchorage, AK, 99577",Match,Non_Exact,"8153 STEWART MOUNTAIN DR, EAGLE RIVER, AK, 99577",190826103,L,02,020,000204,2052,-149.53856000000002,61.29091999999999
4231,8182 STEWART MOUNTAIN DR,Anchorage,AK,99577,"8182 STEWART MOUNTAIN DR, Anchorage, AK, 99577",Match,Non_Exact,"8182 STEWART MOUNTAIN DR, EAGLE RIVER, AK, 99577",190826103,R,02,020,000204,2051,-149.53252,61.29036
4232,19005 ELNORA LN,Anchorage,AK,99577,"19005 ELNORA LN, Anchorage, AK, 99577",Match,Non_Exact,"19005 ELNORA LN, EAGLE RIVER, AK, 99577",190814287,R,02,020,000204,2052,-149.52774,61.290485
4233,8130 STEWART MOUNTAIN DR,Anchorage,AK,99577,"8130 STEWART MOUNTAIN DR, Anchorage, AK, 99577",Match,Non_Exact,"8130 STEWART MOUNTAIN DR, EAGLE RIVER, AK, 99577",190826103,R,02,020,000204,2051,-149.5349,61.290516000000004
4234,8057 STEWART MOUNTAIN DR,Anchorage,AK,99577,"8057 STEWART MOUNTAIN DR, Anchorage, AK, 99577",Match,Non_Exact,"8057 STEWART MOUNTAIN DR, EAGLE RIVER, AK, 99577",190826103,L,02,020,000204,2052,-149.53435,61.290478
4235,8164 STEWART MOUNTAIN DR,Anchorage,AK,99577,"8164 STEWART MOUNTAIN DR, Anchorage, AK, 99577",Match,Non_Exact,"8164 STEWART MOUNTAIN DR, EAGLE RIVER, AK, 99577",190826103,R,02,020,000204,2051,-149.53333999999998,61.290409999999994
4236,8108 STEWART MOUNTAIN DR,Anchorage,AK,99577,"8108 STEWART MOUNTAIN DR, Anchorage, AK, 99577",Match,Non_Exact,"8108 STEWART MOUNTAIN DR, EAGLE RIVER, AK, 99577",190826103,R,02,020,000204,2051,-149.53583999999998,61.290665000000004
4237,18949 ELNORA LN,Anchorage,AK,99577,"18949 ELNORA LN, Anchorage, AK, 99577",Match,Non_Exact,"18949 ELNORA LN, EAGLE RIVER, AK, 99577",190814287,R,02,020,000204,2052,-149.52919,61.290348
4238,8011 STEWART MOUNTAIN DR,Anchorage,AK,99577,"8011 STEWART MOUNTAIN DR, Anchorage, AK, 99577",Match,Non_Exact,"8011 STEWART MOUNTAIN DR, EAGLE RIVER, AK, 99577",190826103,L,02,020,000204,2052,-149.53224,61.29036
4239,18901 ELNORA LN,Anchorage,AK,99577,"18901 ELNORA LN, Anchorage, AK, 99577",Match,Non_Exact,"18901 ELNORA LN, EAGLE RIVER, AK, 99577",190814287,R,02,020,000204,2052,-149.53044,61.290259999999996
4240,7719 HILAND RD,Anchorage,AK,99577,"7719 HILAND RD, Anchorage, AK, 99577",Match,Non_Exact,"7719 HILAND RD, EAGLE RIVER, AK, 99577",608666531,L,02,020,000204,2010,-149.52281000000002,61.29011
4241,7745 HILAND RD,Anchorage,AK,99577,"7745 HILAND RD, Anchorage, AK, 99577",Match,Non_Exact,"7745 HILAND RD, EAGLE RIVER, AK, 99577",608666531,L,02,020,000204,2010,-149.52391,61.290115
4242,7779 HILAND RD,Anchorage,AK,99577,"7779 HILAND RD, Anchorage, AK, 99577",Match,Non_Exact,"7779 HILAND RD, EAGLE RIVER, AK, 99577",608666531,L,02,020,000204,2010,-149.52534,61.2901
4243,8080 STEWART MOUNTAIN DR,Anchorage,AK,99577,"8080 STEWART MOUNTAIN DR, Anchorage, AK, 99577",Match,Non_Exact,"8080 STEWART MOUNTAIN DR, EAGLE RIVER, AK, 99577",190826103,R,02,020,000204,2051,-149.53712,61.290638
4244,7823 STEWART MOUNTAIN DR,Anchorage,AK,99577,"7823 STEWART MOUNTAIN DR, Anchorage, AK, 99577",Match,Non_Exact,"7823 STEWART MOUNTAIN DR, EAGLE RIVER, AK, 99577",608666531,L,02,020,000204,2010,-149.52715,61.289885999999996
4245,8012 STEWART MOUNTAIN DR,Anchorage,AK,99577,"8012 STEWART MOUNTAIN DR, Anchorage, AK, 99577",Match,Non_Exact,"8012 STEWART MOUNTAIN DR, EAGLE RIVER, AK, 99577",190826103,R,02,020,000204,2051,-149.54004,61.291171999999996
4246,18920 ELNORA LN,Anchorage,AK,99577,"18920 ELNORA LN, Anchorage, AK, 99577",Match,Non_Exact,"18920 ELNORA LN, EAGLE RIVER, AK, 99577",190814287,L,02,020,000204,2010,-149.53009,61.29026999999999
4247,7732 HILAND RD,Anchorage,AK,99577,"7732 HILAND RD, Anchorage, AK, 99577",No_Match,,,,,,,,,,
4248,7788 HILAND RD,Anchorage,AK,99577,"7788 HILAND RD, Anchorage, AK, 99577",No_Match,,,,,,,,,,
4249,7958 STEWART MOUNTAIN DR,Anchorage,AK,99577,"7958 STEWART MOUNTAIN DR, Anchorage, AK, 99577",No_Match,,,,,,,,,,
4250,7850 STEWART MOUNTAIN DR,Anchorage,AK,99577,"7850 STEWART MOUNTAIN DR, Anchorage, AK, 99577",Match,Non_Exact,"7850 STEWART MOUNTAIN DR, EAGLE RIVER, AK, 99577",190826103,R,02,020,000204,2051,-149.54056,61.29127
4251,7505 BOUNDARY AVE,Anchorage,AK,99504,"7505 BOUNDARY AVE, Anchorage, AK, 99504",Match,Exact,"7505 BOUNDARY AVE, ANCHORAGE, AK, 99504",605167228,L,02,020,000702,1001,-149.74295,61.224180000000004
4252,7505 BOUNDARY AVE,Anchorage,AK,99504,"7505 BOUNDARY AVE, Anchorage, AK, 99504",Match,Exact,"7505 BOUNDARY AVE, ANCHORAGE, AK, 99504",605167228,L,02,020,000702,1001,-149.74295,61.224180000000004
4253,7505 BOUNDARY AVE,Anchorage,AK,99504,"7505 BOUNDARY AVE, Anchorage, AK, 99504",Match,Exact,"7505 BOUNDARY AVE, ANCHORAGE, AK, 99504",605167228,L,02,020,000702,1001,-149.74295,61.224180000000004
4254,26031 LOG CABIN CIR,Anchorage,AK,99577,"26031 LOG CABIN CIR, Anchorage, AK, 99577",Match,Non_Exact,"26031 LOG CABIN CIR, EAGLE RIVER, AK, 99577",190826921,L,02,020,000204,1005,-149.39648,61.284583999999995
4255,26020 LOG CABIN CIR,Anchorage,AK,99577,"26020 LOG CABIN CIR, Anchorage, AK, 99577",Match,Non_Exact,"26020 LOG CABIN CIR, EAGLE RIVER, AK, 99577",190826921,R,02,020,000204,1005,-149.39665,61.284515
4256,25730 DENAINA DR,Anchorage,AK,99577,"25730 DENAINA DR, Anchorage, AK, 99577",Match,Non_Exact,"25730 DENAINA DR, EAGLE RIVER, AK, 99577",190827461,R,02,020,000204,1009,-149.40213,61.284863
4257,7134 CLEMENS CIR,Anchorage,AK,99577,"7134 CLEMENS CIR, Anchorage, AK, 99577",Match,Non_Exact,"7134 CLEMENS CIR, EAGLE RIVER, AK, 99577",190823184,L,02,020,000204,1005,-149.39095,61.284027
4258,25805 DENAINA DR,Anchorage,AK,99577,"25805 DENAINA DR, Anchorage, AK, 99577",Match,Non_Exact,"25805 DENAINA DR, EAGLE RIVER, AK, 99577",190827464,L,02,020,000204,1009,-149.40001,61.284363
4259,25756 DENAINA DR,Anchorage,AK,99577,"25756 DENAINA DR, Anchorage, AK, 99577",Match,Non_Exact,"25756 DENAINA DR, EAGLE RIVER, AK, 99577",190827461,R,02,020,000204,1009,-149.40187,61.28478199999999
4260,7101 CLEMENS CIR,Anchorage,AK,99577,"7101 CLEMENS CIR, Anchorage, AK, 99577",No_Match,,,,,,,,,,
4261,7100 CLEMENS CIR,Anchorage,AK,99577,"7100 CLEMENS CIR, Anchorage, AK, 99577",Match,Non_Exact,"7100 CLEMENS CIR, EAGLE RIVER, AK, 99577",190823184,L,02,020,000204,1005,-149.3903,61.283855
4262,7043 CLEMENS CIR,Anchorage,AK,99577,"7043 CLEMENS CIR, Anchorage, AK, 99577",Match,Non_Exact,"7043 CLEMENS CIR, EAGLE RIVER, AK, 99577",190826927,R,02,020,000204,1005,-149.38951,61.2834
4263,7015 KULCHAY CIR,Anchorage,AK,99577,"7015 KULCHAY CIR, Anchorage, AK, 99577",Match,Non_Exact,"7015 KULCHAY CIR, EAGLE RIVER, AK, 99577",614873882,R,02,020,000204,1009,-149.39873,61.283694999999994
4264,7025 CLEMENS CIR,Anchorage,AK,99577,"7025 CLEMENS CIR, Anchorage, AK, 99577",Match,Non_Exact,"7025 CLEMENS CIR, EAGLE RIVER, AK, 99577",190826927,R,02,020,000204,1005,-149.38951,61.28326
4265,26016 EAGLE RIVER RD,Anchorage,AK,99577,"26016 EAGLE RIVER RD, Anchorage, AK, 99577",Match,Non_Exact,"26016 EAGLE RIVER RD, EAGLE RIVER, AK, 99577",190817102,L,02,020,000204,1009,-149.39684,61.284203000000005
4266,16313 KILLINGTON CT,Anchorage,AK,99577,"16313 KILLINGTON CT, Anchorage, AK, 99577",Match,Non_Exact,"16313 KILLINGTON CT, EAGLE RIVER, AK, 99577",190794376,R,02,020,000201,1013,-149.57818999999998,61.334281999999995
4267,16322 KILLINGTON CT,Anchorage,AK,99577,"16322 KILLINGTON CT, Anchorage, AK, 99577",Match,Non_Exact,"16322 KILLINGTON CT, EAGLE RIVER, AK, 99577",190794376,L,02,020,000201,1014,-149.5781,61.334274
4268,16312 KILLINGTON CT,Anchorage,AK,99577,"16312 KILLINGTON CT, Anchorage, AK, 99577",Match,Non_Exact,"16312 KILLINGTON CT, EAGLE RIVER, AK, 99577",190794376,L,02,020,000201,1014,-149.57818999999998,61.334274
4269,16306 KILLINGTON CT,Anchorage,AK,99577,"16306 KILLINGTON CT, Anchorage, AK, 99577",Match,Non_Exact,"16306 KILLINGTON CT, EAGLE RIVER, AK, 99577",190794376,L,02,020,000201,1014,-149.57823,61.334274
4270,16244 KILLINGTON CT,Anchorage,AK,99577,"16244 KILLINGTON CT, Anchorage, AK, 99577",Match,Non_Exact,"16244 KILLINGTON CT, EAGLE RIVER, AK, 99577",190794376,L,02,020,000201,1014,-149.57883,61.334274
4271,12519 CRESTED BUTTE DR,Anchorage,AK,99577,"12519 CRESTED BUTTE DR, Anchorage, AK, 99577",Match,Non_Exact,"12519 CRESTED BUTTE DR, EAGLE RIVER, AK, 99577",190810952,R,02,020,000201,1007,-149.57716000000002,61.333664
4272,11901 BUSINESS BLVD,Anchorage,AK,99577,"11901 BUSINESS BLVD, Anchorage, AK, 99577",Match,Non_Exact,"11901 BUSINESS BLVD, EAGLE RIVER, AK, 99577",605266942,L,02,020,000201,2021,-149.57307,61.32792
4273,11901 BUSINESS BLVD,Anchorage,AK,99577,"11901 BUSINESS BLVD, Anchorage, AK, 99577",Match,Non_Exact,"11901 BUSINESS BLVD, EAGLE RIVER, AK, 99577",605266942,L,02,020,000201,2021,-149.57307,61.32792
4274,11901 BUSINESS BLVD,Anchorage,AK,99577,"11901 BUSINESS BLVD, Anchorage, AK, 99577",Match,Non_Exact,"11901 BUSINESS BLVD, EAGLE RIVER, AK, 99577",605266942,L,02,020,000201,2021,-149.57307,61.32792
4275,11901 BUSINESS BLVD,Anchorage,AK,99577,"11901 BUSINESS BLVD, Anchorage, AK, 99577",Match,Non_Exact,"11901 BUSINESS BLVD, EAGLE RIVER, AK, 99577",605266942,L,02,020,000201,2021,-149.57307,61.32792
4276,11901 BUSINESS BLVD,Anchorage,AK,99577,"11901 BUSINESS BLVD, Anchorage, AK, 99577",Match,Non_Exact,"11901 BUSINESS BLVD, EAGLE RIVER, AK, 99577",605266942,L,02,020,000201,2021,-149.57307,61.32792
4277,11901 BUSINESS BLVD,Anchorage,AK,99577,"11901 BUSINESS BLVD, Anchorage, AK, 99577",Match,Non_Exact,"11901 BUSINESS BLVD, EAGLE RIVER, AK, 99577",605266942,L,02,020,000201,2021,-149.57307,61.32792
4278,11901 BUSINESS BLVD,Anchorage,AK,99577,"11901 BUSINESS BLVD, Anchorage, AK, 99577",Match,Non_Exact,"11901 BUSINESS BLVD, EAGLE RIVER, AK, 99577",605266942,L,02,020,000201,2021,-149.57307,61.32792
4279,11901 BUSINESS BLVD,Anchorage,AK,99577,"11901 BUSINESS BLVD, Anchorage, AK, 99577",Match,Non_Exact,"11901 BUSINESS BLVD, EAGLE RIVER, AK, 99577",605266942,L,02,020,000201,2021,-149.57307,61.32792
4280,11832 BUSINESS BLVD,Anchorage,AK,99577,"11832 BUSINESS BLVD, Anchorage, AK, 99577",Match,Non_Exact,"11832 BUSINESS BLVD, EAGLE RIVER, AK, 99577",605266942,R,02,020,000201,2001,-149.57372,61.32722
4281,16421 HOME PL,Anchorage,AK,99577,"16421 HOME PL, Anchorage, AK, 99577",Match,Non_Exact,"16421 HOME PL, EAGLE RIVER, AK, 99577",190827490,R,02,020,000201,2002,-149.57646,61.32272
4282,16421 HOME PL,Anchorage,AK,99577,"16421 HOME PL, Anchorage, AK, 99577",Match,Non_Exact,"16421 HOME PL, EAGLE RIVER, AK, 99577",190827490,R,02,020,000201,2002,-149.57646,61.32272
4283,16421 HOME PL,Anchorage,AK,99577,"16421 HOME PL, Anchorage, AK, 99577",Match,Non_Exact,"16421 HOME PL, EAGLE RIVER, AK, 99577",190827490,R,02,020,000201,2002,-149.57646,61.32272
4284,16421 HOME PL,Anchorage,AK,99577,"16421 HOME PL, Anchorage, AK, 99577",Match,Non_Exact,"16421 HOME PL, EAGLE RIVER, AK, 99577",190827490,R,02,020,000201,2002,-149.57646,61.32272
4285,16421 HOME PL,Anchorage,AK,99577,"16421 HOME PL, Anchorage, AK, 99577",Match,Non_Exact,"16421 HOME PL, EAGLE RIVER, AK, 99577",190827490,R,02,020,000201,2002,-149.57646,61.32272
4286,18723 N LOWRIE LOOP,Anchorage,AK,99577,"18723 N LOWRIE LOOP, Anchorage, AK, 99577",Match,Non_Exact,"18723 N LOWRIE LOOP, EAGLE RIVER, AK, 99577",190826070,R,02,020,000203,4006,-149.53339,61.307453
4287,18523 CHEKOK CIR,Anchorage,AK,99577,"18523 CHEKOK CIR, Anchorage, AK, 99577",Match,Non_Exact,"18523 CHEKOK CIR, EAGLE RIVER, AK, 99577",190805598,R,02,020,000203,3015,-149.53677,61.307964
4288,9706 DINAAKA DR,Anchorage,AK,99577,"9706 DINAAKA DR, Anchorage, AK, 99577",Match,Non_Exact,"9706 DINAAKA DR, EAGLE RIVER, AK, 99577",643735526,L,02,020,000203,5005,-149.55284,61.308209999999995
4289,18826 ANDREANOF DR,Anchorage,AK,99577,"18826 ANDREANOF DR, Anchorage, AK, 99577",Match,Non_Exact,"18826 ANDREANOF DR, EAGLE RIVER, AK, 99577",190805642,R,02,020,000203,4006,-149.53188,61.308018000000004
4290,17428 TOAKOANA DR,Anchorage,AK,99577,"17428 TOAKOANA DR, Anchorage, AK, 99577",Match,Non_Exact,"17428 TOAKOANA DR, EAGLE RIVER, AK, 99577",190805525,R,02,020,000203,5000,-149.55684,61.30830400000001
4291,9637 BALANDRA CIR,Anchorage,AK,99577,"9637 BALANDRA CIR, Anchorage, AK, 99577",Match,Non_Exact,"9637 BALANDRA CIR, EAGLE RIVER, AK, 99577",190805644,L,02,020,000203,4004,-149.53075,61.30785
4292,18126 MISTY FALLS CIR,Anchorage,AK,99577,"18126 MISTY FALLS CIR, Anchorage, AK, 99577",Match,Non_Exact,"18126 MISTY FALLS CIR, EAGLE RIVER, AK, 99577",190805549,R,02,020,000203,5006,-149.54433999999998,61.305916
4293,18757 SARICHEF LOOP,Anchorage,AK,99577,"18757 SARICHEF LOOP, Anchorage, AK, 99577",Match,Non_Exact,"18757 SARICHEF LOOP, EAGLE RIVER, AK, 99577",605287919,L,02,020,000203,4006,-149.53273000000002,61.3055
4294,18132 MISTY FALLS CIR,Anchorage,AK,99577,"18132 MISTY FALLS CIR, Anchorage, AK, 99577",Match,Non_Exact,"18132 MISTY FALLS CIR, EAGLE RIVER, AK, 99577",190805549,R,02,020,000203,5006,-149.54428000000001,61.305912
4295,9432 AGATTU CIR,Anchorage,AK,99577,"9432 AGATTU CIR, Anchorage, AK, 99577",Match,Non_Exact,"9432 AGATTU CIR, EAGLE RIVER, AK, 99577",190805600,L,02,020,000203,4006,-149.53453000000002,61.305496
4296,18751 SARICHEF LOOP,Anchorage,AK,99577,"18751 SARICHEF LOOP, Anchorage, AK, 99577",Match,Non_Exact,"18751 SARICHEF LOOP, EAGLE RIVER, AK, 99577",605287919,L,02,020,000203,4006,-149.53278,61.305454000000005
4297,9424 W KANAGA LOOP,Anchorage,AK,99577,"9424 W KANAGA LOOP, Anchorage, AK, 99577",Match,Non_Exact,"9424 W KANAGA LOOP, EAGLE RIVER, AK, 99577",605287939,R,02,020,000203,3015,-149.53773,61.30546
4298,9421 W KANAGA LOOP,Anchorage,AK,99577,"9421 W KANAGA LOOP, Anchorage, AK, 99577",No_Match,,,,,,,,,,
4299,20112 HIGHLAND RIDGE DR,Anchorage,AK,99577,"20112 HIGHLAND RIDGE DR, Anchorage, AK, 99577",Match,Non_Exact,"20112 HIGHLAND RIDGE DR, EAGLE RIVER, AK, 99577",625718494,L,02,020,000203,3002,-149.50773999999998,61.30299
4300,18223 DRIFTWOOD BAY DR,Anchorage,AK,99577,"18223 DRIFTWOOD BAY DR, Anchorage, AK, 99577",Match,Non_Exact,"18223 DRIFTWOOD BAY DR, EAGLE RIVER, AK, 99577",605317239,L,02,020,000203,5008,-149.54129,61.30305
4301,18147 DRIFTWOOD BAY DR,Anchorage,AK,99577,"18147 DRIFTWOOD BAY DR, Anchorage, AK, 99577",Match,Non_Exact,"18147 DRIFTWOOD BAY DR, EAGLE RIVER, AK, 99577",190805559,L,02,020,000203,5008,-149.54286000000002,61.303169999999994
4302,20041 HIGHLAND RIDGE DR,Anchorage,AK,99577,"20041 HIGHLAND RIDGE DR, Anchorage, AK, 99577",Match,Non_Exact,"20041 HIGHLAND RIDGE DR, EAGLE RIVER, AK, 99577",190819652,L,02,020,000203,3015,-149.5135,61.30226999999999
4303,9158 W PARKVIEW TERRACE LOOP,Anchorage,AK,99577,"9158 W PARKVIEW TERRACE LOOP, Anchorage, AK, 99577",Match,Non_Exact,"9158 W PARKVIEW TER LP, EAGLE RIVER, AK, 99577",190805557,L,02,020,000203,5000,-149.54439,61.303135
4304,20104 HIGHLAND RIDGE DR,Anchorage,AK,99577,"20104 HIGHLAND RIDGE DR, Anchorage, AK, 99577",Match,Non_Exact,"20104 HIGHLAND RIDGE DR, EAGLE RIVER, AK, 99577",625718494,L,02,020,000203,3002,-149.50783,61.30296
4305,20035 HIGHLAND RIDGE DR,Anchorage,AK,99577,"20035 HIGHLAND RIDGE DR, Anchorage, AK, 99577",Match,Non_Exact,"20035 HIGHLAND RIDGE DR, EAGLE RIVER, AK, 99577",190819652,L,02,020,000203,3015,-149.51358000000002,61.302265000000006
4306,20015 HIGHLAND RIDGE DR,Anchorage,AK,99577,"20015 HIGHLAND RIDGE DR, Anchorage, AK, 99577",Match,Non_Exact,"20015 HIGHLAND RIDGE DR, EAGLE RIVER, AK, 99577",190819652,L,02,020,000203,3015,-149.51381999999998,61.302257999999995
4307,20023 HIGHLAND RIDGE DR,Anchorage,AK,99577,"20023 HIGHLAND RIDGE DR, Anchorage, AK, 99577",Match,Non_Exact,"20023 HIGHLAND RIDGE DR, EAGLE RIVER, AK, 99577",190819652,L,02,020,000203,3015,-149.51373,61.30226
4308,20003 HIGHLAND RIDGE DR,Anchorage,AK,99577,"20003 HIGHLAND RIDGE DR, Anchorage, AK, 99577",Match,Non_Exact,"20003 HIGHLAND RIDGE DR, EAGLE RIVER, AK, 99577",190819652,L,02,020,000203,3015,-149.51396,61.302254000000005
4309,19937 HIGHLAND RIDGE DR,Anchorage,AK,99577,"19937 HIGHLAND RIDGE DR, Anchorage, AK, 99577",Match,Non_Exact,"19937 HIGHLAND RIDGE DR, EAGLE RIVER, AK, 99577",190819652,L,02,020,000203,3015,-149.51477,61.302257999999995
4310,9148 W PARKVIEW TERRACE LOOP,Anchorage,AK,99577,"9148 W PARKVIEW TERRACE LOOP, Anchorage, AK, 99577",Match,Non_Exact,"9148 W PARKVIEW TER LP, EAGLE RIVER, AK, 99577",190805557,L,02,020,000203,5000,-149.54422,61.303084999999996
4311,20100 HIGHLAND RIDGE DR,Anchorage,AK,99577,"20100 HIGHLAND RIDGE DR, Anchorage, AK, 99577",Match,Non_Exact,"20100 HIGHLAND RIDGE DR, EAGLE RIVER, AK, 99577",625718494,L,02,020,000203,3002,-149.50787,61.302948
4312,19931 HIGHLAND RIDGE DR,Anchorage,AK,99577,"19931 HIGHLAND RIDGE DR, Anchorage, AK, 99577",Match,Non_Exact,"19931 HIGHLAND RIDGE DR, EAGLE RIVER, AK, 99577",190819652,L,02,020,000203,3015,-149.51483000000002,61.30226
4313,20042 HIGHLAND RIDGE DR,Anchorage,AK,99577,"20042 HIGHLAND RIDGE DR, Anchorage, AK, 99577",Match,Non_Exact,"20042 HIGHLAND RIDGE DR, EAGLE RIVER, AK, 99577",625718494,L,02,020,000203,3002,-149.50863999999999,61.30282
4314,9140 W PARKVIEW TERRACE LOOP,Anchorage,AK,99577,"9140 W PARKVIEW TERRACE LOOP, Anchorage, AK, 99577",Match,Non_Exact,"9140 W PARKVIEW TER LP, EAGLE RIVER, AK, 99577",190805557,L,02,020,000203,5000,-149.54408,61.303047
4315,19927 HIGHLAND RIDGE DR,Anchorage,AK,99577,"19927 HIGHLAND RIDGE DR, Anchorage, AK, 99577",Match,Non_Exact,"19927 HIGHLAND RIDGE DR, EAGLE RIVER, AK, 99577",190819652,L,02,020,000203,3015,-149.51488,61.302265000000006
4316,21009 RIVER PARK DR,Anchorage,AK,99577,"21009 RIVER PARK DR, Anchorage, AK, 99577",Match,Non_Exact,"21009 RIVER PARK DR, EAGLE RIVER, AK, 99577",190814332,L,02,020,000204,2010,-149.491,61.288277
4317,20539 MELODY LN,Anchorage,AK,99577,"20539 MELODY LN, Anchorage, AK, 99577",Match,Non_Exact,"20539 MELODY LN, EAGLE RIVER, AK, 99577",190826913,R,02,020,000203,3007,-149.49858,61.309376
4318,17106 LAOANA DR,Anchorage,AK,99577,"17106 LAOANA DR, Anchorage, AK, 99577",Match,Non_Exact,"17106 LAOANA DR, EAGLE RIVER, AK, 99577",190805516,R,02,020,000203,5000,-149.56278999999998,61.309658
4319,9840 DINAAKA DR,Anchorage,AK,99577,"9840 DINAAKA DR, Anchorage, AK, 99577",Match,Non_Exact,"9840 DINAAKA DR, EAGLE RIVER, AK, 99577",190805535,L,02,020,000203,5007,-149.55186,61.309509999999996
4320,9838 E CHICHAGOF LOOP,Anchorage,AK,99577,"9838 E CHICHAGOF LOOP, Anchorage, AK, 99577",Match,Non_Exact,"9838 E CHICHAGOF LOOP, EAGLE RIVER, AK, 99577",190805736,L,02,020,000203,4005,-149.52655,61.309490000000004
4321,9834 SAAYA CIR,Anchorage,AK,99577,"9834 SAAYA CIR, Anchorage, AK, 99577",Match,Non_Exact,"9834 SAAYA CIR, EAGLE RIVER, AK, 99577",190805519,R,02,020,000203,5000,-149.56465,61.309654
4322,17228 LAOANA DR,Anchorage,AK,99577,"17228 LAOANA DR, Anchorage, AK, 99577",Match,Non_Exact,"17228 LAOANA DR, EAGLE RIVER, AK, 99577",190805516,R,02,020,000203,5000,-149.56088,61.309585999999996
4323,9826 DINAAKA DR,Anchorage,AK,99577,"9826 DINAAKA DR, Anchorage, AK, 99577",Match,Non_Exact,"9826 DINAAKA DR, EAGLE RIVER, AK, 99577",190805535,L,02,020,000203,5007,-149.55247,61.309364
4324,9841 DINAAKA DR,Anchorage,AK,99577,"9841 DINAAKA DR, Anchorage, AK, 99577",Match,Non_Exact,"9841 DINAAKA DR, EAGLE RIVER, AK, 99577",190805732,R,02,020,000203,5000,-149.55157,61.309505
4325,17216 LAOANA DR,Anchorage,AK,99577,"17216 LAOANA DR, Anchorage, AK, 99577",Match,Non_Exact,"17216 LAOANA DR, EAGLE RIVER, AK, 99577",190805516,R,02,020,000203,5000,-149.56111,61.309536
4326,19133 UNALASKA CIR,Anchorage,AK,99577,"19133 UNALASKA CIR, Anchorage, AK, 99577",Match,Non_Exact,"19133 UNALASKA CIR, EAGLE RIVER, AK, 99577",190805759,L,02,020,000203,4001,-149.52626,61.309321999999995
4327,18911 N CHICHAGOF LOOP,Anchorage,AK,99577,"18911 N CHICHAGOF LOOP, Anchorage, AK, 99577",Match,Non_Exact,"18911 N CHICHAGOF LOOP, EAGLE RIVER, AK, 99577",190805663,L,02,020,000203,4001,-149.52965,61.309216000000006
4328,17108 LAOANA DR,Anchorage,AK,99577,"17108 LAOANA DR, Anchorage, AK, 99577",Match,Non_Exact,"17108 LAOANA DR, EAGLE RIVER, AK, 99577",190805516,R,02,020,000203,5000,-149.56278999999998,61.30964
4329,9851 DINAAKA DR,Anchorage,AK,99577,"9851 DINAAKA DR, Anchorage, AK, 99577",Match,Non_Exact,"9851 DINAAKA DR, EAGLE RIVER, AK, 99577",190805732,R,02,020,000203,5000,-149.55138,61.309493999999994
4330,17206 LAOANA DR,Anchorage,AK,99577,"17206 LAOANA DR, Anchorage, AK, 99577",Match,Non_Exact,"17206 LAOANA DR, EAGLE RIVER, AK, 99577",190805516,R,02,020,000203,5000,-149.56131000000002,61.30951999999999
4331,18519 CULROSS CIR,Anchorage,AK,99577,"18519 CULROSS CIR, Anchorage, AK, 99577",Match,Non_Exact,"18519 CULROSS CIR, EAGLE RIVER, AK, 99577",190825843,R,02,020,000203,3015,-149.5378,61.306454
4332,18114 N PARKVIEW TERRACE LOOP,Anchorage,AK,99577,"18114 N PARKVIEW TERRACE LOOP, Anchorage, AK, 99577",Match,Non_Exact,"18114 N PARKVIEW TER LP, EAGLE RIVER, AK, 99577",190808441,R,02,020,000203,5006,-149.54385,61.3067
4333,18703 N LOWRIE LOOP,Anchorage,AK,99577,"18703 N LOWRIE LOOP, Anchorage, AK, 99577",Match,Non_Exact,"18703 N LOWRIE LOOP, EAGLE RIVER, AK, 99577",190826070,R,02,020,000203,4006,-149.53345,61.307663
4334,18124 N PARKVIEW TERRACE LOOP,Anchorage,AK,99577,"18124 N PARKVIEW TERRACE LOOP, Anchorage, AK, 99577",Match,Non_Exact,"18124 N PARKVIEW TER LP, EAGLE RIVER, AK, 99577",190808441,R,02,020,000203,5006,-149.54372,61.306709999999995
4335,18607 S LOWRIE LOOP,Anchorage,AK,99577,"18607 S LOWRIE LOOP, Anchorage, AK, 99577",Match,Non_Exact,"18607 S LOWRIE LOOP, EAGLE RIVER, AK, 99577",190818934,L,02,020,000203,4008,-149.53583999999998,61.30661
4336,18613 S LOWRIE LOOP,Anchorage,AK,99577,"18613 S LOWRIE LOOP, Anchorage, AK, 99577",Match,Non_Exact,"18613 S LOWRIE LOOP, EAGLE RIVER, AK, 99577",190818934,L,02,020,000203,4008,-149.53578000000002,61.306602000000005
4337,9510 W PARKVIEW TERRACE LOOP,Anchorage,AK,99577,"9510 W PARKVIEW TERRACE LOOP, Anchorage, AK, 99577",Match,Non_Exact,"9510 W PARKVIEW TER LP, EAGLE RIVER, AK, 99577",190805548,L,02,020,000203,5000,-149.54561999999999,61.306305
4338,18517 CULROSS CIR,Anchorage,AK,99577,"18517 CULROSS CIR, Anchorage, AK, 99577",Match,Non_Exact,"18517 CULROSS CIR, EAGLE RIVER, AK, 99577",190825843,R,02,020,000203,3015,-149.53783,61.306442000000004
4339,18206 N PARKVIEW TERRACE LOOP,Anchorage,AK,99577,"18206 N PARKVIEW TERRACE LOOP, Anchorage, AK, 99577",Match,Non_Exact,"18206 N PARKVIEW TER LP, EAGLE RIVER, AK, 99577",190808441,R,02,020,000203,5006,-149.54271,61.306713
4340,18619 S LOWRIE LOOP,Anchorage,AK,99577,"18619 S LOWRIE LOOP, Anchorage, AK, 99577",Match,Non_Exact,"18619 S LOWRIE LOOP, EAGLE RIVER, AK, 99577",190818934,L,02,020,000203,4008,-149.5357,61.306594999999994
4341,20640 PTARMIGAN BLVD,Anchorage,AK,99577,"20640 PTARMIGAN BLVD, Anchorage, AK, 99577",Match,Non_Exact,"20640 PTARMIGAN BLVD, EAGLE RIVER, AK, 99577",605288341,R,02,020,000203,3000,-149.49625,61.307109999999994
4342,18326 GAVIN CIR,Anchorage,AK,99577,"18326 GAVIN CIR, Anchorage, AK, 99577",Match,Non_Exact,"18326 GAVIN CIR, EAGLE RIVER, AK, 99577",190805542,R,02,020,000203,5000,-149.54086,61.30676
4343,18328 GAVIN CIR,Anchorage,AK,99577,"18328 GAVIN CIR, Anchorage, AK, 99577",Match,Non_Exact,"18328 GAVIN CIR, EAGLE RIVER, AK, 99577",190805542,R,02,020,000203,5000,-149.54085,61.30676
4344,18625 S LOWRIE LOOP,Anchorage,AK,99577,"18625 S LOWRIE LOOP, Anchorage, AK, 99577",Match,Non_Exact,"18625 S LOWRIE LOOP, EAGLE RIVER, AK, 99577",190818934,L,02,020,000203,4008,-149.53564,61.306587
4345,18629 S LOWRIE LOOP,Anchorage,AK,99577,"18629 S LOWRIE LOOP, Anchorage, AK, 99577",Match,Non_Exact,"18629 S LOWRIE LOOP, EAGLE RIVER, AK, 99577",190818934,L,02,020,000203,4008,-149.5356,61.306582999999996
4346,18631 S LOWRIE LOOP,Anchorage,AK,99577,"18631 S LOWRIE LOOP, Anchorage, AK, 99577",Match,Non_Exact,"18631 S LOWRIE LOOP, EAGLE RIVER, AK, 99577",190818934,L,02,020,000203,4008,-149.53557,61.306580000000004
4347,18756 S LOWRIE LOOP,Anchorage,AK,99577,"18756 S LOWRIE LOOP, Anchorage, AK, 99577",Match,Non_Exact,"18756 S LOWRIE LOOP, EAGLE RIVER, AK, 99577",190818934,R,02,020,000203,4006,-149.53412,61.306419999999996
4348,18635 S LOWRIE LOOP,Anchorage,AK,99577,"18635 S LOWRIE LOOP, Anchorage, AK, 99577",Match,Non_Exact,"18635 S LOWRIE LOOP, EAGLE RIVER, AK, 99577",190818934,L,02,020,000203,4008,-149.53552,61.306576
4349,7505 BOUNDARY AVE,Anchorage,AK,99504,"7505 BOUNDARY AVE, Anchorage, AK, 99504",Match,Exact,"7505 BOUNDARY AVE, ANCHORAGE, AK, 99504",605167228,L,02,020,000702,1001,-149.74295,61.224180000000004
4350,7505 BOUNDARY AVE,Anchorage,AK,99504,"7505 BOUNDARY AVE, Anchorage, AK, 99504",Match,Exact,"7505 BOUNDARY AVE, ANCHORAGE, AK, 99504",605167228,L,02,020,000702,1001,-149.74295,61.224180000000004
4351,7505 BOUNDARY AVE,Anchorage,AK,99504,"7505 BOUNDARY AVE, Anchorage, AK, 99504",Match,Exact,"7505 BOUNDARY AVE, ANCHORAGE, AK, 99504",605167228,L,02,020,000702,1001,-149.74295,61.224180000000004
4352,7505 BOUNDARY AVE,Anchorage,AK,99504,"7505 BOUNDARY AVE, Anchorage, AK, 99504",Match,Exact,"7505 BOUNDARY AVE, ANCHORAGE, AK, 99504",605167228,L,02,020,000702,1001,-149.74295,61.224180000000004
4353,7505 BOUNDARY AVE,Anchorage,AK,99504,"7505 BOUNDARY AVE, Anchorage, AK, 99504",Match,Exact,"7505 BOUNDARY AVE, ANCHORAGE, AK, 99504",605167228,L,02,020,000702,1001,-149.74295,61.224180000000004
4354,7505 BOUNDARY AVE,Anchorage,AK,99504,"7505 BOUNDARY AVE, Anchorage, AK, 99504",Match,Exact,"7505 BOUNDARY AVE, ANCHORAGE, AK, 99504",605167228,L,02,020,000702,1001,-149.74295,61.224180000000004
4355,7505 BOUNDARY AVE,Anchorage,AK,99504,"7505 BOUNDARY AVE, Anchorage, AK, 99504",Match,Exact,"7505 BOUNDARY AVE, ANCHORAGE, AK, 99504",605167228,L,02,020,000702,1001,-149.74295,61.224180000000004
4356,7505 BOUNDARY AVE,Anchorage,AK,99504,"7505 BOUNDARY AVE, Anchorage, AK, 99504",Match,Exact,"7505 BOUNDARY AVE, ANCHORAGE, AK, 99504",605167228,L,02,020,000702,1001,-149.74295,61.224180000000004
4357,7505 BOUNDARY AVE,Anchorage,AK,99504,"7505 BOUNDARY AVE, Anchorage, AK, 99504",Match,Exact,"7505 BOUNDARY AVE, ANCHORAGE, AK, 99504",605167228,L,02,020,000702,1001,-149.74295,61.224180000000004
4358,7505 BOUNDARY AVE,Anchorage,AK,99504,"7505 BOUNDARY AVE, Anchorage, AK, 99504",Match,Exact,"7505 BOUNDARY AVE, ANCHORAGE, AK, 99504",605167228,L,02,020,000702,1001,-149.74295,61.224180000000004
4359,7505 BOUNDARY AVE,Anchorage,AK,99504,"7505 BOUNDARY AVE, Anchorage, AK, 99504",Match,Exact,"7505 BOUNDARY AVE, ANCHORAGE, AK, 99504",605167228,L,02,020,000702,1001,-149.74295,61.224180000000004
4360,7505 BOUNDARY AVE,Anchorage,AK,99504,"7505 BOUNDARY AVE, Anchorage, AK, 99504",Match,Exact,"7505 BOUNDARY AVE, ANCHORAGE, AK, 99504",605167228,L,02,020,000702,1001,-149.74295,61.224180000000004
4361,7505 BOUNDARY AVE,Anchorage,AK,99504,"7505 BOUNDARY AVE, Anchorage, AK, 99504",Match,Exact,"7505 BOUNDARY AVE, ANCHORAGE, AK, 99504",605167228,L,02,020,000702,1001,-149.74295,61.224180000000004
4362,7505 BOUNDARY AVE,Anchorage,AK,99504,"7505 BOUNDARY AVE, Anchorage, AK, 99504",Match,Exact,"7505 BOUNDARY AVE, ANCHORAGE, AK, 99504",605167228,L,02,020,000702,1001,-149.74295,61.224180000000004
4363,7505 BOUNDARY AVE,Anchorage,AK,99504,"7505 BOUNDARY AVE, Anchorage, AK, 99504",Match,Exact,"7505 BOUNDARY AVE, ANCHORAGE, AK, 99504",605167228,L,02,020,000702,1001,-149.74295,61.224180000000004
4364,7505 BOUNDARY AVE,Anchorage,AK,99504,"7505 BOUNDARY AVE, Anchorage, AK, 99504",Match,Exact,"7505 BOUNDARY AVE, ANCHORAGE, AK, 99504",605167228,L,02,020,000702,1001,-149.74295,61.224180000000004
4365,7505 BOUNDARY AVE,Anchorage,AK,99504,"7505 BOUNDARY AVE, Anchorage, AK, 99504",Match,Exact,"7505 BOUNDARY AVE, ANCHORAGE, AK, 99504",605167228,L,02,020,000702,1001,-149.74295,61.224180000000004
4366,7505 BOUNDARY AVE,Anchorage,AK,99504,"7505 BOUNDARY AVE, Anchorage, AK, 99504",Match,Exact,"7505 BOUNDARY AVE, ANCHORAGE, AK, 99504",605167228,L,02,020,000702,1001,-149.74295,61.224180000000004
4367,7505 BOUNDARY AVE,Anchorage,AK,99504,"7505 BOUNDARY AVE, Anchorage, AK, 99504",Match,Exact,"7505 BOUNDARY AVE, ANCHORAGE, AK, 99504",605167228,L,02,020,000702,1001,-149.74295,61.224180000000004
4368,7505 BOUNDARY AVE,Anchorage,AK,99504,"7505 BOUNDARY AVE, Anchorage, AK, 99504",Match,Exact,"7505 BOUNDARY AVE, ANCHORAGE, AK, 99504",605167228,L,02,020,000702,1001,-149.74295,61.224180000000004
4369,7505 BOUNDARY AVE,Anchorage,AK,99504,"7505 BOUNDARY AVE, Anchorage, AK, 99504",Match,Exact,"7505 BOUNDARY AVE, ANCHORAGE, AK, 99504",605167228,L,02,020,000702,1001,-149.74295,61.224180000000004
4370,7505 BOUNDARY AVE,Anchorage,AK,99504,"7505 BOUNDARY AVE, Anchorage, AK, 99504",Match,Exact,"7505 BOUNDARY AVE, ANCHORAGE, AK, 99504",605167228,L,02,020,000702,1001,-149.74295,61.224180000000004
4371,7505 BOUNDARY AVE,Anchorage,AK,99504,"7505 BOUNDARY AVE, Anchorage, AK, 99504",Match,Exact,"7505 BOUNDARY AVE, ANCHORAGE, AK, 99504",605167228,L,02,020,000702,1001,-149.74295,61.224180000000004
4372,7505 BOUNDARY AVE,Anchorage,AK,99504,"7505 BOUNDARY AVE, Anchorage, AK, 99504",Match,Exact,"7505 BOUNDARY AVE, ANCHORAGE, AK, 99504",605167228,L,02,020,000702,1001,-149.74295,61.224180000000004
4373,7505 BOUNDARY AVE,Anchorage,AK,99504,"7505 BOUNDARY AVE, Anchorage, AK, 99504",Match,Exact,"7505 BOUNDARY AVE, ANCHORAGE, AK, 99504",605167228,L,02,020,000702,1001,-149.74295,61.224180000000004
4374,7630 BOUNDARY AVE,Anchorage,AK,99504,"7630 BOUNDARY AVE, Anchorage, AK, 99504",Match,Exact,"7630 BOUNDARY AVE, ANCHORAGE, AK, 99504",605167217,R,02,020,000702,2000,-149.73889,61.224169999999994
4375,109 BURTON ST,Anchorage,AK,99504,"109 BURTON ST, Anchorage, AK, 99504",Match,Exact,"109 BURTON ST, ANCHORAGE, AK, 99504",190802857,L,02,020,000702,2000,-149.74193,61.223133
4376,112 RUSTY ALLEN PL,Anchorage,AK,99504,"112 RUSTY ALLEN PL, Anchorage, AK, 99504",Match,Exact,"112 RUSTY ALLEN PL, ANCHORAGE, AK, 99504",605185494,R,02,020,000701,1000,-149.76071000000002,61.22339
4377,108 BURTON ST,Anchorage,AK,99504,"108 BURTON ST, Anchorage, AK, 99504",Match,Exact,"108 BURTON ST, ANCHORAGE, AK, 99504",190802857,R,02,020,000702,1006,-149.74196,61.223133
4378,101 BUNNELL ST,Anchorage,AK,99508,"101 BUNNELL ST, Anchorage, AK, 99508",Match,Exact,"101 BUNNELL ST, ANCHORAGE, AK, 99508",190801680,L,02,020,000801,2001,-149.78972,61.224037
4379,101 BUNNELL ST,Anchorage,AK,99508,"101 BUNNELL ST, Anchorage, AK, 99508",Match,Exact,"101 BUNNELL ST, ANCHORAGE, AK, 99508",190801680,L,02,020,000801,2001,-149.78972,61.224037
4380,101 BUNNELL ST,Anchorage,AK,99508,"101 BUNNELL ST, Anchorage, AK, 99508",Match,Exact,"101 BUNNELL ST, ANCHORAGE, AK, 99508",190801680,L,02,020,000801,2001,-149.78972,61.224037
4381,10010 CREST VIEW LN,Anchorage,AK,99577,"10010 CREST VIEW LN, Anchorage, AK, 99577",No_Match,,,,,,,,,,
4382,10021 CREST VIEW LN,Anchorage,AK,99577,"10021 CREST VIEW LN, Anchorage, AK, 99577",Match,Non_Exact,"10021 CREST VIEW LN, EAGLE RIVER, AK, 99577",190792803,R,02,020,000203,1019,-149.52467,61.310894
4383,10014 BIRCH LN,Anchorage,AK,99577,"10014 BIRCH LN, Anchorage, AK, 99577",Match,Non_Exact,"10014 BIRCH LN, EAGLE RIVER, AK, 99577",190826923,R,02,020,000203,1017,-149.53151,61.310867
4384,16820 EAGLE RIVER RD,Anchorage,AK,99577,"16820 EAGLE RIVER RD, Anchorage, AK, 99577",Match,Non_Exact,"16820 EAGLE RIVER RD, EAGLE RIVER, AK, 99577",190818944,R,02,020,000203,5000,-149.56905,61.312084
4385,12501 CRESTED BUTTE DR,Anchorage,AK,99577,"12501 CRESTED BUTTE DR, Anchorage, AK, 99577",Match,Non_Exact,"12501 CRESTED BUTTE DR, EAGLE RIVER, AK, 99577",190810952,R,02,020,000201,1007,-149.57768000000002,61.333576
4386,12421 LAKE ST,Anchorage,AK,99577,"12421 LAKE ST, Anchorage, AK, 99577",Match,Non_Exact,"12421 LAKE ST, EAGLE RIVER, AK, 99577",190792390,R,02,020,000201,1007,-149.57036000000002,61.331875
4387,12441 LAKE ST,Anchorage,AK,99577,"12441 LAKE ST, Anchorage, AK, 99577",Match,Non_Exact,"12441 LAKE ST, EAGLE RIVER, AK, 99577",190792390,R,02,020,000201,1007,-149.57036000000002,61.33198
4388,12411 LAKE ST,Anchorage,AK,99577,"12411 LAKE ST, Anchorage, AK, 99577",Match,Non_Exact,"12411 LAKE ST, EAGLE RIVER, AK, 99577",190792390,R,02,020,000201,1007,-149.57036000000002,61.33181999999999
4389,11827 GALLOWAY LOOP,Anchorage,AK,99577,"11827 GALLOWAY LOOP, Anchorage, AK, 99577",Match,Non_Exact,"11827 GALLOWAY LOOP, EAGLE RIVER, AK, 99577",624156303,R,02,020,000201,2001,-149.57802,61.3272
4390,11757 GALLOWAY LOOP,Anchorage,AK,99577,"11757 GALLOWAY LOOP, Anchorage, AK, 99577",Match,Non_Exact,"11757 GALLOWAY LOOP, EAGLE RIVER, AK, 99577",624156300,R,02,020,000201,2001,-149.5777,61.326668000000005
4391,11829 GALLOWAY LOOP,Anchorage,AK,99577,"11829 GALLOWAY LOOP, Anchorage, AK, 99577",Match,Non_Exact,"11829 GALLOWAY LOOP, EAGLE RIVER, AK, 99577",624156303,R,02,020,000201,2001,-149.57806000000002,61.327175
4392,11755 GALLOWAY LOOP,Anchorage,AK,99577,"11755 GALLOWAY LOOP, Anchorage, AK, 99577",Match,Non_Exact,"11755 GALLOWAY LOOP, EAGLE RIVER, AK, 99577",624156300,R,02,020,000201,2001,-149.57773,61.326640000000005
4393,11764 GALENA BAY LOOP,Anchorage,AK,99577,"11764 GALENA BAY LOOP, Anchorage, AK, 99577",No_Match,,,,,,,,,,
4394,11776 GALENA BAY LOOP,Anchorage,AK,99577,"11776 GALENA BAY LOOP, Anchorage, AK, 99577",No_Match,,,,,,,,,,
4395,11770 GALENA BAY LOOP,Anchorage,AK,99577,"11770 GALENA BAY LOOP, Anchorage, AK, 99577",No_Match,,,,,,,,,,
4396,11784 GALENA BAY LOOP,Anchorage,AK,99577,"11784 GALENA BAY LOOP, Anchorage, AK, 99577",Match,Non_Exact,"11784 GALENA BAY LOOP, EAGLE RIVER, AK, 99577",605334867,L,02,020,000201,2002,-149.58061,61.32680500000001
4397,11778 GALENA BAY LOOP,Anchorage,AK,99577,"11778 GALENA BAY LOOP, Anchorage, AK, 99577",No_Match,,,,,,,,,,
4398,11824 GALLOWAY LOOP,Anchorage,AK,99577,"11824 GALLOWAY LOOP, Anchorage, AK, 99577",Match,Non_Exact,"11824 GALLOWAY LOOP, EAGLE RIVER, AK, 99577",624156303,L,02,020,000201,2005,-149.57797,61.327217000000005
4399,11833 GALLOWAY LOOP,Anchorage,AK,99577,"11833 GALLOWAY LOOP, Anchorage, AK, 99577",Match,Non_Exact,"11833 GALLOWAY LOOP, EAGLE RIVER, AK, 99577",624156303,R,02,020,000201,2001,-149.57811999999998,61.327126
4400,11786 GALENA BAY LOOP,Anchorage,AK,99577,"11786 GALENA BAY LOOP, Anchorage, AK, 99577",Match,Non_Exact,"11786 GALENA BAY LOOP, EAGLE RIVER, AK, 99577",605334867,L,02,020,000201,2002,-149.58069,61.326893000000005
4401,11826 GALLOWAY LOOP,Anchorage,AK,99577,"11826 GALLOWAY LOOP, Anchorage, AK, 99577",Match,Non_Exact,"11826 GALLOWAY LOOP, EAGLE RIVER, AK, 99577",624156303,L,02,020,000201,2005,-149.578,61.32719399999999
4402,11832 GALLOWAY LOOP,Anchorage,AK,99577,"11832 GALLOWAY LOOP, Anchorage, AK, 99577",Match,Non_Exact,"11832 GALLOWAY LOOP, EAGLE RIVER, AK, 99577",624156303,L,02,020,000201,2005,-149.5781,61.327119999999994
4403,11835 GALLOWAY LOOP,Anchorage,AK,99577,"11835 GALLOWAY LOOP, Anchorage, AK, 99577",Match,Non_Exact,"11835 GALLOWAY LOOP, EAGLE RIVER, AK, 99577",624156303,R,02,020,000201,2001,-149.57814,61.32709499999999
4404,11751 GALLOWAY LOOP,Anchorage,AK,99577,"11751 GALLOWAY LOOP, Anchorage, AK, 99577",Match,Non_Exact,"11751 GALLOWAY LOOP, EAGLE RIVER, AK, 99577",624156300,R,02,020,000201,2001,-149.57777,61.326595
4405,11827 FALKLANDS LOOP,Anchorage,AK,99577,"11827 FALKLANDS LOOP, Anchorage, AK, 99577",Match,Non_Exact,"11827 FALKLANDS LOOP, EAGLE RIVER, AK, 99577",605335644,R,02,020,000201,2001,-149.57953999999998,61.326781999999994
4406,11834 GALLOWAY LOOP,Anchorage,AK,99577,"11834 GALLOWAY LOOP, Anchorage, AK, 99577",Match,Non_Exact,"11834 GALLOWAY LOOP, EAGLE RIVER, AK, 99577",624156303,L,02,020,000201,2005,-149.57811999999998,61.327090000000005
4407,11758 GALENA BAY LOOP,Anchorage,AK,99577,"11758 GALENA BAY LOOP, Anchorage, AK, 99577",No_Match,,,,,,,,,,
4408,11825 FALKLANDS LOOP,Anchorage,AK,99577,"11825 FALKLANDS LOOP, Anchorage, AK, 99577",Match,Non_Exact,"11825 FALKLANDS LOOP, EAGLE RIVER, AK, 99577",605335644,R,02,020,000201,2001,-149.57956000000001,61.326769999999996
4409,11821 FALKLANDS LOOP,Anchorage,AK,99577,"11821 FALKLANDS LOOP, Anchorage, AK, 99577",Match,Non_Exact,"11821 FALKLANDS LOOP, EAGLE RIVER, AK, 99577",605335644,R,02,020,000201,2001,-149.57959,61.326744
4410,11787 GALENA BAY LOOP,Anchorage,AK,99577,"11787 GALENA BAY LOOP, Anchorage, AK, 99577",Match,Non_Exact,"11787 GALENA BAY LOOP, EAGLE RIVER, AK, 99577",605334899,R,02,020,000201,2002,-149.5803,61.32649
4411,11785 GALENA BAY LOOP,Anchorage,AK,99577,"11785 GALENA BAY LOOP, Anchorage, AK, 99577",Match,Non_Exact,"11785 GALENA BAY LOOP, EAGLE RIVER, AK, 99577",605334899,R,02,020,000201,2002,-149.5803,61.326480000000004
4412,11839 GALLOWAY LOOP,Anchorage,AK,99577,"11839 GALLOWAY LOOP, Anchorage, AK, 99577",Match,Non_Exact,"11839 GALLOWAY LOOP, EAGLE RIVER, AK, 99577",624156303,R,02,020,000201,2001,-149.57818999999998,61.327045
4413,20933 RIVER PARK DR,Anchorage,AK,99577,"20933 RIVER PARK DR, Anchorage, AK, 99577",Match,Non_Exact,"20933 RIVER PARK DR, EAGLE RIVER, AK, 99577",190814332,L,02,020,000204,2010,-149.49202,61.288277
4414,20911 RIVER PARK DR,Anchorage,AK,99577,"20911 RIVER PARK DR, Anchorage, AK, 99577",Match,Non_Exact,"20911 RIVER PARK DR, EAGLE RIVER, AK, 99577",190814332,L,02,020,000204,2010,-149.49231,61.288277
4415,20815 RIVER PARK DR,Anchorage,AK,99577,"20815 RIVER PARK DR, Anchorage, AK, 99577",Match,Non_Exact,"20815 RIVER PARK DR, EAGLE RIVER, AK, 99577",636131974,R,02,020,000204,2010,-149.49428,61.28828000000001
4416,20839 RIVER PARK DR,Anchorage,AK,99577,"20839 RIVER PARK DR, Anchorage, AK, 99577",Match,Non_Exact,"20839 RIVER PARK DR, EAGLE RIVER, AK, 99577",636131974,R,02,020,000204,2010,-149.49388000000002,61.28828000000001
4417,21500 RIVER PARK DR,Anchorage,AK,99577,"21500 RIVER PARK DR, Anchorage, AK, 99577",Match,Non_Exact,"21500 RIVER PARK DR, EAGLE RIVER, AK, 99577",190814321,R,02,020,000204,2012,-149.48328,61.288258
4418,21414 RIVER PARK DR,Anchorage,AK,99577,"21414 RIVER PARK DR, Anchorage, AK, 99577",Match,Non_Exact,"21414 RIVER PARK DR, EAGLE RIVER, AK, 99577",190814321,R,02,020,000204,2012,-149.48552,61.288258
4419,21200 RIVER PARK DR,Anchorage,AK,99577,"21200 RIVER PARK DR, Anchorage, AK, 99577",Match,Non_Exact,"21200 RIVER PARK DR, EAGLE RIVER, AK, 99577",190814333,R,02,020,000204,2057,-149.48795,61.28826
4420,20944 RIVER PARK DR,Anchorage,AK,99577,"20944 RIVER PARK DR, Anchorage, AK, 99577",Match,Non_Exact,"20944 RIVER PARK DR, EAGLE RIVER, AK, 99577",190814332,R,02,020,000204,2057,-149.49126,61.288265
4421,21140 RIVER PARK DR,Anchorage,AK,99577,"21140 RIVER PARK DR, Anchorage, AK, 99577",Match,Non_Exact,"21140 RIVER PARK DR, EAGLE RIVER, AK, 99577",190814333,R,02,020,000204,2057,-149.48834,61.28826
4422,21016 RIVER PARK DR,Anchorage,AK,99577,"21016 RIVER PARK DR, Anchorage, AK, 99577",Match,Non_Exact,"21016 RIVER PARK DR, EAGLE RIVER, AK, 99577",190814333,R,02,020,000204,2057,-149.48918,61.28826
4423,20810 RIVER PARK DR,Anchorage,AK,99577,"20810 RIVER PARK DR, Anchorage, AK, 99577",Match,Non_Exact,"20810 RIVER PARK DR, EAGLE RIVER, AK, 99577",636131974,L,02,020,000204,2010,-149.49435,61.28827
4424,21209 WHITE WATER CIR,Anchorage,AK,99577,"21209 WHITE WATER CIR, Anchorage, AK, 99577",Match,Non_Exact,"21209 WHITE WATER CIR, EAGLE RIVER, AK, 99577",190814323,L,02,020,000204,2012,-149.48636000000002,61.288097
4425,7486 RIVER PARK CIR,Anchorage,AK,99577,"7486 RIVER PARK CIR, Anchorage, AK, 99577",Match,Non_Exact,"7486 RIVER PARK CIR, EAGLE RIVER, AK, 99577",190814303,R,02,020,000204,2012,-149.47986,61.288059999999994
4426,7447 WATERFALL DR,Anchorage,AK,99577,"7447 WATERFALL DR, Anchorage, AK, 99577",Match,Non_Exact,"7447 WATERFALL DR, EAGLE RIVER, AK, 99577",190827449,L,02,020,000204,2057,-149.4924,61.287502
4427,7444 WATERFALL DR,Anchorage,AK,99577,"7444 WATERFALL DR, Anchorage, AK, 99577",Match,Non_Exact,"7444 WATERFALL DR, EAGLE RIVER, AK, 99577",190827449,R,02,020,000204,2010,-149.49239,61.28748
4428,7441 RIVER PARK CIR,Anchorage,AK,99577,"7441 RIVER PARK CIR, Anchorage, AK, 99577",Match,Non_Exact,"7441 RIVER PARK CIR, EAGLE RIVER, AK, 99577",190814303,L,02,020,000204,2012,-149.4793,61.287777
4429,7477 WILDWATER CIR,Anchorage,AK,99577,"7477 WILDWATER CIR, Anchorage, AK, 99577",Match,Non_Exact,"7477 WILDWATER CIR, EAGLE RIVER, AK, 99577",190814334,L,02,020,000204,2057,-149.48953,61.288067000000005
4430,7428 RIVER PARK CIR,Anchorage,AK,99577,"7428 RIVER PARK CIR, Anchorage, AK, 99577",Match,Non_Exact,"7428 RIVER PARK CIR, EAGLE RIVER, AK, 99577",190814303,R,02,020,000204,2012,-149.47916999999998,61.287693000000004
4431,7411 WILDWATER CIR,Anchorage,AK,99577,"7411 WILDWATER CIR, Anchorage, AK, 99577",Match,Non_Exact,"7411 WILDWATER CIR, EAGLE RIVER, AK, 99577",190814334,L,02,020,000204,2057,-149.48953,61.28764
4432,7415 RIVER PARK CIR,Anchorage,AK,99577,"7415 RIVER PARK CIR, Anchorage, AK, 99577",Match,Non_Exact,"7415 RIVER PARK CIR, EAGLE RIVER, AK, 99577",190814303,L,02,020,000204,2012,-149.47898999999998,61.28761
4433,21323 WHITE WATER CIR,Anchorage,AK,99577,"21323 WHITE WATER CIR, Anchorage, AK, 99577",Match,Non_Exact,"21323 WHITE WATER CIR, EAGLE RIVER, AK, 99577",190814324,L,02,020,000204,2012,-149.48481999999998,61.287254000000004
4434,21140 FALLING WATER DR,Anchorage,AK,99577,"21140 FALLING WATER DR, Anchorage, AK, 99577",Match,Non_Exact,"21140 FALLING WATER DR, EAGLE RIVER, AK, 99577",190814328,R,02,020,000204,2057,-149.48663,61.28710600000001
4435,7401 WATERFALL DR,Anchorage,AK,99577,"7401 WATERFALL DR, Anchorage, AK, 99577",Match,Non_Exact,"7401 WATERFALL DR, EAGLE RIVER, AK, 99577",190827449,L,02,020,000204,2057,-149.49174,61.287082999999996
4436,21383 WHITE WATER CIR,Anchorage,AK,99577,"21383 WHITE WATER CIR, Anchorage, AK, 99577",Match,Non_Exact,"21383 WHITE WATER CIR, EAGLE RIVER, AK, 99577",190814324,L,02,020,000204,2012,-149.48412,61.28705600000001
4437,7360 WATERFALL DR,Anchorage,AK,99577,"7360 WATERFALL DR, Anchorage, AK, 99577",Match,Non_Exact,"7360 WATERFALL DR, EAGLE RIVER, AK, 99577",190827449,R,02,020,000204,2010,-149.4912,61.286713
4438,7350 RIVER PARK CIR,Anchorage,AK,99577,"7350 RIVER PARK CIR, Anchorage, AK, 99577",Match,Non_Exact,"7350 RIVER PARK CIR, EAGLE RIVER, AK, 99577",190814303,R,02,020,000204,2012,-149.47824,61.287197
4439,21435 WHITE WATER CIR,Anchorage,AK,99577,"21435 WHITE WATER CIR, Anchorage, AK, 99577",Match,Non_Exact,"21435 WHITE WATER CIR, EAGLE RIVER, AK, 99577",190814324,L,02,020,000204,2012,-149.48349,61.28688399999999
4440,7301 RIVER PARK CIR,Anchorage,AK,99577,"7301 RIVER PARK CIR, Anchorage, AK, 99577",Match,Non_Exact,"7301 RIVER PARK CIR, EAGLE RIVER, AK, 99577",190814303,L,02,020,000204,2012,-149.47762,61.28688399999999
4441,21400 WHITE WATER CIR,Anchorage,AK,99577,"21400 WHITE WATER CIR, Anchorage, AK, 99577",Match,Non_Exact,"21400 WHITE WATER CIR, EAGLE RIVER, AK, 99577",190814324,R,02,020,000204,2012,-149.4839,61.286986999999996
4442,21225 FALLING WATER DR,Anchorage,AK,99577,"21225 FALLING WATER DR, Anchorage, AK, 99577",Match,Non_Exact,"21225 FALLING WATER DR, EAGLE RIVER, AK, 99577",190814328,L,02,020,000204,2012,-149.48688,61.28675500000001
4443,9635 BALANDRA CIR,Anchorage,AK,99577,"9635 BALANDRA CIR, Anchorage, AK, 99577",Match,Non_Exact,"9635 BALANDRA CIR, EAGLE RIVER, AK, 99577",190805644,L,02,020,000203,4004,-149.53072,61.307854000000006
4444,9634 DINAAKA DR,Anchorage,AK,99577,"9634 DINAAKA DR, Anchorage, AK, 99577",Match,Non_Exact,"9634 DINAAKA DR, EAGLE RIVER, AK, 99577",643735526,L,02,020,000203,5005,-149.55284,61.307873
4445,18220 HARBOR POINT LOOP,Anchorage,AK,99577,"18220 HARBOR POINT LOOP, Anchorage, AK, 99577",Match,Non_Exact,"18220 HARBOR PT LP, EAGLE RIVER, AK, 99577",190805554,R,02,020,000203,5008,-149.54324,61.304019999999994
4446,18141 HARBOR POINT LOOP,Anchorage,AK,99577,"18141 HARBOR POINT LOOP, Anchorage, AK, 99577",Match,Non_Exact,"18141 HARBOR PT LP, EAGLE RIVER, AK, 99577",190805554,L,02,020,000203,5016,-149.54414,61.30443199999999
4447,9223 W PARKVIEW TERRACE LOOP,Anchorage,AK,99577,"9223 W PARKVIEW TERRACE LOOP, Anchorage, AK, 99577",Match,Non_Exact,"9223 W PARKVIEW TER LP, EAGLE RIVER, AK, 99577",190805557,R,02,020,000203,5008,-149.54543,61.30344399999999
4448,22434 EAGLE GLACIER LOOP,Anchorage,AK,99577,"22434 EAGLE GLACIER LOOP, Anchorage, AK, 99577",Match,Non_Exact,"22434 EAGLE GLACIER LOOP, EAGLE RIVER, AK, 99577",190825984,L,02,020,000203,3000,-149.46361000000002,61.305640000000004
4449,22813 MYRTLE DR,Anchorage,AK,99577,"22813 MYRTLE DR, Anchorage, AK, 99577",Match,Non_Exact,"22813 MYRTLE DR, EAGLE RIVER, AK, 99577",645480095,L,02,020,000204,1007,-149.4564,61.304752
4450,22833 MYRTLE DR,Anchorage,AK,99577,"22833 MYRTLE DR, Anchorage, AK, 99577",Match,Non_Exact,"22833 MYRTLE DR, EAGLE RIVER, AK, 99577",645480095,L,02,020,000204,1007,-149.45613,61.304665
4451,23429 GLACIER VIEW DR,Anchorage,AK,99577,"23429 GLACIER VIEW DR, Anchorage, AK, 99577",Match,Non_Exact,"23429 GLACIER VIEW DR, EAGLE RIVER, AK, 99577",190825507,L,02,020,000204,1007,-149.44531,61.304317000000005
4452,22501 EAGLE GLACIER LOOP,Anchorage,AK,99577,"22501 EAGLE GLACIER LOOP, Anchorage, AK, 99577",Match,Non_Exact,"22501 EAGLE GLACIER LOOP, EAGLE RIVER, AK, 99577",190825984,R,02,020,000203,3003,-149.46281000000002,61.304984999999995
4453,23255 GLACIER VIEW DR,Anchorage,AK,99577,"23255 GLACIER VIEW DR, Anchorage, AK, 99577",Match,Non_Exact,"23255 GLACIER VIEW DR, EAGLE RIVER, AK, 99577",190825507,L,02,020,000204,1007,-149.4493,61.304638
4454,22450 EAGLE GLACIER LOOP,Anchorage,AK,99577,"22450 EAGLE GLACIER LOOP, Anchorage, AK, 99577",Match,Non_Exact,"22450 EAGLE GLACIER LOOP, EAGLE RIVER, AK, 99577",190825984,L,02,020,000203,3000,-149.46335,61.305504000000006
4455,22643 EAGLE RIVER RD,Anchorage,AK,99577,"22643 EAGLE RIVER RD, Anchorage, AK, 99577",Match,Non_Exact,"22643 EAGLE RIVER RD, EAGLE RIVER, AK, 99577",190826142,L,02,020,000204,1007,-149.4587,61.304221999999996
4456,22849 MYRTLE DR,Anchorage,AK,99577,"22849 MYRTLE DR, Anchorage, AK, 99577",Match,Non_Exact,"22849 MYRTLE DR, EAGLE RIVER, AK, 99577",645480095,L,02,020,000204,1007,-149.4559,61.304596
4457,23061 GLACIER VIEW DR,Anchorage,AK,99577,"23061 GLACIER VIEW DR, Anchorage, AK, 99577",Match,Non_Exact,"23061 GLACIER VIEW DR, EAGLE RIVER, AK, 99577",190825498,L,02,020,000204,1007,-149.45265,61.304565000000004
4458,22907 MYRTLE DR,Anchorage,AK,99577,"22907 MYRTLE DR, Anchorage, AK, 99577",Match,Non_Exact,"22907 MYRTLE DR, EAGLE RIVER, AK, 99577",645480095,L,02,020,000204,1007,-149.45511000000002,61.30434
4459,22846 MYRTLE DR,Anchorage,AK,99577,"22846 MYRTLE DR, Anchorage, AK, 99577",Match,Non_Exact,"22846 MYRTLE DR, EAGLE RIVER, AK, 99577",645480095,R,02,020,000204,1007,-149.45595,61.304596
4460,9323 WEST LAKE DR,Anchorage,AK,99577,"9323 WEST LAKE DR, Anchorage, AK, 99577",Match,Non_Exact,"9323 W LAKE DR, EAGLE RIVER, AK, 99577",190827281,L,02,020,000203,3000,-149.47021,61.304469999999995
4461,23231 GLACIER VIEW DR,Anchorage,AK,99577,"23231 GLACIER VIEW DR, Anchorage, AK, 99577",Match,Non_Exact,"23231 GLACIER VIEW DR, EAGLE RIVER, AK, 99577",190825507,L,02,020,000204,1007,-149.44971999999999,61.304443000000006
4462,22517 EAGLE GLACIER LOOP,Anchorage,AK,99577,"22517 EAGLE GLACIER LOOP, Anchorage, AK, 99577",Match,Non_Exact,"22517 EAGLE GLACIER LOOP, EAGLE RIVER, AK, 99577",190825984,R,02,020,000203,3003,-149.46266,61.304813
4463,22731 EAGLE RIVER RD,Anchorage,AK,99577,"22731 EAGLE RIVER RD, Anchorage, AK, 99577",Match,Non_Exact,"22731 EAGLE RIVER RD, EAGLE RIVER, AK, 99577",190826142,L,02,020,000204,1007,-149.45744,61.303776
4464,22925 MYRTLE DR,Anchorage,AK,99577,"22925 MYRTLE DR, Anchorage, AK, 99577",Match,Non_Exact,"22925 MYRTLE DR, EAGLE RIVER, AK, 99577",645480095,L,02,020,000204,1007,-149.45486,61.30426
4465,22757 EAGLE RIVER RD,Anchorage,AK,99577,"22757 EAGLE RIVER RD, Anchorage, AK, 99577",Match,Non_Exact,"22757 EAGLE RIVER RD, EAGLE RIVER, AK, 99577",190826142,L,02,020,000204,1007,-149.45708,61.30364599999999
4466,9863 DINAAKA DR,Anchorage,AK,99577,"9863 DINAAKA DR, Anchorage, AK, 99577",Match,Non_Exact,"9863 DINAAKA DR, EAGLE RIVER, AK, 99577",190805732,R,02,020,000203,5000,-149.55113,61.30948299999999
4467,9824 SAAYA CIR,Anchorage,AK,99577,"9824 SAAYA CIR, Anchorage, AK, 99577",Match,Non_Exact,"9824 SAAYA CIR, EAGLE RIVER, AK, 99577",190805519,R,02,020,000203,5000,-149.56467,61.309616000000005
4468,17146 LAOANA DR,Anchorage,AK,99577,"17146 LAOANA DR, Anchorage, AK, 99577",Match,Non_Exact,"17146 LAOANA DR, EAGLE RIVER, AK, 99577",190805516,R,02,020,000203,5000,-149.56248,61.309394999999995
4469,9825 SAAYA CIR,Anchorage,AK,99577,"9825 SAAYA CIR, Anchorage, AK, 99577",Match,Non_Exact,"9825 SAAYA CIR, EAGLE RIVER, AK, 99577",190805519,L,02,020,000203,5000,-149.56465,61.309612
4470,9820 SAINT LAWRENCE CIR,Anchorage,AK,99577,"9820 SAINT LAWRENCE CIR, Anchorage, AK, 99577",Match,Non_Exact,"9820 ST LAWRENCE CIR, EAGLE RIVER, AK, 99577",190805666,L,02,020,000203,4005,-149.52864,61.308730000000004
4471,9815 WREN LN,Anchorage,AK,99577,"9815 WREN LN, Anchorage, AK, 99577",Match,Non_Exact,"9815 WREN LN, EAGLE RIVER, AK, 99577",190793449,R,02,020,000203,3007,-149.50226999999998,61.309174
4472,20509 RAVEN DR,Anchorage,AK,99577,"20509 RAVEN DR, Anchorage, AK, 99577",Match,Non_Exact,"20509 RAVEN DR, EAGLE RIVER, AK, 99577",190826910,L,02,020,000203,3007,-149.5007,61.308914
4473,9819 SAINT LAWRENCE CIR,Anchorage,AK,99577,"9819 SAINT LAWRENCE CIR, Anchorage, AK, 99577",Match,Non_Exact,"9819 ST LAWRENCE CIR, EAGLE RIVER, AK, 99577",190805666,R,02,020,000203,4005,-149.52863,61.308719999999994
4474,17110 LAOANA DR,Anchorage,AK,99577,"17110 LAOANA DR, Anchorage, AK, 99577",Match,Non_Exact,"17110 LAOANA DR, EAGLE RIVER, AK, 99577",190805516,R,02,020,000203,5000,-149.56278999999998,61.309619999999995
4475,9822 CHATHAM CIR,Anchorage,AK,99577,"9822 CHATHAM CIR, Anchorage, AK, 99577",Match,Non_Exact,"9822 CHATHAM CIR, EAGLE RIVER, AK, 99577",190805664,L,02,020,000203,4001,-149.53043,61.30881
4476,17130 LAOANA DR,Anchorage,AK,99577,"17130 LAOANA DR, Anchorage, AK, 99577",Match,Non_Exact,"17130 LAOANA DR, EAGLE RIVER, AK, 99577",190805516,R,02,020,000203,5000,-149.56273000000002,61.309425
4477,8873 EAGLE PLACE LOOP,Anchorage,AK,99577,"8873 EAGLE PLACE LOOP, Anchorage, AK, 99577",No_Match,,,,,,,,,,
4478,8871 EAGLE PLACE LOOP,Anchorage,AK,99577,"8871 EAGLE PLACE LOOP, Anchorage, AK, 99577",No_Match,,,,,,,,,,
4479,20800 TRAILHEAD AVE,Anchorage,AK,99577,"20800 TRAILHEAD AVE, Anchorage, AK, 99577",Match,Non_Exact,"20800 TRAILHEAD AVE, EAGLE RIVER, AK, 99577",625718581,L,02,020,000203,3000,-149.50035,61.30007
4480,20758 DRIFTWOOD BAY DR,Anchorage,AK,99577,"20758 DRIFTWOOD BAY DR, Anchorage, AK, 99577",Match,Non_Exact,"20758 DRIFTWOOD BAY DR, EAGLE RIVER, AK, 99577",625727882,L,02,020,000203,3000,-149.49419,61.30072
4481,20216 GLACIER PARK CIR,Anchorage,AK,99577,"20216 GLACIER PARK CIR, Anchorage, AK, 99577",Match,Non_Exact,"20216 GLACIER PARK CIR, EAGLE RIVER, AK, 99577",605336517,R,02,020,000203,3002,-149.50538999999998,61.300476
4482,8818 DOME CIR,Anchorage,AK,99577,"8818 DOME CIR, Anchorage, AK, 99577",Match,Non_Exact,"8818 DOME CIR, EAGLE RIVER, AK, 99577",190805577,L,02,020,000203,3014,-149.53499,61.300309999999996
4483,16813 YELLOWSTONE DR,Anchorage,AK,99577,"16813 YELLOWSTONE DR, Anchorage, AK, 99577",Match,Non_Exact,"16813 YELLOWSTONE DR, EAGLE RIVER, AK, 99577",605336263,L,02,020,000204,2036,-149.56805,61.300724
4484,8906 MEADOW PARK CIR,Anchorage,AK,99577,"8906 MEADOW PARK CIR, Anchorage, AK, 99577",Match,Non_Exact,"8906 MEADOW PARK CIR, EAGLE RIVER, AK, 99577",605288529,L,02,020,000203,3022,-149.51035,61.300484
4485,8867 EAGLE PLACE LOOP,Anchorage,AK,99577,"8867 EAGLE PLACE LOOP, Anchorage, AK, 99577",No_Match,,,,,,,,,,
4486,8865 EAGLE PLACE LOOP,Anchorage,AK,99577,"8865 EAGLE PLACE LOOP, Anchorage, AK, 99577",No_Match,,,,,,,,,,
4487,7425 HILAND RD,Anchorage,AK,99577,"7425 HILAND RD, Anchorage, AK, 99577",Match,Non_Exact,"7425 HILAND RD, EAGLE RIVER, AK, 99577",190827442,R,02,020,000204,2010,-149.512,61.28819300000001
4488,7540 HILAND RD,Anchorage,AK,99577,"7540 HILAND RD, Anchorage, AK, 99577",Match,Non_Exact,"7540 HILAND RD, EAGLE RIVER, AK, 99577",190827442,L,02,020,000204,2051,-149.51328999999998,61.288403
4489,7500 HILAND RD,Anchorage,AK,99577,"7500 HILAND RD, Anchorage, AK, 99577",Match,Non_Exact,"7500 HILAND RD, EAGLE RIVER, AK, 99577",190827442,L,02,020,000204,2051,-149.51004,61.287890000000004
4490,7552 HILAND RD,Anchorage,AK,99577,"7552 HILAND RD, Anchorage, AK, 99577",Match,Non_Exact,"7552 HILAND RD, EAGLE RIVER, AK, 99577",190827442,L,02,020,000204,2051,-149.51428,61.28846
4491,7550 HILAND RD,Anchorage,AK,99577,"7550 HILAND RD, Anchorage, AK, 99577",Match,Non_Exact,"7550 HILAND RD, EAGLE RIVER, AK, 99577",190827442,L,02,020,000204,2051,-149.51411000000002,61.28846
4492,9777 HESTERBERG RD,Anchorage,AK,99577,"9777 HESTERBERG RD, Anchorage, AK, 99577",No_Match,,,,,,,,,,
4493,16614 YELLOWSTONE CIR,Anchorage,AK,99577,"16614 YELLOWSTONE CIR, Anchorage, AK, 99577",Match,Non_Exact,"16614 YELLOWSTONE CIR, EAGLE RIVER, AK, 99577",190826786,L,02,020,000204,2036,-149.56866000000002,61.302338
4494,9101 HESTERBERG RD,Anchorage,AK,99577,"9101 HESTERBERG RD, Anchorage, AK, 99577",Match,Non_Exact,"9101 HESTERBERG RD, EAGLE RIVER, AK, 99577",614867624,R,02,020,000204,2036,-149.58706999999998,61.300453000000005
4495,15500 E EAGLE RIVER LOOP RD,Anchorage,AK,99577,"15500 E EAGLE RIVER LOOP RD, Anchorage, AK, 99577",Match,Non_Exact,"15500 E EAGLE RIVER LOOP RD, ANCHORAGE, AK, 99505",605335825,R,02,020,000300,1027,-149.593,61.295806999999996
4496,9450 GLENN HWY,Anchorage,AK,99577,"9450 GLENN HWY, Anchorage, AK, 99577",No_Match,,,,,,,,,,
4497,9451 GLENN HWY,Anchorage,AK,99577,"9451 GLENN HWY, Anchorage, AK, 99577",No_Match,,,,,,,,,,
4498,9401 GLENN HWY,Anchorage,AK,99577,"9401 GLENN HWY, Anchorage, AK, 99577",No_Match,,,,,,,,,,
4499,31945 EAGLE RIVER RD,Anchorage,AK,99577,"31945 EAGLE RIVER RD, Anchorage, AK, 99577",Match,Non_Exact,"31945 EAGLE RIVER RD, EAGLE RIVER, AK, 99577",614861871,L,02,020,000204,1000,-149.28438,61.24374399999999
4500,4721 ZULEIKA RD,Anchorage,AK,99577,"4721 ZULEIKA RD, Anchorage, AK, 99577",Match,Non_Exact,"4721 ZULEIKA RD, EAGLE RIVER, AK, 99577",635209283,R,02,020,000204,1006,-149.28146,61.257637
4501,4546 PANTHER DR,Anchorage,AK,99577,"4546 PANTHER DR, Anchorage, AK, 99577",Match,Non_Exact,"4546 PANTHER DR, EAGLE RIVER, AK, 99577",190825943,L,02,020,000204,1005,-149.31544,61.260937
4502,7505 BOUNDARY AVE,Anchorage,AK,99504,"7505 BOUNDARY AVE, Anchorage, AK, 99504",Match,Exact,"7505 BOUNDARY AVE, ANCHORAGE, AK, 99504",605167228,L,02,020,000702,1001,-149.74295,61.224180000000004
4503,7505 BOUNDARY AVE,Anchorage,AK,99504,"7505 BOUNDARY AVE, Anchorage, AK, 99504",Match,Exact,"7505 BOUNDARY AVE, ANCHORAGE, AK, 99504",605167228,L,02,020,000702,1001,-149.74295,61.224180000000004
4504,7505 BOUNDARY AVE,Anchorage,AK,99504,"7505 BOUNDARY AVE, Anchorage, AK, 99504",Match,Exact,"7505 BOUNDARY AVE, ANCHORAGE, AK, 99504",605167228,L,02,020,000702,1001,-149.74295,61.224180000000004
4505,7505 BOUNDARY AVE,Anchorage,AK,99504,"7505 BOUNDARY AVE, Anchorage, AK, 99504",Match,Exact,"7505 BOUNDARY AVE, ANCHORAGE, AK, 99504",605167228,L,02,020,000702,1001,-149.74295,61.224180000000004
4506,7505 BOUNDARY AVE,Anchorage,AK,99504,"7505 BOUNDARY AVE, Anchorage, AK, 99504",Match,Exact,"7505 BOUNDARY AVE, ANCHORAGE, AK, 99504",605167228,L,02,020,000702,1001,-149.74295,61.224180000000004
4507,7505 BOUNDARY AVE,Anchorage,AK,99504,"7505 BOUNDARY AVE, Anchorage, AK, 99504",Match,Exact,"7505 BOUNDARY AVE, ANCHORAGE, AK, 99504",605167228,L,02,020,000702,1001,-149.74295,61.224180000000004
4508,16421 HOME PL,Anchorage,AK,99577,"16421 HOME PL, Anchorage, AK, 99577",Match,Non_Exact,"16421 HOME PL, EAGLE RIVER, AK, 99577",190827490,R,02,020,000201,2002,-149.57646,61.32272
4509,11307 MAUSEL ST,Anchorage,AK,99577,"11307 MAUSEL ST, Anchorage, AK, 99577",Match,Non_Exact,"11307 MAUSEL ST, EAGLE RIVER, AK, 99577",190825992,R,02,020,000201,2013,-149.58057,61.32291800000001
4510,11305 BRIDGER CIR,Anchorage,AK,99577,"11305 BRIDGER CIR, Anchorage, AK, 99577",Match,Non_Exact,"11305 BRIDGER CIR, EAGLE RIVER, AK, 99577",190815448,R,02,020,000201,2015,-149.58208,61.322646999999996
4511,11324 WOOD RIVER WAY,Anchorage,AK,99577,"11324 WOOD RIVER WAY, Anchorage, AK, 99577",Match,Non_Exact,"11324 WOOD RIVER WAY, EAGLE RIVER, AK, 99577",190827491,R,02,020,000201,2006,-149.57488999999998,61.322357
4512,11322 WOOD RIVER WAY,Anchorage,AK,99577,"11322 WOOD RIVER WAY, Anchorage, AK, 99577",Match,Non_Exact,"11322 WOOD RIVER WAY, EAGLE RIVER, AK, 99577",190827491,R,02,020,000201,2006,-149.57487,61.322345999999996
4513,11306 WOOD RIVER WAY,Anchorage,AK,99577,"11306 WOOD RIVER WAY, Anchorage, AK, 99577",No_Match,,,,,,,,,,
4514,11303 WOOD RIVER WAY,Anchorage,AK,99577,"11303 WOOD RIVER WAY, Anchorage, AK, 99577",Match,Non_Exact,"11303 WOOD RIVER WAY, EAGLE RIVER, AK, 99577",190827491,L,02,020,000201,2002,-149.57518000000002,61.32253000000001
4515,19052 FIRST ST,Anchorage,AK,99577,"19052 FIRST ST, Anchorage, AK, 99577",Match,Non_Exact,"19052 1ST ST, EAGLE RIVER, AK, 99577",636132072,R,02,020,000203,1018,-149.52733999999998,61.311653
4516,19006 FIRST ST,Anchorage,AK,99577,"19006 FIRST ST, Anchorage, AK, 99577",Match,Non_Exact,"19006 1ST ST, EAGLE RIVER, AK, 99577",636132072,R,02,020,000203,1018,-149.528,61.311653
4517,19040 FIRST ST,Anchorage,AK,99577,"19040 FIRST ST, Anchorage, AK, 99577",Match,Non_Exact,"19040 1ST ST, EAGLE RIVER, AK, 99577",636132072,R,02,020,000203,1018,-149.52751,61.311653
4518,19022 FIRST ST,Anchorage,AK,99577,"19022 FIRST ST, Anchorage, AK, 99577",Match,Non_Exact,"19022 1ST ST, EAGLE RIVER, AK, 99577",636132072,R,02,020,000203,1018,-149.52777,61.311653
4519,18940 FIRST ST,Anchorage,AK,99577,"18940 FIRST ST, Anchorage, AK, 99577",Match,Non_Exact,"18940 1ST ST, EAGLE RIVER, AK, 99577",636132072,R,02,020,000203,1018,-149.52895,61.311653
4520,18614 FIRST ST,Anchorage,AK,99577,"18614 FIRST ST, Anchorage, AK, 99577",Match,Non_Exact,"18614 1ST ST, EAGLE RIVER, AK, 99577",190814229,R,02,020,000203,1017,-149.53528,61.311640000000004
4521,18720 FIRST ST,Anchorage,AK,99577,"18720 FIRST ST, Anchorage, AK, 99577",Match,Non_Exact,"18720 1ST ST, EAGLE RIVER, AK, 99577",190814229,R,02,020,000203,1017,-149.5333,61.311645999999996
4522,12528 CRESTED BUTTE DR,Anchorage,AK,99577,"12528 CRESTED BUTTE DR, Anchorage, AK, 99577",Match,Non_Exact,"12528 CRESTED BUTTE DR, EAGLE RIVER, AK, 99577",190810952,L,02,020,000201,1014,-149.57861,61.333538
4523,12522 CRESTED BUTTE DR,Anchorage,AK,99577,"12522 CRESTED BUTTE DR, Anchorage, AK, 99577",Match,Non_Exact,"12522 CRESTED BUTTE DR, EAGLE RIVER, AK, 99577",190810952,L,02,020,000201,1014,-149.5788,61.33348
4524,16506 DAVIS ST,Anchorage,AK,99577,"16506 DAVIS ST, Anchorage, AK, 99577",Match,Non_Exact,"16506 DAVIS ST, EAGLE RIVER, AK, 99577",190792376,L,02,020,000201,1007,-149.57426,61.33359
4525,12511 CRESTED BUTTE DR,Anchorage,AK,99577,"12511 CRESTED BUTTE DR, Anchorage, AK, 99577",Match,Non_Exact,"12511 CRESTED BUTTE DR, EAGLE RIVER, AK, 99577",190810952,R,02,020,000201,1007,-149.57732,61.333583999999995
4526,11803 GALLOWAY LOOP,Anchorage,AK,99577,"11803 GALLOWAY LOOP, Anchorage, AK, 99577",Match,Non_Exact,"11803 GALLOWAY LOOP, EAGLE RIVER, AK, 99577",624156303,R,02,020,000201,2001,-149.5774,61.32735
4527,11805 GALLOWAY LOOP,Anchorage,AK,99577,"11805 GALLOWAY LOOP, Anchorage, AK, 99577",Match,Non_Exact,"11805 GALLOWAY LOOP, EAGLE RIVER, AK, 99577",624156303,R,02,020,000201,2001,-149.57745,61.32735
4528,11809 GALLOWAY LOOP,Anchorage,AK,99577,"11809 GALLOWAY LOOP, Anchorage, AK, 99577",Match,Non_Exact,"11809 GALLOWAY LOOP, EAGLE RIVER, AK, 99577",624156303,R,02,020,000201,2001,-149.57758,61.32734
4529,11811 GALLOWAY LOOP,Anchorage,AK,99577,"11811 GALLOWAY LOOP, Anchorage, AK, 99577",Match,Non_Exact,"11811 GALLOWAY LOOP, EAGLE RIVER, AK, 99577",624156303,R,02,020,000201,2001,-149.57764,61.32733
4530,11815 GALLOWAY LOOP,Anchorage,AK,99577,"11815 GALLOWAY LOOP, Anchorage, AK, 99577",Match,Non_Exact,"11815 GALLOWAY LOOP, EAGLE RIVER, AK, 99577",624156303,R,02,020,000201,2001,-149.57773999999998,61.327316
4531,11817 GALLOWAY LOOP,Anchorage,AK,99577,"11817 GALLOWAY LOOP, Anchorage, AK, 99577",Match,Non_Exact,"11817 GALLOWAY LOOP, EAGLE RIVER, AK, 99577",624156303,R,02,020,000201,2001,-149.5778,61.327296999999994
4532,11821 GALLOWAY LOOP,Anchorage,AK,99577,"11821 GALLOWAY LOOP, Anchorage, AK, 99577",Match,Non_Exact,"11821 GALLOWAY LOOP, EAGLE RIVER, AK, 99577",624156303,R,02,020,000201,2001,-149.5779,61.327263
4533,11823 GALLOWAY LOOP,Anchorage,AK,99577,"11823 GALLOWAY LOOP, Anchorage, AK, 99577",Match,Non_Exact,"11823 GALLOWAY LOOP, EAGLE RIVER, AK, 99577",624156303,R,02,020,000201,2001,-149.57793999999998,61.32724399999999
4534,11301 BRIDGER CIR,Anchorage,AK,99577,"11301 BRIDGER CIR, Anchorage, AK, 99577",Match,Non_Exact,"11301 BRIDGER CIR, EAGLE RIVER, AK, 99577",190815448,R,02,020,000201,2015,-149.58206,61.322646999999996
4535,11301 WOOD RIVER WAY,Anchorage,AK,99577,"11301 WOOD RIVER WAY, Anchorage, AK, 99577",Match,Non_Exact,"11301 WOOD RIVER WAY, EAGLE RIVER, AK, 99577",190827491,L,02,020,000201,2002,-149.57516,61.322525
4536,11237 MAUSEL ST,Anchorage,AK,99577,"11237 MAUSEL ST, Anchorage, AK, 99577",Match,Non_Exact,"11237 MAUSEL ST, EAGLE RIVER, AK, 99577",190825992,R,02,020,000201,2013,-149.58026,61.322421999999996
4537,11304 WOOD RIVER WAY,Anchorage,AK,99577,"11304 WOOD RIVER WAY, Anchorage, AK, 99577",Match,Non_Exact,"11304 WOOD RIVER WAY, EAGLE RIVER, AK, 99577",190827491,R,02,020,000201,2006,-149.57532,61.322838
4538,11277 WOOD RIVER WAY,Anchorage,AK,99577,"11277 WOOD RIVER WAY, Anchorage, AK, 99577",Match,Non_Exact,"11277 WOOD RIVER WAY, EAGLE RIVER, AK, 99577",190827491,L,02,020,000201,2002,-149.57509,61.322456
4539,11288 WOOD RIVER WAY,Anchorage,AK,99577,"11288 WOOD RIVER WAY, Anchorage, AK, 99577",Match,Non_Exact,"11288 WOOD RIVER WAY, EAGLE RIVER, AK, 99577",190827491,R,02,020,000201,2006,-149.57523999999998,61.322630000000004
4540,18550 CHEKOK CIR,Anchorage,AK,99577,"18550 CHEKOK CIR, Anchorage, AK, 99577",Match,Non_Exact,"18550 CHEKOK CIR, EAGLE RIVER, AK, 99577",190805598,L,02,020,000203,3015,-149.53645,61.307953000000005
4541,18544 CHEKOK CIR,Anchorage,AK,99577,"18544 CHEKOK CIR, Anchorage, AK, 99577",Match,Non_Exact,"18544 CHEKOK CIR, EAGLE RIVER, AK, 99577",190805598,L,02,020,000203,3015,-149.53653,61.307953000000005
4542,18538 CHEKOK CIR,Anchorage,AK,99577,"18538 CHEKOK CIR, Anchorage, AK, 99577",Match,Non_Exact,"18538 CHEKOK CIR, EAGLE RIVER, AK, 99577",190805598,L,02,020,000203,3015,-149.53659,61.307953000000005
4543,9631 BALANDRA CIR,Anchorage,AK,99577,"9631 BALANDRA CIR, Anchorage, AK, 99577",Match,Non_Exact,"9631 BALANDRA CIR, EAGLE RIVER, AK, 99577",190805644,L,02,020,000203,4004,-149.53065,61.30785
4544,18532 CHEKOK CIR,Anchorage,AK,99577,"18532 CHEKOK CIR, Anchorage, AK, 99577",Match,Non_Exact,"18532 CHEKOK CIR, EAGLE RIVER, AK, 99577",190805598,L,02,020,000203,3015,-149.53665,61.307953000000005
4545,18556 CHEKOK CIR,Anchorage,AK,99577,"18556 CHEKOK CIR, Anchorage, AK, 99577",Match,Non_Exact,"18556 CHEKOK CIR, EAGLE RIVER, AK, 99577",190805598,L,02,020,000203,3015,-149.53638999999998,61.307953000000005
4546,18524 CHEKOK CIR,Anchorage,AK,99577,"18524 CHEKOK CIR, Anchorage, AK, 99577",Match,Non_Exact,"18524 CHEKOK CIR, EAGLE RIVER, AK, 99577",190805598,L,02,020,000203,3015,-149.53673999999998,61.307953000000005
4547,18518 CHEKOK CIR,Anchorage,AK,99577,"18518 CHEKOK CIR, Anchorage, AK, 99577",Match,Non_Exact,"18518 CHEKOK CIR, EAGLE RIVER, AK, 99577",190805598,L,02,020,000203,3015,-149.5368,61.307953000000005
4548,17439 TOAKOANA DR,Anchorage,AK,99577,"17439 TOAKOANA DR, Anchorage, AK, 99577",Match,Non_Exact,"17439 TOAKOANA DR, EAGLE RIVER, AK, 99577",190805525,L,02,020,000203,5005,-149.55675,61.308216
4549,18508 CHEKOK CIR,Anchorage,AK,99577,"18508 CHEKOK CIR, Anchorage, AK, 99577",Match,Non_Exact,"18508 CHEKOK CIR, EAGLE RIVER, AK, 99577",190805598,L,02,020,000203,3015,-149.53693,61.307953000000005
4550,17743 NITOANYA CIR,Anchorage,AK,99577,"17743 NITOANYA CIR, Anchorage, AK, 99577",Match,Non_Exact,"17743 NITOANYA CIR, EAGLE RIVER, AK, 99577",190805537,L,02,020,000203,5000,-149.55208000000002,61.30775
4551,18506 CHEKOK CIR,Anchorage,AK,99577,"18506 CHEKOK CIR, Anchorage, AK, 99577",Match,Non_Exact,"18506 CHEKOK CIR, EAGLE RIVER, AK, 99577",190805598,L,02,020,000203,3015,-149.53694,61.307953000000005
4552,9624 DINAAKA DR,Anchorage,AK,99577,"9624 DINAAKA DR, Anchorage, AK, 99577",Match,Non_Exact,"9624 DINAAKA DR, EAGLE RIVER, AK, 99577",643735526,L,02,020,000203,5005,-149.55284,61.307827
4553,17737 NITOANYA CIR,Anchorage,AK,99577,"17737 NITOANYA CIR, Anchorage, AK, 99577",Match,Non_Exact,"17737 NITOANYA CIR, EAGLE RIVER, AK, 99577",190805537,L,02,020,000203,5000,-149.55217,61.30775
4554,18749 SARICHEF LOOP,Anchorage,AK,99577,"18749 SARICHEF LOOP, Anchorage, AK, 99577",Match,Non_Exact,"18749 SARICHEF LOOP, EAGLE RIVER, AK, 99577",605287919,L,02,020,000203,4006,-149.53278999999998,61.305440000000004
4555,20710 PTARMIGAN BLVD,Anchorage,AK,99577,"20710 PTARMIGAN BLVD, Anchorage, AK, 99577",Match,Non_Exact,"20710 PTARMIGAN BLVD, EAGLE RIVER, AK, 99577",605288341,R,02,020,000203,3000,-149.49565,61.307109999999994
4556,9411 W KANAGA LOOP,Anchorage,AK,99577,"9411 W KANAGA LOOP, Anchorage, AK, 99577",No_Match,,,,,,,,,,
4557,18739 SARICHEF LOOP,Anchorage,AK,99577,"18739 SARICHEF LOOP, Anchorage, AK, 99577",Match,Non_Exact,"18739 SARICHEF LOOP, EAGLE RIVER, AK, 99577",605287919,L,02,020,000203,4006,-149.53284,61.305355000000006
4558,20038 HIGHLAND RIDGE DR,Anchorage,AK,99577,"20038 HIGHLAND RIDGE DR, Anchorage, AK, 99577",Match,Non_Exact,"20038 HIGHLAND RIDGE DR, EAGLE RIVER, AK, 99577",625718494,L,02,020,000203,3002,-149.5087,61.30282
4559,20030 HIGHLAND RIDGE DR,Anchorage,AK,99577,"20030 HIGHLAND RIDGE DR, Anchorage, AK, 99577",Match,Non_Exact,"20030 HIGHLAND RIDGE DR, EAGLE RIVER, AK, 99577",625718494,L,02,020,000203,3002,-149.5088,61.30281
4560,20024 HIGHLAND RIDGE DR,Anchorage,AK,99577,"20024 HIGHLAND RIDGE DR, Anchorage, AK, 99577",Match,Non_Exact,"20024 HIGHLAND RIDGE DR, EAGLE RIVER, AK, 99577",625718494,L,02,020,000203,3002,-149.5089,61.30281
4561,20012 HIGHLAND RIDGE DR,Anchorage,AK,99577,"20012 HIGHLAND RIDGE DR, Anchorage, AK, 99577",Match,Non_Exact,"20012 HIGHLAND RIDGE DR, EAGLE RIVER, AK, 99577",625718494,L,02,020,000203,3002,-149.50906,61.30281
4562,20000 HIGHLAND RIDGE DR,Anchorage,AK,99577,"20000 HIGHLAND RIDGE DR, Anchorage, AK, 99577",Match,Non_Exact,"20000 HIGHLAND RIDGE DR, EAGLE RIVER, AK, 99577",625718494,L,02,020,000203,3002,-149.50923,61.30281
4563,19921 HIGHLAND RIDGE DR,Anchorage,AK,99577,"19921 HIGHLAND RIDGE DR, Anchorage, AK, 99577",Match,Non_Exact,"19921 HIGHLAND RIDGE DR, EAGLE RIVER, AK, 99577",190819652,L,02,020,000203,3015,-149.51495,61.302273
4564,9128 W PARKVIEW TERRACE LOOP,Anchorage,AK,99577,"9128 W PARKVIEW TERRACE LOOP, Anchorage, AK, 99577",Match,Non_Exact,"9128 W PARKVIEW TER LP, EAGLE RIVER, AK, 99577",190805557,L,02,020,000203,5000,-149.54388,61.302986
4565,19930 HIGHLAND RIDGE DR,Anchorage,AK,99577,"19930 HIGHLAND RIDGE DR, Anchorage, AK, 99577",Match,Non_Exact,"19930 HIGHLAND RIDGE DR, EAGLE RIVER, AK, 99577",190819652,R,02,020,000203,3022,-149.51163,61.30235
4566,18603 DANNY DR,Anchorage,AK,99577,"18603 DANNY DR, Anchorage, AK, 99577",Match,Non_Exact,"18603 DANNY DR, EAGLE RIVER, AK, 99577",190816225,L,02,020,000203,3015,-149.53653,61.302493999999996
4567,19915 HIGHLAND RIDGE DR,Anchorage,AK,99577,"19915 HIGHLAND RIDGE DR, Anchorage, AK, 99577",Match,Non_Exact,"19915 HIGHLAND RIDGE DR, EAGLE RIVER, AK, 99577",190819652,L,02,020,000203,3015,-149.51503,61.302277000000004
4568,19924 HIGHLAND RIDGE DR,Anchorage,AK,99577,"19924 HIGHLAND RIDGE DR, Anchorage, AK, 99577",Match,Non_Exact,"19924 HIGHLAND RIDGE DR, EAGLE RIVER, AK, 99577",190819652,R,02,020,000203,3022,-149.51173,61.302333999999995
4569,9116 W PARKVIEW TERRACE LOOP,Anchorage,AK,99577,"9116 W PARKVIEW TERRACE LOOP, Anchorage, AK, 99577",Match,Non_Exact,"9116 W PARKVIEW TER LP, EAGLE RIVER, AK, 99577",190805555,L,02,020,000203,5000,-149.54315,61.302776
4570,23746 THE CLEARING DR,Anchorage,AK,99577,"23746 THE CLEARING DR, Anchorage, AK, 99577",Match,Non_Exact,"23746 THE CLEARING DR, EAGLE RIVER, AK, 99577",190818685,R,02,020,000204,1009,-149.43962,61.297233999999996
4571,24010 THE CLEARING DR,Anchorage,AK,99577,"24010 THE CLEARING DR, Anchorage, AK, 99577",Match,Non_Exact,"24010 THE CLEARING DR, EAGLE RIVER, AK, 99577",190818685,R,02,020,000204,1009,-149.4364,61.297230000000006
4572,9821 SAAYA CIR,Anchorage,AK,99577,"9821 SAAYA CIR, Anchorage, AK, 99577",Match,Non_Exact,"9821 SAAYA CIR, EAGLE RIVER, AK, 99577",190805519,L,02,020,000203,5000,-149.56465,61.309597
4573,9819 CHATHAM CIR,Anchorage,AK,99577,"9819 CHATHAM CIR, Anchorage, AK, 99577",Match,Non_Exact,"9819 CHATHAM CIR, EAGLE RIVER, AK, 99577",190805664,R,02,020,000203,4001,-149.53038,61.30881
4574,9820 SAAYA CIR,Anchorage,AK,99577,"9820 SAAYA CIR, Anchorage, AK, 99577",Match,Non_Exact,"9820 SAAYA CIR, EAGLE RIVER, AK, 99577",190805519,R,02,020,000203,5000,-149.56468,61.3096
4575,9814 DINAAKA DR,Anchorage,AK,99577,"9814 DINAAKA DR, Anchorage, AK, 99577",Match,Non_Exact,"9814 DINAAKA DR, EAGLE RIVER, AK, 99577",190805535,L,02,020,000203,5007,-149.55278,61.309128
4576,9822 NILTINA LN,Anchorage,AK,99577,"9822 NILTINA LN, Anchorage, AK, 99577",Match,Non_Exact,"9822 NILTINA LN, EAGLE RIVER, AK, 99577",190805528,L,02,020,000203,5002,-149.55553,61.30914
4577,17112 LAOANA DR,Anchorage,AK,99577,"17112 LAOANA DR, Anchorage, AK, 99577",Match,Non_Exact,"17112 LAOANA DR, EAGLE RIVER, AK, 99577",190805516,R,02,020,000203,5000,-149.56278999999998,61.3096
4578,9816 SAINT LAWRENCE CIR,Anchorage,AK,99577,"9816 SAINT LAWRENCE CIR, Anchorage, AK, 99577",Match,Non_Exact,"9816 ST LAWRENCE CIR, EAGLE RIVER, AK, 99577",190805666,L,02,020,000203,4005,-149.52866,61.308716000000004
4579,17122 LAOANA DR,Anchorage,AK,99577,"17122 LAOANA DR, Anchorage, AK, 99577",Match,Non_Exact,"17122 LAOANA DR, EAGLE RIVER, AK, 99577",190805516,R,02,020,000203,5000,-149.56276,61.3095
4580,9818 E CHICHAGOF LOOP,Anchorage,AK,99577,"9818 E CHICHAGOF LOOP, Anchorage, AK, 99577",Match,Non_Exact,"9818 E CHICHAGOF LOOP, EAGLE RIVER, AK, 99577",190805669,L,02,020,000203,4005,-149.52657,61.309235
4581,18641 S LOWRIE LOOP,Anchorage,AK,99577,"18641 S LOWRIE LOOP, Anchorage, AK, 99577",Match,Non_Exact,"18641 S LOWRIE LOOP, EAGLE RIVER, AK, 99577",190818934,L,02,020,000203,4008,-149.53545,61.306569999999994
4582,18701 S LOWRIE LOOP,Anchorage,AK,99577,"18701 S LOWRIE LOOP, Anchorage, AK, 99577",Match,Non_Exact,"18701 S LOWRIE LOOP, EAGLE RIVER, AK, 99577",190818934,L,02,020,000203,4008,-149.53476,61.306495999999996
4583,9501 NOAK CIR,Anchorage,AK,99577,"9501 NOAK CIR, Anchorage, AK, 99577",Match,Non_Exact,"9501 NOAK CIR, EAGLE RIVER, AK, 99577",190808439,R,02,020,000203,5000,-149.55123999999998,61.306369999999994
4584,17627 TOAKOANA WAY,Anchorage,AK,99577,"17627 TOAKOANA WAY, Anchorage, AK, 99577",Match,Non_Exact,"17627 TOAKOANA WAY, EAGLE RIVER, AK, 99577",190805532,L,02,020,000203,5000,-149.55333000000002,61.30644
4585,18516 CULROSS CIR,Anchorage,AK,99577,"18516 CULROSS CIR, Anchorage, AK, 99577",Match,Non_Exact,"18516 CULROSS CIR, EAGLE RIVER, AK, 99577",190825843,L,02,020,000203,3015,-149.53781,61.306435
4586,18754 S LOWRIE LOOP,Anchorage,AK,99577,"18754 S LOWRIE LOOP, Anchorage, AK, 99577",Match,Non_Exact,"18754 S LOWRIE LOOP, EAGLE RIVER, AK, 99577",190818934,R,02,020,000203,4006,-149.53415,61.306419999999996
4587,18220 N PARKVIEW TERRACE LOOP,Anchorage,AK,99577,"18220 N PARKVIEW TERRACE LOOP, Anchorage, AK, 99577",Match,Non_Exact,"18220 N PARKVIEW TER LP, EAGLE RIVER, AK, 99577",190820860,R,02,020,000203,5006,-149.54227,61.306465
4588,9508 DINAAKA CIR,Anchorage,AK,99577,"9508 DINAAKA CIR, Anchorage, AK, 99577",Match,Non_Exact,"9508 DINAAKA CIR, EAGLE RIVER, AK, 99577",190808438,R,02,020,000203,5000,-149.55403,61.306445999999994
4589,18508 CULROSS CIR,Anchorage,AK,99577,"18508 CULROSS CIR, Anchorage, AK, 99577",Match,Non_Exact,"18508 CULROSS CIR, EAGLE RIVER, AK, 99577",190825843,L,02,020,000203,3015,-149.53795,61.30639300000001
4590,18235 N PARKVIEW TERRACE LOOP,Anchorage,AK,99577,"18235 N PARKVIEW TERRACE LOOP, Anchorage, AK, 99577",Match,Non_Exact,"18235 N PARKVIEW TER LP, EAGLE RIVER, AK, 99577",190820860,L,02,020,000203,5000,-149.54214,61.306362
4591,9235 W KANAGA LOOP,Anchorage,AK,99577,"9235 W KANAGA LOOP, Anchorage, AK, 99577",No_Match,,,,,,,,,,
4592,18126 HARBOR POINT LOOP,Anchorage,AK,99577,"18126 HARBOR POINT LOOP, Anchorage, AK, 99577",Match,Non_Exact,"18126 HARBOR PT LP, EAGLE RIVER, AK, 99577",190805554,R,02,020,000203,5008,-149.5442,61.304559999999995
4593,18216 HARBOR POINT LOOP,Anchorage,AK,99577,"18216 HARBOR POINT LOOP, Anchorage, AK, 99577",Match,Non_Exact,"18216 HARBOR PT LP, EAGLE RIVER, AK, 99577",190805554,R,02,020,000203,5008,-149.54332,61.304028
4594,18130 HARBOR POINT LOOP,Anchorage,AK,99577,"18130 HARBOR POINT LOOP, Anchorage, AK, 99577",Match,Non_Exact,"18130 HARBOR PT LP, EAGLE RIVER, AK, 99577",190805554,R,02,020,000203,5008,-149.54419,61.304522999999996
4595,22949 MYRTLE DR,Anchorage,AK,99577,"22949 MYRTLE DR, Anchorage, AK, 99577",Match,Non_Exact,"22949 MYRTLE DR, EAGLE RIVER, AK, 99577",645480095,L,02,020,000204,1007,-149.45453,61.304153
4596,22601 EAGLE GLACIER LOOP,Anchorage,AK,99577,"22601 EAGLE GLACIER LOOP, Anchorage, AK, 99577",Match,Non_Exact,"22601 EAGLE GLACIER LOOP, EAGLE RIVER, AK, 99577",190808403,R,02,020,000203,3003,-149.4605,61.30376999999999
4597,22420 COLUMBIA GLACIER LOOP,Anchorage,AK,99577,"22420 COLUMBIA GLACIER LOOP, Anchorage, AK, 99577",Match,Non_Exact,"22420 COLUMBIA GLACIER LOOP, EAGLE RIVER, AK, 99577",190808404,R,02,020,000203,3000,-149.4626,61.30376
4598,22444 COLUMBIA GLACIER LOOP,Anchorage,AK,99577,"22444 COLUMBIA GLACIER LOOP, Anchorage, AK, 99577",Match,Non_Exact,"22444 COLUMBIA GLACIER LOOP, EAGLE RIVER, AK, 99577",190808404,R,02,020,000203,3000,-149.46303999999998,61.303672999999996
4599,22805 EAGLE RIVER RD,Anchorage,AK,99577,"22805 EAGLE RIVER RD, Anchorage, AK, 99577",Match,Non_Exact,"22805 EAGLE RIVER RD, EAGLE RIVER, AK, 99577",190826142,L,02,020,000204,1007,-149.45639,61.303402
4600,23011 MYRTLE DR,Anchorage,AK,99577,"23011 MYRTLE DR, Anchorage, AK, 99577",Match,Non_Exact,"23011 MYRTLE DR, EAGLE RIVER, AK, 99577",645480095,L,02,020,000204,1007,-149.45367,61.30388000000001
4601,22954 MYRTLE DR,Anchorage,AK,99577,"22954 MYRTLE DR, Anchorage, AK, 99577",Match,Non_Exact,"22954 MYRTLE DR, EAGLE RIVER, AK, 99577",645480095,R,02,020,000204,1007,-149.45445,61.30412
4602,22637 EAGLE GLACIER LOOP,Anchorage,AK,99577,"22637 EAGLE GLACIER LOOP, Anchorage, AK, 99577",Match,Non_Exact,"22637 EAGLE GLACIER LOOP, EAGLE RIVER, AK, 99577",190808403,R,02,020,000203,3003,-149.4599,61.303622999999995
4603,22833 EAGLE RIVER RD,Anchorage,AK,99577,"22833 EAGLE RIVER RD, Anchorage, AK, 99577",Match,Non_Exact,"22833 EAGLE RIVER RD, EAGLE RIVER, AK, 99577",190826142,L,02,020,000204,1007,-149.45600000000002,61.303259999999995
4604,100 MC CARREY ST,Anchorage,AK,99508,"100 MC CARREY ST, Anchorage, AK, 99508",Match,Exact,"100 MC CARREY ST, ANCHORAGE, AK, 99508",605167268,R,02,020,000801,1000,-149.79173,61.223273999999996
4605,7632 BOUNDARY AVE,Anchorage,AK,99504,"7632 BOUNDARY AVE, Anchorage, AK, 99504",Match,Exact,"7632 BOUNDARY AVE, ANCHORAGE, AK, 99504",605167217,R,02,020,000702,2000,-149.73885,61.224169999999994
4606,117 GRAND LARRY ST,Anchorage,AK,99504,"117 GRAND LARRY ST, Anchorage, AK, 99504",Match,Exact,"117 GRAND LARRY ST, ANCHORAGE, AK, 99504",625718475,L,02,020,000703,2000,-149.72975,61.223819999999996
4607,118 GRAND LARRY ST,Anchorage,AK,99504,"118 GRAND LARRY ST, Anchorage, AK, 99504",Match,Exact,"118 GRAND LARRY ST, ANCHORAGE, AK, 99504",625718475,R,02,020,000703,2001,-149.72978,61.223804
4608,118 GRAND LARRY ST,Anchorage,AK,99504,"118 GRAND LARRY ST, Anchorage, AK, 99504",Match,Exact,"118 GRAND LARRY ST, ANCHORAGE, AK, 99504",625718475,R,02,020,000703,2001,-149.72978,61.223804
4609,118 GRAND LARRY ST,Anchorage,AK,99504,"118 GRAND LARRY ST, Anchorage, AK, 99504",Match,Exact,"118 GRAND LARRY ST, ANCHORAGE, AK, 99504",625718475,R,02,020,000703,2001,-149.72978,61.223804
4610,118 GRAND LARRY ST,Anchorage,AK,99504,"118 GRAND LARRY ST, Anchorage, AK, 99504",Match,Exact,"118 GRAND LARRY ST, ANCHORAGE, AK, 99504",625718475,R,02,020,000703,2001,-149.72978,61.223804
4611,118 GRAND LARRY ST,Anchorage,AK,99504,"118 GRAND LARRY ST, Anchorage, AK, 99504",Match,Exact,"118 GRAND LARRY ST, ANCHORAGE, AK, 99504",625718475,R,02,020,000703,2001,-149.72978,61.223804
4612,118 GRAND LARRY ST,Anchorage,AK,99504,"118 GRAND LARRY ST, Anchorage, AK, 99504",Match,Exact,"118 GRAND LARRY ST, ANCHORAGE, AK, 99504",625718475,R,02,020,000703,2001,-149.72978,61.223804
4613,118 GRAND LARRY ST,Anchorage,AK,99504,"118 GRAND LARRY ST, Anchorage, AK, 99504",Match,Exact,"118 GRAND LARRY ST, ANCHORAGE, AK, 99504",625718475,R,02,020,000703,2001,-149.72978,61.223804
4614,118 GRAND LARRY ST,Anchorage,AK,99504,"118 GRAND LARRY ST, Anchorage, AK, 99504",Match,Exact,"118 GRAND LARRY ST, ANCHORAGE, AK, 99504",625718475,R,02,020,000703,2001,-149.72978,61.223804
4615,118 GRAND LARRY ST,Anchorage,AK,99504,"118 GRAND LARRY ST, Anchorage, AK, 99504",Match,Exact,"118 GRAND LARRY ST, ANCHORAGE, AK, 99504",625718475,R,02,020,000703,2001,-149.72978,61.223804
4616,118 GRAND LARRY ST,Anchorage,AK,99504,"118 GRAND LARRY ST, Anchorage, AK, 99504",Match,Exact,"118 GRAND LARRY ST, ANCHORAGE, AK, 99504",625718475,R,02,020,000703,2001,-149.72978,61.223804
4617,118 GRAND LARRY ST,Anchorage,AK,99504,"118 GRAND LARRY ST, Anchorage, AK, 99504",Match,Exact,"118 GRAND LARRY ST, ANCHORAGE, AK, 99504",625718475,R,02,020,000703,2001,-149.72978,61.223804
4618,118 GRAND LARRY ST,Anchorage,AK,99504,"118 GRAND LARRY ST, Anchorage, AK, 99504",Match,Exact,"118 GRAND LARRY ST, ANCHORAGE, AK, 99504",625718475,R,02,020,000703,2001,-149.72978,61.223804
4619,116 DEAN PL,Anchorage,AK,99504,"116 DEAN PL, Anchorage, AK, 99504",Match,Exact,"116 DEAN PL, ANCHORAGE, AK, 99504",190802859,R,02,020,000702,2000,-149.7401,61.223392000000004
4620,120 AGATE CIR,Anchorage,AK,99504,"120 AGATE CIR, Anchorage, AK, 99504",Match,Exact,"120 AGATE CIR, ANCHORAGE, AK, 99504",190823753,L,02,020,000703,1011,-149.7232,61.224037
4621,120 AGATE CIR,Anchorage,AK,99504,"120 AGATE CIR, Anchorage, AK, 99504",Match,Exact,"120 AGATE CIR, ANCHORAGE, AK, 99504",190823753,L,02,020,000703,1011,-149.7232,61.224037
4622,117 DEAN PL,Anchorage,AK,99504,"117 DEAN PL, Anchorage, AK, 99504",Match,Exact,"117 DEAN PL, ANCHORAGE, AK, 99504",190802859,L,02,020,000702,2000,-149.74007,61.223392000000004
4623,121 AGATE CIR,Anchorage,AK,99504,"121 AGATE CIR, Anchorage, AK, 99504",Match,Exact,"121 AGATE CIR, ANCHORAGE, AK, 99504",190823753,R,02,020,000703,1011,-149.72319,61.224037
4624,100 MC CARREY ST,Anchorage,AK,99508,"100 MC CARREY ST, Anchorage, AK, 99508",Match,Exact,"100 MC CARREY ST, ANCHORAGE, AK, 99508",605167268,R,02,020,000801,1000,-149.79173,61.223273999999996
4625,7644 BOUNDARY AVE,Anchorage,AK,99504,"7644 BOUNDARY AVE, Anchorage, AK, 99504",Match,Exact,"7644 BOUNDARY AVE, ANCHORAGE, AK, 99504",605167217,R,02,020,000702,2000,-149.73865,61.224169999999994
4626,7646 BOUNDARY AVE,Anchorage,AK,99504,"7646 BOUNDARY AVE, Anchorage, AK, 99504",Match,Exact,"7646 BOUNDARY AVE, ANCHORAGE, AK, 99504",605167217,R,02,020,000702,2000,-149.7386,61.224169999999994
4627,7642 BOUNDARY AVE,Anchorage,AK,99504,"7642 BOUNDARY AVE, Anchorage, AK, 99504",Match,Exact,"7642 BOUNDARY AVE, ANCHORAGE, AK, 99504",605167217,R,02,020,000702,2000,-149.73868000000002,61.224169999999994
4628,7045 GOLD KINGS AVE,Anchorage,AK,99504,"7045 GOLD KINGS AVE, Anchorage, AK, 99504",Match,Exact,"7045 GOLD KINGS AVE, ANCHORAGE, AK, 99504",190820028,R,02,020,000702,3002,-149.7495,61.223614000000005
4629,20220 GLACIER PARK CIR,Anchorage,AK,99577,"20220 GLACIER PARK CIR, Anchorage, AK, 99577",Match,Non_Exact,"20220 GLACIER PARK CIR, EAGLE RIVER, AK, 99577",605336517,R,02,020,000203,3002,-149.50533000000001,61.30045
4630,20740 DRIFTWOOD BAY DR,Anchorage,AK,99577,"20740 DRIFTWOOD BAY DR, Anchorage, AK, 99577",Match,Non_Exact,"20740 DRIFTWOOD BAY DR, EAGLE RIVER, AK, 99577",625727882,L,02,020,000203,3000,-149.49458,61.300681999999995
4631,20231 GLACIER PARK CIR,Anchorage,AK,99577,"20231 GLACIER PARK CIR, Anchorage, AK, 99577",Match,Non_Exact,"20231 GLACIER PARK CIR, EAGLE RIVER, AK, 99577",605336517,L,02,020,000203,3002,-149.50534,61.300472
4632,20722 DRIFTWOOD BAY DR,Anchorage,AK,99577,"20722 DRIFTWOOD BAY DR, Anchorage, AK, 99577",Match,Non_Exact,"20722 DRIFTWOOD BAY DR, EAGLE RIVER, AK, 99577",625727882,L,02,020,000203,3000,-149.49498,61.300647999999995
4633,19644 DRIFTWOOD BAY DR,Anchorage,AK,99577,"19644 DRIFTWOOD BAY DR, Anchorage, AK, 99577",Match,Non_Exact,"19644 DRIFTWOOD BAY DR, EAGLE RIVER, AK, 99577",190827412,R,02,020,000203,3011,-149.5162,61.300663
4634,8909 MEADOW PARK CIR,Anchorage,AK,99577,"8909 MEADOW PARK CIR, Anchorage, AK, 99577",Match,Non_Exact,"8909 MEADOW PARK CIR, EAGLE RIVER, AK, 99577",605288529,R,02,020,000203,3013,-149.51035,61.3004
4635,8815 DOME CIR,Anchorage,AK,99577,"8815 DOME CIR, Anchorage, AK, 99577",Match,Non_Exact,"8815 DOME CIR, EAGLE RIVER, AK, 99577",190805577,R,02,020,000203,3014,-149.53493999999998,61.300278000000006
4636,11749 GALLOWAY LOOP,Anchorage,AK,99577,"11749 GALLOWAY LOOP, Anchorage, AK, 99577",Match,Non_Exact,"11749 GALLOWAY LOOP, EAGLE RIVER, AK, 99577",624156300,R,02,020,000201,2001,-149.5778,61.32657
4637,11819 FALKLANDS LOOP,Anchorage,AK,99577,"11819 FALKLANDS LOOP, Anchorage, AK, 99577",Match,Non_Exact,"11819 FALKLANDS LOOP, EAGLE RIVER, AK, 99577",605335644,R,02,020,000201,2001,-149.5796,61.326730000000005
4638,11756 GALENA BAY LOOP,Anchorage,AK,99577,"11756 GALENA BAY LOOP, Anchorage, AK, 99577",No_Match,,,,,,,,,,
4639,11838 GALLOWAY LOOP,Anchorage,AK,99577,"11838 GALLOWAY LOOP, Anchorage, AK, 99577",Match,Non_Exact,"11838 GALLOWAY LOOP, EAGLE RIVER, AK, 99577",624156303,L,02,020,000201,2005,-149.57817,61.327038
4640,11841 GALLOWAY LOOP,Anchorage,AK,99577,"11841 GALLOWAY LOOP, Anchorage, AK, 99577",Match,Non_Exact,"11841 GALLOWAY LOOP, EAGLE RIVER, AK, 99577",624156303,R,02,020,000201,2001,-149.57822,61.327023
4641,11720 BUSINESS BLVD,Anchorage,AK,99577,"11720 BUSINESS BLVD, Anchorage, AK, 99577",Match,Non_Exact,"11720 BUSINESS BLVD, EAGLE RIVER, AK, 99577",605266943,R,02,020,000201,2001,-149.5748,61.326214
4642,11286 WOOD RIVER WAY,Anchorage,AK,99577,"11286 WOOD RIVER WAY, Anchorage, AK, 99577",Match,Non_Exact,"11286 WOOD RIVER WAY, EAGLE RIVER, AK, 99577",190827491,R,02,020,000201,2006,-149.57523,61.322605
4643,11275 WOOD RIVER WAY,Anchorage,AK,99577,"11275 WOOD RIVER WAY, Anchorage, AK, 99577",Match,Non_Exact,"11275 WOOD RIVER WAY, EAGLE RIVER, AK, 99577",190827491,L,02,020,000201,2002,-149.57506999999998,61.322453
4644,16607 CENTERFIELD DR,Anchorage,AK,99577,"16607 CENTERFIELD DR, Anchorage, AK, 99577",Match,Non_Exact,"16607 CENTERFIELD DR, EAGLE RIVER, AK, 99577",605335237,R,02,020,000201,2008,-149.57391,61.3224
4645,11229 MAUSEL ST,Anchorage,AK,99577,"11229 MAUSEL ST, Anchorage, AK, 99577",Match,Non_Exact,"11229 MAUSEL ST, EAGLE RIVER, AK, 99577",190825992,R,02,020,000201,2013,-149.58025,61.322365000000005
4646,11270 WOOD RIVER WAY,Anchorage,AK,99577,"11270 WOOD RIVER WAY, Anchorage, AK, 99577",Match,Non_Exact,"11270 WOOD RIVER WAY, EAGLE RIVER, AK, 99577",190827491,R,02,020,000201,2006,-149.57501000000002,61.322430000000004
4647,11253 WOOD RIVER WAY,Anchorage,AK,99577,"11253 WOOD RIVER WAY, Anchorage, AK, 99577",Match,Non_Exact,"11253 WOOD RIVER WAY, EAGLE RIVER, AK, 99577",190827491,L,02,020,000201,2002,-149.57498,61.32239499999999
4648,11268 WOOD RIVER WAY,Anchorage,AK,99577,"11268 WOOD RIVER WAY, Anchorage, AK, 99577",Match,Non_Exact,"11268 WOOD RIVER WAY, EAGLE RIVER, AK, 99577",190827491,R,02,020,000201,2006,-149.57498,61.32241
4649,11251 WOOD RIVER WAY,Anchorage,AK,99577,"11251 WOOD RIVER WAY, Anchorage, AK, 99577",Match,Non_Exact,"11251 WOOD RIVER WAY, EAGLE RIVER, AK, 99577",190827491,L,02,020,000201,2002,-149.57497,61.322388000000004
4650,11221 MAUSEL ST,Anchorage,AK,99577,"11221 MAUSEL ST, Anchorage, AK, 99577",Match,Non_Exact,"11221 MAUSEL ST, EAGLE RIVER, AK, 99577",190825992,R,02,020,000201,2013,-149.58026,61.322304
4651,11252 WOOD RIVER WAY,Anchorage,AK,99577,"11252 WOOD RIVER WAY, Anchorage, AK, 99577",Match,Non_Exact,"11252 WOOD RIVER WAY, EAGLE RIVER, AK, 99577",190827491,L,02,020,000201,2002,-149.57533,61.322838
4652,10036 CARIBOU ST,Anchorage,AK,99577,"10036 CARIBOU ST, Anchorage, AK, 99577",Match,Non_Exact,"10036 CARIBOU ST, EAGLE RIVER, AK, 99577",190792669,L,02,020,000202,4016,-149.54655,61.311214
4653,10032 BIRCH LN,Anchorage,AK,99577,"10032 BIRCH LN, Anchorage, AK, 99577",Match,Non_Exact,"10032 BIRCH LN, EAGLE RIVER, AK, 99577",190826923,R,02,020,000203,1017,-149.53151,61.31101999999999
4654,10028 GENORA ST,Anchorage,AK,99577,"10028 GENORA ST, Anchorage, AK, 99577",Match,Non_Exact,"10028 GENORA ST, EAGLE RIVER, AK, 99577",190826854,L,02,020,000202,4014,-149.5593,61.310885999999996
4655,10035 BIRCH LN,Anchorage,AK,99577,"10035 BIRCH LN, Anchorage, AK, 99577",Match,Non_Exact,"10035 BIRCH LN, EAGLE RIVER, AK, 99577",190826923,L,02,020,000203,1018,-149.53148000000002,61.311035
4656,10012 CHANDALAR ST,Anchorage,AK,99577,"10012 CHANDALAR ST, Anchorage, AK, 99577",Match,Non_Exact,"10012 CHANDALAR ST, EAGLE RIVER, AK, 99577",190792670,L,02,020,000202,4017,-149.54466000000002,61.311028
4657,10022 COLVILLE ST,Anchorage,AK,99577,"10022 COLVILLE ST, Anchorage, AK, 99577",Match,Non_Exact,"10022 COLVILLE ST, EAGLE RIVER, AK, 99577",190792719,L,02,020,000202,4018,-149.54279,61.311108
4658,10022 CARIBOU ST,Anchorage,AK,99577,"10022 CARIBOU ST, Anchorage, AK, 99577",Match,Non_Exact,"10022 CARIBOU ST, EAGLE RIVER, AK, 99577",190792669,L,02,020,000202,4016,-149.54654,61.311104
4659,10015 HILLCREST LN,Anchorage,AK,99577,"10015 HILLCREST LN, Anchorage, AK, 99577",Match,Non_Exact,"10015 HILLCREST LN, EAGLE RIVER, AK, 99577",190792826,R,02,020,000203,1020,-149.51724,61.310930000000006
4660,12401 LAKE ST,Anchorage,AK,99577,"12401 LAKE ST, Anchorage, AK, 99577",Match,Non_Exact,"12401 LAKE ST, EAGLE RIVER, AK, 99577",190792390,R,02,020,000201,1007,-149.57036000000002,61.331768000000004
4661,12401 END ST,Anchorage,AK,99577,"12401 END ST, Anchorage, AK, 99577",No_Match,,,,,,,,,,
4662,16315 JACKSON HOLE CT,Anchorage,AK,99577,"16315 JACKSON HOLE CT, Anchorage, AK, 99577",Match,Non_Exact,"16315 JACKSON HOLE CT, EAGLE RIVER, AK, 99577",190794838,L,02,020,000201,1007,-149.57793999999998,61.332214
4663,12351 LAKE ST,Anchorage,AK,99577,"12351 LAKE ST, Anchorage, AK, 99577",Match,Non_Exact,"12351 LAKE ST, EAGLE RIVER, AK, 99577",190792390,R,02,020,000201,1007,-149.57036000000002,61.33150500000001
4664,11840 GALLOWAY LOOP,Anchorage,AK,99577,"11840 GALLOWAY LOOP, Anchorage, AK, 99577",Match,Non_Exact,"11840 GALLOWAY LOOP, EAGLE RIVER, AK, 99577",624156303,L,02,020,000201,2005,-149.5782,61.327015
4665,11745 GALLOWAY LOOP,Anchorage,AK,99577,"11745 GALLOWAY LOOP, Anchorage, AK, 99577",Match,Non_Exact,"11745 GALLOWAY LOOP, EAGLE RIVER, AK, 99577",624156300,R,02,020,000201,2001,-149.57785,61.326519999999995
4666,11815 FALKLANDS LOOP,Anchorage,AK,99577,"11815 FALKLANDS LOOP, Anchorage, AK, 99577",Match,Non_Exact,"11815 FALKLANDS LOOP, EAGLE RIVER, AK, 99577",605335644,R,02,020,000201,2001,-149.57963999999998,61.326702000000004
4667,11845 GALLOWAY LOOP,Anchorage,AK,99577,"11845 GALLOWAY LOOP, Anchorage, AK, 99577",Match,Non_Exact,"11845 GALLOWAY LOOP, EAGLE RIVER, AK, 99577",624156303,R,02,020,000201,2001,-149.5783,61.326977
4668,24242 ALPENGLOW DR,Anchorage,AK,99577,"24242 ALPENGLOW DR, Anchorage, AK, 99577",Match,Non_Exact,"24242 ALPENGLOW DR, EAGLE RIVER, AK, 99577",190807951,R,02,020,000204,1009,-149.42961,61.297188
4669,24408 HAMANN RD,Anchorage,AK,99577,"24408 HAMANN RD, Anchorage, AK, 99577",Match,Non_Exact,"24408 HAMANN RD, EAGLE RIVER, AK, 99577",190818629,R,02,020,000204,1009,-149.4276,61.296932
4670,24401 HAMANN RD,Anchorage,AK,99577,"24401 HAMANN RD, Anchorage, AK, 99577",Match,Non_Exact,"24401 HAMANN RD, EAGLE RIVER, AK, 99577",190818629,L,02,020,000204,1011,-149.42772,61.297005000000006
4671,8425 HARMANY RANCH RD,Anchorage,AK,99577,"8425 HARMANY RANCH RD, Anchorage, AK, 99577",No_Match,,,,,,,,,,
4672,24625 JEM CIR,Anchorage,AK,99577,"24625 JEM CIR, Anchorage, AK, 99577",Match,Non_Exact,"24625 JEM CIR, EAGLE RIVER, AK, 99577",190818631,L,02,020,000204,1011,-149.42514,61.296238
4673,24555 JEM CIR,Anchorage,AK,99577,"24555 JEM CIR, Anchorage, AK, 99577",Match,Non_Exact,"24555 JEM CIR, EAGLE RIVER, AK, 99577",190818631,L,02,020,000204,1011,-149.42528000000001,61.296227
4674,24560 JEM CIR,Anchorage,AK,99577,"24560 JEM CIR, Anchorage, AK, 99577",Match,Non_Exact,"24560 JEM CIR, EAGLE RIVER, AK, 99577",190818631,R,02,020,000204,1011,-149.42462,61.29623
4675,24634 JEM CIR,Anchorage,AK,99577,"24634 JEM CIR, Anchorage, AK, 99577",Match,Non_Exact,"24634 JEM CIR, EAGLE RIVER, AK, 99577",190818631,R,02,020,000204,1011,-149.42368000000002,61.296234
4676,24512 HAMANN RD,Anchorage,AK,99577,"24512 HAMANN RD, Anchorage, AK, 99577",Match,Non_Exact,"24512 HAMANN RD, EAGLE RIVER, AK, 99577",190818629,R,02,020,000204,1009,-149.4258,61.2962
4677,24538 HAMANN RD,Anchorage,AK,99577,"24538 HAMANN RD, Anchorage, AK, 99577",Match,Non_Exact,"24538 HAMANN RD, EAGLE RIVER, AK, 99577",190818632,R,02,020,000204,1009,-149.42471,61.295868000000006
4678,24521 WILMA CIR,Anchorage,AK,99577,"24521 WILMA CIR, Anchorage, AK, 99577",Match,Non_Exact,"24521 WILMA CIR, EAGLE RIVER, AK, 99577",190820875,R,02,020,000204,1009,-149.4247,61.294968000000004
4679,24540 WILMA CIR,Anchorage,AK,99577,"24540 WILMA CIR, Anchorage, AK, 99577",Match,Non_Exact,"24540 WILMA CIR, EAGLE RIVER, AK, 99577",190820875,L,02,020,000204,1009,-149.42433,61.294918
4680,24618 WILMA CIR,Anchorage,AK,99577,"24618 WILMA CIR, Anchorage, AK, 99577",Match,Non_Exact,"24618 WILMA CIR, EAGLE RIVER, AK, 99577",190820875,L,02,020,000204,1009,-149.42291,61.294773
4681,24652 WILMA CIR,Anchorage,AK,99577,"24652 WILMA CIR, Anchorage, AK, 99577",Match,Non_Exact,"24652 WILMA CIR, EAGLE RIVER, AK, 99577",190820875,L,02,020,000204,1009,-149.42229,61.294709999999995
4682,24720 HAMANN RD,Anchorage,AK,99577,"24720 HAMANN RD, Anchorage, AK, 99577",Match,Non_Exact,"24720 HAMANN RD, EAGLE RIVER, AK, 99577",626838847,R,02,020,000204,1009,-149.42068,61.294619999999995
4683,24437 WILMA CIR,Anchorage,AK,99577,"24437 WILMA CIR, Anchorage, AK, 99577",Match,Non_Exact,"24437 WILMA CIR, EAGLE RIVER, AK, 99577",190820875,R,02,020,000204,1009,-149.42538000000002,61.29452
4684,24415 WILMA CIR,Anchorage,AK,99577,"24415 WILMA CIR, Anchorage, AK, 99577",Match,Non_Exact,"24415 WILMA CIR, EAGLE RIVER, AK, 99577",190820875,R,02,020,000204,1009,-149.42517,61.294353
4685,24331 WILMA CIR,Anchorage,AK,99577,"24331 WILMA CIR, Anchorage, AK, 99577",Match,Non_Exact,"24331 WILMA CIR, EAGLE RIVER, AK, 99577",190820876,R,02,020,000204,1009,-149.42348,61.29364399999999
4686,24300 WILMA CIR,Anchorage,AK,99577,"24300 WILMA CIR, Anchorage, AK, 99577",Match,Non_Exact,"24300 WILMA CIR, EAGLE RIVER, AK, 99577",190820876,L,02,020,000204,1009,-149.42297,61.2935
4687,21711 KEN LOGAN CIR,Anchorage,AK,99577,"21711 KEN LOGAN CIR, Anchorage, AK, 99577",Match,Non_Exact,"21711 KEN LOGAN CIR, EAGLE RIVER, AK, 99577",190814302,L,02,020,000204,2010,-149.47993,61.288382999999996
4688,21525 RIVER PARK DR,Anchorage,AK,99577,"21525 RIVER PARK DR, Anchorage, AK, 99577",Match,Non_Exact,"21525 RIVER PARK DR, EAGLE RIVER, AK, 99577",190814321,L,02,020,000204,2010,-149.48174,61.288265
4689,21427 RIVER PARK DR,Anchorage,AK,99577,"21427 RIVER PARK DR, Anchorage, AK, 99577",Match,Non_Exact,"21427 RIVER PARK DR, EAGLE RIVER, AK, 99577",190814321,L,02,020,000204,2010,-149.4831,61.28827
4690,21337 RIVER PARK DR,Anchorage,AK,99577,"21337 RIVER PARK DR, Anchorage, AK, 99577",Match,Non_Exact,"21337 RIVER PARK DR, EAGLE RIVER, AK, 99577",190814321,L,02,020,000204,2010,-149.48433,61.28827
4691,21311 RIVER PARK DR,Anchorage,AK,99577,"21311 RIVER PARK DR, Anchorage, AK, 99577",Match,Non_Exact,"21311 RIVER PARK DR, EAGLE RIVER, AK, 99577",190814321,L,02,020,000204,2010,-149.4847,61.28827
4692,21225 RIVER PARK DR,Anchorage,AK,99577,"21225 RIVER PARK DR, Anchorage, AK, 99577",Match,Non_Exact,"21225 RIVER PARK DR, EAGLE RIVER, AK, 99577",190814321,L,02,020,000204,2010,-149.48588999999998,61.28827
4693,21207 RIVER PARK DR,Anchorage,AK,99577,"21207 RIVER PARK DR, Anchorage, AK, 99577",Match,Non_Exact,"21207 RIVER PARK DR, EAGLE RIVER, AK, 99577",190814333,L,02,020,000204,2010,-149.48696999999999,61.28827
4694,21035 RIVER PARK DR,Anchorage,AK,99577,"21035 RIVER PARK DR, Anchorage, AK, 99577",Match,Non_Exact,"21035 RIVER PARK DR, EAGLE RIVER, AK, 99577",190814332,L,02,020,000204,2010,-149.49065,61.288277
4695,9629 BALANDRA CIR,Anchorage,AK,99577,"9629 BALANDRA CIR, Anchorage, AK, 99577",Match,Non_Exact,"9629 BALANDRA CIR, EAGLE RIVER, AK, 99577",190805644,L,02,020,000203,4004,-149.53062,61.30785
4696,17432 TOAKOANA DR,Anchorage,AK,99577,"17432 TOAKOANA DR, Anchorage, AK, 99577",Match,Non_Exact,"17432 TOAKOANA DR, EAGLE RIVER, AK, 99577",190805525,R,02,020,000203,5000,-149.5568,61.308254000000005
4697,18420 CHEKOK CIR,Anchorage,AK,99577,"18420 CHEKOK CIR, Anchorage, AK, 99577",Match,Non_Exact,"18420 CHEKOK CIR, EAGLE RIVER, AK, 99577",190805598,L,02,020,000203,3015,-149.53789,61.307930000000006
4698,17749 NITOANYA CIR,Anchorage,AK,99577,"17749 NITOANYA CIR, Anchorage, AK, 99577",Match,Non_Exact,"17749 NITOANYA CIR, EAGLE RIVER, AK, 99577",190805537,L,02,020,000203,5000,-149.55199,61.30775
4699,18836 ANDREANOF DR,Anchorage,AK,99577,"18836 ANDREANOF DR, Anchorage, AK, 99577",Match,Non_Exact,"18836 ANDREANOF DR, EAGLE RIVER, AK, 99577",190805642,R,02,020,000203,4006,-149.53188,61.307880000000004
4700,9639 KRISHKA CIR,Anchorage,AK,99577,"9639 KRISHKA CIR, Anchorage, AK, 99577",Match,Non_Exact,"9639 KRISHKA CIR, EAGLE RIVER, AK, 99577",190805646,R,02,020,000203,4004,-149.52823,61.30729300000001
4701,23033 MYRTLE DR,Anchorage,AK,99577,"23033 MYRTLE DR, Anchorage, AK, 99577",Match,Non_Exact,"23033 MYRTLE DR, EAGLE RIVER, AK, 99577",645480095,L,02,020,000204,1007,-149.45337,61.303782999999996
4702,22466 COLUMBIA GLACIER LOOP,Anchorage,AK,99577,"22466 COLUMBIA GLACIER LOOP, Anchorage, AK, 99577",Match,Non_Exact,"22466 COLUMBIA GLACIER LOOP, EAGLE RIVER, AK, 99577",190808404,R,02,020,000203,3000,-149.46331999999998,61.3035
4703,23042 MYRTLE DR,Anchorage,AK,99577,"23042 MYRTLE DR, Anchorage, AK, 99577",Match,Non_Exact,"23042 MYRTLE DR, EAGLE RIVER, AK, 99577",645480095,R,02,020,000204,1007,-149.45325,61.30373
4704,22837 EAGLE RIVER RD,Anchorage,AK,99577,"22837 EAGLE RIVER RD, Anchorage, AK, 99577",Match,Non_Exact,"22837 EAGLE RIVER RD, EAGLE RIVER, AK, 99577",190826142,L,02,020,000204,1007,-149.45593,61.30324
4705,22644 EAGLE GLACIER LOOP,Anchorage,AK,99577,"22644 EAGLE GLACIER LOOP, Anchorage, AK, 99577",Match,Non_Exact,"22644 EAGLE GLACIER LOOP, EAGLE RIVER, AK, 99577",190808403,L,02,020,000203,3001,-149.45966,61.30355
4706,22475 COLUMBIA GLACIER LOOP,Anchorage,AK,99577,"22475 COLUMBIA GLACIER LOOP, Anchorage, AK, 99577",Match,Non_Exact,"22475 COLUMBIA GLACIER LOOP, EAGLE RIVER, AK, 99577",190808404,L,02,020,000203,3001,-149.46335,61.303419999999996
4707,23431 UPPER TERRACE ST,Anchorage,AK,99577,"23431 UPPER TERRACE ST, Anchorage, AK, 99577",Match,Non_Exact,"23431 UPPER TERRACE ST, EAGLE RIVER, AK, 99577",190793553,R,02,020,000204,1007,-149.44458,61.302876
4708,22711 EAGLE GLACIER LOOP,Anchorage,AK,99577,"22711 EAGLE GLACIER LOOP, Anchorage, AK, 99577",Match,Non_Exact,"22711 EAGLE GLACIER LOOP, EAGLE RIVER, AK, 99577",190808403,R,02,020,000203,3003,-149.45879,61.30325
4709,23105 MYRTLE DR,Anchorage,AK,99577,"23105 MYRTLE DR, Anchorage, AK, 99577",Match,Non_Exact,"23105 MYRTLE DR, EAGLE RIVER, AK, 99577",645480095,L,02,020,000204,1007,-149.45238,61.303463
4710,23401 UPPER TERRACE ST,Anchorage,AK,99577,"23401 UPPER TERRACE ST, Anchorage, AK, 99577",Match,Non_Exact,"23401 UPPER TERRACE ST, EAGLE RIVER, AK, 99577",190793553,R,02,020,000204,1007,-149.44511,61.302986
4711,22909 EAGLE RIVER RD,Anchorage,AK,99577,"22909 EAGLE RIVER RD, Anchorage, AK, 99577",Match,Non_Exact,"22909 EAGLE RIVER RD, EAGLE RIVER, AK, 99577",190826142,L,02,020,000204,1007,-149.45491,61.30288
4712,9140 WALLACE ST,Anchorage,AK,99577,"9140 WALLACE ST, Anchorage, AK, 99577",Match,Non_Exact,"9140 WALLACE ST, EAGLE RIVER, AK, 99577",190793542,L,02,020,000204,1007,-149.4496,61.30225
4713,22486 COLUMBIA GLACIER LOOP,Anchorage,AK,99577,"22486 COLUMBIA GLACIER LOOP, Anchorage, AK, 99577",Match,Non_Exact,"22486 COLUMBIA GLACIER LOOP, EAGLE RIVER, AK, 99577",190808404,R,02,020,000203,3000,-149.46338,61.303307
4714,22722 EAGLE GLACIER LOOP,Anchorage,AK,99577,"22722 EAGLE GLACIER LOOP, Anchorage, AK, 99577",Match,Non_Exact,"22722 EAGLE GLACIER LOOP, EAGLE RIVER, AK, 99577",190808403,L,02,020,000203,3001,-149.45831,61.30305500000001
4715,23118 MYRTLE DR,Anchorage,AK,99577,"23118 MYRTLE DR, Anchorage, AK, 99577",Match,Non_Exact,"23118 MYRTLE DR, EAGLE RIVER, AK, 99577",645480095,R,02,020,000204,1007,-149.4522,61.303394
4716,23457 UPPER TERRACE ST,Anchorage,AK,99577,"23457 UPPER TERRACE ST, Anchorage, AK, 99577",Match,Non_Exact,"23457 UPPER TERRACE ST, EAGLE RIVER, AK, 99577",190793553,R,02,020,000204,1007,-149.4441,61.302780000000006
4717,22931 EAGLE RIVER RD,Anchorage,AK,99577,"22931 EAGLE RIVER RD, Anchorage, AK, 99577",Match,Non_Exact,"22931 EAGLE RIVER RD, EAGLE RIVER, AK, 99577",190826142,L,02,020,000204,1007,-149.4546,61.302769999999995
4718,23200 LOWER TERRACE ST,Anchorage,AK,99577,"23200 LOWER TERRACE ST, Anchorage, AK, 99577",Match,Non_Exact,"23200 LOWER TERRACE ST, EAGLE RIVER, AK, 99577",190793552,L,02,020,000204,1007,-149.44817,61.302659999999996
4719,22743 EAGLE GLACIER LOOP,Anchorage,AK,99577,"22743 EAGLE GLACIER LOOP, Anchorage, AK, 99577",Match,Non_Exact,"22743 EAGLE GLACIER LOOP, EAGLE RIVER, AK, 99577",190808403,R,02,020,000203,3003,-149.45833000000002,61.30307
4720,23146 MYRTLE DR,Anchorage,AK,99577,"23146 MYRTLE DR, Anchorage, AK, 99577",Match,Non_Exact,"23146 MYRTLE DR, EAGLE RIVER, AK, 99577",645480095,R,02,020,000204,1007,-149.4518,61.303288
4721,23535 UPPER TERRACE ST,Anchorage,AK,99577,"23535 UPPER TERRACE ST, Anchorage, AK, 99577",Match,Non_Exact,"23535 UPPER TERRACE ST, EAGLE RIVER, AK, 99577",190793553,R,02,020,000204,1007,-149.44273,61.302452
4722,19637 N MONTAGUE LOOP,Anchorage,AK,99577,"19637 N MONTAGUE LOOP, Anchorage, AK, 99577",Match,Non_Exact,"19637 N MONTAGUE LOOP, EAGLE RIVER, AK, 99577",190805673,L,02,020,000203,4002,-149.52237,61.308533
4723,9816 CHATHAM CIR,Anchorage,AK,99577,"9816 CHATHAM CIR, Anchorage, AK, 99577",Match,Non_Exact,"9816 CHATHAM CIR, EAGLE RIVER, AK, 99577",190805664,L,02,020,000203,4001,-149.53036,61.3088
4724,9811 CHATHAM CIR,Anchorage,AK,99577,"9811 CHATHAM CIR, Anchorage, AK, 99577",Match,Non_Exact,"9811 CHATHAM CIR, EAGLE RIVER, AK, 99577",190805664,R,02,020,000203,4001,-149.5303,61.308795999999994
4725,20445 RAVEN DR,Anchorage,AK,99577,"20445 RAVEN DR, Anchorage, AK, 99577",Match,Non_Exact,"20445 RAVEN DR, EAGLE RIVER, AK, 99577",190826910,L,02,020,000203,3007,-149.50151,61.308918000000006
4726,20321 RAVEN DR,Anchorage,AK,99577,"20321 RAVEN DR, Anchorage, AK, 99577",Match,Non_Exact,"20321 RAVEN DR, EAGLE RIVER, AK, 99577",190793450,L,02,020,000203,3008,-149.50412,61.308918000000006
4727,20321 RAVEN DR,Anchorage,AK,99577,"20321 RAVEN DR, Anchorage, AK, 99577",Match,Non_Exact,"20321 RAVEN DR, EAGLE RIVER, AK, 99577",190793450,L,02,020,000203,3008,-149.50412,61.308918000000006
4728,20215 RAVEN DR,Anchorage,AK,99577,"20215 RAVEN DR, Anchorage, AK, 99577",Match,Non_Exact,"20215 RAVEN DR, EAGLE RIVER, AK, 99577",190793450,L,02,020,000203,3008,-149.50578000000002,61.308914
4729,20121 RAVEN DR,Anchorage,AK,99577,"20121 RAVEN DR, Anchorage, AK, 99577",Match,Non_Exact,"20121 RAVEN DR, EAGLE RIVER, AK, 99577",190793450,L,02,020,000203,3008,-149.50726,61.30891
4730,9806 DINAAKA DR,Anchorage,AK,99577,"9806 DINAAKA DR, Anchorage, AK, 99577",Match,Non_Exact,"9806 DINAAKA DR, EAGLE RIVER, AK, 99577",190805535,L,02,020,000203,5007,-149.55283,61.30894
4731,9808 CHATHAM CIR,Anchorage,AK,99577,"9808 CHATHAM CIR, Anchorage, AK, 99577",Match,Non_Exact,"9808 CHATHAM CIR, EAGLE RIVER, AK, 99577",190805664,L,02,020,000203,4001,-149.5303,61.308783999999996
4732,9806 NILTINA LN,Anchorage,AK,99577,"9806 NILTINA LN, Anchorage, AK, 99577",Match,Non_Exact,"9806 NILTINA LN, EAGLE RIVER, AK, 99577",190805528,L,02,020,000203,5002,-149.55562,61.309017000000004
4733,101 BUNNELL ST,Anchorage,AK,99508,"101 BUNNELL ST, Anchorage, AK, 99508",Match,Exact,"101 BUNNELL ST, ANCHORAGE, AK, 99508",190801680,L,02,020,000801,2001,-149.78972,61.224037
4734,101 BUNNELL ST,Anchorage,AK,99508,"101 BUNNELL ST, Anchorage, AK, 99508",Match,Exact,"101 BUNNELL ST, ANCHORAGE, AK, 99508",190801680,L,02,020,000801,2001,-149.78972,61.224037
4735,101 BUNNELL ST,Anchorage,AK,99508,"101 BUNNELL ST, Anchorage, AK, 99508",Match,Exact,"101 BUNNELL ST, ANCHORAGE, AK, 99508",190801680,L,02,020,000801,2001,-149.78972,61.224037
4736,101 BUNNELL ST,Anchorage,AK,99508,"101 BUNNELL ST, Anchorage, AK, 99508",Match,Exact,"101 BUNNELL ST, ANCHORAGE, AK, 99508",190801680,L,02,020,000801,2001,-149.78972,61.224037
4737,101 BUNNELL ST,Anchorage,AK,99508,"101 BUNNELL ST, Anchorage, AK, 99508",Match,Exact,"101 BUNNELL ST, ANCHORAGE, AK, 99508",190801680,L,02,020,000801,2001,-149.78972,61.224037
4738,101 BUNNELL ST,Anchorage,AK,99508,"101 BUNNELL ST, Anchorage, AK, 99508",Match,Exact,"101 BUNNELL ST, ANCHORAGE, AK, 99508",190801680,L,02,020,000801,2001,-149.78972,61.224037
4739,101 BUNNELL ST,Anchorage,AK,99508,"101 BUNNELL ST, Anchorage, AK, 99508",Match,Exact,"101 BUNNELL ST, ANCHORAGE, AK, 99508",190801680,L,02,020,000801,2001,-149.78972,61.224037
4740,101 BUNNELL ST,Anchorage,AK,99508,"101 BUNNELL ST, Anchorage, AK, 99508",Match,Exact,"101 BUNNELL ST, ANCHORAGE, AK, 99508",190801680,L,02,020,000801,2001,-149.78972,61.224037
4741,101 BUNNELL ST,Anchorage,AK,99508,"101 BUNNELL ST, Anchorage, AK, 99508",Match,Exact,"101 BUNNELL ST, ANCHORAGE, AK, 99508",190801680,L,02,020,000801,2001,-149.78972,61.224037
4742,101 BUNNELL ST,Anchorage,AK,99508,"101 BUNNELL ST, Anchorage, AK, 99508",Match,Exact,"101 BUNNELL ST, ANCHORAGE, AK, 99508",190801680,L,02,020,000801,2001,-149.78972,61.224037
4743,101 BUNNELL ST,Anchorage,AK,99508,"101 BUNNELL ST, Anchorage, AK, 99508",Match,Exact,"101 BUNNELL ST, ANCHORAGE, AK, 99508",190801680,L,02,020,000801,2001,-149.78972,61.224037
4744,101 BUNNELL ST,Anchorage,AK,99508,"101 BUNNELL ST, Anchorage, AK, 99508",Match,Exact,"101 BUNNELL ST, ANCHORAGE, AK, 99508",190801680,L,02,020,000801,2001,-149.78972,61.224037
4745,101 BUNNELL ST,Anchorage,AK,99508,"101 BUNNELL ST, Anchorage, AK, 99508",Match,Exact,"101 BUNNELL ST, ANCHORAGE, AK, 99508",190801680,L,02,020,000801,2001,-149.78972,61.224037
4746,101 BUNNELL ST,Anchorage,AK,99508,"101 BUNNELL ST, Anchorage, AK, 99508",Match,Exact,"101 BUNNELL ST, ANCHORAGE, AK, 99508",190801680,L,02,020,000801,2001,-149.78972,61.224037
4747,101 BUNNELL ST,Anchorage,AK,99508,"101 BUNNELL ST, Anchorage, AK, 99508",Match,Exact,"101 BUNNELL ST, ANCHORAGE, AK, 99508",190801680,L,02,020,000801,2001,-149.78972,61.224037
4748,101 BUNNELL ST,Anchorage,AK,99508,"101 BUNNELL ST, Anchorage, AK, 99508",Match,Exact,"101 BUNNELL ST, ANCHORAGE, AK, 99508",190801680,L,02,020,000801,2001,-149.78972,61.224037
4749,100 MC CARREY ST,Anchorage,AK,99508,"100 MC CARREY ST, Anchorage, AK, 99508",Match,Exact,"100 MC CARREY ST, ANCHORAGE, AK, 99508",605167268,R,02,020,000801,1000,-149.79173,61.223273999999996
4750,106 MULDOON RD,Anchorage,AK,99504,"106 MULDOON RD, Anchorage, AK, 99504",Match,Exact,"106 MULDOON RD, ANCHORAGE, AK, 99504",638990398,R,02,020,000702,2000,-149.73353999999998,61.223938000000004
4751,100 MC CARREY ST,Anchorage,AK,99508,"100 MC CARREY ST, Anchorage, AK, 99508",Match,Exact,"100 MC CARREY ST, ANCHORAGE, AK, 99508",605167268,R,02,020,000801,1000,-149.79173,61.223273999999996
4752,102 STEWART ST,Anchorage,AK,99508,"102 STEWART ST, Anchorage, AK, 99508",Match,Exact,"102 STEWART ST, ANCHORAGE, AK, 99508",190801683,R,02,020,000801,2001,-149.78791999999999,61.22404
4753,102 STEWART ST,Anchorage,AK,99508,"102 STEWART ST, Anchorage, AK, 99508",Match,Exact,"102 STEWART ST, ANCHORAGE, AK, 99508",190801683,R,02,020,000801,2001,-149.78791999999999,61.22404
4754,102 STEWART ST,Anchorage,AK,99508,"102 STEWART ST, Anchorage, AK, 99508",Match,Exact,"102 STEWART ST, ANCHORAGE, AK, 99508",190801683,R,02,020,000801,2001,-149.78791999999999,61.22404
4755,102 STEWART ST,Anchorage,AK,99508,"102 STEWART ST, Anchorage, AK, 99508",Match,Exact,"102 STEWART ST, ANCHORAGE, AK, 99508",190801683,R,02,020,000801,2001,-149.78791999999999,61.22404
4756,102 STEWART ST,Anchorage,AK,99508,"102 STEWART ST, Anchorage, AK, 99508",Match,Exact,"102 STEWART ST, ANCHORAGE, AK, 99508",190801683,R,02,020,000801,2001,-149.78791999999999,61.22404
4757,102 STEWART ST,Anchorage,AK,99508,"102 STEWART ST, Anchorage, AK, 99508",Match,Exact,"102 STEWART ST, ANCHORAGE, AK, 99508",190801683,R,02,020,000801,2001,-149.78791999999999,61.22404
4758,102 STEWART ST,Anchorage,AK,99508,"102 STEWART ST, Anchorage, AK, 99508",Match,Exact,"102 STEWART ST, ANCHORAGE, AK, 99508",190801683,R,02,020,000801,2001,-149.78791999999999,61.22404
4759,8824 DOME CIR,Anchorage,AK,99577,"8824 DOME CIR, Anchorage, AK, 99577",Match,Non_Exact,"8824 DOME CIR, EAGLE RIVER, AK, 99577",190805577,L,02,020,000203,3014,-149.53502,61.300357999999996
4760,8885 EAGLE PLACE LOOP,Anchorage,AK,99577,"8885 EAGLE PLACE LOOP, Anchorage, AK, 99577",No_Match,,,,,,,,,,
4761,8821 DOME CIR,Anchorage,AK,99577,"8821 DOME CIR, Anchorage, AK, 99577",Match,Non_Exact,"8821 DOME CIR, EAGLE RIVER, AK, 99577",190805577,R,02,020,000203,3014,-149.53497,61.300327
4762,19620 DRIFTWOOD BAY DR,Anchorage,AK,99577,"19620 DRIFTWOOD BAY DR, Anchorage, AK, 99577",Match,Non_Exact,"19620 DRIFTWOOD BAY DR, EAGLE RIVER, AK, 99577",190827412,R,02,020,000203,3011,-149.51671000000002,61.30069
4763,8883 EAGLE PLACE LOOP,Anchorage,AK,99577,"8883 EAGLE PLACE LOOP, Anchorage, AK, 99577",No_Match,,,,,,,,,,
4764,8879 EAGLE PLACE LOOP,Anchorage,AK,99577,"8879 EAGLE PLACE LOOP, Anchorage, AK, 99577",No_Match,,,,,,,,,,
4765,8877 EAGLE PLACE LOOP,Anchorage,AK,99577,"8877 EAGLE PLACE LOOP, Anchorage, AK, 99577",No_Match,,,,,,,,,,
4766,20227 GLACIER PARK CIR,Anchorage,AK,99577,"20227 GLACIER PARK CIR, Anchorage, AK, 99577",Match,Non_Exact,"20227 GLACIER PARK CIR, EAGLE RIVER, AK, 99577",605336517,L,02,020,000203,3002,-149.50537,61.300488
4767,11801 BUSINESS BLVD,Anchorage,AK,99577,"11801 BUSINESS BLVD, Anchorage, AK, 99577",Match,Non_Exact,"11801 BUSINESS BLVD, EAGLE RIVER, AK, 99577",605266942,L,02,020,000201,2021,-149.57402,61.326893000000005
4768,11750 GALENA BAY LOOP,Anchorage,AK,99577,"11750 GALENA BAY LOOP, Anchorage, AK, 99577",No_Match,,,,,,,,,,
4769,11812 FALKLANDS LOOP,Anchorage,AK,99577,"11812 FALKLANDS LOOP, Anchorage, AK, 99577",Match,Non_Exact,"11812 FALKLANDS LOOP, EAGLE RIVER, AK, 99577",605335644,L,02,020,000201,2030,-149.57967,61.326693999999996
4770,11743 GALLOWAY LOOP,Anchorage,AK,99577,"11743 GALLOWAY LOOP, Anchorage, AK, 99577",Match,Non_Exact,"11743 GALLOWAY LOOP, EAGLE RIVER, AK, 99577",624156300,R,02,020,000201,2001,-149.57787,61.326496
4771,11738 GALLOWAY LOOP,Anchorage,AK,99577,"11738 GALLOWAY LOOP, Anchorage, AK, 99577",No_Match,,,,,,,,,,
4772,11813 FALKLANDS LOOP,Anchorage,AK,99577,"11813 FALKLANDS LOOP, Anchorage, AK, 99577",Match,Non_Exact,"11813 FALKLANDS LOOP, EAGLE RIVER, AK, 99577",605335644,R,02,020,000201,2001,-149.57965,61.32669
4773,11847 GALLOWAY LOOP,Anchorage,AK,99577,"11847 GALLOWAY LOOP, Anchorage, AK, 99577",Match,Non_Exact,"11847 GALLOWAY LOOP, EAGLE RIVER, AK, 99577",624156303,R,02,020,000201,2001,-149.57834,61.326954
4774,11748 GALENA BAY LOOP,Anchorage,AK,99577,"11748 GALENA BAY LOOP, Anchorage, AK, 99577",No_Match,,,,,,,,,,
4775,11810 FALKLANDS LOOP,Anchorage,AK,99577,"11810 FALKLANDS LOOP, Anchorage, AK, 99577",Match,Non_Exact,"11810 FALKLANDS LOOP, EAGLE RIVER, AK, 99577",605335644,L,02,020,000201,2030,-149.57968,61.326682999999996
4776,11846 GALLOWAY LOOP,Anchorage,AK,99577,"11846 GALLOWAY LOOP, Anchorage, AK, 99577",Match,Non_Exact,"11846 GALLOWAY LOOP, EAGLE RIVER, AK, 99577",624156303,L,02,020,000201,2005,-149.57832,61.326946
4777,11736 GALLOWAY LOOP,Anchorage,AK,99577,"11736 GALLOWAY LOOP, Anchorage, AK, 99577",No_Match,,,,,,,,,,
4778,11739 GALLOWAY LOOP,Anchorage,AK,99577,"11739 GALLOWAY LOOP, Anchorage, AK, 99577",Match,Non_Exact,"11739 GALLOWAY LOOP, EAGLE RIVER, AK, 99577",624156300,R,02,020,000201,2001,-149.57793,61.326446999999995
4779,11809 FALKLANDS LOOP,Anchorage,AK,99577,"11809 FALKLANDS LOOP, Anchorage, AK, 99577",Match,Non_Exact,"11809 FALKLANDS LOOP, EAGLE RIVER, AK, 99577",605335644,R,02,020,000201,2001,-149.5797,61.326664
4780,11742 GALENA BAY LOOP,Anchorage,AK,99577,"11742 GALENA BAY LOOP, Anchorage, AK, 99577",No_Match,,,,,,,,,,
4781,11851 GALLOWAY LOOP,Anchorage,AK,99577,"11851 GALLOWAY LOOP, Anchorage, AK, 99577",Match,Non_Exact,"11851 GALLOWAY LOOP, EAGLE RIVER, AK, 99577",624156303,R,02,020,000201,2001,-149.5784,61.326904000000006
4782,11848 GALLOWAY LOOP,Anchorage,AK,99577,"11848 GALLOWAY LOOP, Anchorage, AK, 99577",Match,Non_Exact,"11848 GALLOWAY LOOP, EAGLE RIVER, AK, 99577",624156303,L,02,020,000201,2005,-149.57835,61.326927000000005
4783,11737 GALLOWAY LOOP,Anchorage,AK,99577,"11737 GALLOWAY LOOP, Anchorage, AK, 99577",Match,Non_Exact,"11737 GALLOWAY LOOP, EAGLE RIVER, AK, 99577",624156300,R,02,020,000201,2001,-149.57793999999998,61.326423999999996
4784,11732 GALLOWAY LOOP,Anchorage,AK,99577,"11732 GALLOWAY LOOP, Anchorage, AK, 99577",No_Match,,,,,,,,,,
4785,11807 FALKLANDS LOOP,Anchorage,AK,99577,"11807 FALKLANDS LOOP, Anchorage, AK, 99577",Match,Non_Exact,"11807 FALKLANDS LOOP, EAGLE RIVER, AK, 99577",605335644,R,02,020,000201,2001,-149.57973,61.32666
4786,11853 GALLOWAY LOOP,Anchorage,AK,99577,"11853 GALLOWAY LOOP, Anchorage, AK, 99577",Match,Non_Exact,"11853 GALLOWAY LOOP, EAGLE RIVER, AK, 99577",624156303,R,02,020,000201,2001,-149.57843,61.32688
4787,11740 GALENA BAY LOOP,Anchorage,AK,99577,"11740 GALENA BAY LOOP, Anchorage, AK, 99577",No_Match,,,,,,,,,,
4788,11852 GALLOWAY LOOP,Anchorage,AK,99577,"11852 GALLOWAY LOOP, Anchorage, AK, 99577",Match,Non_Exact,"11852 GALLOWAY LOOP, EAGLE RIVER, AK, 99577",624156303,L,02,020,000201,2005,-149.57841000000002,61.326874
4789,11733 GALLOWAY LOOP,Anchorage,AK,99577,"11733 GALLOWAY LOOP, Anchorage, AK, 99577",Match,Non_Exact,"11733 GALLOWAY LOOP, EAGLE RIVER, AK, 99577",624156300,R,02,020,000201,2001,-149.578,61.326374
4790,11730 GALLOWAY LOOP,Anchorage,AK,99577,"11730 GALLOWAY LOOP, Anchorage, AK, 99577",No_Match,,,,,,,,,,
4791,11803 FALKLANDS LOOP,Anchorage,AK,99577,"11803 FALKLANDS LOOP, Anchorage, AK, 99577",Match,Non_Exact,"11803 FALKLANDS LOOP, EAGLE RIVER, AK, 99577",605335644,R,02,020,000201,2001,-149.57979,61.32665
4792,11301 OLD GLENN HWY,Anchorage,AK,99577,"11301 OLD GLENN HWY, Anchorage, AK, 99577",Match,Non_Exact,"11301 OLD GLENN HWY, EAGLE RIVER, AK, 99577",190792415,L,02,020,000202,1018,-149.57016000000002,61.322469999999996
4793,10010 COLVILLE ST,Anchorage,AK,99577,"10010 COLVILLE ST, Anchorage, AK, 99577",Match,Non_Exact,"10010 COLVILLE ST, EAGLE RIVER, AK, 99577",190792719,L,02,020,000202,4018,-149.54279,61.311012
4794,19049 EAGLE RIVER RD,Anchorage,AK,99577,"19049 EAGLE RIVER RD, Anchorage, AK, 99577",Match,Non_Exact,"19049 EAGLE RIVER RD, EAGLE RIVER, AK, 99577",636132077,L,02,020,000203,1018,-149.52739,61.31065400000001
4795,19111 EAGLE RIVER RD,Anchorage,AK,99577,"19111 EAGLE RIVER RD, Anchorage, AK, 99577",Match,Non_Exact,"19111 EAGLE RIVER RD, EAGLE RIVER, AK, 99577",636132077,L,02,020,000203,1018,-149.52649,61.31065
4796,19011 EAGLE RIVER RD,Anchorage,AK,99577,"19011 EAGLE RIVER RD, Anchorage, AK, 99577",Match,Non_Exact,"19011 EAGLE RIVER RD, EAGLE RIVER, AK, 99577",636132077,L,02,020,000203,1018,-149.52792,61.310658
4797,19031 EAGLE RIVER RD,Anchorage,AK,99577,"19031 EAGLE RIVER RD, Anchorage, AK, 99577",Match,Non_Exact,"19031 EAGLE RIVER RD, EAGLE RIVER, AK, 99577",636132077,L,02,020,000203,1018,-149.52765,61.31065400000001
4798,9638 KRISHKA CIR,Anchorage,AK,99577,"9638 KRISHKA CIR, Anchorage, AK, 99577",Match,Non_Exact,"9638 KRISHKA CIR, EAGLE RIVER, AK, 99577",190805646,L,02,020,000203,4004,-149.52826000000002,61.30729300000001
4799,17447 TOAKOANA DR,Anchorage,AK,99577,"17447 TOAKOANA DR, Anchorage, AK, 99577",Match,Non_Exact,"17447 TOAKOANA DR, EAGLE RIVER, AK, 99577",190805525,L,02,020,000203,5005,-149.55669,61.308119999999995
4800,9627 EAGLE RIVER LN,Anchorage,AK,99577,"9627 EAGLE RIVER LN, Anchorage, AK, 99577",Match,Non_Exact,"9627 EAGLE RIVER LN, EAGLE RIVER, AK, 99577",190792850,R,02,020,000203,3004,-149.50975,61.307655000000004
4801,9632 BALANDRA CIR,Anchorage,AK,99577,"9632 BALANDRA CIR, Anchorage, AK, 99577",Match,Non_Exact,"9632 BALANDRA CIR, EAGLE RIVER, AK, 99577",190805644,R,02,020,000203,4004,-149.53069,61.307842
4802,9633 KRISHKA CIR,Anchorage,AK,99577,"9633 KRISHKA CIR, Anchorage, AK, 99577",Match,Non_Exact,"9633 KRISHKA CIR, EAGLE RIVER, AK, 99577",190805646,R,02,020,000203,4004,-149.52821,61.307266000000006
4803,17438 TOAKOANA DR,Anchorage,AK,99577,"17438 TOAKOANA DR, Anchorage, AK, 99577",Match,Non_Exact,"17438 TOAKOANA DR, EAGLE RIVER, AK, 99577",190805525,R,02,020,000203,5000,-149.55675,61.30818000000001
4804,17750 NITOANYA CIR,Anchorage,AK,99577,"17750 NITOANYA CIR, Anchorage, AK, 99577",Match,Non_Exact,"17750 NITOANYA CIR, EAGLE RIVER, AK, 99577",190805537,R,02,020,000203,5000,-149.55196,61.307743
4805,9403 W KANAGA LOOP,Anchorage,AK,99577,"9403 W KANAGA LOOP, Anchorage, AK, 99577",No_Match,,,,,,,,,,
4806,18734 SARICHEF LOOP,Anchorage,AK,99577,"18734 SARICHEF LOOP, Anchorage, AK, 99577",Match,Non_Exact,"18734 SARICHEF LOOP, EAGLE RIVER, AK, 99577",605287919,R,02,020,000203,4009,-149.53282,61.305330000000005
4807,18235 CLEAR FALLS CIR,Anchorage,AK,99577,"18235 CLEAR FALLS CIR, Anchorage, AK, 99577",Match,Non_Exact,"18235 CLEAR FALLS CIR, EAGLE RIVER, AK, 99577",190826513,R,02,020,000203,5006,-149.54156,61.30526700000001
4808,20730 PTARMIGAN BLVD,Anchorage,AK,99577,"20730 PTARMIGAN BLVD, Anchorage, AK, 99577",Match,Non_Exact,"20730 PTARMIGAN BLVD, EAGLE RIVER, AK, 99577",605288341,R,02,020,000203,3000,-149.49548000000001,61.307114
4809,9404 AGATTU CIR,Anchorage,AK,99577,"9404 AGATTU CIR, Anchorage, AK, 99577",Match,Non_Exact,"9404 AGATTU CIR, EAGLE RIVER, AK, 99577",190805600,L,02,020,000203,4006,-149.5345,61.305386
4810,19855 HIGHLAND RIDGE DR,Anchorage,AK,99577,"19855 HIGHLAND RIDGE DR, Anchorage, AK, 99577",Match,Non_Exact,"19855 HIGHLAND RIDGE DR, EAGLE RIVER, AK, 99577",190819652,L,02,020,000203,3015,-149.51575,61.30235
4811,19653 HIGHLAND RIDGE DR,Anchorage,AK,99577,"19653 HIGHLAND RIDGE DR, Anchorage, AK, 99577",Match,Non_Exact,"19653 HIGHLAND RIDGE DR, EAGLE RIVER, AK, 99577",190819652,L,02,020,000203,3015,-149.51813,61.302234999999996
4812,9044 W PARKVIEW TERRACE LOOP,Anchorage,AK,99577,"9044 W PARKVIEW TERRACE LOOP, Anchorage, AK, 99577",Match,Non_Exact,"9044 W PARKVIEW TER LP, EAGLE RIVER, AK, 99577",190805555,L,02,020,000203,5000,-149.54245,61.30255
4813,19659 HIGHLAND RIDGE DR,Anchorage,AK,99577,"19659 HIGHLAND RIDGE DR, Anchorage, AK, 99577",Match,Non_Exact,"19659 HIGHLAND RIDGE DR, EAGLE RIVER, AK, 99577",190819652,L,02,020,000203,3015,-149.51805,61.302240000000005
4814,19864 HIGHLAND RIDGE DR,Anchorage,AK,99577,"19864 HIGHLAND RIDGE DR, Anchorage, AK, 99577",Match,Non_Exact,"19864 HIGHLAND RIDGE DR, EAGLE RIVER, AK, 99577",190819652,R,02,020,000203,3022,-149.51282,61.30226999999999
4815,19701 HIGHLAND RIDGE DR,Anchorage,AK,99577,"19701 HIGHLAND RIDGE DR, Anchorage, AK, 99577",Match,Non_Exact,"19701 HIGHLAND RIDGE DR, EAGLE RIVER, AK, 99577",190819652,L,02,020,000203,3015,-149.51755,61.302288
4816,19707 HIGHLAND RIDGE DR,Anchorage,AK,99577,"19707 HIGHLAND RIDGE DR, Anchorage, AK, 99577",Match,Non_Exact,"19707 HIGHLAND RIDGE DR, EAGLE RIVER, AK, 99577",190819652,L,02,020,000203,3015,-149.51748999999998,61.3023
4817,19737 HIGHLAND RIDGE DR,Anchorage,AK,99577,"19737 HIGHLAND RIDGE DR, Anchorage, AK, 99577",Match,Non_Exact,"19737 HIGHLAND RIDGE DR, EAGLE RIVER, AK, 99577",190819652,L,02,020,000203,3015,-149.51715,61.30236
4818,19713 HIGHLAND RIDGE DR,Anchorage,AK,99577,"19713 HIGHLAND RIDGE DR, Anchorage, AK, 99577",Match,Non_Exact,"19713 HIGHLAND RIDGE DR, EAGLE RIVER, AK, 99577",190819652,L,02,020,000203,3015,-149.51743000000002,61.30231
4819,19719 HIGHLAND RIDGE DR,Anchorage,AK,99577,"19719 HIGHLAND RIDGE DR, Anchorage, AK, 99577",Match,Non_Exact,"19719 HIGHLAND RIDGE DR, EAGLE RIVER, AK, 99577",190819652,L,02,020,000203,3015,-149.51735,61.302322
4820,19731 HIGHLAND RIDGE DR,Anchorage,AK,99577,"19731 HIGHLAND RIDGE DR, Anchorage, AK, 99577",Match,Non_Exact,"19731 HIGHLAND RIDGE DR, EAGLE RIVER, AK, 99577",190819652,L,02,020,000203,3015,-149.51721,61.302344999999995
4821,19725 HIGHLAND RIDGE DR,Anchorage,AK,99577,"19725 HIGHLAND RIDGE DR, Anchorage, AK, 99577",Match,Non_Exact,"19725 HIGHLAND RIDGE DR, EAGLE RIVER, AK, 99577",190819652,L,02,020,000203,3015,-149.51729,61.302333999999995
4822,7345 WATERFALL DR,Anchorage,AK,99577,"7345 WATERFALL DR, Anchorage, AK, 99577",Match,Non_Exact,"7345 WATERFALL DR, EAGLE RIVER, AK, 99577",190827449,L,02,020,000204,2057,-149.4909,61.286587
4823,21451 WHITE WATER CIR,Anchorage,AK,99577,"21451 WHITE WATER CIR, Anchorage, AK, 99577",Match,Non_Exact,"21451 WHITE WATER CIR, EAGLE RIVER, AK, 99577",190814324,L,02,020,000204,2012,-149.48328999999998,61.28683
4824,21208 FALLING WATER DR,Anchorage,AK,99577,"21208 FALLING WATER DR, Anchorage, AK, 99577",Match,Non_Exact,"21208 FALLING WATER DR, EAGLE RIVER, AK, 99577",190814328,R,02,020,000204,2057,-149.48658999999998,61.286674
4825,21245 FALLING WATER DR,Anchorage,AK,99577,"21245 FALLING WATER DR, Anchorage, AK, 99577",Match,Non_Exact,"21245 FALLING WATER DR, EAGLE RIVER, AK, 99577",190814328,L,02,020,000204,2012,-149.48658999999998,61.286685999999996
4826,21444 WHITE WATER CIR,Anchorage,AK,99577,"21444 WHITE WATER CIR, Anchorage, AK, 99577",Match,Non_Exact,"21444 WHITE WATER CIR, EAGLE RIVER, AK, 99577",190814324,R,02,020,000204,2012,-149.48338,61.286840000000005
4827,21230 FALLING WATER DR,Anchorage,AK,99577,"21230 FALLING WATER DR, Anchorage, AK, 99577",Match,Non_Exact,"21230 FALLING WATER DR, EAGLE RIVER, AK, 99577",190814328,R,02,020,000204,2057,-149.48616,61.286575
4828,7300 WATERFALL DR,Anchorage,AK,99577,"7300 WATERFALL DR, Anchorage, AK, 99577",Match,Non_Exact,"7300 WATERFALL DR, EAGLE RIVER, AK, 99577",190827449,R,02,020,000204,2010,-149.49014,61.286246999999996
4829,20347 RIVERSIDE DR,Anchorage,AK,99577,"20347 RIVERSIDE DR, Anchorage, AK, 99577",Match,Non_Exact,"20347 RIVERSIDE DR, EAGLE RIVER, AK, 99577",605336335,L,02,020,000203,3000,-149.50365,61.299094999999994
4830,8711 ACADIA DR,Anchorage,AK,99577,"8711 ACADIA DR, Anchorage, AK, 99577",Match,Non_Exact,"8711 ACADIA DR, EAGLE RIVER, AK, 99577",605336267,R,02,020,000204,2038,-149.56813,61.299285999999995
4831,20231 RIVERSIDE DR,Anchorage,AK,99577,"20231 RIVERSIDE DR, Anchorage, AK, 99577",Match,Non_Exact,"20231 RIVERSIDE DR, EAGLE RIVER, AK, 99577",605336335,L,02,020,000203,3000,-149.50586,61.29926700000001
4832,20335 RIVERSIDE DR,Anchorage,AK,99577,"20335 RIVERSIDE DR, Anchorage, AK, 99577",Match,Non_Exact,"20335 RIVERSIDE DR, EAGLE RIVER, AK, 99577",605336335,L,02,020,000203,3000,-149.50388,61.299088
4833,20333 RIVERSIDE DR,Anchorage,AK,99577,"20333 RIVERSIDE DR, Anchorage, AK, 99577",Match,Non_Exact,"20333 RIVERSIDE DR, EAGLE RIVER, AK, 99577",605336335,L,02,020,000203,3000,-149.50392,61.299088
4834,20233 RIVERSIDE DR,Anchorage,AK,99577,"20233 RIVERSIDE DR, Anchorage, AK, 99577",Match,Non_Exact,"20233 RIVERSIDE DR, EAGLE RIVER, AK, 99577",605336335,L,02,020,000203,3000,-149.50583,61.29926
4835,20321 RIVERSIDE DR,Anchorage,AK,99577,"20321 RIVERSIDE DR, Anchorage, AK, 99577",Match,Non_Exact,"20321 RIVERSIDE DR, EAGLE RIVER, AK, 99577",605336335,L,02,020,000203,3000,-149.50415,61.299080000000004
4836,20319 RIVERSIDE DR,Anchorage,AK,99577,"20319 RIVERSIDE DR, Anchorage, AK, 99577",Match,Non_Exact,"20319 RIVERSIDE DR, EAGLE RIVER, AK, 99577",605336335,L,02,020,000203,3000,-149.5042,61.29908399999999
4837,20307 RIVERSIDE DR,Anchorage,AK,99577,"20307 RIVERSIDE DR, Anchorage, AK, 99577",Match,Non_Exact,"20307 RIVERSIDE DR, EAGLE RIVER, AK, 99577",605336335,L,02,020,000203,3000,-149.50443,61.29909
4838,20245 RIVERSIDE DR,Anchorage,AK,99577,"20245 RIVERSIDE DR, Anchorage, AK, 99577",Match,Non_Exact,"20245 RIVERSIDE DR, EAGLE RIVER, AK, 99577",605336335,L,02,020,000203,3000,-149.5056,61.299231999999996
4839,20247 RIVERSIDE DR,Anchorage,AK,99577,"20247 RIVERSIDE DR, Anchorage, AK, 99577",Match,Non_Exact,"20247 RIVERSIDE DR, EAGLE RIVER, AK, 99577",605336335,L,02,020,000203,3000,-149.50555,61.29923
4840,18811 MILLS BAY DR,Anchorage,AK,99577,"18811 MILLS BAY DR, Anchorage, AK, 99577",Match,Non_Exact,"18811 MILLS BAY DR, EAGLE RIVER, AK, 99577",190805564,L,02,020,000203,3011,-149.53242,61.299114
4841,20305 RIVERSIDE DR,Anchorage,AK,99577,"20305 RIVERSIDE DR, Anchorage, AK, 99577",Match,Non_Exact,"20305 RIVERSIDE DR, EAGLE RIVER, AK, 99577",605336335,L,02,020,000203,3000,-149.50447,61.29909
4842,20261 RIVERSIDE DR,Anchorage,AK,99577,"20261 RIVERSIDE DR, Anchorage, AK, 99577",Match,Non_Exact,"20261 RIVERSIDE DR, EAGLE RIVER, AK, 99577",605336335,L,02,020,000203,3000,-149.5053,61.2992
4843,20259 RIVERSIDE DR,Anchorage,AK,99577,"20259 RIVERSIDE DR, Anchorage, AK, 99577",Match,Non_Exact,"20259 RIVERSIDE DR, EAGLE RIVER, AK, 99577",605336335,L,02,020,000203,3000,-149.50533000000001,61.299202
4844,8727 INYO CIR,Anchorage,AK,99577,"8727 INYO CIR, Anchorage, AK, 99577",Match,Non_Exact,"8727 INYO CIR, EAGLE RIVER, AK, 99577",190822981,L,02,020,000204,2038,-149.56642,61.299366000000006
4845,3716 JOHNNY DR,Anchorage,AK,99577,"3716 JOHNNY DR, Anchorage, AK, 99577",Match,Non_Exact,"3716 JOHNNY DR, EAGLE RIVER, AK, 99577",190826099,R,02,020,000204,2013,-149.4772,61.254481999999996
4846,3731 JOHNNY DR,Anchorage,AK,99577,"3731 JOHNNY DR, Anchorage, AK, 99577",Match,Non_Exact,"3731 JOHNNY DR, EAGLE RIVER, AK, 99577",190826099,L,02,020,000204,2013,-149.47718999999998,61.254585
4847,3633 COTTON GRASS DR,Anchorage,AK,99577,"3633 COTTON GRASS DR, Anchorage, AK, 99577",Match,Non_Exact,"3633 COTTON GRASS DR, EAGLE RIVER, AK, 99577",190827692,R,02,020,000204,2004,-149.46385,61.253609999999995
4848,3650 HILAND RD,Anchorage,AK,99577,"3650 HILAND RD, Anchorage, AK, 99577",Match,Non_Exact,"3650 HILAND RD, EAGLE RIVER, AK, 99577",190815049,R,02,020,000204,2043,-149.46552,61.25404
4849,3600 JOHNNY DR,Anchorage,AK,99577,"3600 JOHNNY DR, Anchorage, AK, 99577",Match,Non_Exact,"3600 JOHNNY DR, EAGLE RIVER, AK, 99577",190826099,R,02,020,000204,2013,-149.47722,61.25362
4850,3607 JOHNNY DR,Anchorage,AK,99577,"3607 JOHNNY DR, Anchorage, AK, 99577",Match,Non_Exact,"3607 JOHNNY DR, EAGLE RIVER, AK, 99577",190826099,L,02,020,000204,2013,-149.47718999999998,61.253666
4851,3574 HILAND RD,Anchorage,AK,99577,"3574 HILAND RD, Anchorage, AK, 99577",Match,Non_Exact,"3574 HILAND RD, EAGLE RIVER, AK, 99577",190815049,R,02,020,000204,2043,-149.46541000000002,61.25355
4852,3450 HILAND RD,Anchorage,AK,99577,"3450 HILAND RD, Anchorage, AK, 99577",Match,Non_Exact,"3450 HILAND RD, EAGLE RIVER, AK, 99577",190827467,R,02,020,000204,2043,-149.46445,61.252421999999996
4853,3349 HILAND RD,Anchorage,AK,99577,"3349 HILAND RD, Anchorage, AK, 99577",Match,Non_Exact,"3349 HILAND RD, EAGLE RIVER, AK, 99577",636131967,L,02,020,000204,2004,-149.4609,61.249382
4854,3336 SUN VALLEY DR,Anchorage,AK,99577,"3336 SUN VALLEY DR, Anchorage, AK, 99577",Match,Non_Exact,"3336 SUN VALLEY DR, EAGLE RIVER, AK, 99577",190827487,R,02,020,000204,2043,-149.46407,61.251000000000005
4855,3333 SUN VALLEY DR,Anchorage,AK,99577,"3333 SUN VALLEY DR, Anchorage, AK, 99577",Match,Non_Exact,"3333 SUN VALLEY DR, EAGLE RIVER, AK, 99577",190827487,L,02,020,000204,2043,-149.46403999999998,61.250965
4856,3308 SUN VALLEY DR,Anchorage,AK,99577,"3308 SUN VALLEY DR, Anchorage, AK, 99577",Match,Non_Exact,"3308 SUN VALLEY DR, EAGLE RIVER, AK, 99577",190827487,R,02,020,000204,2043,-149.46405,61.250755000000005
4857,3263 SUN VALLEY DR,Anchorage,AK,99577,"3263 SUN VALLEY DR, Anchorage, AK, 99577",Match,Non_Exact,"3263 SUN VALLEY DR, EAGLE RIVER, AK, 99577",190827487,L,02,020,000204,2043,-149.46396000000001,61.250355000000006
4858,3264 SUN VALLEY DR,Anchorage,AK,99577,"3264 SUN VALLEY DR, Anchorage, AK, 99577",Match,Non_Exact,"3264 SUN VALLEY DR, EAGLE RIVER, AK, 99577",190827487,R,02,020,000204,2043,-149.46399,61.25037
4859,3127 HILAND RD,Anchorage,AK,99577,"3127 HILAND RD, Anchorage, AK, 99577",Match,Non_Exact,"3127 HILAND RD, EAGLE RIVER, AK, 99577",636131967,L,02,020,000204,2004,-149.46007,61.247593
4860,3211 SUN VALLEY DR,Anchorage,AK,99577,"3211 SUN VALLEY DR, Anchorage, AK, 99577",Match,Non_Exact,"3211 SUN VALLEY DR, EAGLE RIVER, AK, 99577",190827487,L,02,020,000204,2043,-149.46376,61.24991
4861,3133 SUN VALLEY DR,Anchorage,AK,99577,"3133 SUN VALLEY DR, Anchorage, AK, 99577",Match,Non_Exact,"3133 SUN VALLEY DR, EAGLE RIVER, AK, 99577",190827487,L,02,020,000204,2043,-149.46347,61.24924
4862,7505 BOUNDARY AVE,Anchorage,AK,99504,"7505 BOUNDARY AVE, Anchorage, AK, 99504",Match,Exact,"7505 BOUNDARY AVE, ANCHORAGE, AK, 99504",605167228,L,02,020,000702,1001,-149.74295,61.224180000000004
4863,7505 BOUNDARY AVE,Anchorage,AK,99504,"7505 BOUNDARY AVE, Anchorage, AK, 99504",Match,Exact,"7505 BOUNDARY AVE, ANCHORAGE, AK, 99504",605167228,L,02,020,000702,1001,-149.74295,61.224180000000004
4864,7505 BOUNDARY AVE,Anchorage,AK,99504,"7505 BOUNDARY AVE, Anchorage, AK, 99504",Match,Exact,"7505 BOUNDARY AVE, ANCHORAGE, AK, 99504",605167228,L,02,020,000702,1001,-149.74295,61.224180000000004
4865,7505 BOUNDARY AVE,Anchorage,AK,99504,"7505 BOUNDARY AVE, Anchorage, AK, 99504",Match,Exact,"7505 BOUNDARY AVE, ANCHORAGE, AK, 99504",605167228,L,02,020,000702,1001,-149.74295,61.224180000000004
4866,7505 BOUNDARY AVE,Anchorage,AK,99504,"7505 BOUNDARY AVE, Anchorage, AK, 99504",Match,Exact,"7505 BOUNDARY AVE, ANCHORAGE, AK, 99504",605167228,L,02,020,000702,1001,-149.74295,61.224180000000004
4867,7505 BOUNDARY AVE,Anchorage,AK,99504,"7505 BOUNDARY AVE, Anchorage, AK, 99504",Match,Exact,"7505 BOUNDARY AVE, ANCHORAGE, AK, 99504",605167228,L,02,020,000702,1001,-149.74295,61.224180000000004
4868,7505 BOUNDARY AVE,Anchorage,AK,99504,"7505 BOUNDARY AVE, Anchorage, AK, 99504",Match,Exact,"7505 BOUNDARY AVE, ANCHORAGE, AK, 99504",605167228,L,02,020,000702,1001,-149.74295,61.224180000000004
4869,7505 BOUNDARY AVE,Anchorage,AK,99504,"7505 BOUNDARY AVE, Anchorage, AK, 99504",Match,Exact,"7505 BOUNDARY AVE, ANCHORAGE, AK, 99504",605167228,L,02,020,000702,1001,-149.74295,61.224180000000004
4870,7505 BOUNDARY AVE,Anchorage,AK,99504,"7505 BOUNDARY AVE, Anchorage, AK, 99504",Match,Exact,"7505 BOUNDARY AVE, ANCHORAGE, AK, 99504",605167228,L,02,020,000702,1001,-149.74295,61.224180000000004
4871,7505 BOUNDARY AVE,Anchorage,AK,99504,"7505 BOUNDARY AVE, Anchorage, AK, 99504",Match,Exact,"7505 BOUNDARY AVE, ANCHORAGE, AK, 99504",605167228,L,02,020,000702,1001,-149.74295,61.224180000000004
4872,7505 BOUNDARY AVE,Anchorage,AK,99504,"7505 BOUNDARY AVE, Anchorage, AK, 99504",Match,Exact,"7505 BOUNDARY AVE, ANCHORAGE, AK, 99504",605167228,L,02,020,000702,1001,-149.74295,61.224180000000004
4873,7505 BOUNDARY AVE,Anchorage,AK,99504,"7505 BOUNDARY AVE, Anchorage, AK, 99504",Match,Exact,"7505 BOUNDARY AVE, ANCHORAGE, AK, 99504",605167228,L,02,020,000702,1001,-149.74295,61.224180000000004
4874,7505 BOUNDARY AVE,Anchorage,AK,99504,"7505 BOUNDARY AVE, Anchorage, AK, 99504",Match,Exact,"7505 BOUNDARY AVE, ANCHORAGE, AK, 99504",605167228,L,02,020,000702,1001,-149.74295,61.224180000000004
4875,7505 BOUNDARY AVE,Anchorage,AK,99504,"7505 BOUNDARY AVE, Anchorage, AK, 99504",Match,Exact,"7505 BOUNDARY AVE, ANCHORAGE, AK, 99504",605167228,L,02,020,000702,1001,-149.74295,61.224180000000004
4876,7505 BOUNDARY AVE,Anchorage,AK,99504,"7505 BOUNDARY AVE, Anchorage, AK, 99504",Match,Exact,"7505 BOUNDARY AVE, ANCHORAGE, AK, 99504",605167228,L,02,020,000702,1001,-149.74295,61.224180000000004
4877,7505 BOUNDARY AVE,Anchorage,AK,99504,"7505 BOUNDARY AVE, Anchorage, AK, 99504",Match,Exact,"7505 BOUNDARY AVE, ANCHORAGE, AK, 99504",605167228,L,02,020,000702,1001,-149.74295,61.224180000000004
4878,7505 BOUNDARY AVE,Anchorage,AK,99504,"7505 BOUNDARY AVE, Anchorage, AK, 99504",Match,Exact,"7505 BOUNDARY AVE, ANCHORAGE, AK, 99504",605167228,L,02,020,000702,1001,-149.74295,61.224180000000004
4879,7505 BOUNDARY AVE,Anchorage,AK,99504,"7505 BOUNDARY AVE, Anchorage, AK, 99504",Match,Exact,"7505 BOUNDARY AVE, ANCHORAGE, AK, 99504",605167228,L,02,020,000702,1001,-149.74295,61.224180000000004
4880,7505 BOUNDARY AVE,Anchorage,AK,99504,"7505 BOUNDARY AVE, Anchorage, AK, 99504",Match,Exact,"7505 BOUNDARY AVE, ANCHORAGE, AK, 99504",605167228,L,02,020,000702,1001,-149.74295,61.224180000000004
4881,7505 BOUNDARY AVE,Anchorage,AK,99504,"7505 BOUNDARY AVE, Anchorage, AK, 99504",Match,Exact,"7505 BOUNDARY AVE, ANCHORAGE, AK, 99504",605167228,L,02,020,000702,1001,-149.74295,61.224180000000004
4882,7505 BOUNDARY AVE,Anchorage,AK,99504,"7505 BOUNDARY AVE, Anchorage, AK, 99504",Match,Exact,"7505 BOUNDARY AVE, ANCHORAGE, AK, 99504",605167228,L,02,020,000702,1001,-149.74295,61.224180000000004
4883,7505 BOUNDARY AVE,Anchorage,AK,99504,"7505 BOUNDARY AVE, Anchorage, AK, 99504",Match,Exact,"7505 BOUNDARY AVE, ANCHORAGE, AK, 99504",605167228,L,02,020,000702,1001,-149.74295,61.224180000000004
4884,7505 BOUNDARY AVE,Anchorage,AK,99504,"7505 BOUNDARY AVE, Anchorage, AK, 99504",Match,Exact,"7505 BOUNDARY AVE, ANCHORAGE, AK, 99504",605167228,L,02,020,000702,1001,-149.74295,61.224180000000004
4885,7505 BOUNDARY AVE,Anchorage,AK,99504,"7505 BOUNDARY AVE, Anchorage, AK, 99504",Match,Exact,"7505 BOUNDARY AVE, ANCHORAGE, AK, 99504",605167228,L,02,020,000702,1001,-149.74295,61.224180000000004
4886,7505 BOUNDARY AVE,Anchorage,AK,99504,"7505 BOUNDARY AVE, Anchorage, AK, 99504",Match,Exact,"7505 BOUNDARY AVE, ANCHORAGE, AK, 99504",605167228,L,02,020,000702,1001,-149.74295,61.224180000000004
4887,7505 BOUNDARY AVE,Anchorage,AK,99504,"7505 BOUNDARY AVE, Anchorage, AK, 99504",Match,Exact,"7505 BOUNDARY AVE, ANCHORAGE, AK, 99504",605167228,L,02,020,000702,1001,-149.74295,61.224180000000004
4888,100 DAVIS ST,Anchorage,AK,99508,"100 DAVIS ST, Anchorage, AK, 99508",Match,Exact,"100 DAVIS ST, ANCHORAGE, AK, 99508",190801934,R,02,020,000801,2002,-149.7861,61.2241
4889,100 DAVIS ST,Anchorage,AK,99508,"100 DAVIS ST, Anchorage, AK, 99508",Match,Exact,"100 DAVIS ST, ANCHORAGE, AK, 99508",190801934,R,02,020,000801,2002,-149.7861,61.2241
4890,100 DAVIS ST,Anchorage,AK,99508,"100 DAVIS ST, Anchorage, AK, 99508",Match,Exact,"100 DAVIS ST, ANCHORAGE, AK, 99508",190801934,R,02,020,000801,2002,-149.7861,61.2241
4891,100 DAVIS ST,Anchorage,AK,99508,"100 DAVIS ST, Anchorage, AK, 99508",Match,Exact,"100 DAVIS ST, ANCHORAGE, AK, 99508",190801934,R,02,020,000801,2002,-149.7861,61.2241
4892,100 DAVIS ST,Anchorage,AK,99508,"100 DAVIS ST, Anchorage, AK, 99508",Match,Exact,"100 DAVIS ST, ANCHORAGE, AK, 99508",190801934,R,02,020,000801,2002,-149.7861,61.2241
4893,100 DAVIS ST,Anchorage,AK,99508,"100 DAVIS ST, Anchorage, AK, 99508",Match,Exact,"100 DAVIS ST, ANCHORAGE, AK, 99508",190801934,R,02,020,000801,2002,-149.7861,61.2241
4894,114 RUSTY ALLEN PL,Anchorage,AK,99504,"114 RUSTY ALLEN PL, Anchorage, AK, 99504",Match,Exact,"114 RUSTY ALLEN PL, ANCHORAGE, AK, 99504",605185494,R,02,020,000701,1000,-149.76071000000002,61.223369999999996
4895,18939 EAGLE RIVER RD,Anchorage,AK,99577,"18939 EAGLE RIVER RD, Anchorage, AK, 99577",Match,Non_Exact,"18939 EAGLE RIVER RD, EAGLE RIVER, AK, 99577",636132077,L,02,020,000203,1018,-149.52896,61.310665
4896,18721 EAGLE RIVER RD,Anchorage,AK,99577,"18721 EAGLE RIVER RD, Anchorage, AK, 99577",Match,Non_Exact,"18721 EAGLE RIVER RD, EAGLE RIVER, AK, 99577",190814235,L,02,020,000203,1017,-149.5333,61.310673
4897,18739 EAGLE RIVER RD,Anchorage,AK,99577,"18739 EAGLE RIVER RD, Anchorage, AK, 99577",Match,Non_Exact,"18739 EAGLE RIVER RD, EAGLE RIVER, AK, 99577",190814235,L,02,020,000203,1017,-149.53296,61.310673
4898,18215 EAGLE RIVER RD,Anchorage,AK,99577,"18215 EAGLE RIVER RD, Anchorage, AK, 99577",Match,Non_Exact,"18215 EAGLE RIVER RD, EAGLE RIVER, AK, 99577",190792759,L,02,020,000202,4019,-149.54238999999998,61.310642
4899,12333 END ST,Anchorage,AK,99577,"12333 END ST, Anchorage, AK, 99577",Match,Non_Exact,"12333 END ST, EAGLE RIVER, AK, 99577",190814044,R,02,020,000201,1007,-149.57501000000002,61.331756999999996
4900,12341 LAKE ST,Anchorage,AK,99577,"12341 LAKE ST, Anchorage, AK, 99577",Match,Non_Exact,"12341 LAKE ST, EAGLE RIVER, AK, 99577",190792390,R,02,020,000201,1007,-149.57036000000002,61.33145
4901,16226 JACKSON HOLE CT,Anchorage,AK,99577,"16226 JACKSON HOLE CT, Anchorage, AK, 99577",Match,Non_Exact,"16226 JACKSON HOLE CT, EAGLE RIVER, AK, 99577",190794645,R,02,020,000201,1012,-149.5796,61.332195
4902,16216 JACKSON HOLE CT,Anchorage,AK,99577,"16216 JACKSON HOLE CT, Anchorage, AK, 99577",Match,Non_Exact,"16216 JACKSON HOLE CT, EAGLE RIVER, AK, 99577",190794645,R,02,020,000201,1012,-149.57974,61.332190000000004
4903,11854 GALLOWAY LOOP,Anchorage,AK,99577,"11854 GALLOWAY LOOP, Anchorage, AK, 99577",Match,Non_Exact,"11854 GALLOWAY LOOP, EAGLE RIVER, AK, 99577",624156303,L,02,020,000201,2005,-149.57845,61.32685
4904,11731 GALLOWAY LOOP,Anchorage,AK,99577,"11731 GALLOWAY LOOP, Anchorage, AK, 99577",Match,Non_Exact,"11731 GALLOWAY LOOP, EAGLE RIVER, AK, 99577",624156300,R,02,020,000201,2001,-149.57802,61.326347
4905,11735 GALENA BAY LOOP,Anchorage,AK,99577,"11735 GALENA BAY LOOP, Anchorage, AK, 99577",Match,Non_Exact,"11735 GALENA BAY LOOP, EAGLE RIVER, AK, 99577",605334899,R,02,020,000201,2002,-149.58015,61.326305000000005
4906,11734 GALENA BAY LOOP,Anchorage,AK,99577,"11734 GALENA BAY LOOP, Anchorage, AK, 99577",No_Match,,,,,,,,,,
4907,11857 GALLOWAY LOOP,Anchorage,AK,99577,"11857 GALLOWAY LOOP, Anchorage, AK, 99577",Match,Non_Exact,"11857 GALLOWAY LOOP, EAGLE RIVER, AK, 99577",624156303,R,02,020,000201,2001,-149.5785,61.32683000000001
4908,11726 GALLOWAY LOOP,Anchorage,AK,99577,"11726 GALLOWAY LOOP, Anchorage, AK, 99577",No_Match,,,,,,,,,,
4909,11801 FALKLANDS LOOP,Anchorage,AK,99577,"11801 FALKLANDS LOOP, Anchorage, AK, 99577",Match,Non_Exact,"11801 FALKLANDS LOOP, EAGLE RIVER, AK, 99577",605335644,R,02,020,000201,2001,-149.57981999999998,61.32664499999999
4910,11723 OLD GLENN HWY,Anchorage,AK,99577,"11723 OLD GLENN HWY, Anchorage, AK, 99577",Match,Non_Exact,"11723 OLD GLENN HWY, EAGLE RIVER, AK, 99577",190792392,L,02,020,000202,1007,-149.5709,61.32635
4911,11723 OLD GLENN HWY,Anchorage,AK,99577,"11723 OLD GLENN HWY, Anchorage, AK, 99577",Match,Non_Exact,"11723 OLD GLENN HWY, EAGLE RIVER, AK, 99577",190792392,L,02,020,000202,1007,-149.5709,61.32635
4912,11723 OLD GLENN HWY,Anchorage,AK,99577,"11723 OLD GLENN HWY, Anchorage, AK, 99577",Match,Non_Exact,"11723 OLD GLENN HWY, EAGLE RIVER, AK, 99577",190792392,L,02,020,000202,1007,-149.5709,61.32635
4913,11723 OLD GLENN HWY,Anchorage,AK,99577,"11723 OLD GLENN HWY, Anchorage, AK, 99577",Match,Non_Exact,"11723 OLD GLENN HWY, EAGLE RIVER, AK, 99577",190792392,L,02,020,000202,1007,-149.5709,61.32635
4914,11723 OLD GLENN HWY,Anchorage,AK,99577,"11723 OLD GLENN HWY, Anchorage, AK, 99577",Match,Non_Exact,"11723 OLD GLENN HWY, EAGLE RIVER, AK, 99577",190792392,L,02,020,000202,1007,-149.5709,61.32635
4915,11723 OLD GLENN HWY,Anchorage,AK,99577,"11723 OLD GLENN HWY, Anchorage, AK, 99577",Match,Non_Exact,"11723 OLD GLENN HWY, EAGLE RIVER, AK, 99577",190792392,L,02,020,000202,1007,-149.5709,61.32635
4916,11723 OLD GLENN HWY,Anchorage,AK,99577,"11723 OLD GLENN HWY, Anchorage, AK, 99577",Match,Non_Exact,"11723 OLD GLENN HWY, EAGLE RIVER, AK, 99577",190792392,L,02,020,000202,1007,-149.5709,61.32635
4917,11723 OLD GLENN HWY,Anchorage,AK,99577,"11723 OLD GLENN HWY, Anchorage, AK, 99577",Match,Non_Exact,"11723 OLD GLENN HWY, EAGLE RIVER, AK, 99577",190792392,L,02,020,000202,1007,-149.5709,61.32635
4918,11723 OLD GLENN HWY,Anchorage,AK,99577,"11723 OLD GLENN HWY, Anchorage, AK, 99577",Match,Non_Exact,"11723 OLD GLENN HWY, EAGLE RIVER, AK, 99577",190792392,L,02,020,000202,1007,-149.5709,61.32635
4919,11723 OLD GLENN HWY,Anchorage,AK,99577,"11723 OLD GLENN HWY, Anchorage, AK, 99577",Match,Non_Exact,"11723 OLD GLENN HWY, EAGLE RIVER, AK, 99577",190792392,L,02,020,000202,1007,-149.5709,61.32635
4920,11723 OLD GLENN HWY,Anchorage,AK,99577,"11723 OLD GLENN HWY, Anchorage, AK, 99577",Match,Non_Exact,"11723 OLD GLENN HWY, EAGLE RIVER, AK, 99577",190792392,L,02,020,000202,1007,-149.5709,61.32635
4921,11723 OLD GLENN HWY,Anchorage,AK,99577,"11723 OLD GLENN HWY, Anchorage, AK, 99577",Match,Non_Exact,"11723 OLD GLENN HWY, EAGLE RIVER, AK, 99577",190792392,L,02,020,000202,1007,-149.5709,61.32635
4922,11723 OLD GLENN HWY,Anchorage,AK,99577,"11723 OLD GLENN HWY, Anchorage, AK, 99577",Match,Non_Exact,"11723 OLD GLENN HWY, EAGLE RIVER, AK, 99577",190792392,L,02,020,000202,1007,-149.5709,61.32635
4923,11723 OLD GLENN HWY,Anchorage,AK,99577,"11723 OLD GLENN HWY, Anchorage, AK, 99577",Match,Non_Exact,"11723 OLD GLENN HWY, EAGLE RIVER, AK, 99577",190792392,L,02,020,000202,1007,-149.5709,61.32635
4924,11723 OLD GLENN HWY,Anchorage,AK,99577,"11723 OLD GLENN HWY, Anchorage, AK, 99577",Match,Non_Exact,"11723 OLD GLENN HWY, EAGLE RIVER, AK, 99577",190792392,L,02,020,000202,1007,-149.5709,61.32635
4925,11859 GALLOWAY LOOP,Anchorage,AK,99577,"11859 GALLOWAY LOOP, Anchorage, AK, 99577",Match,Non_Exact,"11859 GALLOWAY LOOP, EAGLE RIVER, AK, 99577",624156303,R,02,020,000201,2001,-149.57854,61.326809999999995
4926,21290 FALLING WATER DR,Anchorage,AK,99577,"21290 FALLING WATER DR, Anchorage, AK, 99577",Match,Non_Exact,"21290 FALLING WATER DR, EAGLE RIVER, AK, 99577",190814328,R,02,020,000204,2057,-149.48502,61.286280000000005
4927,21319 FALLING WATER DR,Anchorage,AK,99577,"21319 FALLING WATER DR, Anchorage, AK, 99577",Match,Non_Exact,"21319 FALLING WATER DR, EAGLE RIVER, AK, 99577",190814328,L,02,020,000204,2012,-149.48549,61.286438000000004
4928,21595 FALLING WATER CIR,Anchorage,AK,99577,"21595 FALLING WATER CIR, Anchorage, AK, 99577",Match,Non_Exact,"21595 FALLING WATER CIR, EAGLE RIVER, AK, 99577",190814673,L,02,020,000204,2012,-149.48044,61.285576
4929,21630 FALLING WATER CIR,Anchorage,AK,99577,"21630 FALLING WATER CIR, Anchorage, AK, 99577",Match,Non_Exact,"21630 FALLING WATER CIR, EAGLE RIVER, AK, 99577",190814673,R,02,020,000204,2012,-149.48018000000002,61.285667000000004
4930,21616 FALLING WATER CIR,Anchorage,AK,99577,"21616 FALLING WATER CIR, Anchorage, AK, 99577",Match,Non_Exact,"21616 FALLING WATER CIR, EAGLE RIVER, AK, 99577",190814673,R,02,020,000204,2012,-149.48027,61.285625
4931,21439 FALLING WATER CIR,Anchorage,AK,99577,"21439 FALLING WATER CIR, Anchorage, AK, 99577",Match,Non_Exact,"21439 FALLING WATER CIR, EAGLE RIVER, AK, 99577",190814673,L,02,020,000204,2012,-149.48183,61.28555
4932,21515 FALLING WATER CIR,Anchorage,AK,99577,"21515 FALLING WATER CIR, Anchorage, AK, 99577",Match,Non_Exact,"21515 FALLING WATER CIR, EAGLE RIVER, AK, 99577",190814673,L,02,020,000204,2012,-149.48113999999998,61.285492000000005
4933,7205 WATERFALL DR,Anchorage,AK,99577,"7205 WATERFALL DR, Anchorage, AK, 99577",Match,Non_Exact,"7205 WATERFALL DR, EAGLE RIVER, AK, 99577",190827450,L,02,020,000204,2057,-149.48747,61.285637
4934,7212 WATERFALL DR,Anchorage,AK,99577,"7212 WATERFALL DR, Anchorage, AK, 99577",Match,Non_Exact,"7212 WATERFALL DR, EAGLE RIVER, AK, 99577",190827450,R,02,020,000204,2010,-149.48783999999998,61.285680000000006
4935,21534 FALLING WATER CIR,Anchorage,AK,99577,"21534 FALLING WATER CIR, Anchorage, AK, 99577",Match,Non_Exact,"21534 FALLING WATER CIR, EAGLE RIVER, AK, 99577",190814673,R,02,020,000204,2012,-149.48096,61.28548000000001
4936,21365 BARBARA FALLS DR,Anchorage,AK,99577,"21365 BARBARA FALLS DR, Anchorage, AK, 99577",Match,Non_Exact,"21365 BARBARA FALLS DR, EAGLE RIVER, AK, 99577",190814330,L,02,020,000204,2057,-149.48367,61.285366
4937,21440 FALLING WATER CIR,Anchorage,AK,99577,"21440 FALLING WATER CIR, Anchorage, AK, 99577",Match,Non_Exact,"21440 FALLING WATER CIR, EAGLE RIVER, AK, 99577",190814673,R,02,020,000204,2012,-149.48181,61.285538
4938,21506 FALLING WATER CIR,Anchorage,AK,99577,"21506 FALLING WATER CIR, Anchorage, AK, 99577",Match,Non_Exact,"21506 FALLING WATER CIR, EAGLE RIVER, AK, 99577",190814673,R,02,020,000204,2012,-149.48122,61.28549
4939,21392 BARBARA FALLS DR,Anchorage,AK,99577,"21392 BARBARA FALLS DR, Anchorage, AK, 99577",Match,Non_Exact,"21392 BARBARA FALLS DR, EAGLE RIVER, AK, 99577",190814330,R,02,020,000204,2012,-149.48279,61.28544599999999
4940,7161 WATERFALL DR,Anchorage,AK,99577,"7161 WATERFALL DR, Anchorage, AK, 99577",Match,Non_Exact,"7161 WATERFALL DR, EAGLE RIVER, AK, 99577",190827450,L,02,020,000204,2057,-149.4867,61.28533
4941,7138 WATERFALL DR,Anchorage,AK,99577,"7138 WATERFALL DR, Anchorage, AK, 99577",Match,Non_Exact,"7138 WATERFALL DR, EAGLE RIVER, AK, 99577",190827450,R,02,020,000204,2010,-149.48658999999998,61.28527
4942,7117 WATERFALL DR,Anchorage,AK,99577,"7117 WATERFALL DR, Anchorage, AK, 99577",Match,Non_Exact,"7117 WATERFALL DR, EAGLE RIVER, AK, 99577",190822994,L,02,020,000204,2012,-149.48466000000002,61.284411999999996
4943,7039 WATERFALL DR,Anchorage,AK,99577,"7039 WATERFALL DR, Anchorage, AK, 99577",Match,Non_Exact,"7039 WATERFALL DR, EAGLE RIVER, AK, 99577",190822994,L,02,020,000204,2012,-149.48405,61.284133999999995
4944,21230 RUNNING BROOK CIR,Anchorage,AK,99577,"21230 RUNNING BROOK CIR, Anchorage, AK, 99577",Match,Non_Exact,"21230 RUNNING BROOK CIR, EAGLE RIVER, AK, 99577",190822995,L,02,020,000204,2010,-149.48549,61.28414
4945,21419 RUSHING RIVER CIR,Anchorage,AK,99577,"21419 RUSHING RIVER CIR, Anchorage, AK, 99577",Match,Non_Exact,"21419 RUSHING RIVER CIR, EAGLE RIVER, AK, 99577",190814337,L,02,020,000204,2012,-149.48335,61.28400799999999
4946,21443 RUSHING RIVER CIR,Anchorage,AK,99577,"21443 RUSHING RIVER CIR, Anchorage, AK, 99577",Match,Non_Exact,"21443 RUSHING RIVER CIR, EAGLE RIVER, AK, 99577",190814337,L,02,020,000204,2012,-149.48315,61.283997
4947,9632 KRISHKA CIR,Anchorage,AK,99577,"9632 KRISHKA CIR, Anchorage, AK, 99577",Match,Non_Exact,"9632 KRISHKA CIR, EAGLE RIVER, AK, 99577",190805646,L,02,020,000203,4004,-149.52823999999998,61.307262
4948,17728 NITOANYA CIR,Anchorage,AK,99577,"17728 NITOANYA CIR, Anchorage, AK, 99577",Match,Non_Exact,"17728 NITOANYA CIR, EAGLE RIVER, AK, 99577",190805537,R,02,020,000203,5000,-149.55228,61.307743
4949,17710 NITOANYA CIR,Anchorage,AK,99577,"17710 NITOANYA CIR, Anchorage, AK, 99577",Match,Non_Exact,"17710 NITOANYA CIR, EAGLE RIVER, AK, 99577",190805537,R,02,020,000203,5000,-149.55255,61.307743
4950,9621 NOAYA CIR,Anchorage,AK,99577,"9621 NOAYA CIR, Anchorage, AK, 99577",Match,Non_Exact,"9621 NOAYA CIR, EAGLE RIVER, AK, 99577",190805539,L,02,020,000203,5005,-149.55504,61.307316
4951,17501 TOAKOANA DR,Anchorage,AK,99577,"17501 TOAKOANA DR, Anchorage, AK, 99577",Match,Non_Exact,"17501 TOAKOANA DR, EAGLE RIVER, AK, 99577",190805525,L,02,020,000203,5005,-149.55585,61.307587
4952,17740 NITOANYA CIR,Anchorage,AK,99577,"17740 NITOANYA CIR, Anchorage, AK, 99577",Match,Non_Exact,"17740 NITOANYA CIR, EAGLE RIVER, AK, 99577",190805537,R,02,020,000203,5000,-149.55211,61.307743
4953,17746 NITOANYA CIR,Anchorage,AK,99577,"17746 NITOANYA CIR, Anchorage, AK, 99577",Match,Non_Exact,"17746 NITOANYA CIR, EAGLE RIVER, AK, 99577",190805537,R,02,020,000203,5000,-149.55202,61.307743
4954,18846 ANDREANOF DR,Anchorage,AK,99577,"18846 ANDREANOF DR, Anchorage, AK, 99577",Match,Non_Exact,"18846 ANDREANOF DR, EAGLE RIVER, AK, 99577",190805643,R,02,020,000203,4004,-149.53181,61.30766
4955,18714 N LOWRIE LOOP,Anchorage,AK,99577,"18714 N LOWRIE LOOP, Anchorage, AK, 99577",Match,Non_Exact,"18714 N LOWRIE LOOP, EAGLE RIVER, AK, 99577",190826070,L,02,020,000203,4008,-149.53331,61.307213
4956,17444 TOAKOANA DR,Anchorage,AK,99577,"17444 TOAKOANA DR, Anchorage, AK, 99577",Match,Non_Exact,"17444 TOAKOANA DR, EAGLE RIVER, AK, 99577",190805525,R,02,020,000203,5000,-149.5567,61.30811
4957,3120 SUN VALLEY DR,Anchorage,AK,99577,"3120 SUN VALLEY DR, Anchorage, AK, 99577",Match,Non_Exact,"3120 SUN VALLEY DR, EAGLE RIVER, AK, 99577",190827487,R,02,020,000204,2043,-149.46346,61.249134
4958,3049 SUN VALLEY DR,Anchorage,AK,99577,"3049 SUN VALLEY DR, Anchorage, AK, 99577",Match,Non_Exact,"3049 SUN VALLEY DR, EAGLE RIVER, AK, 99577",190827487,L,02,020,000204,2043,-149.46323,61.248512
4959,3032 SUN VALLEY DR,Anchorage,AK,99577,"3032 SUN VALLEY DR, Anchorage, AK, 99577",Match,Non_Exact,"3032 SUN VALLEY DR, EAGLE RIVER, AK, 99577",190827487,R,02,020,000204,2043,-149.46323999999998,61.248369999999994
4960,3010 SUN VALLEY DR,Anchorage,AK,99577,"3010 SUN VALLEY DR, Anchorage, AK, 99577",Match,Non_Exact,"3010 SUN VALLEY DR, EAGLE RIVER, AK, 99577",190827487,R,02,020,000204,2043,-149.46323999999998,61.248180000000005
4961,2995 HILAND RD,Anchorage,AK,99577,"2995 HILAND RD, Anchorage, AK, 99577",Match,Non_Exact,"2995 HILAND RD, EAGLE RIVER, AK, 99577",636131967,L,02,020,000204,2004,-149.45967,61.246525
4962,2881 SUN VALLEY DR,Anchorage,AK,99577,"2881 SUN VALLEY DR, Anchorage, AK, 99577",Match,Non_Exact,"2881 SUN VALLEY DR, EAGLE RIVER, AK, 99577",190827487,L,02,020,000204,2043,-149.46233,61.24714300000001
4963,2812 SUN VALLEY DR,Anchorage,AK,99577,"2812 SUN VALLEY DR, Anchorage, AK, 99577",Match,Non_Exact,"2812 SUN VALLEY DR, EAGLE RIVER, AK, 99577",190827487,R,02,020,000204,2043,-149.46196,61.246582
4964,2727 HILAND RD,Anchorage,AK,99577,"2727 HILAND RD, Anchorage, AK, 99577",Match,Non_Exact,"2727 HILAND RD, EAGLE RIVER, AK, 99577",636131967,L,02,020,000204,2004,-149.45776,61.244503
4965,2340 HILAND RD,Anchorage,AK,99577,"2340 HILAND RD, Anchorage, AK, 99577",Match,Non_Exact,"2340 HILAND RD, EAGLE RIVER, AK, 99577",636131967,R,02,020,000204,2043,-149.4561,61.243
4966,2352 NORTH RIVER CIR,Anchorage,AK,99577,"2352 NORTH RIVER CIR, Anchorage, AK, 99577",Match,Non_Exact,"2352 N RIVER CIR, EAGLE RIVER, AK, 99577",190815075,L,02,020,000204,2043,-149.45786,61.240925
4967,5180 TAKU DR,Anchorage,AK,99508,"5180 TAKU DR, Anchorage, AK, 99508",Match,Exact,"5180 TAKU DR, ANCHORAGE, AK, 99508",190801940,R,02,020,000801,3004,-149.78464,61.224167
4968,5180 TAKU DR,Anchorage,AK,99508,"5180 TAKU DR, Anchorage, AK, 99508",Match,Exact,"5180 TAKU DR, ANCHORAGE, AK, 99508",190801940,R,02,020,000801,3004,-149.78464,61.224167
4969,5180 TAKU DR,Anchorage,AK,99508,"5180 TAKU DR, Anchorage, AK, 99508",Match,Exact,"5180 TAKU DR, ANCHORAGE, AK, 99508",190801940,R,02,020,000801,3004,-149.78464,61.224167
4970,5180 TAKU DR,Anchorage,AK,99508,"5180 TAKU DR, Anchorage, AK, 99508",Match,Exact,"5180 TAKU DR, ANCHORAGE, AK, 99508",190801940,R,02,020,000801,3004,-149.78464,61.224167
4971,5180 TAKU DR,Anchorage,AK,99508,"5180 TAKU DR, Anchorage, AK, 99508",Match,Exact,"5180 TAKU DR, ANCHORAGE, AK, 99508",190801940,R,02,020,000801,3004,-149.78464,61.224167
4972,5180 TAKU DR,Anchorage,AK,99508,"5180 TAKU DR, Anchorage, AK, 99508",Match,Exact,"5180 TAKU DR, ANCHORAGE, AK, 99508",190801940,R,02,020,000801,3004,-149.78464,61.224167
4973,5150 TAKU DR,Anchorage,AK,99508,"5150 TAKU DR, Anchorage, AK, 99508",Match,Exact,"5150 TAKU DR, ANCHORAGE, AK, 99508",190801940,R,02,020,000801,3004,-149.78508,61.224167
4974,5150 TAKU DR,Anchorage,AK,99508,"5150 TAKU DR, Anchorage, AK, 99508",Match,Exact,"5150 TAKU DR, ANCHORAGE, AK, 99508",190801940,R,02,020,000801,3004,-149.78508,61.224167
4975,5150 TAKU DR,Anchorage,AK,99508,"5150 TAKU DR, Anchorage, AK, 99508",Match,Exact,"5150 TAKU DR, ANCHORAGE, AK, 99508",190801940,R,02,020,000801,3004,-149.78508,61.224167
4976,5150 TAKU DR,Anchorage,AK,99508,"5150 TAKU DR, Anchorage, AK, 99508",Match,Exact,"5150 TAKU DR, ANCHORAGE, AK, 99508",190801940,R,02,020,000801,3004,-149.78508,61.224167
4977,5150 TAKU DR,Anchorage,AK,99508,"5150 TAKU DR, Anchorage, AK, 99508",Match,Exact,"5150 TAKU DR, ANCHORAGE, AK, 99508",190801940,R,02,020,000801,3004,-149.78508,61.224167
4978,5150 TAKU DR,Anchorage,AK,99508,"5150 TAKU DR, Anchorage, AK, 99508",Match,Exact,"5150 TAKU DR, ANCHORAGE, AK, 99508",190801940,R,02,020,000801,3004,-149.78508,61.224167
4979,5130 TAKU DR,Anchorage,AK,99508,"5130 TAKU DR, Anchorage, AK, 99508",Match,Exact,"5130 TAKU DR, ANCHORAGE, AK, 99508",190801940,R,02,020,000801,3004,-149.78537,61.224167
4980,5130 TAKU DR,Anchorage,AK,99508,"5130 TAKU DR, Anchorage, AK, 99508",Match,Exact,"5130 TAKU DR, ANCHORAGE, AK, 99508",190801940,R,02,020,000801,3004,-149.78537,61.224167
4981,5130 TAKU DR,Anchorage,AK,99508,"5130 TAKU DR, Anchorage, AK, 99508",Match,Exact,"5130 TAKU DR, ANCHORAGE, AK, 99508",190801940,R,02,020,000801,3004,-149.78537,61.224167
4982,5130 TAKU DR,Anchorage,AK,99508,"5130 TAKU DR, Anchorage, AK, 99508",Match,Exact,"5130 TAKU DR, ANCHORAGE, AK, 99508",190801940,R,02,020,000801,3004,-149.78537,61.224167
4983,5140 TAKU DR,Anchorage,AK,99508,"5140 TAKU DR, Anchorage, AK, 99508",Match,Exact,"5140 TAKU DR, ANCHORAGE, AK, 99508",190801940,R,02,020,000801,3004,-149.78523,61.224167
4984,5140 TAKU DR,Anchorage,AK,99508,"5140 TAKU DR, Anchorage, AK, 99508",Match,Exact,"5140 TAKU DR, ANCHORAGE, AK, 99508",190801940,R,02,020,000801,3004,-149.78523,61.224167
4985,5140 TAKU DR,Anchorage,AK,99508,"5140 TAKU DR, Anchorage, AK, 99508",Match,Exact,"5140 TAKU DR, ANCHORAGE, AK, 99508",190801940,R,02,020,000801,3004,-149.78523,61.224167
4986,5140 TAKU DR,Anchorage,AK,99508,"5140 TAKU DR, Anchorage, AK, 99508",Match,Exact,"5140 TAKU DR, ANCHORAGE, AK, 99508",190801940,R,02,020,000801,3004,-149.78523,61.224167
4987,5140 TAKU DR,Anchorage,AK,99508,"5140 TAKU DR, Anchorage, AK, 99508",Match,Exact,"5140 TAKU DR, ANCHORAGE, AK, 99508",190801940,R,02,020,000801,3004,-149.78523,61.224167
4988,5140 TAKU DR,Anchorage,AK,99508,"5140 TAKU DR, Anchorage, AK, 99508",Match,Exact,"5140 TAKU DR, ANCHORAGE, AK, 99508",190801940,R,02,020,000801,3004,-149.78523,61.224167
4989,5308 TAKU DR,Anchorage,AK,99508,"5308 TAKU DR, Anchorage, AK, 99508",Match,Exact,"5308 TAKU DR, ANCHORAGE, AK, 99508",624091008,R,02,020,000801,3002,-149.78215,61.224169999999994
4990,5308 TAKU DR,Anchorage,AK,99508,"5308 TAKU DR, Anchorage, AK, 99508",Match,Exact,"5308 TAKU DR, ANCHORAGE, AK, 99508",624091008,R,02,020,000801,3002,-149.78215,61.224169999999994
4991,5308 TAKU DR,Anchorage,AK,99508,"5308 TAKU DR, Anchorage, AK, 99508",Match,Exact,"5308 TAKU DR, ANCHORAGE, AK, 99508",624091008,R,02,020,000801,3002,-149.78215,61.224169999999994
4992,8828 JULY CREEK CIR,Anchorage,AK,99577,"8828 JULY CREEK CIR, Anchorage, AK, 99577",Match,Non_Exact,"8828 JULY CREEK CIR, EAGLE RIVER, AK, 99577",190805575,L,02,020,000203,3014,-149.53236,61.299953
4993,8857 KAK ISLAND ST,Anchorage,AK,99577,"8857 KAK ISLAND ST, Anchorage, AK, 99577",Match,Non_Exact,"8857 KAK ISLAND ST, EAGLE RIVER, AK, 99577",190818618,L,02,020,000203,3023,-149.53062,61.300438
4994,20235 GLACIER PARK CIR,Anchorage,AK,99577,"20235 GLACIER PARK CIR, Anchorage, AK, 99577",Match,Non_Exact,"20235 GLACIER PARK CIR, EAGLE RIVER, AK, 99577",605336517,L,02,020,000203,3002,-149.5053,61.300453000000005
4995,20704 DRIFTWOOD BAY DR,Anchorage,AK,99577,"20704 DRIFTWOOD BAY DR, Anchorage, AK, 99577",Match,Non_Exact,"20704 DRIFTWOOD BAY DR, EAGLE RIVER, AK, 99577",625727882,L,02,020,000203,3000,-149.49538,61.30061
4996,20224 GLACIER PARK CIR,Anchorage,AK,99577,"20224 GLACIER PARK CIR, Anchorage, AK, 99577",Match,Non_Exact,"20224 GLACIER PARK CIR, EAGLE RIVER, AK, 99577",605336517,R,02,020,000203,3002,-149.50525,61.300422999999995
4997,19700 DRIFTWOOD BAY DR,Anchorage,AK,99577,"19700 DRIFTWOOD BAY DR, Anchorage, AK, 99577",Match,Non_Exact,"19700 DRIFTWOOD BAY DR, EAGLE RIVER, AK, 99577",190827412,R,02,020,000203,3011,-149.51508,61.300509999999996
4998,20307 GLACIER PARK CIR,Anchorage,AK,99577,"20307 GLACIER PARK CIR, Anchorage, AK, 99577",Match,Non_Exact,"20307 GLACIER PARK CIR, EAGLE RIVER, AK, 99577",605336517,L,02,020,000203,3002,-149.50446000000002,61.30027
4999,20303 GLACIER PARK CIR,Anchorage,AK,99577,"20303 GLACIER PARK CIR, Anchorage, AK, 99577",Match,Non_Exact,"20303 GLACIER PARK CIR, EAGLE RIVER, AK, 99577",605336517,L,02,020,000203,3002,-149.50451999999999,61.300274
