id,address_x,city,state_x,postcode,address_y,result,match_type,address_match,tiger,side,state_y,county,tract,block,lat,long
8000,360 BONIFACE PKWY,Anchorage,AK,99504,"360 BONIFACE PKWY, Anchorage, AK, 99504",Match,Exact,"360 BONIFACE PKWY, ANCHORAGE, AK, 99504",190801982,R,02,020,000801,4000,-149.77841,61.219356999999995
8001,360 BONIFACE PKWY,Anchorage,AK,99504,"360 BONIFACE PKWY, Anchorage, AK, 99504",Match,Exact,"360 BONIFACE PKWY, ANCHORAGE, AK, 99504",190801982,R,02,020,000801,4000,-149.77841,61.219356999999995
8002,360 BONIFACE PKWY,Anchorage,AK,99504,"360 BONIFACE PKWY, Anchorage, AK, 99504",Match,Exact,"360 BONIFACE PKWY, ANCHORAGE, AK, 99504",190801982,R,02,020,000801,4000,-149.77841,61.219356999999995
8003,140 OKLAHOMA ST,Anchorage,AK,99504,"140 OKLAHOMA ST, Anchorage, AK, 99504",Match,Exact,"140 OKLAHOMA ST, ANCHORAGE, AK, 99504",190802853,R,02,020,000702,1005,-149.74478,61.223169999999996
8004,140 OKLAHOMA ST,Anchorage,AK,99504,"140 OKLAHOMA ST, Anchorage, AK, 99504",Match,Exact,"140 OKLAHOMA ST, ANCHORAGE, AK, 99504",190802853,R,02,020,000702,1005,-149.74478,61.223169999999996
8005,140 OKLAHOMA ST,Anchorage,AK,99504,"140 OKLAHOMA ST, Anchorage, AK, 99504",Match,Exact,"140 OKLAHOMA ST, ANCHORAGE, AK, 99504",190802853,R,02,020,000702,1005,-149.74478,61.223169999999996
8006,140 OKLAHOMA ST,Anchorage,AK,99504,"140 OKLAHOMA ST, Anchorage, AK, 99504",Match,Exact,"140 OKLAHOMA ST, ANCHORAGE, AK, 99504",190802853,R,02,020,000702,1005,-149.74478,61.223169999999996
8007,140 OKLAHOMA ST,Anchorage,AK,99504,"140 OKLAHOMA ST, Anchorage, AK, 99504",Match,Exact,"140 OKLAHOMA ST, ANCHORAGE, AK, 99504",190802853,R,02,020,000702,1005,-149.74478,61.223169999999996
8008,140 OKLAHOMA ST,Anchorage,AK,99504,"140 OKLAHOMA ST, Anchorage, AK, 99504",Match,Exact,"140 OKLAHOMA ST, ANCHORAGE, AK, 99504",190802853,R,02,020,000702,1005,-149.74478,61.223169999999996
8009,140 OKLAHOMA ST,Anchorage,AK,99504,"140 OKLAHOMA ST, Anchorage, AK, 99504",Match,Exact,"140 OKLAHOMA ST, ANCHORAGE, AK, 99504",190802853,R,02,020,000702,1005,-149.74478,61.223169999999996
8010,5309 CHENA AVE,Anchorage,AK,99508,"5309 CHENA AVE, Anchorage, AK, 99508",Match,Exact,"5309 CHENA AVE, ANCHORAGE, AK, 99508",190801958,L,02,020,000801,3003,-149.78221000000002,61.22325
8011,5307 CHENA AVE,Anchorage,AK,99508,"5307 CHENA AVE, Anchorage, AK, 99508",Match,Exact,"5307 CHENA AVE, ANCHORAGE, AK, 99508",190801958,L,02,020,000801,3003,-149.78224,61.22325
8012,5305 CHENA AVE,Anchorage,AK,99508,"5305 CHENA AVE, Anchorage, AK, 99508",Match,Exact,"5305 CHENA AVE, ANCHORAGE, AK, 99508",190801958,L,02,020,000801,3003,-149.78226999999998,61.22325
8013,5303 CHENA AVE,Anchorage,AK,99508,"5303 CHENA AVE, Anchorage, AK, 99508",Match,Exact,"5303 CHENA AVE, ANCHORAGE, AK, 99508",190801958,L,02,020,000801,3003,-149.7823,61.22325
8014,5301 CHENA AVE,Anchorage,AK,99508,"5301 CHENA AVE, Anchorage, AK, 99508",Match,Exact,"5301 CHENA AVE, ANCHORAGE, AK, 99508",190801958,L,02,020,000801,3003,-149.78233,61.22325
8015,5207 CHENA AVE,Anchorage,AK,99508,"5207 CHENA AVE, Anchorage, AK, 99508",Match,Exact,"5207 CHENA AVE, ANCHORAGE, AK, 99508",190801943,L,02,020,000801,3004,-149.78426000000002,61.22325
8016,5207 CHENA AVE,Anchorage,AK,99508,"5207 CHENA AVE, Anchorage, AK, 99508",Match,Exact,"5207 CHENA AVE, ANCHORAGE, AK, 99508",190801943,L,02,020,000801,3004,-149.78426000000002,61.22325
8017,5207 CHENA AVE,Anchorage,AK,99508,"5207 CHENA AVE, Anchorage, AK, 99508",Match,Exact,"5207 CHENA AVE, ANCHORAGE, AK, 99508",190801943,L,02,020,000801,3004,-149.78426000000002,61.22325
8018,5207 CHENA AVE,Anchorage,AK,99508,"5207 CHENA AVE, Anchorage, AK, 99508",Match,Exact,"5207 CHENA AVE, ANCHORAGE, AK, 99508",190801943,L,02,020,000801,3004,-149.78426000000002,61.22325
8019,419 IDAHO ST,Anchorage,AK,99504,"419 IDAHO ST, Anchorage, AK, 99504",Match,Exact,"419 IDAHO ST, ANCHORAGE, AK, 99504",190802902,L,02,020,000702,2006,-149.73721,61.218469999999996
8020,419 IDAHO ST,Anchorage,AK,99504,"419 IDAHO ST, Anchorage, AK, 99504",Match,Exact,"419 IDAHO ST, ANCHORAGE, AK, 99504",190802902,L,02,020,000702,2006,-149.73721,61.218469999999996
8021,413 BUNNELL ST,Anchorage,AK,99508,"413 BUNNELL ST, Anchorage, AK, 99508",Match,Exact,"413 BUNNELL ST, ANCHORAGE, AK, 99508",614862225,L,02,020,000801,4006,-149.78968999999998,61.218403
8022,5404 NEW SMYRNA CIR,Anchorage,AK,99508,"5404 NEW SMYRNA CIR, Anchorage, AK, 99508",Match,Exact,"5404 NEW SMYRNA CIR, ANCHORAGE, AK, 99508",614862496,R,02,020,000801,4006,-149.78056,61.218067000000005
8023,412 BUNNELL ST,Anchorage,AK,99508,"412 BUNNELL ST, Anchorage, AK, 99508",Match,Exact,"412 BUNNELL ST, ANCHORAGE, AK, 99508",614862225,R,02,020,000801,4007,-149.7897,61.218419999999995
8024,420 CAPRICORN CIR,Anchorage,AK,99508,"420 CAPRICORN CIR, Anchorage, AK, 99508",Match,Exact,"420 CAPRICORN CIR, ANCHORAGE, AK, 99508",614862499,R,02,020,000801,4006,-149.78322,61.21845
8025,420 SCORPIO CIR,Anchorage,AK,99508,"420 SCORPIO CIR, Anchorage, AK, 99508",Match,Exact,"420 SCORPIO CIR, ANCHORAGE, AK, 99508",614862349,L,02,020,000801,4006,-149.786,61.218306999999996
8026,421 SCORPIO CIR,Anchorage,AK,99508,"421 SCORPIO CIR, Anchorage, AK, 99508",Match,Exact,"421 SCORPIO CIR, ANCHORAGE, AK, 99508",614862349,R,02,020,000801,4006,-149.78603,61.218414
8027,5512 ALORA LOOP,Anchorage,AK,99504,"5512 ALORA LOOP, Anchorage, AK, 99504",Match,Exact,"5512 ALORA LOOP, ANCHORAGE, AK, 99504",190827504,R,02,020,000701,1010,-149.77754,61.218403
8028,421 CAPRICORN CIR,Anchorage,AK,99508,"421 CAPRICORN CIR, Anchorage, AK, 99508",Match,Exact,"421 CAPRICORN CIR, ANCHORAGE, AK, 99508",614862499,L,02,020,000801,4006,-149.7832,61.21848000000001
8029,420 CREEKSIDE ST,Anchorage,AK,99504,"420 CREEKSIDE ST, Anchorage, AK, 99504",Match,Exact,"420 CREEKSIDE ST, ANCHORAGE, AK, 99504",190802892,R,02,020,000702,2004,-149.741,61.218452
8030,421 MELLOW PL,Anchorage,AK,99508,"421 MELLOW PL, Anchorage, AK, 99508",Match,Exact,"421 MELLOW PL, ANCHORAGE, AK, 99508",190801738,R,02,020,000801,4007,-149.79156,61.218178
8031,410 MELLOW PL,Anchorage,AK,99508,"410 MELLOW PL, Anchorage, AK, 99508",Match,Exact,"410 MELLOW PL, ANCHORAGE, AK, 99508",190801738,L,02,020,000801,4007,-149.7916,61.218227
8032,410 DONNA DR,Anchorage,AK,99504,"410 DONNA DR, Anchorage, AK, 99504",Match,Exact,"410 DONNA DR, ANCHORAGE, AK, 99504",190802764,L,02,020,000701,1000,-149.75853,61.218525
8033,504 FREDRICKS DR,Anchorage,AK,99504,"504 FREDRICKS DR, Anchorage, AK, 99504",Match,Non_Exact,"504 FREDERICKS DR, ANCHORAGE, AK, 99504",190816143,R,02,020,000702,3009,-149.7521,61.218272999999996
8034,509 JORDT CIR,Anchorage,AK,99504,"509 JORDT CIR, Anchorage, AK, 99504",Match,Exact,"509 JORDT CIR, ANCHORAGE, AK, 99504",190802815,L,02,020,000702,3007,-149.74962,61.218093999999994
8035,432 IDAHO ST,Anchorage,AK,99504,"432 IDAHO ST, Anchorage, AK, 99504",Match,Exact,"432 IDAHO ST, ANCHORAGE, AK, 99504",190802902,R,02,020,000702,2005,-149.73723999999999,61.218365000000006
8036,431 SCORPIO CIR,Anchorage,AK,99508,"431 SCORPIO CIR, Anchorage, AK, 99508",Match,Exact,"431 SCORPIO CIR, ANCHORAGE, AK, 99508",614862349,R,02,020,000801,4006,-149.78603,61.218338
8037,421 FERN LN,Anchorage,AK,99504,"421 FERN LN, Anchorage, AK, 99504",Match,Exact,"421 FERN LN, ANCHORAGE, AK, 99504",190802806,L,02,020,000702,3009,-149.75385,61.21846
8038,431 CAPRICORN CIR,Anchorage,AK,99508,"431 CAPRICORN CIR, Anchorage, AK, 99508",Match,Exact,"431 CAPRICORN CIR, ANCHORAGE, AK, 99508",614862499,L,02,020,000801,4006,-149.7832,61.218444999999996
8039,508 JORDT CIR,Anchorage,AK,99504,"508 JORDT CIR, Anchorage, AK, 99504",Match,Exact,"508 JORDT CIR, ANCHORAGE, AK, 99504",190802815,R,02,020,000702,3007,-149.75011999999998,61.21836
8040,430 SCORPIO CIR,Anchorage,AK,99508,"430 SCORPIO CIR, Anchorage, AK, 99508",Match,Exact,"430 SCORPIO CIR, ANCHORAGE, AK, 99508",614862349,L,02,020,000801,4006,-149.786,61.21824599999999
8041,5666 ALORA LOOP,Anchorage,AK,99504,"5666 ALORA LOOP, Anchorage, AK, 99504",Match,Exact,"5666 ALORA LOOP, ANCHORAGE, AK, 99504",190827504,R,02,020,000701,1010,-149.77508999999998,61.21820400000001
8042,521 PINE ST,Anchorage,AK,99508,"521 PINE ST, Anchorage, AK, 99508",Match,Non_Exact,"521 S PINE ST, ANCHORAGE, AK, 99508",614862230,L,02,020,000801,4007,-149.79338,61.217769999999994
8043,511 BITTERROOT CIR,Anchorage,AK,99504,"511 BITTERROOT CIR, Anchorage, AK, 99504",Match,Exact,"511 BITTERROOT CIR, ANCHORAGE, AK, 99504",190801992,R,02,020,000701,1010,-149.7754,61.217323
8044,511 BITTERROOT CIR,Anchorage,AK,99504,"511 BITTERROOT CIR, Anchorage, AK, 99504",Match,Exact,"511 BITTERROOT CIR, ANCHORAGE, AK, 99504",190801992,R,02,020,000701,1010,-149.7754,61.217323
8045,511 BITTERROOT CIR,Anchorage,AK,99504,"511 BITTERROOT CIR, Anchorage, AK, 99504",Match,Exact,"511 BITTERROOT CIR, ANCHORAGE, AK, 99504",190801992,R,02,020,000701,1010,-149.7754,61.217323
8046,511 BITTERROOT CIR,Anchorage,AK,99504,"511 BITTERROOT CIR, Anchorage, AK, 99504",Match,Exact,"511 BITTERROOT CIR, ANCHORAGE, AK, 99504",190801992,R,02,020,000701,1010,-149.7754,61.217323
8047,500 GLACIER BAY CIR,Anchorage,AK,99508,"500 GLACIER BAY CIR, Anchorage, AK, 99508",Match,Non_Exact,"500 GLACIER BAY, ANCHORAGE, AK, 99508",190801985,L,02,020,000801,4006,-149.78146,61.21731
8048,500 GLACIER BAY CIR,Anchorage,AK,99508,"500 GLACIER BAY CIR, Anchorage, AK, 99508",Match,Non_Exact,"500 GLACIER BAY, ANCHORAGE, AK, 99508",190801985,L,02,020,000801,4006,-149.78146,61.21731
8049,450 FALKE CT,Anchorage,AK,99504,"450 FALKE CT, Anchorage, AK, 99504",Match,Exact,"450 FALKE CT, ANCHORAGE, AK, 99504",190802766,R,02,020,000701,2000,-149.75769,61.217873
8050,521 FERN LN,Anchorage,AK,99504,"521 FERN LN, Anchorage, AK, 99504",Match,Exact,"521 FERN LN, ANCHORAGE, AK, 99504",190802806,L,02,020,000702,3009,-149.75385,61.217690000000005
8051,528 STATE ST,Anchorage,AK,99504,"528 STATE ST, Anchorage, AK, 99504",Match,Exact,"528 STATE ST, ANCHORAGE, AK, 99504",190812136,R,02,020,000703,3009,-149.73131,61.217716
8052,528 STATE ST,Anchorage,AK,99504,"528 STATE ST, Anchorage, AK, 99504",Match,Exact,"528 STATE ST, ANCHORAGE, AK, 99504",190812136,R,02,020,000703,3009,-149.73131,61.217716
8053,528 STATE ST,Anchorage,AK,99504,"528 STATE ST, Anchorage, AK, 99504",Match,Exact,"528 STATE ST, ANCHORAGE, AK, 99504",190812136,R,02,020,000703,3009,-149.73131,61.217716
8054,5624 ALORA LOOP,Anchorage,AK,99504,"5624 ALORA LOOP, Anchorage, AK, 99504",Match,Exact,"5624 ALORA LOOP, ANCHORAGE, AK, 99504",190827504,R,02,020,000701,1010,-149.77581999999998,61.21807
8055,434 TURPIN ST,Anchorage,AK,99504,"434 TURPIN ST, Anchorage, AK, 99504",Match,Exact,"434 TURPIN ST, ANCHORAGE, AK, 99504",190802771,R,02,020,000701,2000,-149.75597,61.218346
8056,434 TURPIN ST,Anchorage,AK,99504,"434 TURPIN ST, Anchorage, AK, 99504",Match,Exact,"434 TURPIN ST, ANCHORAGE, AK, 99504",190802771,R,02,020,000701,2000,-149.75597,61.218346
8057,521 GLACIER BAY CIR,Anchorage,AK,99508,"521 GLACIER BAY CIR, Anchorage, AK, 99508",Match,Non_Exact,"521 GLACIER BAY, ANCHORAGE, AK, 99508",190801985,R,02,020,000801,4006,-149.78143,61.217240000000004
8058,541 SAINT LAZARIA CIR,Anchorage,AK,99508,"541 SAINT LAZARIA CIR, Anchorage, AK, 99508",Match,Exact,"541 SAINT LAZARIA CIR, ANCHORAGE, AK, 99508",190801974,R,02,020,000801,4006,-149.78491,61.21719
8059,528 OKLAHOMA ST,Anchorage,AK,99504,"528 OKLAHOMA ST, Anchorage, AK, 99504",Match,Exact,"528 OKLAHOMA ST, ANCHORAGE, AK, 99504",190802877,R,02,020,000702,3007,-149.74473999999998,61.217625
8060,523 JORDT CIR,Anchorage,AK,99504,"523 JORDT CIR, Anchorage, AK, 99504",Match,Exact,"523 JORDT CIR, ANCHORAGE, AK, 99504",190802815,L,02,020,000702,3007,-149.75046,61.21741
8061,540 IZEMBEK CIR,Anchorage,AK,99508,"540 IZEMBEK CIR, Anchorage, AK, 99508",Match,Exact,"540 IZEMBEK CIR, ANCHORAGE, AK, 99508",190801976,L,02,020,000801,4006,-149.78322,61.217186
8062,531 DONNA DR,Anchorage,AK,99504,"531 DONNA DR, Anchorage, AK, 99504",Match,Exact,"531 DONNA DR, ANCHORAGE, AK, 99504",190802765,R,02,020,000701,2000,-149.76033,61.217456999999996
8063,530 MULDOON RD,Anchorage,AK,99504,"530 MULDOON RD, Anchorage, AK, 99504",Match,Exact,"530 MULDOON RD, ANCHORAGE, AK, 99504",190803218,R,02,020,000702,2006,-149.73349,61.217696999999994
8064,5901 E 6TH AVE,Anchorage,AK,99504,"5901 E 6TH AVE, Anchorage, AK, 99504",Match,Exact,"5901 E 6TH AVE, ANCHORAGE, AK, 99504",190810852,L,02,020,000701,1000,-149.77061,61.216933999999995
8065,5901 E 6TH AVE,Anchorage,AK,99504,"5901 E 6TH AVE, Anchorage, AK, 99504",Match,Exact,"5901 E 6TH AVE, ANCHORAGE, AK, 99504",190810852,L,02,020,000701,1000,-149.77061,61.216933999999995
8066,5901 E 6TH AVE,Anchorage,AK,99504,"5901 E 6TH AVE, Anchorage, AK, 99504",Match,Exact,"5901 E 6TH AVE, ANCHORAGE, AK, 99504",190810852,L,02,020,000701,1000,-149.77061,61.216933999999995
8067,5901 E 6TH AVE,Anchorage,AK,99504,"5901 E 6TH AVE, Anchorage, AK, 99504",Match,Exact,"5901 E 6TH AVE, ANCHORAGE, AK, 99504",190810852,L,02,020,000701,1000,-149.77061,61.216933999999995
8068,5901 E 6TH AVE,Anchorage,AK,99504,"5901 E 6TH AVE, Anchorage, AK, 99504",Match,Exact,"5901 E 6TH AVE, ANCHORAGE, AK, 99504",190810852,L,02,020,000701,1000,-149.77061,61.216933999999995
8069,5901 E 6TH AVE,Anchorage,AK,99504,"5901 E 6TH AVE, Anchorage, AK, 99504",Match,Exact,"5901 E 6TH AVE, ANCHORAGE, AK, 99504",190810852,L,02,020,000701,1000,-149.77061,61.216933999999995
8070,5901 E 6TH AVE,Anchorage,AK,99504,"5901 E 6TH AVE, Anchorage, AK, 99504",Match,Exact,"5901 E 6TH AVE, ANCHORAGE, AK, 99504",190810852,L,02,020,000701,1000,-149.77061,61.216933999999995
8071,530 CARIN PL,Anchorage,AK,99504,"530 CARIN PL, Anchorage, AK, 99504",Match,Exact,"530 CARIN PL, ANCHORAGE, AK, 99504",190808933,L,02,020,000702,2006,-149.73453999999998,61.217273999999996
8072,530 CARIN PL,Anchorage,AK,99504,"530 CARIN PL, Anchorage, AK, 99504",Match,Exact,"530 CARIN PL, ANCHORAGE, AK, 99504",190808933,L,02,020,000702,2006,-149.73453999999998,61.217273999999996
8073,5901 E 6TH AVE,Anchorage,AK,99504,"5901 E 6TH AVE, Anchorage, AK, 99504",Match,Exact,"5901 E 6TH AVE, ANCHORAGE, AK, 99504",190810852,L,02,020,000701,1000,-149.77061,61.216933999999995
8074,5901 E 6TH AVE,Anchorage,AK,99504,"5901 E 6TH AVE, Anchorage, AK, 99504",Match,Exact,"5901 E 6TH AVE, ANCHORAGE, AK, 99504",190810852,L,02,020,000701,1000,-149.77061,61.216933999999995
8075,5901 E 6TH AVE,Anchorage,AK,99504,"5901 E 6TH AVE, Anchorage, AK, 99504",Match,Exact,"5901 E 6TH AVE, ANCHORAGE, AK, 99504",190810852,L,02,020,000701,1000,-149.77061,61.216933999999995
8076,5901 E 6TH AVE,Anchorage,AK,99504,"5901 E 6TH AVE, Anchorage, AK, 99504",Match,Exact,"5901 E 6TH AVE, ANCHORAGE, AK, 99504",190810852,L,02,020,000701,1000,-149.77061,61.216933999999995
8077,5901 E 6TH AVE,Anchorage,AK,99504,"5901 E 6TH AVE, Anchorage, AK, 99504",Match,Exact,"5901 E 6TH AVE, ANCHORAGE, AK, 99504",190810852,L,02,020,000701,1000,-149.77061,61.216933999999995
8078,5901 E 6TH AVE,Anchorage,AK,99504,"5901 E 6TH AVE, Anchorage, AK, 99504",Match,Exact,"5901 E 6TH AVE, ANCHORAGE, AK, 99504",190810852,L,02,020,000701,1000,-149.77061,61.216933999999995
8079,5901 E 6TH AVE,Anchorage,AK,99504,"5901 E 6TH AVE, Anchorage, AK, 99504",Match,Exact,"5901 E 6TH AVE, ANCHORAGE, AK, 99504",190810852,L,02,020,000701,1000,-149.77061,61.216933999999995
8080,5901 E 6TH AVE,Anchorage,AK,99504,"5901 E 6TH AVE, Anchorage, AK, 99504",Match,Exact,"5901 E 6TH AVE, ANCHORAGE, AK, 99504",190810852,L,02,020,000701,1000,-149.77061,61.216933999999995
8081,5901 E 6TH AVE,Anchorage,AK,99504,"5901 E 6TH AVE, Anchorage, AK, 99504",Match,Exact,"5901 E 6TH AVE, ANCHORAGE, AK, 99504",190810852,L,02,020,000701,1000,-149.77061,61.216933999999995
8082,555 OKLAHOMA ST,Anchorage,AK,99504,"555 OKLAHOMA ST, Anchorage, AK, 99504",Match,Exact,"555 OKLAHOMA ST, ANCHORAGE, AK, 99504",190802877,L,02,020,000702,2003,-149.74472,61.217426
8083,555 OKLAHOMA ST,Anchorage,AK,99504,"555 OKLAHOMA ST, Anchorage, AK, 99504",Match,Exact,"555 OKLAHOMA ST, ANCHORAGE, AK, 99504",190802877,L,02,020,000702,2003,-149.74472,61.217426
8084,555 OKLAHOMA ST,Anchorage,AK,99504,"555 OKLAHOMA ST, Anchorage, AK, 99504",Match,Exact,"555 OKLAHOMA ST, ANCHORAGE, AK, 99504",190802877,L,02,020,000702,2003,-149.74472,61.217426
8085,5901 E 6TH AVE,Anchorage,AK,99504,"5901 E 6TH AVE, Anchorage, AK, 99504",Match,Exact,"5901 E 6TH AVE, ANCHORAGE, AK, 99504",190810852,L,02,020,000701,1000,-149.77061,61.216933999999995
8086,5901 E 6TH AVE,Anchorage,AK,99504,"5901 E 6TH AVE, Anchorage, AK, 99504",Match,Exact,"5901 E 6TH AVE, ANCHORAGE, AK, 99504",190810852,L,02,020,000701,1000,-149.77061,61.216933999999995
8087,5901 E 6TH AVE,Anchorage,AK,99504,"5901 E 6TH AVE, Anchorage, AK, 99504",Match,Exact,"5901 E 6TH AVE, ANCHORAGE, AK, 99504",190810852,L,02,020,000701,1000,-149.77061,61.216933999999995
8088,5901 E 6TH AVE,Anchorage,AK,99504,"5901 E 6TH AVE, Anchorage, AK, 99504",Match,Exact,"5901 E 6TH AVE, ANCHORAGE, AK, 99504",190810852,L,02,020,000701,1000,-149.77061,61.216933999999995
8089,300 BOLIN ST,Anchorage,AK,99504,"300 BOLIN ST, Anchorage, AK, 99504",Match,Exact,"300 BOLIN ST, ANCHORAGE, AK, 99504",190803336,R,02,020,000703,3001,-149.71944,61.22047
8090,300 BOLIN ST,Anchorage,AK,99504,"300 BOLIN ST, Anchorage, AK, 99504",Match,Exact,"300 BOLIN ST, ANCHORAGE, AK, 99504",190803336,R,02,020,000703,3001,-149.71944,61.22047
8091,301 BOLIN ST,Anchorage,AK,99504,"301 BOLIN ST, Anchorage, AK, 99504",Match,Exact,"301 BOLIN ST, ANCHORAGE, AK, 99504",190803336,L,02,020,000703,3000,-149.7194,61.22047
8092,301 BOLIN ST,Anchorage,AK,99504,"301 BOLIN ST, Anchorage, AK, 99504",Match,Exact,"301 BOLIN ST, ANCHORAGE, AK, 99504",190803336,L,02,020,000703,3000,-149.7194,61.22047
8093,5234 LIONHEART DR,Anchorage,AK,99508,"5234 LIONHEART DR, Anchorage, AK, 99508",Match,Exact,"5234 LIONHEART DR, ANCHORAGE, AK, 99508",190801971,R,02,020,000801,4001,-149.78336000000002,61.220573
8094,5222 LIONHEART DR,Anchorage,AK,99508,"5222 LIONHEART DR, Anchorage, AK, 99508",Match,Exact,"5222 LIONHEART DR, ANCHORAGE, AK, 99508",190801971,R,02,020,000801,4001,-149.78368,61.220573
8095,300 DANNILYN CIR,Anchorage,AK,99504,"300 DANNILYN CIR, Anchorage, AK, 99504",Match,Exact,"300 DANNILYN CIR, ANCHORAGE, AK, 99504",190808935,R,02,020,000702,2002,-149.74374,61.22051999999999
8096,5220 LIONHEART DR,Anchorage,AK,99508,"5220 LIONHEART DR, Anchorage, AK, 99508",Match,Exact,"5220 LIONHEART DR, ANCHORAGE, AK, 99508",190801971,R,02,020,000801,4001,-149.78372,61.220573
8097,5212 LIONHEART DR,Anchorage,AK,99508,"5212 LIONHEART DR, Anchorage, AK, 99508",Match,Exact,"5212 LIONHEART DR, ANCHORAGE, AK, 99508",190801971,R,02,020,000801,4001,-149.78394,61.220573
8098,5210 LIONHEART DR,Anchorage,AK,99508,"5210 LIONHEART DR, Anchorage, AK, 99508",Match,Exact,"5210 LIONHEART DR, ANCHORAGE, AK, 99508",190801971,R,02,020,000801,4001,-149.78398,61.220573
8099,5136 LIONHEART DR,Anchorage,AK,99508,"5136 LIONHEART DR, Anchorage, AK, 99508",Match,Exact,"5136 LIONHEART DR, ANCHORAGE, AK, 99508",190801970,R,02,020,000801,4001,-149.78542,61.220573
8100,5134 LIONHEART DR,Anchorage,AK,99508,"5134 LIONHEART DR, Anchorage, AK, 99508",Match,Exact,"5134 LIONHEART DR, ANCHORAGE, AK, 99508",190801970,R,02,020,000801,4001,-149.78545,61.220573
8101,8024 E 3RD AVE,Anchorage,AK,99504,"8024 E 3RD AVE, Anchorage, AK, 99504",Match,Exact,"8024 E 3RD AVE, ANCHORAGE, AK, 99504",190803254,R,02,020,000703,3007,-149.73064,61.219531999999994
8102,8014 E 3RD AVE,Anchorage,AK,99504,"8014 E 3RD AVE, Anchorage, AK, 99504",Match,Exact,"8014 E 3RD AVE, ANCHORAGE, AK, 99504",190803254,R,02,020,000703,3007,-149.73076,61.219531999999994
8103,8014 E 3RD AVE,Anchorage,AK,99504,"8014 E 3RD AVE, Anchorage, AK, 99504",Match,Exact,"8014 E 3RD AVE, ANCHORAGE, AK, 99504",190803254,R,02,020,000703,3007,-149.73076,61.219531999999994
8104,8000 E 3RD AVE,Anchorage,AK,99504,"8000 E 3RD AVE, Anchorage, AK, 99504",Match,Exact,"8000 E 3RD AVE, ANCHORAGE, AK, 99504",190803254,R,02,020,000703,3007,-149.73094,61.219531999999994
8105,8000 E 3RD AVE,Anchorage,AK,99504,"8000 E 3RD AVE, Anchorage, AK, 99504",Match,Exact,"8000 E 3RD AVE, ANCHORAGE, AK, 99504",190803254,R,02,020,000703,3007,-149.73094,61.219531999999994
8106,6840 E 3RD AVE,Anchorage,AK,99504,"6840 E 3RD AVE, Anchorage, AK, 99504",Match,Exact,"6840 E 3RD AVE, ANCHORAGE, AK, 99504",190802807,R,02,020,000702,3009,-149.7527,61.219756999999994
8107,361 BOLIN ST,Anchorage,AK,99504,"361 BOLIN ST, Anchorage, AK, 99504",Match,Exact,"361 BOLIN ST, ANCHORAGE, AK, 99504",190803336,L,02,020,000703,3000,-149.7194,61.21979
8108,347 PATTERSON ST,Anchorage,AK,99504,"347 PATTERSON ST, Anchorage, AK, 99504",No_Match,,,,,,,,,,
8109,359 PAULINE ST,Anchorage,AK,99504,"359 PAULINE ST, Anchorage, AK, 99504",Match,Exact,"359 PAULINE ST, ANCHORAGE, AK, 99504",190803255,L,02,020,000703,3002,-149.7267,61.219395
8110,359 PAULINE ST,Anchorage,AK,99504,"359 PAULINE ST, Anchorage, AK, 99504",Match,Exact,"359 PAULINE ST, ANCHORAGE, AK, 99504",190803255,L,02,020,000703,3002,-149.7267,61.219395
8111,350 FERN LN,Anchorage,AK,99504,"350 FERN LN, Anchorage, AK, 99504",Match,Exact,"350 FERN LN, ANCHORAGE, AK, 99504",190802804,R,02,020,000702,3006,-149.75388,61.219467
8112,347 IDAHO ST,Anchorage,AK,99504,"347 IDAHO ST, Anchorage, AK, 99504",Match,Exact,"347 IDAHO ST, ANCHORAGE, AK, 99504",190802900,L,02,020,000702,2002,-149.73723,61.219280000000005
8113,340 BUNNELL ST,Anchorage,AK,99508,"340 BUNNELL ST, Anchorage, AK, 99508",Match,Exact,"340 BUNNELL ST, ANCHORAGE, AK, 99508",624908506,R,02,020,000801,4008,-149.78972,61.219666000000004
8114,5455 LANCELOT CIR,Anchorage,AK,99508,"5455 LANCELOT CIR, Anchorage, AK, 99508",Match,Exact,"5455 LANCELOT CIR, ANCHORAGE, AK, 99508",190801983,L,02,020,000801,4000,-149.7805,61.219437
8115,409 STEWART ST,Anchorage,AK,99508,"409 STEWART ST, Anchorage, AK, 99508",Match,Exact,"409 STEWART ST, ANCHORAGE, AK, 99508",190801749,L,02,020,000801,4001,-149.78787,61.220078
8116,333 PEPPERTREE LOOP,Anchorage,AK,99504,"333 PEPPERTREE LOOP, Anchorage, AK, 99504",Match,Exact,"333 PEPPERTREE LOOP, ANCHORAGE, AK, 99504",190826164,L,02,020,000701,1008,-149.76262,61.21961999999999
8117,7010 FREDRICKS DR,Anchorage,AK,99504,"7010 FREDRICKS DR, Anchorage, AK, 99504",Match,Non_Exact,"7010 FREDERICKS DR, ANCHORAGE, AK, 99504",190802812,R,02,020,000702,3007,-149.74992,61.21955
8118,6990 FREDRICKS DR,Anchorage,AK,99504,"6990 FREDRICKS DR, Anchorage, AK, 99504",Match,Non_Exact,"6990 FREDERICKS DR, ANCHORAGE, AK, 99504",190802812,R,02,020,000702,3007,-149.75018,61.219543
8119,315 KRANE DR,Anchorage,AK,99504,"315 KRANE DR, Anchorage, AK, 99504",Match,Exact,"315 KRANE DR, ANCHORAGE, AK, 99504",605167555,R,02,020,000701,2000,-149.75708,61.220238
8120,315 KRANE DR,Anchorage,AK,99504,"315 KRANE DR, Anchorage, AK, 99504",Match,Exact,"315 KRANE DR, ANCHORAGE, AK, 99504",605167555,R,02,020,000701,2000,-149.75708,61.220238
8121,315 KRANE DR,Anchorage,AK,99504,"315 KRANE DR, Anchorage, AK, 99504",Match,Exact,"315 KRANE DR, ANCHORAGE, AK, 99504",605167555,R,02,020,000701,2000,-149.75708,61.220238
8122,315 KRANE DR,Anchorage,AK,99504,"315 KRANE DR, Anchorage, AK, 99504",Match,Exact,"315 KRANE DR, ANCHORAGE, AK, 99504",605167555,R,02,020,000701,2000,-149.75708,61.220238
8123,315 KRANE DR,Anchorage,AK,99504,"315 KRANE DR, Anchorage, AK, 99504",Match,Exact,"315 KRANE DR, ANCHORAGE, AK, 99504",605167555,R,02,020,000701,2000,-149.75708,61.220238
8124,511 IDAHO ST,Anchorage,AK,99504,"511 IDAHO ST, Anchorage, AK, 99504",Match,Exact,"511 IDAHO ST, ANCHORAGE, AK, 99504",190802902,L,02,020,000702,2006,-149.73721,61.217766000000005
8125,520 CREEKSIDE ST,Anchorage,AK,99504,"520 CREEKSIDE ST, Anchorage, AK, 99504",Match,Exact,"520 CREEKSIDE ST, ANCHORAGE, AK, 99504",190802892,R,02,020,000702,2004,-149.74098,61.217686
8126,520 CREEKSIDE ST,Anchorage,AK,99504,"520 CREEKSIDE ST, Anchorage, AK, 99504",Match,Exact,"520 CREEKSIDE ST, ANCHORAGE, AK, 99504",190802892,R,02,020,000702,2004,-149.74098,61.217686
8127,510 DONNA DR,Anchorage,AK,99504,"510 DONNA DR, Anchorage, AK, 99504",Match,Exact,"510 DONNA DR, ANCHORAGE, AK, 99504",190802765,L,02,020,000701,1000,-149.76003,61.21759
8128,6331 HABICHT CT,Anchorage,AK,99504,"6331 HABICHT CT, Anchorage, AK, 99504",Match,Exact,"6331 HABICHT CT, ANCHORAGE, AK, 99504",190802075,R,02,020,000701,1000,-149.76166,61.21762
8129,5710 ROCKY MOUNTAIN CT,Anchorage,AK,99504,"5710 ROCKY MOUNTAIN CT, Anchorage, AK, 99504",Match,Exact,"5710 ROCKY MOUNTAIN CT, ANCHORAGE, AK, 99504",190802016,R,02,020,000701,1010,-149.77335,61.217827
8130,5710 ROCKY MOUNTAIN CT,Anchorage,AK,99504,"5710 ROCKY MOUNTAIN CT, Anchorage, AK, 99504",Match,Exact,"5710 ROCKY MOUNTAIN CT, ANCHORAGE, AK, 99504",190802016,R,02,020,000701,1010,-149.77335,61.217827
8131,512 JORDT CIR,Anchorage,AK,99504,"512 JORDT CIR, Anchorage, AK, 99504",Match,Exact,"512 JORDT CIR, ANCHORAGE, AK, 99504",190802815,R,02,020,000702,3007,-149.75003,61.218327
8132,440 FALKE CT,Anchorage,AK,99504,"440 FALKE CT, Anchorage, AK, 99504",Match,Exact,"440 FALKE CT, ANCHORAGE, AK, 99504",190802766,R,02,020,000701,2000,-149.75777,61.21796
8133,440 FALKE CT,Anchorage,AK,99504,"440 FALKE CT, Anchorage, AK, 99504",Match,Exact,"440 FALKE CT, ANCHORAGE, AK, 99504",190802766,R,02,020,000701,2000,-149.75777,61.21796
8134,321 DANNILYN CIR,Anchorage,AK,99504,"321 DANNILYN CIR, Anchorage, AK, 99504",Match,Exact,"321 DANNILYN CIR, ANCHORAGE, AK, 99504",190808935,L,02,020,000702,2002,-149.74373,61.220436
8135,313 BOLIN ST,Anchorage,AK,99504,"313 BOLIN ST, Anchorage, AK, 99504",Match,Exact,"313 BOLIN ST, ANCHORAGE, AK, 99504",190803336,L,02,020,000703,3000,-149.7194,61.220333
8136,320 DANNILYN CIR,Anchorage,AK,99504,"320 DANNILYN CIR, Anchorage, AK, 99504",Match,Exact,"320 DANNILYN CIR, ANCHORAGE, AK, 99504",190808935,R,02,020,000702,2002,-149.74374,61.220431999999995
8137,290 PEPPERTREE LOOP,Anchorage,AK,99504,"290 PEPPERTREE LOOP, Anchorage, AK, 99504",Match,Exact,"290 PEPPERTREE LOOP, ANCHORAGE, AK, 99504",190826164,R,02,020,000701,1000,-149.76263,61.22016
8138,320 VILLA CIR,Anchorage,AK,99504,"320 VILLA CIR, Anchorage, AK, 99504",Match,Exact,"320 VILLA CIR, ANCHORAGE, AK, 99504",190816175,R,02,020,000702,2002,-149.74007,61.220436
8139,311 MELODY PL,Anchorage,AK,99504,"311 MELODY PL, Anchorage, AK, 99504",Match,Exact,"311 MELODY PL, ANCHORAGE, AK, 99504",190807350,L,02,020,000702,2002,-149.73906000000002,61.220436
8140,311 MELODY PL,Anchorage,AK,99504,"311 MELODY PL, Anchorage, AK, 99504",Match,Exact,"311 MELODY PL, ANCHORAGE, AK, 99504",190807350,L,02,020,000702,2002,-149.73906000000002,61.220436
8141,311 MELODY PL,Anchorage,AK,99504,"311 MELODY PL, Anchorage, AK, 99504",Match,Exact,"311 MELODY PL, ANCHORAGE, AK, 99504",190807350,L,02,020,000702,2002,-149.73906000000002,61.220436
8142,320 PATTERSON ST,Anchorage,AK,99504,"320 PATTERSON ST, Anchorage, AK, 99504",Match,Exact,"320 PATTERSON ST, ANCHORAGE, AK, 99504",190802867,R,02,020,000702,3004,-149.74851999999998,61.220226000000004
8143,321 VILLA CIR,Anchorage,AK,99504,"321 VILLA CIR, Anchorage, AK, 99504",Match,Exact,"321 VILLA CIR, ANCHORAGE, AK, 99504",190816175,L,02,020,000702,2002,-149.74005,61.220436
8144,313 GAYLENE CIR,Anchorage,AK,99504,"313 GAYLENE CIR, Anchorage, AK, 99504",Match,Exact,"313 GAYLENE CIR, ANCHORAGE, AK, 99504",190803322,L,02,020,000703,3001,-149.72128,61.22048
8145,316 EKLUTNA ST,Anchorage,AK,99504,"316 EKLUTNA ST, Anchorage, AK, 99504",Match,Exact,"316 EKLUTNA ST, ANCHORAGE, AK, 99504",190803261,R,02,020,000703,3002,-149.72421,61.22041
8146,312 GAYLENE CIR,Anchorage,AK,99504,"312 GAYLENE CIR, Anchorage, AK, 99504",Match,Exact,"312 GAYLENE CIR, ANCHORAGE, AK, 99504",190803322,R,02,020,000703,3001,-149.72131000000002,61.22048
8147,4861 KENAI AVE,Anchorage,AK,99508,"4861 KENAI AVE, Anchorage, AK, 99508",Match,Exact,"4861 KENAI AVE, ANCHORAGE, AK, 99508",624908526,L,02,020,000801,2007,-149.79039,61.220234
8148,5424 CAMELOT DR,Anchorage,AK,99508,"5424 CAMELOT DR, Anchorage, AK, 99508",Match,Exact,"5424 CAMELOT DR, ANCHORAGE, AK, 99508",190801978,R,02,020,000801,4000,-149.78026,61.22031
8149,5452 CAMELOT DR,Anchorage,AK,99508,"5452 CAMELOT DR, Anchorage, AK, 99508",Match,Exact,"5452 CAMELOT DR, ANCHORAGE, AK, 99508",190801978,R,02,020,000801,4000,-149.77965,61.22034
8150,5452 CAMELOT DR,Anchorage,AK,99508,"5452 CAMELOT DR, Anchorage, AK, 99508",Match,Exact,"5452 CAMELOT DR, ANCHORAGE, AK, 99508",190801978,R,02,020,000801,4000,-149.77965,61.22034
8151,5452 CAMELOT DR,Anchorage,AK,99508,"5452 CAMELOT DR, Anchorage, AK, 99508",Match,Exact,"5452 CAMELOT DR, ANCHORAGE, AK, 99508",190801978,R,02,020,000801,4000,-149.77965,61.22034
8152,5452 CAMELOT DR,Anchorage,AK,99508,"5452 CAMELOT DR, Anchorage, AK, 99508",Match,Exact,"5452 CAMELOT DR, ANCHORAGE, AK, 99508",190801978,R,02,020,000801,4000,-149.77965,61.22034
8153,5448 CAMELOT DR,Anchorage,AK,99508,"5448 CAMELOT DR, Anchorage, AK, 99508",Match,Exact,"5448 CAMELOT DR, ANCHORAGE, AK, 99508",190801978,R,02,020,000801,4000,-149.77972,61.22034
8154,5450 CAMELOT DR,Anchorage,AK,99508,"5450 CAMELOT DR, Anchorage, AK, 99508",Match,Exact,"5450 CAMELOT DR, ANCHORAGE, AK, 99508",190801978,R,02,020,000801,4000,-149.77968,61.22034
8155,7146 DUBEN AVE,Anchorage,AK,99504,"7146 DUBEN AVE, Anchorage, AK, 99504",Match,Exact,"7146 DUBEN AVE, ANCHORAGE, AK, 99504",190802872,R,02,020,000702,3007,-149.74761999999998,61.22055400000001
8156,270 PEPPERTREE LOOP,Anchorage,AK,99504,"270 PEPPERTREE LOOP, Anchorage, AK, 99504",Match,Exact,"270 PEPPERTREE LOOP, ANCHORAGE, AK, 99504",190826164,R,02,020,000701,1000,-149.7621,61.220158
8157,260 PEPPERTREE LOOP,Anchorage,AK,99504,"260 PEPPERTREE LOOP, Anchorage, AK, 99504",Match,Exact,"260 PEPPERTREE LOOP, ANCHORAGE, AK, 99504",190826164,R,02,020,000701,1000,-149.76183,61.220158
8158,521 SAINT LAZARIA CIR,Anchorage,AK,99508,"521 SAINT LAZARIA CIR, Anchorage, AK, 99508",Match,Exact,"521 SAINT LAZARIA CIR, ANCHORAGE, AK, 99508",190801974,R,02,020,000801,4006,-149.78491,61.21726999999999
8159,520 SAINT LAZARIA CIR,Anchorage,AK,99508,"520 SAINT LAZARIA CIR, Anchorage, AK, 99508",Match,Exact,"520 SAINT LAZARIA CIR, ANCHORAGE, AK, 99508",190801974,L,02,020,000801,4006,-149.78493,61.21726999999999
8160,510 BITTERROOT CIR,Anchorage,AK,99504,"510 BITTERROOT CIR, Anchorage, AK, 99504",Match,Exact,"510 BITTERROOT CIR, ANCHORAGE, AK, 99504",190801992,L,02,020,000701,1010,-149.77542,61.217323
8161,510 BITTERROOT CIR,Anchorage,AK,99504,"510 BITTERROOT CIR, Anchorage, AK, 99504",Match,Exact,"510 BITTERROOT CIR, ANCHORAGE, AK, 99504",190801992,L,02,020,000701,1010,-149.77542,61.217323
8162,511 SAN JUAN CIR,Anchorage,AK,99504,"511 SAN JUAN CIR, Anchorage, AK, 99504",Match,Exact,"511 SAN JUAN CIR, ANCHORAGE, AK, 99504",190801991,R,02,020,000701,1010,-149.77719,61.217323
8163,511 SAN JUAN CIR,Anchorage,AK,99504,"511 SAN JUAN CIR, Anchorage, AK, 99504",Match,Exact,"511 SAN JUAN CIR, ANCHORAGE, AK, 99504",190801991,R,02,020,000701,1010,-149.77719,61.217323
8164,511 SAN JUAN CIR,Anchorage,AK,99504,"511 SAN JUAN CIR, Anchorage, AK, 99504",Match,Exact,"511 SAN JUAN CIR, ANCHORAGE, AK, 99504",190801991,R,02,020,000701,1010,-149.77719,61.217323
8165,511 SAN JUAN CIR,Anchorage,AK,99504,"511 SAN JUAN CIR, Anchorage, AK, 99504",Match,Exact,"511 SAN JUAN CIR, ANCHORAGE, AK, 99504",190801991,R,02,020,000701,1010,-149.77719,61.217323
8166,512 TURPIN ST,Anchorage,AK,99504,"512 TURPIN ST, Anchorage, AK, 99504",Match,Exact,"512 TURPIN ST, ANCHORAGE, AK, 99504",190802771,R,02,020,000701,2000,-149.75597,61.217746999999996
8167,531 CREEKSIDE ST,Anchorage,AK,99504,"531 CREEKSIDE ST, Anchorage, AK, 99504",Match,Exact,"531 CREEKSIDE ST, ANCHORAGE, AK, 99504",190802892,L,02,020,000702,2005,-149.74097,61.21761
8168,531 CREEKSIDE ST,Anchorage,AK,99504,"531 CREEKSIDE ST, Anchorage, AK, 99504",Match,Exact,"531 CREEKSIDE ST, ANCHORAGE, AK, 99504",190802892,L,02,020,000702,2005,-149.74097,61.21761
8169,510 SAN JUAN CIR,Anchorage,AK,99504,"510 SAN JUAN CIR, Anchorage, AK, 99504",Match,Exact,"510 SAN JUAN CIR, ANCHORAGE, AK, 99504",190801991,L,02,020,000701,1010,-149.7772,61.217323
8170,510 SAN JUAN CIR,Anchorage,AK,99504,"510 SAN JUAN CIR, Anchorage, AK, 99504",Match,Exact,"510 SAN JUAN CIR, ANCHORAGE, AK, 99504",190801991,L,02,020,000701,1010,-149.7772,61.217323
8171,510 SAN JUAN CIR,Anchorage,AK,99504,"510 SAN JUAN CIR, Anchorage, AK, 99504",Match,Exact,"510 SAN JUAN CIR, ANCHORAGE, AK, 99504",190801991,L,02,020,000701,1010,-149.7772,61.217323
8172,510 SAN JUAN CIR,Anchorage,AK,99504,"510 SAN JUAN CIR, Anchorage, AK, 99504",Match,Exact,"510 SAN JUAN CIR, ANCHORAGE, AK, 99504",190801991,L,02,020,000701,1010,-149.7772,61.217323
8173,520 CARIN PL,Anchorage,AK,99504,"520 CARIN PL, Anchorage, AK, 99504",Match,Exact,"520 CARIN PL, ANCHORAGE, AK, 99504",190808933,L,02,020,000702,2006,-149.73453999999998,61.217316000000004
8174,520 CARIN PL,Anchorage,AK,99504,"520 CARIN PL, Anchorage, AK, 99504",Match,Exact,"520 CARIN PL, ANCHORAGE, AK, 99504",190808933,L,02,020,000702,2006,-149.73453999999998,61.217316000000004
8175,521 IZEMBEK CIR,Anchorage,AK,99508,"521 IZEMBEK CIR, Anchorage, AK, 99508",Match,Exact,"521 IZEMBEK CIR, ANCHORAGE, AK, 99508",190801976,R,02,020,000801,4006,-149.78319,61.217266
8176,520 IZEMBEK CIR,Anchorage,AK,99508,"520 IZEMBEK CIR, Anchorage, AK, 99508",Match,Exact,"520 IZEMBEK CIR, ANCHORAGE, AK, 99508",190801976,L,02,020,000801,4006,-149.78322,61.217266
8177,341 VILLA CIR,Anchorage,AK,99504,"341 VILLA CIR, Anchorage, AK, 99504",Match,Exact,"341 VILLA CIR, ANCHORAGE, AK, 99504",190816175,L,02,020,000702,2002,-149.74005,61.220352
8178,311 FERN LN,Anchorage,AK,99504,"311 FERN LN, Anchorage, AK, 99504",Match,Exact,"311 FERN LN, ANCHORAGE, AK, 99504",190802803,L,02,020,000702,3004,-149.75401000000002,61.219894
8179,5000 KENAI AVE,Anchorage,AK,99508,"5000 KENAI AVE, Anchorage, AK, 99508",Match,Exact,"5000 KENAI AVE, ANCHORAGE, AK, 99508",624549314,R,02,020,000801,4001,-149.78781,61.220222
8180,320 GAYLENE CIR,Anchorage,AK,99504,"320 GAYLENE CIR, Anchorage, AK, 99504",Match,Exact,"320 GAYLENE CIR, ANCHORAGE, AK, 99504",190803322,R,02,020,000703,3001,-149.7213,61.22045
8181,4705 KENAI AVE,Anchorage,AK,99508,"4705 KENAI AVE, Anchorage, AK, 99508",Match,Exact,"4705 KENAI AVE, ANCHORAGE, AK, 99508",624908526,L,02,020,000801,2007,-149.79211,61.220135
8182,4940 KENAI AVE,Anchorage,AK,99508,"4940 KENAI AVE, Anchorage, AK, 99508",Match,Exact,"4940 KENAI AVE, ANCHORAGE, AK, 99508",624908470,R,02,020,000801,4002,-149.78868,61.220222
8183,4900 KENAI AVE,Anchorage,AK,99508,"4900 KENAI AVE, Anchorage, AK, 99508",Match,Exact,"4900 KENAI AVE, ANCHORAGE, AK, 99508",624908469,R,02,020,000801,4003,-149.78963000000002,61.220222
8184,340 VILLA CIR,Anchorage,AK,99504,"340 VILLA CIR, Anchorage, AK, 99504",Match,Exact,"340 VILLA CIR, ANCHORAGE, AK, 99504",190816175,R,02,020,000702,2002,-149.74007,61.220352
8185,326 PAMELA PL,Anchorage,AK,99504,"326 PAMELA PL, Anchorage, AK, 99504",Match,Exact,"326 PAMELA PL, ANCHORAGE, AK, 99504",190802889,R,02,020,000702,2002,-149.7421,61.220397999999996
8186,322 BOLIN ST,Anchorage,AK,99504,"322 BOLIN ST, Anchorage, AK, 99504",Match,Exact,"322 BOLIN ST, ANCHORAGE, AK, 99504",190803336,R,02,020,000703,3001,-149.71944,61.220222
8187,4870 KENAI AVE,Anchorage,AK,99508,"4870 KENAI AVE, Anchorage, AK, 99508",Match,Exact,"4870 KENAI AVE, ANCHORAGE, AK, 99508",624908526,R,02,020,000801,4004,-149.79027,61.220222
8188,350 DANNILYN CIR,Anchorage,AK,99504,"350 DANNILYN CIR, Anchorage, AK, 99504",Match,Exact,"350 DANNILYN CIR, ANCHORAGE, AK, 99504",190808935,R,02,020,000702,2002,-149.74374,61.22030600000001
8189,331 PAMELA PL,Anchorage,AK,99504,"331 PAMELA PL, Anchorage, AK, 99504",Match,Exact,"331 PAMELA PL, ANCHORAGE, AK, 99504",190802889,L,02,020,000702,2002,-149.74206999999998,61.220380000000006
8190,331 PAMELA PL,Anchorage,AK,99504,"331 PAMELA PL, Anchorage, AK, 99504",Match,Exact,"331 PAMELA PL, ANCHORAGE, AK, 99504",190802889,L,02,020,000702,2002,-149.74206999999998,61.220380000000006
8191,331 PAMELA PL,Anchorage,AK,99504,"331 PAMELA PL, Anchorage, AK, 99504",Match,Exact,"331 PAMELA PL, ANCHORAGE, AK, 99504",190802889,L,02,020,000702,2002,-149.74206999999998,61.220380000000006
8192,5901 E 6TH AVE,Anchorage,AK,99504,"5901 E 6TH AVE, Anchorage, AK, 99504",Match,Exact,"5901 E 6TH AVE, ANCHORAGE, AK, 99504",190810852,L,02,020,000701,1000,-149.77061,61.216933999999995
8193,541 IZEMBEK CIR,Anchorage,AK,99508,"541 IZEMBEK CIR, Anchorage, AK, 99508",Match,Exact,"541 IZEMBEK CIR, ANCHORAGE, AK, 99508",190801976,R,02,020,000801,4006,-149.78319,61.217186
8194,5901 E 6TH AVE,Anchorage,AK,99504,"5901 E 6TH AVE, Anchorage, AK, 99504",Match,Exact,"5901 E 6TH AVE, ANCHORAGE, AK, 99504",190810852,L,02,020,000701,1000,-149.77061,61.216933999999995
8195,5901 E 6TH AVE,Anchorage,AK,99504,"5901 E 6TH AVE, Anchorage, AK, 99504",Match,Exact,"5901 E 6TH AVE, ANCHORAGE, AK, 99504",190810852,L,02,020,000701,1000,-149.77061,61.216933999999995
8196,5901 E 6TH AVE,Anchorage,AK,99504,"5901 E 6TH AVE, Anchorage, AK, 99504",Match,Exact,"5901 E 6TH AVE, ANCHORAGE, AK, 99504",190810852,L,02,020,000701,1000,-149.77061,61.216933999999995
8197,5901 E 6TH AVE,Anchorage,AK,99504,"5901 E 6TH AVE, Anchorage, AK, 99504",Match,Exact,"5901 E 6TH AVE, ANCHORAGE, AK, 99504",190810852,L,02,020,000701,1000,-149.77061,61.216933999999995
8198,5901 E 6TH AVE,Anchorage,AK,99504,"5901 E 6TH AVE, Anchorage, AK, 99504",Match,Exact,"5901 E 6TH AVE, ANCHORAGE, AK, 99504",190810852,L,02,020,000701,1000,-149.77061,61.216933999999995
8199,5901 E 6TH AVE,Anchorage,AK,99504,"5901 E 6TH AVE, Anchorage, AK, 99504",Match,Exact,"5901 E 6TH AVE, ANCHORAGE, AK, 99504",190810852,L,02,020,000701,1000,-149.77061,61.216933999999995
8200,5901 E 6TH AVE,Anchorage,AK,99504,"5901 E 6TH AVE, Anchorage, AK, 99504",Match,Exact,"5901 E 6TH AVE, ANCHORAGE, AK, 99504",190810852,L,02,020,000701,1000,-149.77061,61.216933999999995
8201,320 PEPPERTREE LOOP,Anchorage,AK,99504,"320 PEPPERTREE LOOP, Anchorage, AK, 99504",Match,Exact,"320 PEPPERTREE LOOP, ANCHORAGE, AK, 99504",190826164,R,02,020,000701,1000,-149.76265,61.219772
8202,6811 E 3RD AVE,Anchorage,AK,99504,"6811 E 3RD AVE, Anchorage, AK, 99504",Match,Exact,"6811 E 3RD AVE, ANCHORAGE, AK, 99504",190802807,L,02,020,000702,3004,-149.75345,61.219738
8203,405 STEWART ST,Anchorage,AK,99508,"405 STEWART ST, Anchorage, AK, 99508",Match,Exact,"405 STEWART ST, ANCHORAGE, AK, 99508",190801749,L,02,020,000801,4001,-149.78787,61.22011
8204,6821 E 3RD AVE,Anchorage,AK,99504,"6821 E 3RD AVE, Anchorage, AK, 99504",Match,Exact,"6821 E 3RD AVE, ANCHORAGE, AK, 99504",190802807,L,02,020,000702,3004,-149.7532,61.219756999999994
8205,404 STEWART ST,Anchorage,AK,99508,"404 STEWART ST, Anchorage, AK, 99508",Match,Exact,"404 STEWART ST, ANCHORAGE, AK, 99508",190801749,R,02,020,000801,4002,-149.7879,61.22011
8206,313 PEPPERTREE LOOP,Anchorage,AK,99504,"313 PEPPERTREE LOOP, Anchorage, AK, 99504",Match,Exact,"313 PEPPERTREE LOOP, ANCHORAGE, AK, 99504",190826164,L,02,020,000701,1008,-149.76262,61.219875
8207,8421 E 3RD AVE,Anchorage,AK,99504,"8421 E 3RD AVE, Anchorage, AK, 99504",Match,Exact,"8421 E 3RD AVE, ANCHORAGE, AK, 99504",190803317,L,02,020,000703,3001,-149.72337,61.219673
8208,8421 E 3RD AVE,Anchorage,AK,99504,"8421 E 3RD AVE, Anchorage, AK, 99504",Match,Exact,"8421 E 3RD AVE, ANCHORAGE, AK, 99504",190803317,L,02,020,000703,3001,-149.72337,61.219673
8209,8421 E 3RD AVE,Anchorage,AK,99504,"8421 E 3RD AVE, Anchorage, AK, 99504",Match,Exact,"8421 E 3RD AVE, ANCHORAGE, AK, 99504",190803317,L,02,020,000703,3001,-149.72337,61.219673
8210,8421 E 3RD AVE,Anchorage,AK,99504,"8421 E 3RD AVE, Anchorage, AK, 99504",Match,Exact,"8421 E 3RD AVE, ANCHORAGE, AK, 99504",190803317,L,02,020,000703,3001,-149.72337,61.219673
8211,341 BOLIN ST,Anchorage,AK,99504,"341 BOLIN ST, Anchorage, AK, 99504",Match,Exact,"341 BOLIN ST, ANCHORAGE, AK, 99504",190803336,L,02,020,000703,3000,-149.7194,61.22002
8212,341 BOLIN ST,Anchorage,AK,99504,"341 BOLIN ST, Anchorage, AK, 99504",Match,Exact,"341 BOLIN ST, ANCHORAGE, AK, 99504",190803336,L,02,020,000703,3000,-149.7194,61.22002
8213,8301 E 3RD AVE,Anchorage,AK,99504,"8301 E 3RD AVE, Anchorage, AK, 99504",Match,Exact,"8301 E 3RD AVE, ANCHORAGE, AK, 99504",190803262,L,02,020,000703,3002,-149.72517,61.219677000000004
8214,8301 E 3RD AVE,Anchorage,AK,99504,"8301 E 3RD AVE, Anchorage, AK, 99504",Match,Exact,"8301 E 3RD AVE, ANCHORAGE, AK, 99504",190803262,L,02,020,000703,3002,-149.72517,61.219677000000004
8215,8301 E 3RD AVE,Anchorage,AK,99504,"8301 E 3RD AVE, Anchorage, AK, 99504",Match,Exact,"8301 E 3RD AVE, ANCHORAGE, AK, 99504",190803262,L,02,020,000703,3002,-149.72517,61.219677000000004
8216,8301 E 3RD AVE,Anchorage,AK,99504,"8301 E 3RD AVE, Anchorage, AK, 99504",Match,Exact,"8301 E 3RD AVE, ANCHORAGE, AK, 99504",190803262,L,02,020,000703,3002,-149.72517,61.219677000000004
8217,8301 E 3RD AVE,Anchorage,AK,99504,"8301 E 3RD AVE, Anchorage, AK, 99504",Match,Exact,"8301 E 3RD AVE, ANCHORAGE, AK, 99504",190803262,L,02,020,000703,3002,-149.72517,61.219677000000004
8218,8301 E 3RD AVE,Anchorage,AK,99504,"8301 E 3RD AVE, Anchorage, AK, 99504",Match,Exact,"8301 E 3RD AVE, ANCHORAGE, AK, 99504",190803262,L,02,020,000703,3002,-149.72517,61.219677000000004
8219,8301 E 3RD AVE,Anchorage,AK,99504,"8301 E 3RD AVE, Anchorage, AK, 99504",Match,Exact,"8301 E 3RD AVE, ANCHORAGE, AK, 99504",190803262,L,02,020,000703,3002,-149.72517,61.219677000000004
8220,8301 E 3RD AVE,Anchorage,AK,99504,"8301 E 3RD AVE, Anchorage, AK, 99504",Match,Exact,"8301 E 3RD AVE, ANCHORAGE, AK, 99504",190803262,L,02,020,000703,3002,-149.72517,61.219677000000004
8221,8301 E 3RD AVE,Anchorage,AK,99504,"8301 E 3RD AVE, Anchorage, AK, 99504",Match,Exact,"8301 E 3RD AVE, ANCHORAGE, AK, 99504",190803262,L,02,020,000703,3002,-149.72517,61.219677000000004
8222,328 BUNNELL ST,Anchorage,AK,99508,"328 BUNNELL ST, Anchorage, AK, 99508",Match,Exact,"328 BUNNELL ST, ANCHORAGE, AK, 99508",624908505,R,02,020,000801,4004,-149.78972,61.21999
8223,340 BOLIN ST,Anchorage,AK,99504,"340 BOLIN ST, Anchorage, AK, 99504",Match,Exact,"340 BOLIN ST, ANCHORAGE, AK, 99504",190803336,R,02,020,000703,3001,-149.71944,61.220016
8224,340 BOLIN ST,Anchorage,AK,99504,"340 BOLIN ST, Anchorage, AK, 99504",Match,Exact,"340 BOLIN ST, ANCHORAGE, AK, 99504",190803336,R,02,020,000703,3001,-149.71944,61.220016
8225,340 IDAHO ST,Anchorage,AK,99504,"340 IDAHO ST, Anchorage, AK, 99504",Match,Exact,"340 IDAHO ST, ANCHORAGE, AK, 99504",190802900,R,02,020,000702,2002,-149.73723999999999,61.21933000000001
8226,417 CAMELOT DR,Anchorage,AK,99508,"417 CAMELOT DR, Anchorage, AK, 99508",Match,Exact,"417 CAMELOT DR, ANCHORAGE, AK, 99508",190801979,L,02,020,000801,4000,-149.78142,61.219756999999994
8227,341 BUNNELL ST,Anchorage,AK,99508,"341 BUNNELL ST, Anchorage, AK, 99508",Match,Exact,"341 BUNNELL ST, ANCHORAGE, AK, 99508",624908505,L,02,020,000801,4003,-149.78968999999998,61.219784
8228,315 KRANE DR,Anchorage,AK,99504,"315 KRANE DR, Anchorage, AK, 99504",Match,Exact,"315 KRANE DR, ANCHORAGE, AK, 99504",605167555,R,02,020,000701,2000,-149.75708,61.220238
8229,315 KRANE DR,Anchorage,AK,99504,"315 KRANE DR, Anchorage, AK, 99504",Match,Exact,"315 KRANE DR, ANCHORAGE, AK, 99504",605167555,R,02,020,000701,2000,-149.75708,61.220238
8230,315 KRANE DR,Anchorage,AK,99504,"315 KRANE DR, Anchorage, AK, 99504",Match,Exact,"315 KRANE DR, ANCHORAGE, AK, 99504",605167555,R,02,020,000701,2000,-149.75708,61.220238
8231,315 KRANE DR,Anchorage,AK,99504,"315 KRANE DR, Anchorage, AK, 99504",Match,Exact,"315 KRANE DR, ANCHORAGE, AK, 99504",605167555,R,02,020,000701,2000,-149.75708,61.220238
8232,315 KRANE DR,Anchorage,AK,99504,"315 KRANE DR, Anchorage, AK, 99504",Match,Exact,"315 KRANE DR, ANCHORAGE, AK, 99504",605167555,R,02,020,000701,2000,-149.75708,61.220238
8233,315 KRANE DR,Anchorage,AK,99504,"315 KRANE DR, Anchorage, AK, 99504",Match,Exact,"315 KRANE DR, ANCHORAGE, AK, 99504",605167555,R,02,020,000701,2000,-149.75708,61.220238
8234,315 KRANE DR,Anchorage,AK,99504,"315 KRANE DR, Anchorage, AK, 99504",Match,Exact,"315 KRANE DR, ANCHORAGE, AK, 99504",605167555,R,02,020,000701,2000,-149.75708,61.220238
8235,315 KRANE DR,Anchorage,AK,99504,"315 KRANE DR, Anchorage, AK, 99504",Match,Exact,"315 KRANE DR, ANCHORAGE, AK, 99504",605167555,R,02,020,000701,2000,-149.75708,61.220238
8236,315 KRANE DR,Anchorage,AK,99504,"315 KRANE DR, Anchorage, AK, 99504",Match,Exact,"315 KRANE DR, ANCHORAGE, AK, 99504",605167555,R,02,020,000701,2000,-149.75708,61.220238
8237,315 KRANE DR,Anchorage,AK,99504,"315 KRANE DR, Anchorage, AK, 99504",Match,Exact,"315 KRANE DR, ANCHORAGE, AK, 99504",605167555,R,02,020,000701,2000,-149.75708,61.220238
8238,5840 E 4TH AVE,Anchorage,AK,99504,"5840 E 4TH AVE, Anchorage, AK, 99504",Match,Exact,"5840 E 4TH AVE, ANCHORAGE, AK, 99504",190827503,R,02,020,000701,1010,-149.7722,61.218697
8239,5840 E 4TH AVE,Anchorage,AK,99504,"5840 E 4TH AVE, Anchorage, AK, 99504",Match,Exact,"5840 E 4TH AVE, ANCHORAGE, AK, 99504",190827503,R,02,020,000701,1010,-149.7722,61.218697
8240,5840 E 4TH AVE,Anchorage,AK,99504,"5840 E 4TH AVE, Anchorage, AK, 99504",Match,Exact,"5840 E 4TH AVE, ANCHORAGE, AK, 99504",190827503,R,02,020,000701,1010,-149.7722,61.218697
8241,5830 E 4TH AVE,Anchorage,AK,99504,"5830 E 4TH AVE, Anchorage, AK, 99504",Match,Exact,"5830 E 4TH AVE, ANCHORAGE, AK, 99504",190827503,R,02,020,000701,1010,-149.77238,61.218697
8242,5830 E 4TH AVE,Anchorage,AK,99504,"5830 E 4TH AVE, Anchorage, AK, 99504",Match,Exact,"5830 E 4TH AVE, ANCHORAGE, AK, 99504",190827503,R,02,020,000701,1010,-149.77238,61.218697
8243,5830 E 4TH AVE,Anchorage,AK,99504,"5830 E 4TH AVE, Anchorage, AK, 99504",Match,Exact,"5830 E 4TH AVE, ANCHORAGE, AK, 99504",190827503,R,02,020,000701,1010,-149.77238,61.218697
8244,5830 E 4TH AVE,Anchorage,AK,99504,"5830 E 4TH AVE, Anchorage, AK, 99504",Match,Exact,"5830 E 4TH AVE, ANCHORAGE, AK, 99504",190827503,R,02,020,000701,1010,-149.77238,61.218697
8245,5820 E 4TH AVE,Anchorage,AK,99504,"5820 E 4TH AVE, Anchorage, AK, 99504",Match,Exact,"5820 E 4TH AVE, ANCHORAGE, AK, 99504",190827503,R,02,020,000701,1010,-149.77257,61.218697
8246,5820 E 4TH AVE,Anchorage,AK,99504,"5820 E 4TH AVE, Anchorage, AK, 99504",Match,Exact,"5820 E 4TH AVE, ANCHORAGE, AK, 99504",190827503,R,02,020,000701,1010,-149.77257,61.218697
8247,5820 E 4TH AVE,Anchorage,AK,99504,"5820 E 4TH AVE, Anchorage, AK, 99504",Match,Exact,"5820 E 4TH AVE, ANCHORAGE, AK, 99504",190827503,R,02,020,000701,1010,-149.77257,61.218697
8248,5820 E 4TH AVE,Anchorage,AK,99504,"5820 E 4TH AVE, Anchorage, AK, 99504",Match,Exact,"5820 E 4TH AVE, ANCHORAGE, AK, 99504",190827503,R,02,020,000701,1010,-149.77257,61.218697
8249,5810 E 4TH AVE,Anchorage,AK,99504,"5810 E 4TH AVE, Anchorage, AK, 99504",Match,Exact,"5810 E 4TH AVE, ANCHORAGE, AK, 99504",190827503,R,02,020,000701,1010,-149.77275,61.218697
8250,5810 E 4TH AVE,Anchorage,AK,99504,"5810 E 4TH AVE, Anchorage, AK, 99504",Match,Exact,"5810 E 4TH AVE, ANCHORAGE, AK, 99504",190827503,R,02,020,000701,1010,-149.77275,61.218697
8251,5810 E 4TH AVE,Anchorage,AK,99504,"5810 E 4TH AVE, Anchorage, AK, 99504",Match,Exact,"5810 E 4TH AVE, ANCHORAGE, AK, 99504",190827503,R,02,020,000701,1010,-149.77275,61.218697
8252,5810 E 4TH AVE,Anchorage,AK,99504,"5810 E 4TH AVE, Anchorage, AK, 99504",Match,Exact,"5810 E 4TH AVE, ANCHORAGE, AK, 99504",190827503,R,02,020,000701,1010,-149.77275,61.218697
8253,5800 E 4TH AVE,Anchorage,AK,99504,"5800 E 4TH AVE, Anchorage, AK, 99504",Match,Exact,"5800 E 4TH AVE, ANCHORAGE, AK, 99504",190827503,R,02,020,000701,1010,-149.77293,61.218697
8254,5800 E 4TH AVE,Anchorage,AK,99504,"5800 E 4TH AVE, Anchorage, AK, 99504",Match,Exact,"5800 E 4TH AVE, ANCHORAGE, AK, 99504",190827503,R,02,020,000701,1010,-149.77293,61.218697
8255,5800 E 4TH AVE,Anchorage,AK,99504,"5800 E 4TH AVE, Anchorage, AK, 99504",Match,Exact,"5800 E 4TH AVE, ANCHORAGE, AK, 99504",190827503,R,02,020,000701,1010,-149.77293,61.218697
8256,5800 E 4TH AVE,Anchorage,AK,99504,"5800 E 4TH AVE, Anchorage, AK, 99504",Match,Exact,"5800 E 4TH AVE, ANCHORAGE, AK, 99504",190827503,R,02,020,000701,1010,-149.77293,61.218697
8257,5750 E 4TH AVE,Anchorage,AK,99504,"5750 E 4TH AVE, Anchorage, AK, 99504",Match,Exact,"5750 E 4TH AVE, ANCHORAGE, AK, 99504",190827503,R,02,020,000701,1010,-149.77383,61.218697
8258,5750 E 4TH AVE,Anchorage,AK,99504,"5750 E 4TH AVE, Anchorage, AK, 99504",Match,Exact,"5750 E 4TH AVE, ANCHORAGE, AK, 99504",190827503,R,02,020,000701,1010,-149.77383,61.218697
8259,5750 E 4TH AVE,Anchorage,AK,99504,"5750 E 4TH AVE, Anchorage, AK, 99504",Match,Exact,"5750 E 4TH AVE, ANCHORAGE, AK, 99504",190827503,R,02,020,000701,1010,-149.77383,61.218697
8260,5750 E 4TH AVE,Anchorage,AK,99504,"5750 E 4TH AVE, Anchorage, AK, 99504",Match,Exact,"5750 E 4TH AVE, ANCHORAGE, AK, 99504",190827503,R,02,020,000701,1010,-149.77383,61.218697
8261,5740 E 4TH AVE,Anchorage,AK,99504,"5740 E 4TH AVE, Anchorage, AK, 99504",Match,Exact,"5740 E 4TH AVE, ANCHORAGE, AK, 99504",190827503,R,02,020,000701,1010,-149.77402,61.218697
8262,5740 E 4TH AVE,Anchorage,AK,99504,"5740 E 4TH AVE, Anchorage, AK, 99504",Match,Exact,"5740 E 4TH AVE, ANCHORAGE, AK, 99504",190827503,R,02,020,000701,1010,-149.77402,61.218697
8263,5740 E 4TH AVE,Anchorage,AK,99504,"5740 E 4TH AVE, Anchorage, AK, 99504",Match,Exact,"5740 E 4TH AVE, ANCHORAGE, AK, 99504",190827503,R,02,020,000701,1010,-149.77402,61.218697
8264,5740 E 4TH AVE,Anchorage,AK,99504,"5740 E 4TH AVE, Anchorage, AK, 99504",Match,Exact,"5740 E 4TH AVE, ANCHORAGE, AK, 99504",190827503,R,02,020,000701,1010,-149.77402,61.218697
8265,4966 E 4TH AVE,Anchorage,AK,99508,"4966 E 4TH AVE, Anchorage, AK, 99508",Match,Exact,"4966 E 4TH AVE, ANCHORAGE, AK, 99508",190816179,R,02,020,000801,4006,-149.78063999999998,61.218647
8266,4956 E 4TH AVE,Anchorage,AK,99508,"4956 E 4TH AVE, Anchorage, AK, 99508",Match,Exact,"4956 E 4TH AVE, ANCHORAGE, AK, 99508",190816179,R,02,020,000801,4006,-149.78069,61.218647
8267,4946 E 4TH AVE,Anchorage,AK,99508,"4946 E 4TH AVE, Anchorage, AK, 99508",Match,Exact,"4946 E 4TH AVE, ANCHORAGE, AK, 99508",190812079,R,02,020,000801,4006,-149.78667,61.21865
8268,5010 E 4TH AVE,Anchorage,AK,99508,"5010 E 4TH AVE, Anchorage, AK, 99508",Match,Exact,"5010 E 4TH AVE, ANCHORAGE, AK, 99508",190816179,R,02,020,000801,4006,-149.78047,61.218647
8269,4936 E 4TH AVE,Anchorage,AK,99508,"4936 E 4TH AVE, Anchorage, AK, 99508",Match,Exact,"4936 E 4TH AVE, ANCHORAGE, AK, 99508",190812079,R,02,020,000801,4006,-149.78726,61.21865
8270,4928 E 4TH AVE,Anchorage,AK,99508,"4928 E 4TH AVE, Anchorage, AK, 99508",Match,Exact,"4928 E 4TH AVE, ANCHORAGE, AK, 99508",190812079,R,02,020,000801,4006,-149.78773,61.21865
8271,4918 E 4TH AVE,Anchorage,AK,99508,"4918 E 4TH AVE, Anchorage, AK, 99508",Match,Exact,"4918 E 4TH AVE, ANCHORAGE, AK, 99508",190812079,R,02,020,000801,4006,-149.78833,61.21865
8272,400 DONNA DR,Anchorage,AK,99504,"400 DONNA DR, Anchorage, AK, 99504",Match,Exact,"400 DONNA DR, ANCHORAGE, AK, 99504",190802764,L,02,020,000701,1000,-149.75876,61.218830000000004
8273,5684 ALORA LOOP,Anchorage,AK,99504,"5684 ALORA LOOP, Anchorage, AK, 99504",Match,Exact,"5684 ALORA LOOP, ANCHORAGE, AK, 99504",190827504,R,02,020,000701,1010,-149.77508999999998,61.21838
8274,433 PEPPERTREE LOOP,Anchorage,AK,99504,"433 PEPPERTREE LOOP, Anchorage, AK, 99504",Match,Exact,"433 PEPPERTREE LOOP, ANCHORAGE, AK, 99504",190826164,L,02,020,000701,1008,-149.76228,61.218517000000006
8275,423 PEPPERTREE LOOP,Anchorage,AK,99504,"423 PEPPERTREE LOOP, Anchorage, AK, 99504",Match,Exact,"423 PEPPERTREE LOOP, ANCHORAGE, AK, 99504",190826164,L,02,020,000701,1008,-149.76256,61.218517000000006
8276,401 DONNA DR,Anchorage,AK,99504,"401 DONNA DR, Anchorage, AK, 99504",Match,Exact,"401 DONNA DR, ANCHORAGE, AK, 99504",190802765,R,02,020,000701,2000,-149.75868,61.21811700000001
8277,5500 ALORA LOOP,Anchorage,AK,99504,"5500 ALORA LOOP, Anchorage, AK, 99504",Match,Exact,"5500 ALORA LOOP, ANCHORAGE, AK, 99504",190827504,R,02,020,000701,1010,-149.77754,61.21852
8278,5740 ROCKY MOUNTAIN CT,Anchorage,AK,99504,"5740 ROCKY MOUNTAIN CT, Anchorage, AK, 99504",Match,Exact,"5740 ROCKY MOUNTAIN CT, ANCHORAGE, AK, 99504",190802016,R,02,020,000701,1010,-149.773,61.217827
8279,5730 ROCKY MOUNTAIN CT,Anchorage,AK,99504,"5730 ROCKY MOUNTAIN CT, Anchorage, AK, 99504",Match,Exact,"5730 ROCKY MOUNTAIN CT, ANCHORAGE, AK, 99504",190802016,R,02,020,000701,1010,-149.77312,61.217827
8280,5730 ROCKY MOUNTAIN CT,Anchorage,AK,99504,"5730 ROCKY MOUNTAIN CT, Anchorage, AK, 99504",Match,Exact,"5730 ROCKY MOUNTAIN CT, ANCHORAGE, AK, 99504",190802016,R,02,020,000701,1010,-149.77312,61.217827
8281,5730 ROCKY MOUNTAIN CT,Anchorage,AK,99504,"5730 ROCKY MOUNTAIN CT, Anchorage, AK, 99504",Match,Exact,"5730 ROCKY MOUNTAIN CT, ANCHORAGE, AK, 99504",190802016,R,02,020,000701,1010,-149.77312,61.217827
8282,5730 ROCKY MOUNTAIN CT,Anchorage,AK,99504,"5730 ROCKY MOUNTAIN CT, Anchorage, AK, 99504",Match,Exact,"5730 ROCKY MOUNTAIN CT, ANCHORAGE, AK, 99504",190802016,R,02,020,000701,1010,-149.77312,61.217827
8283,441 FALKE CT,Anchorage,AK,99504,"441 FALKE CT, Anchorage, AK, 99504",Match,Exact,"441 FALKE CT, ANCHORAGE, AK, 99504",190802766,L,02,020,000701,2000,-149.75775,61.217968000000006
8284,6301 HABICHT CT,Anchorage,AK,99504,"6301 HABICHT CT, Anchorage, AK, 99504",Match,Exact,"6301 HABICHT CT, ANCHORAGE, AK, 99504",190802075,R,02,020,000701,1000,-149.76215,61.21764
8285,6321 HABICHT CT,Anchorage,AK,99504,"6321 HABICHT CT, Anchorage, AK, 99504",Match,Exact,"6321 HABICHT CT, ANCHORAGE, AK, 99504",190802075,R,02,020,000701,1000,-149.76183,61.217636
8286,500 NORTH VALLEY RD,Anchorage,AK,99504,"500 NORTH VALLEY RD, Anchorage, AK, 99504",No_Match,,,,,,,,,,
8287,500 MELLOW PL,Anchorage,AK,99508,"500 MELLOW PL, Anchorage, AK, 99508",Match,Exact,"500 MELLOW PL, ANCHORAGE, AK, 99508",190801738,L,02,020,000801,4007,-149.7916,61.217827
8288,443 FALKE CT,Anchorage,AK,99504,"443 FALKE CT, Anchorage, AK, 99504",Match,Exact,"443 FALKE CT, ANCHORAGE, AK, 99504",190802766,L,02,020,000701,2000,-149.75773999999998,61.21795
8289,514 STATE ST,Anchorage,AK,99504,"514 STATE ST, Anchorage, AK, 99504",Match,Exact,"514 STATE ST, ANCHORAGE, AK, 99504",190812136,R,02,020,000703,3009,-149.73131,61.21785
8290,8420 E 5TH AVE,Anchorage,AK,99504,"8420 E 5TH AVE, Anchorage, AK, 99504",Match,Exact,"8420 E 5TH AVE, ANCHORAGE, AK, 99504",190803326,R,02,020,000703,3011,-149.72337,61.217696999999994
8291,8410 E 5TH AVE,Anchorage,AK,99504,"8410 E 5TH AVE, Anchorage, AK, 99504",Match,Exact,"8410 E 5TH AVE, ANCHORAGE, AK, 99504",190803326,R,02,020,000703,3011,-149.72351,61.217696999999994
8292,8400 E 5TH AVE,Anchorage,AK,99504,"8400 E 5TH AVE, Anchorage, AK, 99504",Match,Exact,"8400 E 5TH AVE, ANCHORAGE, AK, 99504",190803323,R,02,020,000703,3011,-149.72386,61.217696999999994
8293,5720 ROCKY MOUNTAIN CT,Anchorage,AK,99504,"5720 ROCKY MOUNTAIN CT, Anchorage, AK, 99504",Match,Exact,"5720 ROCKY MOUNTAIN CT, ANCHORAGE, AK, 99504",190802016,R,02,020,000701,1010,-149.77324,61.217827
8294,5720 ROCKY MOUNTAIN CT,Anchorage,AK,99504,"5720 ROCKY MOUNTAIN CT, Anchorage, AK, 99504",Match,Exact,"5720 ROCKY MOUNTAIN CT, ANCHORAGE, AK, 99504",190802016,R,02,020,000701,1010,-149.77324,61.217827
8295,8340 E 5TH AVE,Anchorage,AK,99504,"8340 E 5TH AVE, Anchorage, AK, 99504",Match,Exact,"8340 E 5TH AVE, ANCHORAGE, AK, 99504",190803323,R,02,020,000703,3011,-149.72461,61.217693000000004
8296,8330 E 5TH AVE,Anchorage,AK,99504,"8330 E 5TH AVE, Anchorage, AK, 99504",Match,Exact,"8330 E 5TH AVE, ANCHORAGE, AK, 99504",190803323,R,02,020,000703,3011,-149.72473,61.217693000000004
8297,8320 E 5TH AVE,Anchorage,AK,99504,"8320 E 5TH AVE, Anchorage, AK, 99504",Match,Exact,"8320 E 5TH AVE, ANCHORAGE, AK, 99504",190803323,R,02,020,000703,3011,-149.72486999999998,61.217693000000004
8298,8310 E 5TH AVE,Anchorage,AK,99504,"8310 E 5TH AVE, Anchorage, AK, 99504",Match,Exact,"8310 E 5TH AVE, ANCHORAGE, AK, 99504",190803323,R,02,020,000703,3011,-149.72499,61.217693000000004
8299,511 IDAHO ST,Anchorage,AK,99504,"511 IDAHO ST, Anchorage, AK, 99504",Match,Exact,"511 IDAHO ST, ANCHORAGE, AK, 99504",190802902,L,02,020,000702,2006,-149.73721,61.217766000000005
8300,331 PAMELA PL,Anchorage,AK,99504,"331 PAMELA PL, Anchorage, AK, 99504",Match,Exact,"331 PAMELA PL, ANCHORAGE, AK, 99504",190802889,L,02,020,000702,2002,-149.74206999999998,61.220380000000006
8301,321 MELODY PL,Anchorage,AK,99504,"321 MELODY PL, Anchorage, AK, 99504",Match,Exact,"321 MELODY PL, ANCHORAGE, AK, 99504",190807350,L,02,020,000702,2002,-149.73906000000002,61.220375
8302,321 MELODY PL,Anchorage,AK,99504,"321 MELODY PL, Anchorage, AK, 99504",Match,Exact,"321 MELODY PL, ANCHORAGE, AK, 99504",190807350,L,02,020,000702,2002,-149.73906000000002,61.220375
8303,321 MELODY PL,Anchorage,AK,99504,"321 MELODY PL, Anchorage, AK, 99504",Match,Exact,"321 MELODY PL, ANCHORAGE, AK, 99504",190807350,L,02,020,000702,2002,-149.73906000000002,61.220375
8304,330 PATTERSON ST,Anchorage,AK,99504,"330 PATTERSON ST, Anchorage, AK, 99504",Match,Exact,"330 PATTERSON ST, ANCHORAGE, AK, 99504",190802868,R,02,020,000702,3004,-149.74851999999998,61.220016
8305,4801 KENAI AVE,Anchorage,AK,99508,"4801 KENAI AVE, Anchorage, AK, 99508",Match,Exact,"4801 KENAI AVE, ANCHORAGE, AK, 99508",624908526,L,02,020,000801,2007,-149.79099,61.22006999999999
8306,4801 KENAI AVE,Anchorage,AK,99508,"4801 KENAI AVE, Anchorage, AK, 99508",Match,Exact,"4801 KENAI AVE, ANCHORAGE, AK, 99508",624908526,L,02,020,000801,2007,-149.79099,61.22006999999999
8307,332 MULDOON RD,Anchorage,AK,99504,"332 MULDOON RD, Anchorage, AK, 99504",Match,Exact,"332 MULDOON RD, ANCHORAGE, AK, 99504",190803214,R,02,020,000702,2002,-149.7335,61.219969999999996
8308,351 DANNILYN CIR,Anchorage,AK,99504,"351 DANNILYN CIR, Anchorage, AK, 99504",Match,Exact,"351 DANNILYN CIR, ANCHORAGE, AK, 99504",190808935,L,02,020,000702,2002,-149.74373,61.22030600000001
8309,253 PEPPERTREE LOOP,Anchorage,AK,99504,"253 PEPPERTREE LOOP, Anchorage, AK, 99504",Match,Exact,"253 PEPPERTREE LOOP, ANCHORAGE, AK, 99504",190826164,L,02,020,000701,1008,-149.76163,61.220146
8310,243 PEPPERTREE LOOP,Anchorage,AK,99504,"243 PEPPERTREE LOOP, Anchorage, AK, 99504",Match,Exact,"243 PEPPERTREE LOOP, ANCHORAGE, AK, 99504",190826164,L,02,020,000701,1008,-149.76135,61.220146
8311,233 PEPPERTREE LOOP,Anchorage,AK,99504,"233 PEPPERTREE LOOP, Anchorage, AK, 99504",Match,Exact,"233 PEPPERTREE LOOP, ANCHORAGE, AK, 99504",190826164,L,02,020,000701,1008,-149.7611,61.220142
8312,223 PEPPERTREE LOOP,Anchorage,AK,99504,"223 PEPPERTREE LOOP, Anchorage, AK, 99504",Match,Exact,"223 PEPPERTREE LOOP, ANCHORAGE, AK, 99504",190826164,L,02,020,000701,1008,-149.76083,61.22014
8313,327 PAULINE ST,Anchorage,AK,99504,"327 PAULINE ST, Anchorage, AK, 99504",Match,Exact,"327 PAULINE ST, ANCHORAGE, AK, 99504",190807392,L,02,020,000703,3002,-149.7267,61.21986
8314,327 PAULINE ST,Anchorage,AK,99504,"327 PAULINE ST, Anchorage, AK, 99504",Match,Exact,"327 PAULINE ST, ANCHORAGE, AK, 99504",190807392,L,02,020,000703,3002,-149.7267,61.21986
8315,328 EKLUTNA ST,Anchorage,AK,99504,"328 EKLUTNA ST, Anchorage, AK, 99504",Match,Exact,"328 EKLUTNA ST, ANCHORAGE, AK, 99504",190803261,R,02,020,000703,3002,-149.72421,61.220314
8316,351 VILLA CIR,Anchorage,AK,99504,"351 VILLA CIR, Anchorage, AK, 99504",Match,Exact,"351 VILLA CIR, ANCHORAGE, AK, 99504",190816175,L,02,020,000702,2002,-149.74005,61.22030600000001
8317,403 CAMELOT DR,Anchorage,AK,99508,"403 CAMELOT DR, Anchorage, AK, 99508",Match,Exact,"403 CAMELOT DR, ANCHORAGE, AK, 99508",190801979,L,02,020,000801,4000,-149.7815,61.219530000000006
8318,7901 E 3RD AVE,Anchorage,AK,99504,"7901 E 3RD AVE, Anchorage, AK, 99504",Match,Exact,"7901 E 3RD AVE, ANCHORAGE, AK, 99504",190803227,L,02,020,000703,3004,-149.73332,61.219919999999995
8319,325 GAYLENE CIR,Anchorage,AK,99504,"325 GAYLENE CIR, Anchorage, AK, 99504",Match,Exact,"325 GAYLENE CIR, ANCHORAGE, AK, 99504",190803322,L,02,020,000703,3001,-149.72128,61.220431999999995
8320,4924 KLONDIKE AVE,Anchorage,AK,99508,"4924 KLONDIKE AVE, Anchorage, AK, 99508",Match,Exact,"4924 KLONDIKE AVE, ANCHORAGE, AK, 99508",624908464,R,02,020,000801,4001,-149.78925,61.219204000000005
8321,383 IDAHO ST,Anchorage,AK,99504,"383 IDAHO ST, Anchorage, AK, 99504",Match,Exact,"383 IDAHO ST, ANCHORAGE, AK, 99504",190802900,L,02,020,000702,2002,-149.73723,61.21897
8322,383 IDAHO ST,Anchorage,AK,99504,"383 IDAHO ST, Anchorage, AK, 99504",Match,Exact,"383 IDAHO ST, ANCHORAGE, AK, 99504",190802900,L,02,020,000702,2002,-149.73723,61.21897
8323,383 IDAHO ST,Anchorage,AK,99504,"383 IDAHO ST, Anchorage, AK, 99504",Match,Exact,"383 IDAHO ST, ANCHORAGE, AK, 99504",190802900,L,02,020,000702,2002,-149.73723,61.21897
8324,383 IDAHO ST,Anchorage,AK,99504,"383 IDAHO ST, Anchorage, AK, 99504",Match,Exact,"383 IDAHO ST, ANCHORAGE, AK, 99504",190802900,L,02,020,000702,2002,-149.73723,61.21897
8325,330 BEULAH CIR,Anchorage,AK,99504,"330 BEULAH CIR, Anchorage, AK, 99504",Match,Exact,"330 BEULAH CIR, ANCHORAGE, AK, 99504",190808931,L,02,020,000702,2002,-149.7401,61.219030000000004
8326,330 BEULAH CIR,Anchorage,AK,99504,"330 BEULAH CIR, Anchorage, AK, 99504",Match,Exact,"330 BEULAH CIR, ANCHORAGE, AK, 99504",190808931,L,02,020,000702,2002,-149.7401,61.219030000000004
8327,4830 KLONDIKE AVE,Anchorage,AK,99508,"4830 KLONDIKE AVE, Anchorage, AK, 99508",Match,Exact,"4830 KLONDIKE AVE, ANCHORAGE, AK, 99508",625048675,R,02,020,000801,4007,-149.79091,61.2192
8328,4830 KLONDIKE AVE,Anchorage,AK,99508,"4830 KLONDIKE AVE, Anchorage, AK, 99508",Match,Exact,"4830 KLONDIKE AVE, ANCHORAGE, AK, 99508",625048675,R,02,020,000801,4007,-149.79091,61.2192
8329,4820 KLONDIKE AVE,Anchorage,AK,99508,"4820 KLONDIKE AVE, Anchorage, AK, 99508",Match,Exact,"4820 KLONDIKE AVE, ANCHORAGE, AK, 99508",625048675,R,02,020,000801,4007,-149.79106000000002,61.2192
8330,4820 KLONDIKE AVE,Anchorage,AK,99508,"4820 KLONDIKE AVE, Anchorage, AK, 99508",Match,Exact,"4820 KLONDIKE AVE, ANCHORAGE, AK, 99508",625048675,R,02,020,000801,4007,-149.79106000000002,61.2192
8331,4810 KLONDIKE AVE,Anchorage,AK,99508,"4810 KLONDIKE AVE, Anchorage, AK, 99508",Match,Exact,"4810 KLONDIKE AVE, ANCHORAGE, AK, 99508",625048675,R,02,020,000801,4007,-149.7912,61.2192
8332,4810 KLONDIKE AVE,Anchorage,AK,99508,"4810 KLONDIKE AVE, Anchorage, AK, 99508",Match,Exact,"4810 KLONDIKE AVE, ANCHORAGE, AK, 99508",625048675,R,02,020,000801,4007,-149.7912,61.2192
8333,4800 KLONDIKE AVE,Anchorage,AK,99508,"4800 KLONDIKE AVE, Anchorage, AK, 99508",Match,Exact,"4800 KLONDIKE AVE, ANCHORAGE, AK, 99508",625048675,R,02,020,000801,4007,-149.79135,61.2192
8334,6831 E 3RD AVE,Anchorage,AK,99504,"6831 E 3RD AVE, Anchorage, AK, 99504",Match,Exact,"6831 E 3RD AVE, ANCHORAGE, AK, 99504",190802807,L,02,020,000702,3004,-149.75294,61.219772
8335,5901 E 6TH AVE,Anchorage,AK,99504,"5901 E 6TH AVE, Anchorage, AK, 99504",Match,Exact,"5901 E 6TH AVE, ANCHORAGE, AK, 99504",190810852,L,02,020,000701,1000,-149.77061,61.216933999999995
8336,5901 E 6TH AVE,Anchorage,AK,99504,"5901 E 6TH AVE, Anchorage, AK, 99504",Match,Exact,"5901 E 6TH AVE, ANCHORAGE, AK, 99504",190810852,L,02,020,000701,1000,-149.77061,61.216933999999995
8337,5901 E 6TH AVE,Anchorage,AK,99504,"5901 E 6TH AVE, Anchorage, AK, 99504",Match,Exact,"5901 E 6TH AVE, ANCHORAGE, AK, 99504",190810852,L,02,020,000701,1000,-149.77061,61.216933999999995
8338,6701 E 4TH AVE,Anchorage,AK,99504,"6701 E 4TH AVE, Anchorage, AK, 99504",Match,Exact,"6701 E 4TH AVE, ANCHORAGE, AK, 99504",190802805,L,02,020,000702,3006,-149.7558,61.218757999999994
8339,6701 E 4TH AVE,Anchorage,AK,99504,"6701 E 4TH AVE, Anchorage, AK, 99504",Match,Exact,"6701 E 4TH AVE, ANCHORAGE, AK, 99504",190802805,L,02,020,000702,3006,-149.7558,61.218757999999994
8340,6701 E 4TH AVE,Anchorage,AK,99504,"6701 E 4TH AVE, Anchorage, AK, 99504",Match,Exact,"6701 E 4TH AVE, ANCHORAGE, AK, 99504",190802805,L,02,020,000702,3006,-149.7558,61.218757999999994
8341,5901 E 6TH AVE,Anchorage,AK,99504,"5901 E 6TH AVE, Anchorage, AK, 99504",Match,Exact,"5901 E 6TH AVE, ANCHORAGE, AK, 99504",190810852,L,02,020,000701,1000,-149.77061,61.216933999999995
8342,5901 E 6TH AVE,Anchorage,AK,99504,"5901 E 6TH AVE, Anchorage, AK, 99504",Match,Exact,"5901 E 6TH AVE, ANCHORAGE, AK, 99504",190810852,L,02,020,000701,1000,-149.77061,61.216933999999995
8343,339 KRANE DR,Anchorage,AK,99504,"339 KRANE DR, Anchorage, AK, 99504",Match,Exact,"339 KRANE DR, ANCHORAGE, AK, 99504",605167555,R,02,020,000701,2000,-149.75708,61.219936
8344,6725 E 4TH AVE,Anchorage,AK,99504,"6725 E 4TH AVE, Anchorage, AK, 99504",Match,Exact,"6725 E 4TH AVE, ANCHORAGE, AK, 99504",190802805,L,02,020,000702,3006,-149.75536,61.218757999999994
8345,5901 E 6TH AVE,Anchorage,AK,99504,"5901 E 6TH AVE, Anchorage, AK, 99504",Match,Exact,"5901 E 6TH AVE, ANCHORAGE, AK, 99504",190810852,L,02,020,000701,1000,-149.77061,61.216933999999995
8346,5901 E 6TH AVE,Anchorage,AK,99504,"5901 E 6TH AVE, Anchorage, AK, 99504",Match,Exact,"5901 E 6TH AVE, ANCHORAGE, AK, 99504",190810852,L,02,020,000701,1000,-149.77061,61.216933999999995
8347,5901 E 6TH AVE,Anchorage,AK,99504,"5901 E 6TH AVE, Anchorage, AK, 99504",Match,Exact,"5901 E 6TH AVE, ANCHORAGE, AK, 99504",190810852,L,02,020,000701,1000,-149.77061,61.216933999999995
8348,5901 E 6TH AVE,Anchorage,AK,99504,"5901 E 6TH AVE, Anchorage, AK, 99504",Match,Exact,"5901 E 6TH AVE, ANCHORAGE, AK, 99504",190810852,L,02,020,000701,1000,-149.77061,61.216933999999995
8349,5901 E 6TH AVE,Anchorage,AK,99504,"5901 E 6TH AVE, Anchorage, AK, 99504",Match,Exact,"5901 E 6TH AVE, ANCHORAGE, AK, 99504",190810852,L,02,020,000701,1000,-149.77061,61.216933999999995
8350,5901 E 6TH AVE,Anchorage,AK,99504,"5901 E 6TH AVE, Anchorage, AK, 99504",Match,Exact,"5901 E 6TH AVE, ANCHORAGE, AK, 99504",190810852,L,02,020,000701,1000,-149.77061,61.216933999999995
8351,5901 E 6TH AVE,Anchorage,AK,99504,"5901 E 6TH AVE, Anchorage, AK, 99504",Match,Exact,"5901 E 6TH AVE, ANCHORAGE, AK, 99504",190810852,L,02,020,000701,1000,-149.77061,61.216933999999995
8352,373 PEPPERTREE LOOP,Anchorage,AK,99504,"373 PEPPERTREE LOOP, Anchorage, AK, 99504",Match,Exact,"373 PEPPERTREE LOOP, ANCHORAGE, AK, 99504",190826164,L,02,020,000701,1008,-149.76263,61.21911
8353,5901 E 6TH AVE,Anchorage,AK,99504,"5901 E 6TH AVE, Anchorage, AK, 99504",Match,Exact,"5901 E 6TH AVE, ANCHORAGE, AK, 99504",190810852,L,02,020,000701,1000,-149.77061,61.216933999999995
8354,5901 E 6TH AVE,Anchorage,AK,99504,"5901 E 6TH AVE, Anchorage, AK, 99504",Match,Exact,"5901 E 6TH AVE, ANCHORAGE, AK, 99504",190810852,L,02,020,000701,1000,-149.77061,61.216933999999995
8355,8200 E 4TH AVE,Anchorage,AK,99504,"8200 E 4TH AVE, Anchorage, AK, 99504",Match,Exact,"8200 E 4TH AVE, ANCHORAGE, AK, 99504",190803256,R,02,020,000703,3006,-149.72833,61.218853
8356,8148 E 4TH AVE,Anchorage,AK,99504,"8148 E 4TH AVE, Anchorage, AK, 99504",Match,Exact,"8148 E 4TH AVE, ANCHORAGE, AK, 99504",190803256,R,02,020,000703,3006,-149.72899999999998,61.218853
8357,8136 E 4TH AVE,Anchorage,AK,99504,"8136 E 4TH AVE, Anchorage, AK, 99504",Match,Exact,"8136 E 4TH AVE, ANCHORAGE, AK, 99504",190803256,R,02,020,000703,3006,-149.72916999999998,61.218853
8358,8124 E 4TH AVE,Anchorage,AK,99504,"8124 E 4TH AVE, Anchorage, AK, 99504",Match,Exact,"8124 E 4TH AVE, ANCHORAGE, AK, 99504",190803256,R,02,020,000703,3006,-149.72932,61.218853
8359,8112 E 4TH AVE,Anchorage,AK,99504,"8112 E 4TH AVE, Anchorage, AK, 99504",Match,Exact,"8112 E 4TH AVE, ANCHORAGE, AK, 99504",190803256,R,02,020,000703,3006,-149.72948,61.218853
8360,8100 E 4TH AVE,Anchorage,AK,99504,"8100 E 4TH AVE, Anchorage, AK, 99504",Match,Exact,"8100 E 4TH AVE, ANCHORAGE, AK, 99504",190803256,R,02,020,000703,3006,-149.72963000000001,61.218853
8361,8012 E 4TH AVE,Anchorage,AK,99504,"8012 E 4TH AVE, Anchorage, AK, 99504",Match,Exact,"8012 E 4TH AVE, ANCHORAGE, AK, 99504",190803256,R,02,020,000703,3006,-149.73078999999998,61.218853
8362,8012 E 4TH AVE,Anchorage,AK,99504,"8012 E 4TH AVE, Anchorage, AK, 99504",Match,Exact,"8012 E 4TH AVE, ANCHORAGE, AK, 99504",190803256,R,02,020,000703,3006,-149.73078999999998,61.218853
8363,5901 E 6TH AVE,Anchorage,AK,99504,"5901 E 6TH AVE, Anchorage, AK, 99504",Match,Exact,"5901 E 6TH AVE, ANCHORAGE, AK, 99504",190810852,L,02,020,000701,1000,-149.77061,61.216933999999995
8364,5901 E 6TH AVE,Anchorage,AK,99504,"5901 E 6TH AVE, Anchorage, AK, 99504",Match,Exact,"5901 E 6TH AVE, ANCHORAGE, AK, 99504",190810852,L,02,020,000701,1000,-149.77061,61.216933999999995
8365,5901 E 6TH AVE,Anchorage,AK,99504,"5901 E 6TH AVE, Anchorage, AK, 99504",Match,Exact,"5901 E 6TH AVE, ANCHORAGE, AK, 99504",190810852,L,02,020,000701,1000,-149.77061,61.216933999999995
8366,8026 E 4TH AVE,Anchorage,AK,99504,"8026 E 4TH AVE, Anchorage, AK, 99504",Match,Exact,"8026 E 4TH AVE, ANCHORAGE, AK, 99504",190803256,R,02,020,000703,3006,-149.7306,61.218853
8367,520 PEPPERTREE LOOP,Anchorage,AK,99504,"520 PEPPERTREE LOOP, Anchorage, AK, 99504",Match,Exact,"520 PEPPERTREE LOOP, ANCHORAGE, AK, 99504",190808602,R,02,020,000701,1000,-149.75986,61.21895
8368,5901 E 6TH AVE,Anchorage,AK,99504,"5901 E 6TH AVE, Anchorage, AK, 99504",Match,Exact,"5901 E 6TH AVE, ANCHORAGE, AK, 99504",190810852,L,02,020,000701,1000,-149.77061,61.216933999999995
8369,5901 E 6TH AVE,Anchorage,AK,99504,"5901 E 6TH AVE, Anchorage, AK, 99504",Match,Exact,"5901 E 6TH AVE, ANCHORAGE, AK, 99504",190810852,L,02,020,000701,1000,-149.77061,61.216933999999995
8370,5730 E 4TH AVE,Anchorage,AK,99504,"5730 E 4TH AVE, Anchorage, AK, 99504",Match,Exact,"5730 E 4TH AVE, ANCHORAGE, AK, 99504",190827503,R,02,020,000701,1010,-149.7742,61.218697
8371,5730 E 4TH AVE,Anchorage,AK,99504,"5730 E 4TH AVE, Anchorage, AK, 99504",Match,Exact,"5730 E 4TH AVE, ANCHORAGE, AK, 99504",190827503,R,02,020,000701,1010,-149.7742,61.218697
8372,5730 E 4TH AVE,Anchorage,AK,99504,"5730 E 4TH AVE, Anchorage, AK, 99504",Match,Exact,"5730 E 4TH AVE, ANCHORAGE, AK, 99504",190827503,R,02,020,000701,1010,-149.7742,61.218697
8373,5730 E 4TH AVE,Anchorage,AK,99504,"5730 E 4TH AVE, Anchorage, AK, 99504",Match,Exact,"5730 E 4TH AVE, ANCHORAGE, AK, 99504",190827503,R,02,020,000701,1010,-149.7742,61.218697
8374,5720 E 4TH AVE,Anchorage,AK,99504,"5720 E 4TH AVE, Anchorage, AK, 99504",Match,Exact,"5720 E 4TH AVE, ANCHORAGE, AK, 99504",190827503,R,02,020,000701,1010,-149.77438,61.218697
8375,5720 E 4TH AVE,Anchorage,AK,99504,"5720 E 4TH AVE, Anchorage, AK, 99504",Match,Exact,"5720 E 4TH AVE, ANCHORAGE, AK, 99504",190827503,R,02,020,000701,1010,-149.77438,61.218697
8376,5720 E 4TH AVE,Anchorage,AK,99504,"5720 E 4TH AVE, Anchorage, AK, 99504",Match,Exact,"5720 E 4TH AVE, ANCHORAGE, AK, 99504",190827503,R,02,020,000701,1010,-149.77438,61.218697
8377,5720 E 4TH AVE,Anchorage,AK,99504,"5720 E 4TH AVE, Anchorage, AK, 99504",Match,Exact,"5720 E 4TH AVE, ANCHORAGE, AK, 99504",190827503,R,02,020,000701,1010,-149.77438,61.218697
8378,5710 E 4TH AVE,Anchorage,AK,99504,"5710 E 4TH AVE, Anchorage, AK, 99504",Match,Exact,"5710 E 4TH AVE, ANCHORAGE, AK, 99504",190827503,R,02,020,000701,1010,-149.77456999999998,61.218697
8379,5710 E 4TH AVE,Anchorage,AK,99504,"5710 E 4TH AVE, Anchorage, AK, 99504",Match,Exact,"5710 E 4TH AVE, ANCHORAGE, AK, 99504",190827503,R,02,020,000701,1010,-149.77456999999998,61.218697
8380,8351 E 5TH AVE,Anchorage,AK,99504,"8351 E 5TH AVE, Anchorage, AK, 99504",Match,Exact,"8351 E 5TH AVE, ANCHORAGE, AK, 99504",190803323,L,02,020,000703,3013,-149.72447,61.217705
8381,5001 E 5TH AVE,Anchorage,AK,99508,"5001 E 5TH AVE, Anchorage, AK, 99508",Match,Exact,"5001 E 5TH AVE, ANCHORAGE, AK, 99508",190801754,L,02,020,000801,4006,-149.78807,61.217785
8382,4981 E 5TH AVE,Anchorage,AK,99508,"4981 E 5TH AVE, Anchorage, AK, 99508",Match,Exact,"4981 E 5TH AVE, ANCHORAGE, AK, 99508",190801754,L,02,020,000801,4006,-149.78835,61.217785
8383,4971 E 5TH AVE,Anchorage,AK,99508,"4971 E 5TH AVE, Anchorage, AK, 99508",Match,Exact,"4971 E 5TH AVE, ANCHORAGE, AK, 99508",190801754,L,02,020,000801,4006,-149.78848,61.217785
8384,5901 E 6TH AVE,Anchorage,AK,99504,"5901 E 6TH AVE, Anchorage, AK, 99504",Match,Exact,"5901 E 6TH AVE, ANCHORAGE, AK, 99504",190810852,L,02,020,000701,1000,-149.77061,61.216933999999995
8385,4961 E 5TH AVE,Anchorage,AK,99508,"4961 E 5TH AVE, Anchorage, AK, 99508",Match,Exact,"4961 E 5TH AVE, ANCHORAGE, AK, 99508",190801754,L,02,020,000801,4006,-149.78862,61.217785
8386,4951 E 5TH AVE,Anchorage,AK,99508,"4951 E 5TH AVE, Anchorage, AK, 99508",Match,Exact,"4951 E 5TH AVE, ANCHORAGE, AK, 99508",190801754,L,02,020,000801,4006,-149.78876,61.217785
8387,4941 E 5TH AVE,Anchorage,AK,99508,"4941 E 5TH AVE, Anchorage, AK, 99508",Match,Exact,"4941 E 5TH AVE, ANCHORAGE, AK, 99508",190801754,L,02,020,000801,4006,-149.7889,61.217785
8388,4931 E 5TH AVE,Anchorage,AK,99508,"4931 E 5TH AVE, Anchorage, AK, 99508",Match,Exact,"4931 E 5TH AVE, ANCHORAGE, AK, 99508",190801754,L,02,020,000801,4006,-149.78903,61.217785
8389,501 IDAHO ST,Anchorage,AK,99504,"501 IDAHO ST, Anchorage, AK, 99504",Match,Exact,"501 IDAHO ST, ANCHORAGE, AK, 99504",190802902,L,02,020,000702,2006,-149.73721,61.217842000000005
8390,501 IDAHO ST,Anchorage,AK,99504,"501 IDAHO ST, Anchorage, AK, 99504",Match,Exact,"501 IDAHO ST, ANCHORAGE, AK, 99504",190802902,L,02,020,000702,2006,-149.73721,61.217842000000005
8391,4921 E 5TH AVE,Anchorage,AK,99508,"4921 E 5TH AVE, Anchorage, AK, 99508",Match,Exact,"4921 E 5TH AVE, ANCHORAGE, AK, 99508",190801754,L,02,020,000801,4006,-149.78916999999998,61.217785
8392,5901 E 6TH AVE,Anchorage,AK,99504,"5901 E 6TH AVE, Anchorage, AK, 99504",Match,Exact,"5901 E 6TH AVE, ANCHORAGE, AK, 99504",190810852,L,02,020,000701,1000,-149.77061,61.216933999999995
8393,4809 E 5TH AVE,Anchorage,AK,99508,"4809 E 5TH AVE, Anchorage, AK, 99508",Match,Exact,"4809 E 5TH AVE, ANCHORAGE, AK, 99508",190801740,R,02,020,000801,4007,-149.79128,61.21779
8394,4829 E 5TH AVE,Anchorage,AK,99508,"4829 E 5TH AVE, Anchorage, AK, 99508",Match,Exact,"4829 E 5TH AVE, ANCHORAGE, AK, 99508",190801740,R,02,020,000801,4007,-149.79095,61.21779
8395,4819 E 5TH AVE,Anchorage,AK,99508,"4819 E 5TH AVE, Anchorage, AK, 99508",Match,Exact,"4819 E 5TH AVE, ANCHORAGE, AK, 99508",190801740,R,02,020,000801,4007,-149.7911,61.21779
8396,444 TURPIN ST,Anchorage,AK,99504,"444 TURPIN ST, Anchorage, AK, 99504",Match,Exact,"444 TURPIN ST, ANCHORAGE, AK, 99504",190802771,R,02,020,000701,2000,-149.75597,61.21827
8397,5901 E 6TH AVE,Anchorage,AK,99504,"5901 E 6TH AVE, Anchorage, AK, 99504",Match,Exact,"5901 E 6TH AVE, ANCHORAGE, AK, 99504",190810852,L,02,020,000701,1000,-149.77061,61.216933999999995
8398,510 CREEKSIDE ST,Anchorage,AK,99504,"510 CREEKSIDE ST, Anchorage, AK, 99504",Match,Exact,"510 CREEKSIDE ST, ANCHORAGE, AK, 99504",190802892,R,02,020,000702,2004,-149.741,61.217766000000005
8399,510 CREEKSIDE ST,Anchorage,AK,99504,"510 CREEKSIDE ST, Anchorage, AK, 99504",Match,Exact,"510 CREEKSIDE ST, ANCHORAGE, AK, 99504",190802892,R,02,020,000702,2004,-149.741,61.217766000000005
8400,511 PATSY ST,Anchorage,AK,99504,"511 PATSY ST, Anchorage, AK, 99504",Match,Exact,"511 PATSY ST, ANCHORAGE, AK, 99504",190810873,L,02,020,000702,2004,-149.74286,61.21845
8401,511 PATSY ST,Anchorage,AK,99504,"511 PATSY ST, Anchorage, AK, 99504",Match,Exact,"511 PATSY ST, ANCHORAGE, AK, 99504",190810873,L,02,020,000702,2004,-149.74286,61.21845
8402,5901 E 6TH AVE,Anchorage,AK,99504,"5901 E 6TH AVE, Anchorage, AK, 99504",Match,Exact,"5901 E 6TH AVE, ANCHORAGE, AK, 99504",190810852,L,02,020,000701,1000,-149.77061,61.216933999999995
8403,5901 E 6TH AVE,Anchorage,AK,99504,"5901 E 6TH AVE, Anchorage, AK, 99504",Match,Exact,"5901 E 6TH AVE, ANCHORAGE, AK, 99504",190810852,L,02,020,000701,1000,-149.77061,61.216933999999995
8404,5901 E 6TH AVE,Anchorage,AK,99504,"5901 E 6TH AVE, Anchorage, AK, 99504",Match,Exact,"5901 E 6TH AVE, ANCHORAGE, AK, 99504",190810852,L,02,020,000701,1000,-149.77061,61.216933999999995
8405,5901 E 6TH AVE,Anchorage,AK,99504,"5901 E 6TH AVE, Anchorage, AK, 99504",Match,Exact,"5901 E 6TH AVE, ANCHORAGE, AK, 99504",190810852,L,02,020,000701,1000,-149.77061,61.216933999999995
8406,5901 E 6TH AVE,Anchorage,AK,99504,"5901 E 6TH AVE, Anchorage, AK, 99504",Match,Exact,"5901 E 6TH AVE, ANCHORAGE, AK, 99504",190810852,L,02,020,000701,1000,-149.77061,61.216933999999995
8407,250 PEPPERTREE LOOP,Anchorage,AK,99504,"250 PEPPERTREE LOOP, Anchorage, AK, 99504",Match,Exact,"250 PEPPERTREE LOOP, ANCHORAGE, AK, 99504",190826164,R,02,020,000701,1000,-149.76157,61.220158
8408,240 PEPPERTREE LOOP,Anchorage,AK,99504,"240 PEPPERTREE LOOP, Anchorage, AK, 99504",Match,Exact,"240 PEPPERTREE LOOP, ANCHORAGE, AK, 99504",190826164,R,02,020,000701,1000,-149.7613,61.220154
8409,317 MULDOON RD,Anchorage,AK,99504,"317 MULDOON RD, Anchorage, AK, 99504",Match,Exact,"317 MULDOON RD, ANCHORAGE, AK, 99504",190803214,L,02,020,000703,3004,-149.73349,61.22015
8410,321 PAMELA PL,Anchorage,AK,99504,"321 PAMELA PL, Anchorage, AK, 99504",Match,Exact,"321 PAMELA PL, ANCHORAGE, AK, 99504",190802889,L,02,020,000702,2002,-149.74206999999998,61.220425
8411,230 PEPPERTREE LOOP,Anchorage,AK,99504,"230 PEPPERTREE LOOP, Anchorage, AK, 99504",Match,Exact,"230 PEPPERTREE LOOP, ANCHORAGE, AK, 99504",190826164,R,02,020,000701,1000,-149.76103,61.220154
8412,8212 E 2ND AVE,Anchorage,AK,99504,"8212 E 2ND AVE, Anchorage, AK, 99504",Match,Exact,"8212 E 2ND AVE, ANCHORAGE, AK, 99504",190807393,R,02,020,000703,3005,-149.72818,61.220222
8413,8212 E 2ND AVE,Anchorage,AK,99504,"8212 E 2ND AVE, Anchorage, AK, 99504",Match,Exact,"8212 E 2ND AVE, ANCHORAGE, AK, 99504",190807393,R,02,020,000703,3005,-149.72818,61.220222
8414,8212 E 2ND AVE,Anchorage,AK,99504,"8212 E 2ND AVE, Anchorage, AK, 99504",Match,Exact,"8212 E 2ND AVE, ANCHORAGE, AK, 99504",190807393,R,02,020,000703,3005,-149.72818,61.220222
8415,8200 E 2ND AVE,Anchorage,AK,99504,"8200 E 2ND AVE, Anchorage, AK, 99504",Match,Exact,"8200 E 2ND AVE, ANCHORAGE, AK, 99504",190807393,R,02,020,000703,3005,-149.72835,61.22022
8416,8148 E 2ND AVE,Anchorage,AK,99504,"8148 E 2ND AVE, Anchorage, AK, 99504",Match,Exact,"8148 E 2ND AVE, ANCHORAGE, AK, 99504",190807393,R,02,020,000703,3005,-149.72902,61.22022
8417,442 CAMELOT DR,Anchorage,AK,99508,"442 CAMELOT DR, Anchorage, AK, 99508",Match,Exact,"442 CAMELOT DR, ANCHORAGE, AK, 99508",190801980,R,02,020,000801,4001,-149.78152,61.218815
8418,5901 E 6TH AVE,Anchorage,AK,99504,"5901 E 6TH AVE, Anchorage, AK, 99504",Match,Exact,"5901 E 6TH AVE, ANCHORAGE, AK, 99504",190810852,L,02,020,000701,1000,-149.77061,61.216933999999995
8419,5901 E 6TH AVE,Anchorage,AK,99504,"5901 E 6TH AVE, Anchorage, AK, 99504",Match,Exact,"5901 E 6TH AVE, ANCHORAGE, AK, 99504",190810852,L,02,020,000701,1000,-149.77061,61.216933999999995
8420,5901 E 6TH AVE,Anchorage,AK,99504,"5901 E 6TH AVE, Anchorage, AK, 99504",Match,Exact,"5901 E 6TH AVE, ANCHORAGE, AK, 99504",190810852,L,02,020,000701,1000,-149.77061,61.216933999999995
8421,365 EKLUTNA ST,Anchorage,AK,99504,"365 EKLUTNA ST, Anchorage, AK, 99504",Match,Exact,"365 EKLUTNA ST, ANCHORAGE, AK, 99504",190803261,L,02,020,000703,3001,-149.72418000000002,61.22002
8422,300 BEULAH CIR,Anchorage,AK,99504,"300 BEULAH CIR, Anchorage, AK, 99504",Match,Exact,"300 BEULAH CIR, ANCHORAGE, AK, 99504",190808931,L,02,020,000702,2002,-149.7401,61.219134999999994
8423,300 BEULAH CIR,Anchorage,AK,99504,"300 BEULAH CIR, Anchorage, AK, 99504",Match,Exact,"300 BEULAH CIR, ANCHORAGE, AK, 99504",190808931,L,02,020,000702,2002,-149.7401,61.219134999999994
8424,300 BEULAH CIR,Anchorage,AK,99504,"300 BEULAH CIR, Anchorage, AK, 99504",Match,Exact,"300 BEULAH CIR, ANCHORAGE, AK, 99504",190808931,L,02,020,000702,2002,-149.7401,61.219134999999994
8425,5901 E 6TH AVE,Anchorage,AK,99504,"5901 E 6TH AVE, Anchorage, AK, 99504",Match,Exact,"5901 E 6TH AVE, ANCHORAGE, AK, 99504",190810852,L,02,020,000701,1000,-149.77061,61.216933999999995
8426,6410 PEPPERTREE CIR,Anchorage,AK,99504,"6410 PEPPERTREE CIR, Anchorage, AK, 99504",Match,Exact,"6410 PEPPERTREE CIR, ANCHORAGE, AK, 99504",190808603,L,02,020,000701,1008,-149.76073,61.21923
8427,301 BEULAH CIR,Anchorage,AK,99504,"301 BEULAH CIR, Anchorage, AK, 99504",Match,Exact,"301 BEULAH CIR, ANCHORAGE, AK, 99504",190808931,R,02,020,000702,2002,-149.74007,61.219134999999994
8428,301 BEULAH CIR,Anchorage,AK,99504,"301 BEULAH CIR, Anchorage, AK, 99504",Match,Exact,"301 BEULAH CIR, ANCHORAGE, AK, 99504",190808931,R,02,020,000702,2002,-149.74007,61.219134999999994
8429,301 BEULAH CIR,Anchorage,AK,99504,"301 BEULAH CIR, Anchorage, AK, 99504",Match,Exact,"301 BEULAH CIR, ANCHORAGE, AK, 99504",190808931,R,02,020,000702,2002,-149.74007,61.219134999999994
8430,351 TURPIN ST,Anchorage,AK,99504,"351 TURPIN ST, Anchorage, AK, 99504",Match,Exact,"351 TURPIN ST, ANCHORAGE, AK, 99504",190802770,L,02,020,000702,3006,-149.75595,61.219627
8431,369 PAULINE ST,Anchorage,AK,99504,"369 PAULINE ST, Anchorage, AK, 99504",Match,Exact,"369 PAULINE ST, ANCHORAGE, AK, 99504",190803255,L,02,020,000703,3002,-149.7267,61.219273
8432,371 BOLIN ST,Anchorage,AK,99504,"371 BOLIN ST, Anchorage, AK, 99504",Match,Exact,"371 BOLIN ST, ANCHORAGE, AK, 99504",190803336,L,02,020,000703,3000,-149.7194,61.219680000000004
8433,371 BOLIN ST,Anchorage,AK,99504,"371 BOLIN ST, Anchorage, AK, 99504",Match,Exact,"371 BOLIN ST, ANCHORAGE, AK, 99504",190803336,L,02,020,000703,3000,-149.7194,61.219680000000004
8434,371 BOLIN ST,Anchorage,AK,99504,"371 BOLIN ST, Anchorage, AK, 99504",Match,Exact,"371 BOLIN ST, ANCHORAGE, AK, 99504",190803336,L,02,020,000703,3000,-149.7194,61.219680000000004
8435,5444 LANCELOT CIR,Anchorage,AK,99508,"5444 LANCELOT CIR, Anchorage, AK, 99508",Match,Exact,"5444 LANCELOT CIR, ANCHORAGE, AK, 99508",190801983,R,02,020,000801,4000,-149.78067,61.219425
8436,5444 LANCELOT CIR,Anchorage,AK,99508,"5444 LANCELOT CIR, Anchorage, AK, 99508",Match,Exact,"5444 LANCELOT CIR, ANCHORAGE, AK, 99508",190801983,R,02,020,000801,4000,-149.78067,61.219425
8437,5444 LANCELOT CIR,Anchorage,AK,99508,"5444 LANCELOT CIR, Anchorage, AK, 99508",Match,Exact,"5444 LANCELOT CIR, ANCHORAGE, AK, 99508",190801983,R,02,020,000801,4000,-149.78067,61.219425
8438,5444 LANCELOT CIR,Anchorage,AK,99508,"5444 LANCELOT CIR, Anchorage, AK, 99508",Match,Exact,"5444 LANCELOT CIR, ANCHORAGE, AK, 99508",190801983,R,02,020,000801,4000,-149.78067,61.219425
8439,5444 LANCELOT CIR,Anchorage,AK,99508,"5444 LANCELOT CIR, Anchorage, AK, 99508",Match,Exact,"5444 LANCELOT CIR, ANCHORAGE, AK, 99508",190801983,R,02,020,000801,4000,-149.78067,61.219425
8440,5444 LANCELOT CIR,Anchorage,AK,99508,"5444 LANCELOT CIR, Anchorage, AK, 99508",Match,Exact,"5444 LANCELOT CIR, ANCHORAGE, AK, 99508",190801983,R,02,020,000801,4000,-149.78067,61.219425
8441,4800 KLONDIKE AVE,Anchorage,AK,99508,"4800 KLONDIKE AVE, Anchorage, AK, 99508",Match,Exact,"4800 KLONDIKE AVE, ANCHORAGE, AK, 99508",625048675,R,02,020,000801,4007,-149.79135,61.2192
8442,4770 KLONDIKE AVE,Anchorage,AK,99508,"4770 KLONDIKE AVE, Anchorage, AK, 99508",Match,Exact,"4770 KLONDIKE AVE, ANCHORAGE, AK, 99508",625048675,R,02,020,000801,4007,-149.7918,61.2192
8443,4770 KLONDIKE AVE,Anchorage,AK,99508,"4770 KLONDIKE AVE, Anchorage, AK, 99508",Match,Exact,"4770 KLONDIKE AVE, ANCHORAGE, AK, 99508",625048675,R,02,020,000801,4007,-149.7918,61.2192
8444,4744 KLONDIKE AVE,Anchorage,AK,99508,"4744 KLONDIKE AVE, Anchorage, AK, 99508",Match,Exact,"4744 KLONDIKE AVE, ANCHORAGE, AK, 99508",625048675,R,02,020,000801,4007,-149.79218,61.2192
8445,4700 KLONDIKE AVE,Anchorage,AK,99508,"4700 KLONDIKE AVE, Anchorage, AK, 99508",Match,Exact,"4700 KLONDIKE AVE, ANCHORAGE, AK, 99508",625048674,R,02,020,000801,4007,-149.79332,61.2192
8446,410 FREDRICKS DR,Anchorage,AK,99504,"410 FREDRICKS DR, Anchorage, AK, 99504",Match,Non_Exact,"410 FREDERICKS DR, ANCHORAGE, AK, 99504",190816143,R,02,020,000702,3009,-149.75107,61.217537
8447,348 KRANE DR,Anchorage,AK,99504,"348 KRANE DR, Anchorage, AK, 99504",Match,Exact,"348 KRANE DR, ANCHORAGE, AK, 99504",605167555,L,02,020,000701,2001,-149.7571,61.219806999999996
8448,6451 PEPPERTREE CIR,Anchorage,AK,99504,"6451 PEPPERTREE CIR, Anchorage, AK, 99504",Match,Exact,"6451 PEPPERTREE CIR, ANCHORAGE, AK, 99504",190808603,R,02,020,000701,1008,-149.76044,61.219069999999995
8449,325 KRANE DR,Anchorage,AK,99504,"325 KRANE DR, Anchorage, AK, 99504",Match,Exact,"325 KRANE DR, ANCHORAGE, AK, 99504",605167555,R,02,020,000701,2000,-149.75708,61.22011
8450,370 PEPPERTREE LOOP,Anchorage,AK,99504,"370 PEPPERTREE LOOP, Anchorage, AK, 99504",Match,Exact,"370 PEPPERTREE LOOP, ANCHORAGE, AK, 99504",190826164,R,02,020,000701,1000,-149.76265,61.219134999999994
8451,374 STATE ST,Anchorage,AK,99504,"374 STATE ST, Anchorage, AK, 99504",Match,Exact,"374 STATE ST, ANCHORAGE, AK, 99504",190803229,R,02,020,000703,3008,-149.73131999999998,61.219177
8452,374 STATE ST,Anchorage,AK,99504,"374 STATE ST, Anchorage, AK, 99504",Match,Exact,"374 STATE ST, ANCHORAGE, AK, 99504",190803229,R,02,020,000703,3008,-149.73131999999998,61.219177
8453,462 CAMELOT DR,Anchorage,AK,99508,"462 CAMELOT DR, Anchorage, AK, 99508",Match,Exact,"462 CAMELOT DR, ANCHORAGE, AK, 99508",190801980,R,02,020,000801,4001,-149.78152,61.219013000000004
8454,462 CAMELOT DR,Anchorage,AK,99508,"462 CAMELOT DR, Anchorage, AK, 99508",Match,Exact,"462 CAMELOT DR, ANCHORAGE, AK, 99508",190801980,R,02,020,000801,4001,-149.78152,61.219013000000004
8455,410 PATTERSON ST,Anchorage,AK,99504,"410 PATTERSON ST, Anchorage, AK, 99504",Match,Exact,"410 PATTERSON ST, ANCHORAGE, AK, 99504",190802869,R,02,020,000702,3007,-149.7485,61.219463
8456,410 CHERRY ST,Anchorage,AK,99504,"410 CHERRY ST, Anchorage, AK, 99504",Match,Exact,"410 CHERRY ST, ANCHORAGE, AK, 99504",190803319,R,02,020,000703,3012,-149.72224,61.218697
8457,363 PEPPERTREE LOOP,Anchorage,AK,99504,"363 PEPPERTREE LOOP, Anchorage, AK, 99504",Match,Exact,"363 PEPPERTREE LOOP, ANCHORAGE, AK, 99504",190826164,L,02,020,000701,1008,-149.76263,61.21924
8458,6450 PEPPERTREE CIR,Anchorage,AK,99504,"6450 PEPPERTREE CIR, Anchorage, AK, 99504",Match,Exact,"6450 PEPPERTREE CIR, ANCHORAGE, AK, 99504",190808603,L,02,020,000701,1008,-149.76045,61.219063
8459,327 KRANE DR,Anchorage,AK,99504,"327 KRANE DR, Anchorage, AK, 99504",Match,Exact,"327 KRANE DR, ANCHORAGE, AK, 99504",605167555,R,02,020,000701,2000,-149.75708,61.220085
8460,8223 E 5TH AVE,Anchorage,AK,99504,"8223 E 5TH AVE, Anchorage, AK, 99504",Match,Exact,"8223 E 5TH AVE, ANCHORAGE, AK, 99504",190803263,L,02,020,000703,3002,-149.72662,61.21808000000001
8461,8223 E 5TH AVE,Anchorage,AK,99504,"8223 E 5TH AVE, Anchorage, AK, 99504",Match,Exact,"8223 E 5TH AVE, ANCHORAGE, AK, 99504",190803263,L,02,020,000703,3002,-149.72662,61.21808000000001
8462,430 CAPRICORN CIR,Anchorage,AK,99508,"430 CAPRICORN CIR, Anchorage, AK, 99508",Match,Exact,"430 CAPRICORN CIR, ANCHORAGE, AK, 99508",614862499,R,02,020,000801,4006,-149.78322,61.218419999999995
8463,8213 E 5TH AVE,Anchorage,AK,99504,"8213 E 5TH AVE, Anchorage, AK, 99504",Match,Exact,"8213 E 5TH AVE, ANCHORAGE, AK, 99504",190803232,L,02,020,000703,3006,-149.72711,61.21808000000001
8464,8207 E 5TH AVE,Anchorage,AK,99504,"8207 E 5TH AVE, Anchorage, AK, 99504",Match,Exact,"8207 E 5TH AVE, ANCHORAGE, AK, 99504",190803232,L,02,020,000703,3006,-149.72722,61.21808000000001
8465,8149 E 5TH AVE,Anchorage,AK,99504,"8149 E 5TH AVE, Anchorage, AK, 99504",Match,Exact,"8149 E 5TH AVE, ANCHORAGE, AK, 99504",190803232,L,02,020,000703,3006,-149.72827,61.21808000000001
8466,8137 E 5TH AVE,Anchorage,AK,99504,"8137 E 5TH AVE, Anchorage, AK, 99504",Match,Exact,"8137 E 5TH AVE, ANCHORAGE, AK, 99504",190803232,L,02,020,000703,3006,-149.72849,61.21808000000001
8467,8125 E 5TH AVE,Anchorage,AK,99504,"8125 E 5TH AVE, Anchorage, AK, 99504",Match,Exact,"8125 E 5TH AVE, ANCHORAGE, AK, 99504",190803232,L,02,020,000703,3006,-149.7287,61.21808000000001
8468,8025 E 5TH AVE,Anchorage,AK,99504,"8025 E 5TH AVE, Anchorage, AK, 99504",Match,Exact,"8025 E 5TH AVE, ANCHORAGE, AK, 99504",190803232,L,02,020,000703,3006,-149.7305,61.21808000000001
8469,8115 E 5TH AVE,Anchorage,AK,99504,"8115 E 5TH AVE, Anchorage, AK, 99504",Match,Exact,"8115 E 5TH AVE, ANCHORAGE, AK, 99504",190803232,L,02,020,000703,3006,-149.72888,61.21808000000001
8470,8101 E 5TH AVE,Anchorage,AK,99504,"8101 E 5TH AVE, Anchorage, AK, 99504",Match,Exact,"8101 E 5TH AVE, ANCHORAGE, AK, 99504",190803232,L,02,020,000703,3006,-149.72913,61.21808000000001
8471,8101 E 5TH AVE,Anchorage,AK,99504,"8101 E 5TH AVE, Anchorage, AK, 99504",Match,Exact,"8101 E 5TH AVE, ANCHORAGE, AK, 99504",190803232,L,02,020,000703,3006,-149.72913,61.21808000000001
8472,422 TURPIN ST,Anchorage,AK,99504,"422 TURPIN ST, Anchorage, AK, 99504",Match,Exact,"422 TURPIN ST, ANCHORAGE, AK, 99504",190802771,R,02,020,000701,2000,-149.75597,61.21844
8473,422 TURPIN ST,Anchorage,AK,99504,"422 TURPIN ST, Anchorage, AK, 99504",Match,Exact,"422 TURPIN ST, ANCHORAGE, AK, 99504",190802771,R,02,020,000701,2000,-149.75597,61.21844
8474,8013 E 5TH AVE,Anchorage,AK,99504,"8013 E 5TH AVE, Anchorage, AK, 99504",Match,Exact,"8013 E 5TH AVE, ANCHORAGE, AK, 99504",190803232,L,02,020,000703,3006,-149.73071000000002,61.21808000000001
8475,8001 E 5TH AVE,Anchorage,AK,99504,"8001 E 5TH AVE, Anchorage, AK, 99504",Match,Exact,"8001 E 5TH AVE, ANCHORAGE, AK, 99504",190803232,L,02,020,000703,3006,-149.73094,61.21808000000001
8476,423 KENNY PL,Anchorage,AK,99504,"423 KENNY PL, Anchorage, AK, 99504",Match,Exact,"423 KENNY PL, ANCHORAGE, AK, 99504",190803213,L,02,020,000702,2006,-149.73543999999998,61.218509999999995
8477,434 TURPIN ST,Anchorage,AK,99504,"434 TURPIN ST, Anchorage, AK, 99504",Match,Exact,"434 TURPIN ST, ANCHORAGE, AK, 99504",190802771,R,02,020,000701,2000,-149.75597,61.218346
8478,434 TURPIN ST,Anchorage,AK,99504,"434 TURPIN ST, Anchorage, AK, 99504",Match,Exact,"434 TURPIN ST, ANCHORAGE, AK, 99504",190802771,R,02,020,000701,2000,-149.75597,61.218346
8479,434 TURPIN ST,Anchorage,AK,99504,"434 TURPIN ST, Anchorage, AK, 99504",Match,Exact,"434 TURPIN ST, ANCHORAGE, AK, 99504",190802771,R,02,020,000701,2000,-149.75597,61.218346
8480,481 CAPRICORN CIR,Anchorage,AK,99508,"481 CAPRICORN CIR, Anchorage, AK, 99508",Match,Exact,"481 CAPRICORN CIR, ANCHORAGE, AK, 99508",614862499,L,02,020,000801,4006,-149.7832,61.21828000000001
8481,5616 ALORA LOOP,Anchorage,AK,99504,"5616 ALORA LOOP, Anchorage, AK, 99504",Match,Exact,"5616 ALORA LOOP, ANCHORAGE, AK, 99504",190827504,R,02,020,000701,1010,-149.77597,61.21807
8482,5614 ALORA LOOP,Anchorage,AK,99504,"5614 ALORA LOOP, Anchorage, AK, 99504",Match,Exact,"5614 ALORA LOOP, ANCHORAGE, AK, 99504",190827504,R,02,020,000701,1010,-149.77602,61.21807
8483,5604 ALORA LOOP,Anchorage,AK,99504,"5604 ALORA LOOP, Anchorage, AK, 99504",Match,Exact,"5604 ALORA LOOP, ANCHORAGE, AK, 99504",190827504,R,02,020,000701,1010,-149.77621000000002,61.21807
8484,5606 ALORA LOOP,Anchorage,AK,99504,"5606 ALORA LOOP, Anchorage, AK, 99504",Match,Exact,"5606 ALORA LOOP, ANCHORAGE, AK, 99504",190827504,R,02,020,000701,1010,-149.77618,61.21807
8485,5562 ALORA LOOP,Anchorage,AK,99504,"5562 ALORA LOOP, Anchorage, AK, 99504",Match,Exact,"5562 ALORA LOOP, ANCHORAGE, AK, 99504",190827504,R,02,020,000701,1010,-149.77707,61.218067000000005
8486,5560 ALORA LOOP,Anchorage,AK,99504,"5560 ALORA LOOP, Anchorage, AK, 99504",Match,Exact,"5560 ALORA LOOP, ANCHORAGE, AK, 99504",190827504,R,02,020,000701,1010,-149.77711000000002,61.218067000000005
8487,5460 NEW SMYRNA CIR,Anchorage,AK,99508,"5460 NEW SMYRNA CIR, Anchorage, AK, 99508",Match,Exact,"5460 NEW SMYRNA CIR, ANCHORAGE, AK, 99508",614862496,R,02,020,000801,4006,-149.77993999999998,61.218063
8488,5572 ALORA LOOP,Anchorage,AK,99504,"5572 ALORA LOOP, Anchorage, AK, 99504",Match,Exact,"5572 ALORA LOOP, ANCHORAGE, AK, 99504",190827504,R,02,020,000701,1010,-149.77687,61.21807
8489,5552 ALORA LOOP,Anchorage,AK,99504,"5552 ALORA LOOP, Anchorage, AK, 99504",Match,Exact,"5552 ALORA LOOP, ANCHORAGE, AK, 99504",190827504,R,02,020,000701,1010,-149.77728000000002,61.21807
8490,5550 ALORA LOOP,Anchorage,AK,99504,"5550 ALORA LOOP, Anchorage, AK, 99504",Match,Exact,"5550 ALORA LOOP, ANCHORAGE, AK, 99504",190827504,R,02,020,000701,1010,-149.77731,61.218075
8491,480 CAPRICORN CIR,Anchorage,AK,99508,"480 CAPRICORN CIR, Anchorage, AK, 99508",Match,Exact,"480 CAPRICORN CIR, ANCHORAGE, AK, 99508",614862499,R,02,020,000801,4006,-149.78322,61.218272999999996
8492,5570 ALORA LOOP,Anchorage,AK,99504,"5570 ALORA LOOP, Anchorage, AK, 99504",Match,Exact,"5570 ALORA LOOP, ANCHORAGE, AK, 99504",190827504,R,02,020,000701,1010,-149.77692,61.218067000000005
8493,446 IDAHO ST,Anchorage,AK,99504,"446 IDAHO ST, Anchorage, AK, 99504",Match,Exact,"446 IDAHO ST, ANCHORAGE, AK, 99504",190802902,R,02,020,000702,2005,-149.73723999999999,61.218258
8494,490 CAPRICORN CIR,Anchorage,AK,99508,"490 CAPRICORN CIR, Anchorage, AK, 99508",Match,Exact,"490 CAPRICORN CIR, ANCHORAGE, AK, 99508",614862499,R,02,020,000801,4006,-149.78322,61.21824300000001
8495,421 DONNA DR,Anchorage,AK,99504,"421 DONNA DR, Anchorage, AK, 99504",Match,Exact,"421 DONNA DR, ANCHORAGE, AK, 99504",190802765,R,02,020,000701,2000,-149.7589,61.21799
8496,480 SCORPIO CIR,Anchorage,AK,99508,"480 SCORPIO CIR, Anchorage, AK, 99508",Match,Exact,"480 SCORPIO CIR, ANCHORAGE, AK, 99508",614862349,L,02,020,000801,4006,-149.786,61.217934
8497,441 CREEKSIDE ST,Anchorage,AK,99504,"441 CREEKSIDE ST, Anchorage, AK, 99504",Match,Exact,"441 CREEKSIDE ST, ANCHORAGE, AK, 99504",190802892,L,02,020,000702,2005,-149.74097,61.2183
8498,441 CREEKSIDE ST,Anchorage,AK,99504,"441 CREEKSIDE ST, Anchorage, AK, 99504",Match,Exact,"441 CREEKSIDE ST, ANCHORAGE, AK, 99504",190802892,L,02,020,000702,2005,-149.74097,61.2183
8499,481 SCORPIO CIR,Anchorage,AK,99508,"481 SCORPIO CIR, Anchorage, AK, 99508",Match,Exact,"481 SCORPIO CIR, ANCHORAGE, AK, 99508",614862349,R,02,020,000801,4006,-149.78603,61.21796
8500,491 SCORPIO CIR,Anchorage,AK,99508,"491 SCORPIO CIR, Anchorage, AK, 99508",Match,Exact,"491 SCORPIO CIR, ANCHORAGE, AK, 99508",614862349,R,02,020,000801,4006,-149.78603,61.217884
8501,490 SCORPIO CIR,Anchorage,AK,99508,"490 SCORPIO CIR, Anchorage, AK, 99508",Match,Exact,"490 SCORPIO CIR, ANCHORAGE, AK, 99508",614862349,L,02,020,000801,4006,-149.786,61.217873
8502,491 CAPRICORN CIR,Anchorage,AK,99508,"491 CAPRICORN CIR, Anchorage, AK, 99508",Match,Exact,"491 CAPRICORN CIR, ANCHORAGE, AK, 99508",614862499,L,02,020,000801,4006,-149.7832,61.21824599999999
8503,425 KENNY PL,Anchorage,AK,99504,"425 KENNY PL, Anchorage, AK, 99504",Match,Exact,"425 KENNY PL, ANCHORAGE, AK, 99504",190803213,L,02,020,000702,2006,-149.73543999999998,61.21849399999999
8504,424 KENNY PL,Anchorage,AK,99504,"424 KENNY PL, Anchorage, AK, 99504",Match,Exact,"424 KENNY PL, ANCHORAGE, AK, 99504",190803213,R,02,020,000702,2006,-149.73546000000002,61.21849399999999
8505,531 BITTERROOT CIR,Anchorage,AK,99504,"531 BITTERROOT CIR, Anchorage, AK, 99504",Match,Exact,"531 BITTERROOT CIR, ANCHORAGE, AK, 99504",190801992,R,02,020,000701,1010,-149.7754,61.217240000000004
8506,531 BITTERROOT CIR,Anchorage,AK,99504,"531 BITTERROOT CIR, Anchorage, AK, 99504",Match,Exact,"531 BITTERROOT CIR, ANCHORAGE, AK, 99504",190801992,R,02,020,000701,1010,-149.7754,61.217240000000004
8507,530 SAN JUAN CIR,Anchorage,AK,99504,"530 SAN JUAN CIR, Anchorage, AK, 99504",Match,Exact,"530 SAN JUAN CIR, ANCHORAGE, AK, 99504",190801991,L,02,020,000701,1010,-149.7772,61.217240000000004
8508,530 SAN JUAN CIR,Anchorage,AK,99504,"530 SAN JUAN CIR, Anchorage, AK, 99504",Match,Exact,"530 SAN JUAN CIR, ANCHORAGE, AK, 99504",190801991,L,02,020,000701,1010,-149.7772,61.217240000000004
8509,551 IZEMBEK CIR,Anchorage,AK,99508,"551 IZEMBEK CIR, Anchorage, AK, 99508",Match,Exact,"551 IZEMBEK CIR, ANCHORAGE, AK, 99508",190801976,R,02,020,000801,4006,-149.78319,61.217144
8510,540 CARIN PL,Anchorage,AK,99504,"540 CARIN PL, Anchorage, AK, 99504",Match,Exact,"540 CARIN PL, ANCHORAGE, AK, 99504",190808933,L,02,020,000702,2006,-149.73453999999998,61.21723000000001
8511,5901 E 6TH AVE,Anchorage,AK,99504,"5901 E 6TH AVE, Anchorage, AK, 99504",Match,Exact,"5901 E 6TH AVE, ANCHORAGE, AK, 99504",190810852,L,02,020,000701,1000,-149.77061,61.216933999999995
8512,5901 E 6TH AVE,Anchorage,AK,99504,"5901 E 6TH AVE, Anchorage, AK, 99504",Match,Exact,"5901 E 6TH AVE, ANCHORAGE, AK, 99504",190810852,L,02,020,000701,1000,-149.77061,61.216933999999995
8513,5901 E 6TH AVE,Anchorage,AK,99504,"5901 E 6TH AVE, Anchorage, AK, 99504",Match,Exact,"5901 E 6TH AVE, ANCHORAGE, AK, 99504",190810852,L,02,020,000701,1000,-149.77061,61.216933999999995
8514,501 CREEKSIDE ST,Anchorage,AK,99504,"501 CREEKSIDE ST, Anchorage, AK, 99504",Match,Exact,"501 CREEKSIDE ST, ANCHORAGE, AK, 99504",190802892,L,02,020,000702,2005,-149.74097,61.217842000000005
8515,501 CREEKSIDE ST,Anchorage,AK,99504,"501 CREEKSIDE ST, Anchorage, AK, 99504",Match,Exact,"501 CREEKSIDE ST, ANCHORAGE, AK, 99504",190802892,L,02,020,000702,2005,-149.74097,61.217842000000005
8516,5901 E 6TH AVE,Anchorage,AK,99504,"5901 E 6TH AVE, Anchorage, AK, 99504",Match,Exact,"5901 E 6TH AVE, ANCHORAGE, AK, 99504",190810852,L,02,020,000701,1000,-149.77061,61.216933999999995
8517,5901 E 6TH AVE,Anchorage,AK,99504,"5901 E 6TH AVE, Anchorage, AK, 99504",Match,Exact,"5901 E 6TH AVE, ANCHORAGE, AK, 99504",190810852,L,02,020,000701,1000,-149.77061,61.216933999999995
8518,500 PATSY ST,Anchorage,AK,99504,"500 PATSY ST, Anchorage, AK, 99504",Match,Exact,"500 PATSY ST, ANCHORAGE, AK, 99504",190810873,R,02,020,000702,2003,-149.74286999999998,61.21784
8519,5453 CAMELOT DR,Anchorage,AK,99508,"5453 CAMELOT DR, Anchorage, AK, 99508",Match,Exact,"5453 CAMELOT DR, ANCHORAGE, AK, 99508",190801978,L,02,020,000801,3008,-149.77965,61.220352
8520,5443 CAMELOT DR,Anchorage,AK,99508,"5443 CAMELOT DR, Anchorage, AK, 99508",Match,Exact,"5443 CAMELOT DR, ANCHORAGE, AK, 99508",190801978,L,02,020,000801,3008,-149.77986,61.220352
8521,5443 CAMELOT DR,Anchorage,AK,99508,"5443 CAMELOT DR, Anchorage, AK, 99508",Match,Exact,"5443 CAMELOT DR, ANCHORAGE, AK, 99508",190801978,L,02,020,000801,3008,-149.77986,61.220352
8522,5441 CAMELOT DR,Anchorage,AK,99508,"5441 CAMELOT DR, Anchorage, AK, 99508",Match,Exact,"5441 CAMELOT DR, ANCHORAGE, AK, 99508",190801978,L,02,020,000801,3008,-149.7799,61.220352
8523,5441 CAMELOT DR,Anchorage,AK,99508,"5441 CAMELOT DR, Anchorage, AK, 99508",Match,Exact,"5441 CAMELOT DR, ANCHORAGE, AK, 99508",190801978,L,02,020,000801,3008,-149.7799,61.220352
8524,5901 E 6TH AVE,Anchorage,AK,99504,"5901 E 6TH AVE, Anchorage, AK, 99504",Match,Exact,"5901 E 6TH AVE, ANCHORAGE, AK, 99504",190810852,L,02,020,000701,1000,-149.77061,61.216933999999995
8525,5901 E 6TH AVE,Anchorage,AK,99504,"5901 E 6TH AVE, Anchorage, AK, 99504",Match,Exact,"5901 E 6TH AVE, ANCHORAGE, AK, 99504",190810852,L,02,020,000701,1000,-149.77061,61.216933999999995
8526,5901 E 6TH AVE,Anchorage,AK,99504,"5901 E 6TH AVE, Anchorage, AK, 99504",Match,Exact,"5901 E 6TH AVE, ANCHORAGE, AK, 99504",190810852,L,02,020,000701,1000,-149.77061,61.216933999999995
8527,5431 CAMELOT DR,Anchorage,AK,99508,"5431 CAMELOT DR, Anchorage, AK, 99508",Match,Exact,"5431 CAMELOT DR, ANCHORAGE, AK, 99508",190801978,L,02,020,000801,3008,-149.78014,61.220337
8528,5901 E 6TH AVE,Anchorage,AK,99504,"5901 E 6TH AVE, Anchorage, AK, 99504",Match,Exact,"5901 E 6TH AVE, ANCHORAGE, AK, 99504",190810852,L,02,020,000701,1000,-149.77061,61.216933999999995
8529,5901 E 6TH AVE,Anchorage,AK,99504,"5901 E 6TH AVE, Anchorage, AK, 99504",Match,Exact,"5901 E 6TH AVE, ANCHORAGE, AK, 99504",190810852,L,02,020,000701,1000,-149.77061,61.216933999999995
8530,5901 E 6TH AVE,Anchorage,AK,99504,"5901 E 6TH AVE, Anchorage, AK, 99504",Match,Exact,"5901 E 6TH AVE, ANCHORAGE, AK, 99504",190810852,L,02,020,000701,1000,-149.77061,61.216933999999995
8531,5901 E 6TH AVE,Anchorage,AK,99504,"5901 E 6TH AVE, Anchorage, AK, 99504",Match,Exact,"5901 E 6TH AVE, ANCHORAGE, AK, 99504",190810852,L,02,020,000701,1000,-149.77061,61.216933999999995
8532,5429 CAMELOT DR,Anchorage,AK,99508,"5429 CAMELOT DR, Anchorage, AK, 99508",Match,Exact,"5429 CAMELOT DR, ANCHORAGE, AK, 99508",190801978,L,02,020,000801,3008,-149.78018,61.220333
8533,5901 E 6TH AVE,Anchorage,AK,99504,"5901 E 6TH AVE, Anchorage, AK, 99504",Match,Exact,"5901 E 6TH AVE, ANCHORAGE, AK, 99504",190810852,L,02,020,000701,1000,-149.77061,61.216933999999995
8534,5901 E 6TH AVE,Anchorage,AK,99504,"5901 E 6TH AVE, Anchorage, AK, 99504",Match,Exact,"5901 E 6TH AVE, ANCHORAGE, AK, 99504",190810852,L,02,020,000701,1000,-149.77061,61.216933999999995
8535,5901 E 6TH AVE,Anchorage,AK,99504,"5901 E 6TH AVE, Anchorage, AK, 99504",Match,Exact,"5901 E 6TH AVE, ANCHORAGE, AK, 99504",190810852,L,02,020,000701,1000,-149.77061,61.216933999999995
8536,5901 E 6TH AVE,Anchorage,AK,99504,"5901 E 6TH AVE, Anchorage, AK, 99504",Match,Exact,"5901 E 6TH AVE, ANCHORAGE, AK, 99504",190810852,L,02,020,000701,1000,-149.77061,61.216933999999995
8537,5901 E 6TH AVE,Anchorage,AK,99504,"5901 E 6TH AVE, Anchorage, AK, 99504",Match,Exact,"5901 E 6TH AVE, ANCHORAGE, AK, 99504",190810852,L,02,020,000701,1000,-149.77061,61.216933999999995
8538,5901 E 6TH AVE,Anchorage,AK,99504,"5901 E 6TH AVE, Anchorage, AK, 99504",Match,Exact,"5901 E 6TH AVE, ANCHORAGE, AK, 99504",190810852,L,02,020,000701,1000,-149.77061,61.216933999999995
8539,5901 E 6TH AVE,Anchorage,AK,99504,"5901 E 6TH AVE, Anchorage, AK, 99504",Match,Exact,"5901 E 6TH AVE, ANCHORAGE, AK, 99504",190810852,L,02,020,000701,1000,-149.77061,61.216933999999995
8540,5901 E 6TH AVE,Anchorage,AK,99504,"5901 E 6TH AVE, Anchorage, AK, 99504",Match,Exact,"5901 E 6TH AVE, ANCHORAGE, AK, 99504",190810852,L,02,020,000701,1000,-149.77061,61.216933999999995
8541,5901 E 6TH AVE,Anchorage,AK,99504,"5901 E 6TH AVE, Anchorage, AK, 99504",Match,Exact,"5901 E 6TH AVE, ANCHORAGE, AK, 99504",190810852,L,02,020,000701,1000,-149.77061,61.216933999999995
8542,5901 E 6TH AVE,Anchorage,AK,99504,"5901 E 6TH AVE, Anchorage, AK, 99504",Match,Exact,"5901 E 6TH AVE, ANCHORAGE, AK, 99504",190810852,L,02,020,000701,1000,-149.77061,61.216933999999995
8543,5901 E 6TH AVE,Anchorage,AK,99504,"5901 E 6TH AVE, Anchorage, AK, 99504",Match,Exact,"5901 E 6TH AVE, ANCHORAGE, AK, 99504",190810852,L,02,020,000701,1000,-149.77061,61.216933999999995
8544,5901 E 6TH AVE,Anchorage,AK,99504,"5901 E 6TH AVE, Anchorage, AK, 99504",Match,Exact,"5901 E 6TH AVE, ANCHORAGE, AK, 99504",190810852,L,02,020,000701,1000,-149.77061,61.216933999999995
8545,5901 E 6TH AVE,Anchorage,AK,99504,"5901 E 6TH AVE, Anchorage, AK, 99504",Match,Exact,"5901 E 6TH AVE, ANCHORAGE, AK, 99504",190810852,L,02,020,000701,1000,-149.77061,61.216933999999995
8546,507 JORDT CIR,Anchorage,AK,99504,"507 JORDT CIR, Anchorage, AK, 99504",Match,Exact,"507 JORDT CIR, ANCHORAGE, AK, 99504",190802815,L,02,020,000702,3007,-149.74973,61.21820400000001
8547,411 FERN LN,Anchorage,AK,99504,"411 FERN LN, Anchorage, AK, 99504",Match,Exact,"411 FERN LN, ANCHORAGE, AK, 99504",190802806,L,02,020,000702,3009,-149.75385,61.218536
8548,5901 E 6TH AVE,Anchorage,AK,99504,"5901 E 6TH AVE, Anchorage, AK, 99504",Match,Exact,"5901 E 6TH AVE, ANCHORAGE, AK, 99504",190810852,L,02,020,000701,1000,-149.77061,61.216933999999995
8549,5901 E 6TH AVE,Anchorage,AK,99504,"5901 E 6TH AVE, Anchorage, AK, 99504",Match,Exact,"5901 E 6TH AVE, ANCHORAGE, AK, 99504",190810852,L,02,020,000701,1000,-149.77061,61.216933999999995
8550,5901 E 6TH AVE,Anchorage,AK,99504,"5901 E 6TH AVE, Anchorage, AK, 99504",Match,Exact,"5901 E 6TH AVE, ANCHORAGE, AK, 99504",190810852,L,02,020,000701,1000,-149.77061,61.216933999999995
8551,411 OKLAHOMA ST,Anchorage,AK,99504,"411 OKLAHOMA ST, Anchorage, AK, 99504",Match,Exact,"411 OKLAHOMA ST, ANCHORAGE, AK, 99504",190802877,L,02,020,000702,2003,-149.74472,61.21853
8552,411 OKLAHOMA ST,Anchorage,AK,99504,"411 OKLAHOMA ST, Anchorage, AK, 99504",Match,Exact,"411 OKLAHOMA ST, ANCHORAGE, AK, 99504",190802877,L,02,020,000702,2003,-149.74472,61.21853
8553,411 OKLAHOMA ST,Anchorage,AK,99504,"411 OKLAHOMA ST, Anchorage, AK, 99504",Match,Exact,"411 OKLAHOMA ST, ANCHORAGE, AK, 99504",190802877,L,02,020,000702,2003,-149.74472,61.21853
8554,501 FERN LN,Anchorage,AK,99504,"501 FERN LN, Anchorage, AK, 99504",Match,Exact,"501 FERN LN, ANCHORAGE, AK, 99504",190802806,L,02,020,000702,3009,-149.75385,61.217842000000005
8555,511 PINE ST,Anchorage,AK,99508,"511 PINE ST, Anchorage, AK, 99508",Match,Non_Exact,"511 S PINE ST, ANCHORAGE, AK, 99508",614862230,L,02,020,000801,4007,-149.79338,61.21787
8556,511 PINE ST,Anchorage,AK,99508,"511 PINE ST, Anchorage, AK, 99508",Match,Non_Exact,"511 S PINE ST, ANCHORAGE, AK, 99508",614862230,L,02,020,000801,4007,-149.79338,61.21787
8557,511 PINE ST,Anchorage,AK,99508,"511 PINE ST, Anchorage, AK, 99508",Match,Non_Exact,"511 S PINE ST, ANCHORAGE, AK, 99508",614862230,L,02,020,000801,4007,-149.79338,61.21787
8558,511 PINE ST,Anchorage,AK,99508,"511 PINE ST, Anchorage, AK, 99508",Match,Non_Exact,"511 S PINE ST, ANCHORAGE, AK, 99508",614862230,L,02,020,000801,4007,-149.79338,61.21787
8559,510 PATSY ST,Anchorage,AK,99504,"510 PATSY ST, Anchorage, AK, 99504",Match,Exact,"510 PATSY ST, ANCHORAGE, AK, 99504",190810873,R,02,020,000702,2003,-149.74286999999998,61.217762
8560,521 CREEKSIDE ST,Anchorage,AK,99504,"521 CREEKSIDE ST, Anchorage, AK, 99504",Match,Exact,"521 CREEKSIDE ST, ANCHORAGE, AK, 99504",190802892,L,02,020,000702,2005,-149.74097,61.217686
8561,521 CREEKSIDE ST,Anchorage,AK,99504,"521 CREEKSIDE ST, Anchorage, AK, 99504",Match,Exact,"521 CREEKSIDE ST, ANCHORAGE, AK, 99504",190802892,L,02,020,000702,2005,-149.74097,61.217686
8562,4818 E 5TH AVE,Anchorage,AK,99508,"4818 E 5TH AVE, Anchorage, AK, 99508",Match,Exact,"4818 E 5TH AVE, ANCHORAGE, AK, 99508",190801740,L,02,020,000801,4006,-149.7911,61.217777000000005
8563,4980 E 5TH AVE,Anchorage,AK,99508,"4980 E 5TH AVE, Anchorage, AK, 99508",Match,Exact,"4980 E 5TH AVE, ANCHORAGE, AK, 99508",190801754,R,02,020,000801,4006,-149.78722,61.217773
8564,4970 E 5TH AVE,Anchorage,AK,99508,"4970 E 5TH AVE, Anchorage, AK, 99508",Match,Exact,"4970 E 5TH AVE, ANCHORAGE, AK, 99508",190801754,R,02,020,000801,4006,-149.78749,61.217773
8565,4970 E 5TH AVE,Anchorage,AK,99508,"4970 E 5TH AVE, Anchorage, AK, 99508",Match,Exact,"4970 E 5TH AVE, ANCHORAGE, AK, 99508",190801754,R,02,020,000801,4006,-149.78749,61.217773
8566,4960 E 5TH AVE,Anchorage,AK,99508,"4960 E 5TH AVE, Anchorage, AK, 99508",Match,Exact,"4960 E 5TH AVE, ANCHORAGE, AK, 99508",190801754,R,02,020,000801,4006,-149.78777,61.217773
8567,4950 E 5TH AVE,Anchorage,AK,99508,"4950 E 5TH AVE, Anchorage, AK, 99508",Match,Exact,"4950 E 5TH AVE, ANCHORAGE, AK, 99508",190801754,R,02,020,000801,4006,-149.78804,61.217773
8568,4940 E 5TH AVE,Anchorage,AK,99508,"4940 E 5TH AVE, Anchorage, AK, 99508",Match,Exact,"4940 E 5TH AVE, ANCHORAGE, AK, 99508",190801754,R,02,020,000801,4006,-149.78833,61.217773
8569,4930 E 5TH AVE,Anchorage,AK,99508,"4930 E 5TH AVE, Anchorage, AK, 99508",Match,Exact,"4930 E 5TH AVE, ANCHORAGE, AK, 99508",190801754,R,02,020,000801,4006,-149.7886,61.217773
8570,4920 E 5TH AVE,Anchorage,AK,99508,"4920 E 5TH AVE, Anchorage, AK, 99508",Match,Exact,"4920 E 5TH AVE, ANCHORAGE, AK, 99508",190801754,R,02,020,000801,4006,-149.78888,61.217773
8571,4840 E 5TH AVE,Anchorage,AK,99508,"4840 E 5TH AVE, Anchorage, AK, 99508",Match,Exact,"4840 E 5TH AVE, ANCHORAGE, AK, 99508",190801740,L,02,020,000801,4006,-149.79076,61.217777000000005
8572,4838 E 5TH AVE,Anchorage,AK,99508,"4838 E 5TH AVE, Anchorage, AK, 99508",Match,Exact,"4838 E 5TH AVE, ANCHORAGE, AK, 99508",190801740,L,02,020,000801,4006,-149.79079,61.217777000000005
8573,4828 E 5TH AVE,Anchorage,AK,99508,"4828 E 5TH AVE, Anchorage, AK, 99508",Match,Exact,"4828 E 5TH AVE, ANCHORAGE, AK, 99508",190801740,L,02,020,000801,4006,-149.79095,61.217777000000005
8574,5005 E 5TH AVE,Anchorage,AK,99508,"5005 E 5TH AVE, Anchorage, AK, 99508",Match,Exact,"5005 E 5TH AVE, ANCHORAGE, AK, 99508",190801754,L,02,020,000801,4006,-149.78802,61.217785
8575,5005 E 5TH AVE,Anchorage,AK,99508,"5005 E 5TH AVE, Anchorage, AK, 99508",Match,Exact,"5005 E 5TH AVE, ANCHORAGE, AK, 99508",190801754,L,02,020,000801,4006,-149.78802,61.217785
8576,515 FREDRICKS DR,Anchorage,AK,99504,"515 FREDRICKS DR, Anchorage, AK, 99504",Match,Non_Exact,"515 FREDERICKS DR, ANCHORAGE, AK, 99504",190816143,L,02,020,000702,3007,-149.75212,61.21836999999999
8577,500 CARIN PL,Anchorage,AK,99504,"500 CARIN PL, Anchorage, AK, 99504",Match,Exact,"500 CARIN PL, ANCHORAGE, AK, 99504",190808933,L,02,020,000702,2006,-149.73453999999998,61.2174
8578,500 CARIN PL,Anchorage,AK,99504,"500 CARIN PL, Anchorage, AK, 99504",Match,Exact,"500 CARIN PL, ANCHORAGE, AK, 99504",190808933,L,02,020,000702,2006,-149.73453999999998,61.2174
8579,511 OKLAHOMA ST,Anchorage,AK,99504,"511 OKLAHOMA ST, Anchorage, AK, 99504",Match,Exact,"511 OKLAHOMA ST, ANCHORAGE, AK, 99504",190802877,L,02,020,000702,2003,-149.74472,61.217762
8580,511 OKLAHOMA ST,Anchorage,AK,99504,"511 OKLAHOMA ST, Anchorage, AK, 99504",Match,Exact,"511 OKLAHOMA ST, ANCHORAGE, AK, 99504",190802877,L,02,020,000702,2003,-149.74472,61.217762
8581,511 OKLAHOMA ST,Anchorage,AK,99504,"511 OKLAHOMA ST, Anchorage, AK, 99504",Match,Exact,"511 OKLAHOMA ST, ANCHORAGE, AK, 99504",190802877,L,02,020,000702,2003,-149.74472,61.217762
8582,5664 ALORA LOOP,Anchorage,AK,99504,"5664 ALORA LOOP, Anchorage, AK, 99504",Match,Exact,"5664 ALORA LOOP, ANCHORAGE, AK, 99504",190827504,R,02,020,000701,1010,-149.77508999999998,61.218180000000004
8583,423 OKLAHOMA ST,Anchorage,AK,99504,"423 OKLAHOMA ST, Anchorage, AK, 99504",Match,Exact,"423 OKLAHOMA ST, ANCHORAGE, AK, 99504",190802877,L,02,020,000702,2003,-149.74472,61.218437
8584,423 OKLAHOMA ST,Anchorage,AK,99504,"423 OKLAHOMA ST, Anchorage, AK, 99504",Match,Exact,"423 OKLAHOMA ST, ANCHORAGE, AK, 99504",190802877,L,02,020,000702,2003,-149.74472,61.218437
8585,423 OKLAHOMA ST,Anchorage,AK,99504,"423 OKLAHOMA ST, Anchorage, AK, 99504",Match,Exact,"423 OKLAHOMA ST, ANCHORAGE, AK, 99504",190802877,L,02,020,000702,2003,-149.74472,61.218437
8586,430 CREEKSIDE ST,Anchorage,AK,99504,"430 CREEKSIDE ST, Anchorage, AK, 99504",Match,Exact,"430 CREEKSIDE ST, ANCHORAGE, AK, 99504",190802892,R,02,020,000702,2004,-149.741,61.218376
8587,432 CHERRY ST,Anchorage,AK,99504,"432 CHERRY ST, Anchorage, AK, 99504",Match,Exact,"432 CHERRY ST, ANCHORAGE, AK, 99504",190803319,R,02,020,000703,3012,-149.72224,61.21848000000001
8588,441 SCORPIO CIR,Anchorage,AK,99508,"441 SCORPIO CIR, Anchorage, AK, 99508",Match,Exact,"441 SCORPIO CIR, ANCHORAGE, AK, 99508",614862349,R,02,020,000801,4006,-149.78603,61.21826
8589,5520 ALORA LOOP,Anchorage,AK,99504,"5520 ALORA LOOP, Anchorage, AK, 99504",Match,Exact,"5520 ALORA LOOP, ANCHORAGE, AK, 99504",190827504,R,02,020,000701,1010,-149.77754,61.218323
8590,505 FREDRICKS DR,Anchorage,AK,99504,"505 FREDRICKS DR, Anchorage, AK, 99504",Match,Non_Exact,"505 FREDERICKS DR, ANCHORAGE, AK, 99504",190816143,L,02,020,000702,3007,-149.75208999999998,61.218272999999996
8591,441 CAPRICORN CIR,Anchorage,AK,99508,"441 CAPRICORN CIR, Anchorage, AK, 99508",Match,Exact,"441 CAPRICORN CIR, ANCHORAGE, AK, 99508",614862499,L,02,020,000801,4006,-149.7832,61.21841
8592,420 MELLOW PL,Anchorage,AK,99508,"420 MELLOW PL, Anchorage, AK, 99508",Match,Exact,"420 MELLOW PL, ANCHORAGE, AK, 99508",190801738,L,02,020,000801,4007,-149.7916,61.218180000000004
8593,429 CREEKSIDE ST,Anchorage,AK,99504,"429 CREEKSIDE ST, Anchorage, AK, 99504",Match,Exact,"429 CREEKSIDE ST, ANCHORAGE, AK, 99504",190802892,L,02,020,000702,2005,-149.74097,61.21839
8594,429 CREEKSIDE ST,Anchorage,AK,99504,"429 CREEKSIDE ST, Anchorage, AK, 99504",Match,Exact,"429 CREEKSIDE ST, ANCHORAGE, AK, 99504",190802892,L,02,020,000702,2005,-149.74097,61.21839
8595,440 SCORPIO CIR,Anchorage,AK,99508,"440 SCORPIO CIR, Anchorage, AK, 99508",Match,Exact,"440 SCORPIO CIR, ANCHORAGE, AK, 99508",614862349,L,02,020,000801,4006,-149.786,61.218180000000004
8596,426 PATSY ST,Anchorage,AK,99504,"426 PATSY ST, Anchorage, AK, 99504",Match,Exact,"426 PATSY ST, ANCHORAGE, AK, 99504",190810873,R,02,020,000702,2003,-149.74286999999998,61.21840699999999
8597,440 CAPRICORN CIR,Anchorage,AK,99508,"440 CAPRICORN CIR, Anchorage, AK, 99508",Match,Exact,"440 CAPRICORN CIR, ANCHORAGE, AK, 99508",614862499,R,02,020,000801,4006,-149.78322,61.21839
8598,431 MELLOW PL,Anchorage,AK,99508,"431 MELLOW PL, Anchorage, AK, 99508",Match,Exact,"431 MELLOW PL, ANCHORAGE, AK, 99508",190801738,R,02,020,000801,4007,-149.79156,61.218136
8599,5901 E 6TH AVE,Anchorage,AK,99504,"5901 E 6TH AVE, Anchorage, AK, 99504",Match,Exact,"5901 E 6TH AVE, ANCHORAGE, AK, 99504",190810852,L,02,020,000701,1000,-149.77061,61.216933999999995
8600,5901 E 6TH AVE,Anchorage,AK,99504,"5901 E 6TH AVE, Anchorage, AK, 99504",Match,Exact,"5901 E 6TH AVE, ANCHORAGE, AK, 99504",190810852,L,02,020,000701,1000,-149.77061,61.216933999999995
8601,5901 E 6TH AVE,Anchorage,AK,99504,"5901 E 6TH AVE, Anchorage, AK, 99504",Match,Exact,"5901 E 6TH AVE, ANCHORAGE, AK, 99504",190810852,L,02,020,000701,1000,-149.77061,61.216933999999995
8602,5901 E 6TH AVE,Anchorage,AK,99504,"5901 E 6TH AVE, Anchorage, AK, 99504",Match,Exact,"5901 E 6TH AVE, ANCHORAGE, AK, 99504",190810852,L,02,020,000701,1000,-149.77061,61.216933999999995
8603,5901 E 6TH AVE,Anchorage,AK,99504,"5901 E 6TH AVE, Anchorage, AK, 99504",Match,Exact,"5901 E 6TH AVE, ANCHORAGE, AK, 99504",190810852,L,02,020,000701,1000,-149.77061,61.216933999999995
8604,5901 E 6TH AVE,Anchorage,AK,99504,"5901 E 6TH AVE, Anchorage, AK, 99504",Match,Exact,"5901 E 6TH AVE, ANCHORAGE, AK, 99504",190810852,L,02,020,000701,1000,-149.77061,61.216933999999995
8605,5901 E 6TH AVE,Anchorage,AK,99504,"5901 E 6TH AVE, Anchorage, AK, 99504",Match,Exact,"5901 E 6TH AVE, ANCHORAGE, AK, 99504",190810852,L,02,020,000701,1000,-149.77061,61.216933999999995
8606,5901 E 6TH AVE,Anchorage,AK,99504,"5901 E 6TH AVE, Anchorage, AK, 99504",Match,Exact,"5901 E 6TH AVE, ANCHORAGE, AK, 99504",190810852,L,02,020,000701,1000,-149.77061,61.216933999999995
8607,5901 E 6TH AVE,Anchorage,AK,99504,"5901 E 6TH AVE, Anchorage, AK, 99504",Match,Exact,"5901 E 6TH AVE, ANCHORAGE, AK, 99504",190810852,L,02,020,000701,1000,-149.77061,61.216933999999995
8608,5901 E 6TH AVE,Anchorage,AK,99504,"5901 E 6TH AVE, Anchorage, AK, 99504",Match,Exact,"5901 E 6TH AVE, ANCHORAGE, AK, 99504",190810852,L,02,020,000701,1000,-149.77061,61.216933999999995
8609,5901 E 6TH AVE,Anchorage,AK,99504,"5901 E 6TH AVE, Anchorage, AK, 99504",Match,Exact,"5901 E 6TH AVE, ANCHORAGE, AK, 99504",190810852,L,02,020,000701,1000,-149.77061,61.216933999999995
8610,5901 E 6TH AVE,Anchorage,AK,99504,"5901 E 6TH AVE, Anchorage, AK, 99504",Match,Exact,"5901 E 6TH AVE, ANCHORAGE, AK, 99504",190810852,L,02,020,000701,1000,-149.77061,61.216933999999995
8611,5901 E 6TH AVE,Anchorage,AK,99504,"5901 E 6TH AVE, Anchorage, AK, 99504",Match,Exact,"5901 E 6TH AVE, ANCHORAGE, AK, 99504",190810852,L,02,020,000701,1000,-149.77061,61.216933999999995
8612,5901 E 6TH AVE,Anchorage,AK,99504,"5901 E 6TH AVE, Anchorage, AK, 99504",Match,Exact,"5901 E 6TH AVE, ANCHORAGE, AK, 99504",190810852,L,02,020,000701,1000,-149.77061,61.216933999999995
8613,520 BITTERROOT CIR,Anchorage,AK,99504,"520 BITTERROOT CIR, Anchorage, AK, 99504",Match,Exact,"520 BITTERROOT CIR, ANCHORAGE, AK, 99504",190801992,L,02,020,000701,1010,-149.77542,61.21728
8614,520 BITTERROOT CIR,Anchorage,AK,99504,"520 BITTERROOT CIR, Anchorage, AK, 99504",Match,Exact,"520 BITTERROOT CIR, ANCHORAGE, AK, 99504",190801992,L,02,020,000701,1010,-149.77542,61.21728
8615,5901 E 6TH AVE,Anchorage,AK,99504,"5901 E 6TH AVE, Anchorage, AK, 99504",Match,Exact,"5901 E 6TH AVE, ANCHORAGE, AK, 99504",190810852,L,02,020,000701,1000,-149.77061,61.216933999999995
8616,5901 E 6TH AVE,Anchorage,AK,99504,"5901 E 6TH AVE, Anchorage, AK, 99504",Match,Exact,"5901 E 6TH AVE, ANCHORAGE, AK, 99504",190810852,L,02,020,000701,1000,-149.77061,61.216933999999995
8617,540 CARIN PL,Anchorage,AK,99504,"540 CARIN PL, Anchorage, AK, 99504",Match,Exact,"540 CARIN PL, ANCHORAGE, AK, 99504",190808933,L,02,020,000702,2006,-149.73453999999998,61.21723000000001
8618,540 DONNA DR,Anchorage,AK,99504,"540 DONNA DR, Anchorage, AK, 99504",Match,Exact,"540 DONNA DR, ANCHORAGE, AK, 99504",190802760,R,02,020,000701,1000,-149.76062,61.217273999999996
8619,8429 E 6TH AVE,Anchorage,AK,99504,"8429 E 6TH AVE, Anchorage, AK, 99504",Match,Exact,"8429 E 6TH AVE, ANCHORAGE, AK, 99504",190803328,L,02,020,000703,3011,-149.72311000000002,61.216965
8620,8429 E 6TH AVE,Anchorage,AK,99504,"8429 E 6TH AVE, Anchorage, AK, 99504",Match,Exact,"8429 E 6TH AVE, ANCHORAGE, AK, 99504",190803328,L,02,020,000703,3011,-149.72311000000002,61.216965
8621,525 JORDT CIR,Anchorage,AK,99504,"525 JORDT CIR, Anchorage, AK, 99504",Match,Exact,"525 JORDT CIR, ANCHORAGE, AK, 99504",190802813,R,02,020,000702,3007,-149.75072,61.217304000000006
8622,560 CREEKSIDE ST,Anchorage,AK,99504,"560 CREEKSIDE ST, Anchorage, AK, 99504",Match,Exact,"560 CREEKSIDE ST, ANCHORAGE, AK, 99504",190802892,R,02,020,000702,2004,-149.74098,61.217380000000006
8623,560 CREEKSIDE ST,Anchorage,AK,99504,"560 CREEKSIDE ST, Anchorage, AK, 99504",Match,Exact,"560 CREEKSIDE ST, ANCHORAGE, AK, 99504",190802892,R,02,020,000702,2004,-149.74098,61.217380000000006
8624,8429 E 6TH AVE,Anchorage,AK,99504,"8429 E 6TH AVE, Anchorage, AK, 99504",Match,Exact,"8429 E 6TH AVE, ANCHORAGE, AK, 99504",190803328,L,02,020,000703,3011,-149.72311000000002,61.216965
8625,8429 E 6TH AVE,Anchorage,AK,99504,"8429 E 6TH AVE, Anchorage, AK, 99504",Match,Exact,"8429 E 6TH AVE, ANCHORAGE, AK, 99504",190803328,L,02,020,000703,3011,-149.72311000000002,61.216965
8626,8301 E 6TH AVE,Anchorage,AK,99504,"8301 E 6TH AVE, Anchorage, AK, 99504",Match,Exact,"8301 E 6TH AVE, ANCHORAGE, AK, 99504",190803269,L,02,020,000703,3011,-149.72588000000002,61.21696
8627,8411 E 6TH AVE,Anchorage,AK,99504,"8411 E 6TH AVE, Anchorage, AK, 99504",Match,Exact,"8411 E 6TH AVE, ANCHORAGE, AK, 99504",190803328,L,02,020,000703,3011,-149.72333,61.216965
8628,8401 E 6TH AVE,Anchorage,AK,99504,"8401 E 6TH AVE, Anchorage, AK, 99504",Match,Exact,"8401 E 6TH AVE, ANCHORAGE, AK, 99504",190803324,L,02,020,000703,3011,-149.72361999999998,61.216965
8629,560 SAINT LAZARIA CIR,Anchorage,AK,99508,"560 SAINT LAZARIA CIR, Anchorage, AK, 99508",Match,Exact,"560 SAINT LAZARIA CIR, ANCHORAGE, AK, 99508",190801974,L,02,020,000801,4006,-149.78493,61.21711
8630,560 IZEMBEK CIR,Anchorage,AK,99508,"560 IZEMBEK CIR, Anchorage, AK, 99508",Match,Exact,"560 IZEMBEK CIR, ANCHORAGE, AK, 99508",190801976,L,02,020,000801,4006,-149.78322,61.21710600000001
8631,8341 E 6TH AVE,Anchorage,AK,99504,"8341 E 6TH AVE, Anchorage, AK, 99504",Match,Exact,"8341 E 6TH AVE, ANCHORAGE, AK, 99504",190803324,L,02,020,000703,3011,-149.72447,61.216965
8632,8311 E 6TH AVE,Anchorage,AK,99504,"8311 E 6TH AVE, Anchorage, AK, 99504",Match,Exact,"8311 E 6TH AVE, ANCHORAGE, AK, 99504",190803269,L,02,020,000703,3011,-149.72546,61.21696
8633,8331 E 6TH AVE,Anchorage,AK,99504,"8331 E 6TH AVE, Anchorage, AK, 99504",Match,Exact,"8331 E 6TH AVE, ANCHORAGE, AK, 99504",190803324,L,02,020,000703,3011,-149.72462,61.216965
8634,8331 E 6TH AVE,Anchorage,AK,99504,"8331 E 6TH AVE, Anchorage, AK, 99504",Match,Exact,"8331 E 6TH AVE, ANCHORAGE, AK, 99504",190803324,L,02,020,000703,3011,-149.72462,61.216965
8635,8331 E 6TH AVE,Anchorage,AK,99504,"8331 E 6TH AVE, Anchorage, AK, 99504",Match,Exact,"8331 E 6TH AVE, ANCHORAGE, AK, 99504",190803324,L,02,020,000703,3011,-149.72462,61.216965
8636,8321 E 6TH AVE,Anchorage,AK,99504,"8321 E 6TH AVE, Anchorage, AK, 99504",Match,Exact,"8321 E 6TH AVE, ANCHORAGE, AK, 99504",190803269,L,02,020,000703,3011,-149.72507,61.21696
8637,8221 E 6TH AVE,Anchorage,AK,99504,"8221 E 6TH AVE, Anchorage, AK, 99504",Match,Exact,"8221 E 6TH AVE, ANCHORAGE, AK, 99504",605177964,L,02,020,000703,3010,-149.72697,61.21696
8638,8211 E 6TH AVE,Anchorage,AK,99504,"8211 E 6TH AVE, Anchorage, AK, 99504",Match,Exact,"8211 E 6TH AVE, ANCHORAGE, AK, 99504",605177964,L,02,020,000703,3010,-149.72708,61.21696
8639,8211 E 6TH AVE,Anchorage,AK,99504,"8211 E 6TH AVE, Anchorage, AK, 99504",Match,Exact,"8211 E 6TH AVE, ANCHORAGE, AK, 99504",605177964,L,02,020,000703,3010,-149.72708,61.21696
8640,8201 E 6TH AVE,Anchorage,AK,99504,"8201 E 6TH AVE, Anchorage, AK, 99504",Match,Exact,"8201 E 6TH AVE, ANCHORAGE, AK, 99504",605177963,L,02,020,000703,3010,-149.72762,61.21696
8641,8151 E 6TH AVE,Anchorage,AK,99504,"8151 E 6TH AVE, Anchorage, AK, 99504",Match,Exact,"8151 E 6TH AVE, ANCHORAGE, AK, 99504",605177963,L,02,020,000703,3010,-149.72843999999998,61.21696
8642,8151 E 6TH AVE,Anchorage,AK,99504,"8151 E 6TH AVE, Anchorage, AK, 99504",Match,Exact,"8151 E 6TH AVE, ANCHORAGE, AK, 99504",605177963,L,02,020,000703,3010,-149.72843999999998,61.21696
8643,561 SAINT LAZARIA CIR,Anchorage,AK,99508,"561 SAINT LAZARIA CIR, Anchorage, AK, 99508",Match,Exact,"561 SAINT LAZARIA CIR, ANCHORAGE, AK, 99508",190801974,R,02,020,000801,4006,-149.78491,61.21711
8644,8141 E 6TH AVE,Anchorage,AK,99504,"8141 E 6TH AVE, Anchorage, AK, 99504",Match,Exact,"8141 E 6TH AVE, ANCHORAGE, AK, 99504",605177963,L,02,020,000703,3010,-149.7286,61.21696
8645,8141 E 6TH AVE,Anchorage,AK,99504,"8141 E 6TH AVE, Anchorage, AK, 99504",Match,Exact,"8141 E 6TH AVE, ANCHORAGE, AK, 99504",605177963,L,02,020,000703,3010,-149.7286,61.21696
8646,341 MELODY PL,Anchorage,AK,99504,"341 MELODY PL, Anchorage, AK, 99504",Match,Exact,"341 MELODY PL, ANCHORAGE, AK, 99504",190807350,L,02,020,000702,2002,-149.73906000000002,61.220245
8647,355 DONNA DR,Anchorage,AK,99504,"355 DONNA DR, Anchorage, AK, 99504",Match,Exact,"355 DONNA DR, ANCHORAGE, AK, 99504",190808601,R,02,020,000701,2001,-149.75958,61.219826
8648,355 DONNA DR,Anchorage,AK,99504,"355 DONNA DR, Anchorage, AK, 99504",Match,Exact,"355 DONNA DR, ANCHORAGE, AK, 99504",190808601,R,02,020,000701,2001,-149.75958,61.219826
8649,355 DONNA DR,Anchorage,AK,99504,"355 DONNA DR, Anchorage, AK, 99504",Match,Exact,"355 DONNA DR, ANCHORAGE, AK, 99504",190808601,R,02,020,000701,2001,-149.75958,61.219826
8650,355 DONNA DR,Anchorage,AK,99504,"355 DONNA DR, Anchorage, AK, 99504",Match,Exact,"355 DONNA DR, ANCHORAGE, AK, 99504",190808601,R,02,020,000701,2001,-149.75958,61.219826
8651,355 DONNA DR,Anchorage,AK,99504,"355 DONNA DR, Anchorage, AK, 99504",Match,Exact,"355 DONNA DR, ANCHORAGE, AK, 99504",190808601,R,02,020,000701,2001,-149.75958,61.219826
8652,355 DONNA DR,Anchorage,AK,99504,"355 DONNA DR, Anchorage, AK, 99504",Match,Exact,"355 DONNA DR, ANCHORAGE, AK, 99504",190808601,R,02,020,000701,2001,-149.75958,61.219826
8653,5901 E 6TH AVE,Anchorage,AK,99504,"5901 E 6TH AVE, Anchorage, AK, 99504",Match,Exact,"5901 E 6TH AVE, ANCHORAGE, AK, 99504",190810852,L,02,020,000701,1000,-149.77061,61.216933999999995
8654,5901 E 6TH AVE,Anchorage,AK,99504,"5901 E 6TH AVE, Anchorage, AK, 99504",Match,Exact,"5901 E 6TH AVE, ANCHORAGE, AK, 99504",190810852,L,02,020,000701,1000,-149.77061,61.216933999999995
8655,301 FERN LN,Anchorage,AK,99504,"301 FERN LN, Anchorage, AK, 99504",Match,Exact,"301 FERN LN, ANCHORAGE, AK, 99504",190802803,L,02,020,000702,3004,-149.75406,61.21994399999999
8656,5901 E 6TH AVE,Anchorage,AK,99504,"5901 E 6TH AVE, Anchorage, AK, 99504",Match,Exact,"5901 E 6TH AVE, ANCHORAGE, AK, 99504",190810852,L,02,020,000701,1000,-149.77061,61.216933999999995
8657,5419 CAMELOT DR,Anchorage,AK,99508,"5419 CAMELOT DR, Anchorage, AK, 99508",Match,Exact,"5419 CAMELOT DR, ANCHORAGE, AK, 99508",190801978,L,02,020,000801,3008,-149.7804,61.2203
8658,7020 DICKERSON DR,Anchorage,AK,99504,"7020 DICKERSON DR, Anchorage, AK, 99504",Match,Exact,"7020 DICKERSON DR, ANCHORAGE, AK, 99504",190802810,R,02,020,000702,3004,-149.75153999999998,61.220463
8659,310 DANNILYN CIR,Anchorage,AK,99504,"310 DANNILYN CIR, Anchorage, AK, 99504",Match,Exact,"310 DANNILYN CIR, ANCHORAGE, AK, 99504",190808935,R,02,020,000702,2002,-149.74374,61.220478
8660,311 VILLA CIR,Anchorage,AK,99504,"311 VILLA CIR, Anchorage, AK, 99504",Match,Exact,"311 VILLA CIR, ANCHORAGE, AK, 99504",190816175,L,02,020,000702,2002,-149.74005,61.220478
8661,315 KRANE DR,Anchorage,AK,99504,"315 KRANE DR, Anchorage, AK, 99504",Match,Exact,"315 KRANE DR, ANCHORAGE, AK, 99504",605167555,R,02,020,000701,2000,-149.75708,61.220238
8662,315 KRANE DR,Anchorage,AK,99504,"315 KRANE DR, Anchorage, AK, 99504",Match,Exact,"315 KRANE DR, ANCHORAGE, AK, 99504",605167555,R,02,020,000701,2000,-149.75708,61.220238
8663,315 KRANE DR,Anchorage,AK,99504,"315 KRANE DR, Anchorage, AK, 99504",Match,Exact,"315 KRANE DR, ANCHORAGE, AK, 99504",605167555,R,02,020,000701,2000,-149.75708,61.220238
8664,315 KRANE DR,Anchorage,AK,99504,"315 KRANE DR, Anchorage, AK, 99504",Match,Exact,"315 KRANE DR, ANCHORAGE, AK, 99504",605167555,R,02,020,000701,2000,-149.75708,61.220238
8665,315 KRANE DR,Anchorage,AK,99504,"315 KRANE DR, Anchorage, AK, 99504",Match,Exact,"315 KRANE DR, ANCHORAGE, AK, 99504",605167555,R,02,020,000701,2000,-149.75708,61.220238
8666,6980 FREDRICKS DR,Anchorage,AK,99504,"6980 FREDRICKS DR, Anchorage, AK, 99504",Match,Non_Exact,"6980 FREDERICKS DR, ANCHORAGE, AK, 99504",190802812,R,02,020,000702,3007,-149.7503,61.21954
8667,408 STEWART ST,Anchorage,AK,99508,"408 STEWART ST, Anchorage, AK, 99508",Match,Exact,"408 STEWART ST, ANCHORAGE, AK, 99508",190801749,R,02,020,000801,4002,-149.7879,61.220078
8668,6411 PEPPERTREE CIR,Anchorage,AK,99504,"6411 PEPPERTREE CIR, Anchorage, AK, 99504",Match,Exact,"6411 PEPPERTREE CIR, ANCHORAGE, AK, 99504",190808603,R,02,020,000701,1008,-149.76071000000002,61.21924
8669,5429 LANCELOT CIR,Anchorage,AK,99508,"5429 LANCELOT CIR, Anchorage, AK, 99508",Match,Exact,"5429 LANCELOT CIR, ANCHORAGE, AK, 99508",190801983,L,02,020,000801,4000,-149.78091,61.219437
8670,5427 LANCELOT CIR,Anchorage,AK,99508,"5427 LANCELOT CIR, Anchorage, AK, 99508",Match,Exact,"5427 LANCELOT CIR, ANCHORAGE, AK, 99508",190801983,L,02,020,000801,4000,-149.78094,61.219437
8671,365 PINE ST,Anchorage,AK,99508,"365 PINE ST, Anchorage, AK, 99508",Match,Non_Exact,"365 S PINE ST, ANCHORAGE, AK, 99508",190801729,L,02,020,000801,4005,-149.79338,61.219519999999996
8672,363 BOLIN ST,Anchorage,AK,99504,"363 BOLIN ST, Anchorage, AK, 99504",Match,Exact,"363 BOLIN ST, ANCHORAGE, AK, 99504",190803336,L,02,020,000703,3000,-149.7194,61.21977
8673,6421 PEPPERTREE CIR,Anchorage,AK,99504,"6421 PEPPERTREE CIR, Anchorage, AK, 99504",Match,Exact,"6421 PEPPERTREE CIR, ANCHORAGE, AK, 99504",190808603,R,02,020,000701,1008,-149.76065,61.219193000000004
8674,5901 E 6TH AVE,Anchorage,AK,99504,"5901 E 6TH AVE, Anchorage, AK, 99504",Match,Exact,"5901 E 6TH AVE, ANCHORAGE, AK, 99504",190810852,L,02,020,000701,1000,-149.77061,61.216933999999995
8675,5901 E 6TH AVE,Anchorage,AK,99504,"5901 E 6TH AVE, Anchorage, AK, 99504",Match,Exact,"5901 E 6TH AVE, ANCHORAGE, AK, 99504",190810852,L,02,020,000701,1000,-149.77061,61.216933999999995
8676,5901 E 6TH AVE,Anchorage,AK,99504,"5901 E 6TH AVE, Anchorage, AK, 99504",Match,Exact,"5901 E 6TH AVE, ANCHORAGE, AK, 99504",190810852,L,02,020,000701,1000,-149.77061,61.216933999999995
8677,354 STATE ST,Anchorage,AK,99504,"354 STATE ST, Anchorage, AK, 99504",Match,Exact,"354 STATE ST, ANCHORAGE, AK, 99504",190803229,R,02,020,000703,3008,-149.73131999999998,61.219395
8678,5901 E 6TH AVE,Anchorage,AK,99504,"5901 E 6TH AVE, Anchorage, AK, 99504",Match,Exact,"5901 E 6TH AVE, ANCHORAGE, AK, 99504",190810852,L,02,020,000701,1000,-149.77061,61.216933999999995
8679,5901 E 6TH AVE,Anchorage,AK,99504,"5901 E 6TH AVE, Anchorage, AK, 99504",Match,Exact,"5901 E 6TH AVE, ANCHORAGE, AK, 99504",190810852,L,02,020,000701,1000,-149.77061,61.216933999999995
8680,5901 E 6TH AVE,Anchorage,AK,99504,"5901 E 6TH AVE, Anchorage, AK, 99504",Match,Exact,"5901 E 6TH AVE, ANCHORAGE, AK, 99504",190810852,L,02,020,000701,1000,-149.77061,61.216933999999995
8681,5901 E 6TH AVE,Anchorage,AK,99504,"5901 E 6TH AVE, Anchorage, AK, 99504",Match,Exact,"5901 E 6TH AVE, ANCHORAGE, AK, 99504",190810852,L,02,020,000701,1000,-149.77061,61.216933999999995
8682,5901 E 6TH AVE,Anchorage,AK,99504,"5901 E 6TH AVE, Anchorage, AK, 99504",Match,Exact,"5901 E 6TH AVE, ANCHORAGE, AK, 99504",190810852,L,02,020,000701,1000,-149.77061,61.216933999999995
8683,5901 E 6TH AVE,Anchorage,AK,99504,"5901 E 6TH AVE, Anchorage, AK, 99504",Match,Exact,"5901 E 6TH AVE, ANCHORAGE, AK, 99504",190810852,L,02,020,000701,1000,-149.77061,61.216933999999995
8684,440 CAMELOT DR,Anchorage,AK,99508,"440 CAMELOT DR, Anchorage, AK, 99508",Match,Exact,"440 CAMELOT DR, ANCHORAGE, AK, 99508",190801980,R,02,020,000801,4001,-149.78152,61.218796
8685,5901 E 6TH AVE,Anchorage,AK,99504,"5901 E 6TH AVE, Anchorage, AK, 99504",Match,Exact,"5901 E 6TH AVE, ANCHORAGE, AK, 99504",190810852,L,02,020,000701,1000,-149.77061,61.216933999999995
8686,5901 E 6TH AVE,Anchorage,AK,99504,"5901 E 6TH AVE, Anchorage, AK, 99504",Match,Exact,"5901 E 6TH AVE, ANCHORAGE, AK, 99504",190810852,L,02,020,000701,1000,-149.77061,61.216933999999995
8687,5901 E 6TH AVE,Anchorage,AK,99504,"5901 E 6TH AVE, Anchorage, AK, 99504",Match,Exact,"5901 E 6TH AVE, ANCHORAGE, AK, 99504",190810852,L,02,020,000701,1000,-149.77061,61.216933999999995
8688,5444 LANCELOT CIR,Anchorage,AK,99508,"5444 LANCELOT CIR, Anchorage, AK, 99508",Match,Exact,"5444 LANCELOT CIR, ANCHORAGE, AK, 99508",190801983,R,02,020,000801,4000,-149.78067,61.219425
8689,5444 LANCELOT CIR,Anchorage,AK,99508,"5444 LANCELOT CIR, Anchorage, AK, 99508",Match,Exact,"5444 LANCELOT CIR, ANCHORAGE, AK, 99508",190801983,R,02,020,000801,4000,-149.78067,61.219425
8690,5444 LANCELOT CIR,Anchorage,AK,99508,"5444 LANCELOT CIR, Anchorage, AK, 99508",Match,Exact,"5444 LANCELOT CIR, ANCHORAGE, AK, 99508",190801983,R,02,020,000801,4000,-149.78067,61.219425
8691,343 PEPPERTREE LOOP,Anchorage,AK,99504,"343 PEPPERTREE LOOP, Anchorage, AK, 99504",Match,Exact,"343 PEPPERTREE LOOP, ANCHORAGE, AK, 99504",190826164,L,02,020,000701,1008,-149.76262,61.219494
8692,5432 LANCELOT CIR,Anchorage,AK,99508,"5432 LANCELOT CIR, Anchorage, AK, 99508",Match,Exact,"5432 LANCELOT CIR, ANCHORAGE, AK, 99508",190801983,R,02,020,000801,4000,-149.78085,61.219425
8693,5430 LANCELOT CIR,Anchorage,AK,99508,"5430 LANCELOT CIR, Anchorage, AK, 99508",Match,Exact,"5430 LANCELOT CIR, ANCHORAGE, AK, 99508",190801983,R,02,020,000801,4000,-149.78088,61.219425
8694,5422 LANCELOT CIR,Anchorage,AK,99508,"5422 LANCELOT CIR, Anchorage, AK, 99508",Match,Exact,"5422 LANCELOT CIR, ANCHORAGE, AK, 99508",190801983,R,02,020,000801,4000,-149.781,61.219425
8695,5420 LANCELOT CIR,Anchorage,AK,99508,"5420 LANCELOT CIR, Anchorage, AK, 99508",Match,Exact,"5420 LANCELOT CIR, ANCHORAGE, AK, 99508",190801983,R,02,020,000801,4000,-149.78104,61.219425
8696,311 BEULAH CIR,Anchorage,AK,99504,"311 BEULAH CIR, Anchorage, AK, 99504",Match,Exact,"311 BEULAH CIR, ANCHORAGE, AK, 99504",190808931,R,02,020,000702,2002,-149.74007,61.2191
8697,410 PEPPERTREE LOOP,Anchorage,AK,99504,"410 PEPPERTREE LOOP, Anchorage, AK, 99504",Match,Exact,"410 PEPPERTREE LOOP, ANCHORAGE, AK, 99504",190826164,R,02,020,000701,1000,-149.76265,61.218624
8698,400 CAPRICORN CIR,Anchorage,AK,99508,"400 CAPRICORN CIR, Anchorage, AK, 99508",Match,Exact,"400 CAPRICORN CIR, ANCHORAGE, AK, 99508",614862498,R,02,020,000801,4006,-149.78322,61.21864300000001
8699,401 SCORPIO CIR,Anchorage,AK,99508,"401 SCORPIO CIR, Anchorage, AK, 99508",Match,Exact,"401 SCORPIO CIR, ANCHORAGE, AK, 99508",614862348,R,02,020,000801,4006,-149.78603,61.21864300000001
8700,401 CAPRICORN CIR,Anchorage,AK,99508,"401 CAPRICORN CIR, Anchorage, AK, 99508",Match,Exact,"401 CAPRICORN CIR, ANCHORAGE, AK, 99508",614862498,L,02,020,000801,4006,-149.7832,61.21864300000001
8701,400 SCORPIO CIR,Anchorage,AK,99508,"400 SCORPIO CIR, Anchorage, AK, 99508",Match,Exact,"400 SCORPIO CIR, ANCHORAGE, AK, 99508",614862349,L,02,020,000801,4006,-149.786,61.218430000000005
8702,5400 NEW SMYRNA CIR,Anchorage,AK,99508,"5400 NEW SMYRNA CIR, Anchorage, AK, 99508",Match,Exact,"5400 NEW SMYRNA CIR, ANCHORAGE, AK, 99508",614862496,R,02,020,000801,4006,-149.78061,61.218067000000005
8703,490 PEPPERTREE LOOP,Anchorage,AK,99504,"490 PEPPERTREE LOOP, Anchorage, AK, 99504",Match,Exact,"490 PEPPERTREE LOOP, ANCHORAGE, AK, 99504",190826164,R,02,020,000701,1000,-149.76077,61.218444999999996
8704,441 PINE ST,Anchorage,AK,99508,"441 PINE ST, Anchorage, AK, 99508",Match,Non_Exact,"441 S PINE ST, ANCHORAGE, AK, 99508",614862229,L,02,020,000801,4007,-149.79338,61.218464000000004
8705,441 PINE ST,Anchorage,AK,99508,"441 PINE ST, Anchorage, AK, 99508",Match,Non_Exact,"441 S PINE ST, ANCHORAGE, AK, 99508",614862229,L,02,020,000801,4007,-149.79338,61.218464000000004
8706,441 PINE ST,Anchorage,AK,99508,"441 PINE ST, Anchorage, AK, 99508",Match,Non_Exact,"441 S PINE ST, ANCHORAGE, AK, 99508",614862229,L,02,020,000801,4007,-149.79338,61.218464000000004
8707,500 FREDRICKS DR,Anchorage,AK,99504,"500 FREDRICKS DR, Anchorage, AK, 99504",Match,Non_Exact,"500 FREDERICKS DR, ANCHORAGE, AK, 99504",190816143,R,02,020,000702,3009,-149.75208999999998,61.218235
8708,440 PEPPERTREE LOOP,Anchorage,AK,99504,"440 PEPPERTREE LOOP, Anchorage, AK, 99504",Match,Exact,"440 PEPPERTREE LOOP, ANCHORAGE, AK, 99504",190826164,R,02,020,000701,1000,-149.76208,61.218506000000005
8709,430 PEPPERTREE LOOP,Anchorage,AK,99504,"430 PEPPERTREE LOOP, Anchorage, AK, 99504",Match,Exact,"430 PEPPERTREE LOOP, ANCHORAGE, AK, 99504",190826164,R,02,020,000701,1000,-149.76234,61.218506000000005
8710,420 PEPPERTREE LOOP,Anchorage,AK,99504,"420 PEPPERTREE LOOP, Anchorage, AK, 99504",Match,Exact,"420 PEPPERTREE LOOP, ANCHORAGE, AK, 99504",190826164,R,02,020,000701,1000,-149.7626,61.218509999999995
8711,504 JORDT CIR,Anchorage,AK,99504,"504 JORDT CIR, Anchorage, AK, 99504",Match,Exact,"504 JORDT CIR, ANCHORAGE, AK, 99504",190802815,R,02,020,000702,3007,-149.75021,61.218394999999994
8712,5502 ALORA LOOP,Anchorage,AK,99504,"5502 ALORA LOOP, Anchorage, AK, 99504",Match,Exact,"5502 ALORA LOOP, ANCHORAGE, AK, 99504",190827504,R,02,020,000701,1010,-149.77754,61.218502
8713,5901 E 6TH AVE,Anchorage,AK,99504,"5901 E 6TH AVE, Anchorage, AK, 99504",Match,Exact,"5901 E 6TH AVE, ANCHORAGE, AK, 99504",190810852,L,02,020,000701,1000,-149.77061,61.216933999999995
8714,424 STATE ST,Anchorage,AK,99504,"424 STATE ST, Anchorage, AK, 99504",Match,Exact,"424 STATE ST, ANCHORAGE, AK, 99504",190803230,R,02,020,000703,3008,-149.73131999999998,61.218636
8715,424 STATE ST,Anchorage,AK,99504,"424 STATE ST, Anchorage, AK, 99504",Match,Exact,"424 STATE ST, ANCHORAGE, AK, 99504",190803230,R,02,020,000703,3008,-149.73131999999998,61.218636
8716,424 STATE ST,Anchorage,AK,99504,"424 STATE ST, Anchorage, AK, 99504",Match,Exact,"424 STATE ST, ANCHORAGE, AK, 99504",190803230,R,02,020,000703,3008,-149.73131999999998,61.218636
8717,424 STATE ST,Anchorage,AK,99504,"424 STATE ST, Anchorage, AK, 99504",Match,Exact,"424 STATE ST, ANCHORAGE, AK, 99504",190803230,R,02,020,000703,3008,-149.73131999999998,61.218636
8718,5901 E 6TH AVE,Anchorage,AK,99504,"5901 E 6TH AVE, Anchorage, AK, 99504",Match,Exact,"5901 E 6TH AVE, ANCHORAGE, AK, 99504",190810852,L,02,020,000701,1000,-149.77061,61.216933999999995
8719,501 FREDRICKS DR,Anchorage,AK,99504,"501 FREDRICKS DR, Anchorage, AK, 99504",Match,Non_Exact,"501 FREDERICKS DR, ANCHORAGE, AK, 99504",190816143,L,02,020,000702,3007,-149.75206,61.21824
8720,5901 E 6TH AVE,Anchorage,AK,99504,"5901 E 6TH AVE, Anchorage, AK, 99504",Match,Exact,"5901 E 6TH AVE, ANCHORAGE, AK, 99504",190810852,L,02,020,000701,1000,-149.77061,61.216933999999995
8721,5901 E 6TH AVE,Anchorage,AK,99504,"5901 E 6TH AVE, Anchorage, AK, 99504",Match,Exact,"5901 E 6TH AVE, ANCHORAGE, AK, 99504",190810852,L,02,020,000701,1000,-149.77061,61.216933999999995
8722,521 MISTY FJORDS CIR,Anchorage,AK,99508,"521 MISTY FJORDS CIR, Anchorage, AK, 99508",Match,Exact,"521 MISTY FJORDS CIR, ANCHORAGE, AK, 99508",190812088,R,02,020,000801,4006,-149.77962,61.217240000000004
8723,521 MISTY FJORDS CIR,Anchorage,AK,99508,"521 MISTY FJORDS CIR, Anchorage, AK, 99508",Match,Exact,"521 MISTY FJORDS CIR, ANCHORAGE, AK, 99508",190812088,R,02,020,000801,4006,-149.77962,61.217240000000004
8724,521 SAN JUAN CIR,Anchorage,AK,99504,"521 SAN JUAN CIR, Anchorage, AK, 99504",Match,Exact,"521 SAN JUAN CIR, ANCHORAGE, AK, 99504",190801991,R,02,020,000701,1010,-149.77719,61.21728
8725,521 SAN JUAN CIR,Anchorage,AK,99504,"521 SAN JUAN CIR, Anchorage, AK, 99504",Match,Exact,"521 SAN JUAN CIR, ANCHORAGE, AK, 99504",190801991,R,02,020,000701,1010,-149.77719,61.21728
8726,520 MISTY FJORDS CIR,Anchorage,AK,99508,"520 MISTY FJORDS CIR, Anchorage, AK, 99508",Match,Exact,"520 MISTY FJORDS CIR, ANCHORAGE, AK, 99508",190812088,L,02,020,000801,4006,-149.77965,61.217240000000004
8727,520 MISTY FJORDS CIR,Anchorage,AK,99508,"520 MISTY FJORDS CIR, Anchorage, AK, 99508",Match,Exact,"520 MISTY FJORDS CIR, ANCHORAGE, AK, 99508",190812088,L,02,020,000801,4006,-149.77965,61.217240000000004
8728,520 SAN JUAN CIR,Anchorage,AK,99504,"520 SAN JUAN CIR, Anchorage, AK, 99504",Match,Exact,"520 SAN JUAN CIR, ANCHORAGE, AK, 99504",190801991,L,02,020,000701,1010,-149.7772,61.21728
8729,520 SAN JUAN CIR,Anchorage,AK,99504,"520 SAN JUAN CIR, Anchorage, AK, 99504",Match,Exact,"520 SAN JUAN CIR, ANCHORAGE, AK, 99504",190801991,L,02,020,000701,1010,-149.7772,61.21728
8730,520 GLACIER BAY CIR,Anchorage,AK,99508,"520 GLACIER BAY CIR, Anchorage, AK, 99508",Match,Non_Exact,"520 GLACIER BAY, ANCHORAGE, AK, 99508",190801985,L,02,020,000801,4006,-149.78146,61.217240000000004
8731,520 GLACIER BAY CIR,Anchorage,AK,99508,"520 GLACIER BAY CIR, Anchorage, AK, 99508",Match,Non_Exact,"520 GLACIER BAY, ANCHORAGE, AK, 99508",190801985,L,02,020,000801,4006,-149.78146,61.217240000000004
8732,540 SAINT LAZARIA CIR,Anchorage,AK,99508,"540 SAINT LAZARIA CIR, Anchorage, AK, 99508",Match,Exact,"540 SAINT LAZARIA CIR, ANCHORAGE, AK, 99508",190801974,L,02,020,000801,4006,-149.78493,61.21719
8733,460 FALKE CT,Anchorage,AK,99504,"460 FALKE CT, Anchorage, AK, 99504",Match,Exact,"460 FALKE CT, ANCHORAGE, AK, 99504",190802766,R,02,020,000701,2000,-149.75766000000002,61.217777000000005
8734,521 BITTERROOT CIR,Anchorage,AK,99504,"521 BITTERROOT CIR, Anchorage, AK, 99504",Match,Exact,"521 BITTERROOT CIR, ANCHORAGE, AK, 99504",190801992,R,02,020,000701,1010,-149.7754,61.21728
8735,521 BITTERROOT CIR,Anchorage,AK,99504,"521 BITTERROOT CIR, Anchorage, AK, 99504",Match,Exact,"521 BITTERROOT CIR, ANCHORAGE, AK, 99504",190801992,R,02,020,000701,1010,-149.7754,61.21728
8736,461 FALKE CT,Anchorage,AK,99504,"461 FALKE CT, Anchorage, AK, 99504",Match,Exact,"461 FALKE CT, ANCHORAGE, AK, 99504",190802766,L,02,020,000701,2000,-149.75763999999998,61.217777000000005
8737,521 GLACIER BAY CIR,Anchorage,AK,99508,"521 GLACIER BAY CIR, Anchorage, AK, 99508",Match,Non_Exact,"521 GLACIER BAY, ANCHORAGE, AK, 99508",190801985,R,02,020,000801,4006,-149.78143,61.217240000000004
8738,361 VILLA CIR,Anchorage,AK,99504,"361 VILLA CIR, Anchorage, AK, 99504",Match,Exact,"361 VILLA CIR, ANCHORAGE, AK, 99504",190816175,L,02,020,000702,2002,-149.74005,61.220264
8739,328 GAYLENE CIR,Anchorage,AK,99504,"328 GAYLENE CIR, Anchorage, AK, 99504",Match,Exact,"328 GAYLENE CIR, ANCHORAGE, AK, 99504",190803322,R,02,020,000703,3001,-149.7213,61.220417000000005
8740,341 PAMELA PL,Anchorage,AK,99504,"341 PAMELA PL, Anchorage, AK, 99504",Match,Exact,"341 PAMELA PL, ANCHORAGE, AK, 99504",190802889,L,02,020,000702,2002,-149.74206999999998,61.220333
8741,341 PAMELA PL,Anchorage,AK,99504,"341 PAMELA PL, Anchorage, AK, 99504",Match,Exact,"341 PAMELA PL, ANCHORAGE, AK, 99504",190802889,L,02,020,000702,2002,-149.74206999999998,61.220333
8742,341 PAMELA PL,Anchorage,AK,99504,"341 PAMELA PL, Anchorage, AK, 99504",Match,Exact,"341 PAMELA PL, ANCHORAGE, AK, 99504",190802889,L,02,020,000702,2002,-149.74206999999998,61.220333
8743,341 PAMELA PL,Anchorage,AK,99504,"341 PAMELA PL, Anchorage, AK, 99504",Match,Exact,"341 PAMELA PL, ANCHORAGE, AK, 99504",190802889,L,02,020,000702,2002,-149.74206999999998,61.220333
8744,371 DANNILYN CIR,Anchorage,AK,99504,"371 DANNILYN CIR, Anchorage, AK, 99504",Match,Exact,"371 DANNILYN CIR, ANCHORAGE, AK, 99504",190808935,L,02,020,000702,2002,-149.74373,61.22022
8745,340 PAMELA PL,Anchorage,AK,99504,"340 PAMELA PL, Anchorage, AK, 99504",Match,Exact,"340 PAMELA PL, ANCHORAGE, AK, 99504",190802889,R,02,020,000702,2002,-149.7421,61.220333
8746,370 DANNILYN CIR,Anchorage,AK,99504,"370 DANNILYN CIR, Anchorage, AK, 99504",Match,Exact,"370 DANNILYN CIR, ANCHORAGE, AK, 99504",190808935,R,02,020,000702,2002,-149.74374,61.22022
8747,332 GAYLENE CIR,Anchorage,AK,99504,"332 GAYLENE CIR, Anchorage, AK, 99504",Match,Exact,"332 GAYLENE CIR, ANCHORAGE, AK, 99504",190803322,R,02,020,000703,3001,-149.7213,61.220397999999996
8748,4704 KENAI AVE,Anchorage,AK,99508,"4704 KENAI AVE, Anchorage, AK, 99508",Match,Exact,"4704 KENAI AVE, ANCHORAGE, AK, 99508",624908526,R,02,020,000801,4004,-149.79211,61.220123
8749,7125 SHOORESIN CIR,Anchorage,AK,99504,"7125 SHOORESIN CIR, Anchorage, AK, 99504",Match,Exact,"7125 SHOORESIN CIR, ANCHORAGE, AK, 99504",190802870,R,02,020,000702,3007,-149.74821,61.22005
8750,371 VILLA CIR,Anchorage,AK,99504,"371 VILLA CIR, Anchorage, AK, 99504",Match,Exact,"371 VILLA CIR, ANCHORAGE, AK, 99504",190816175,L,02,020,000702,2002,-149.74005,61.220222
8751,336 GAYLENE CIR,Anchorage,AK,99504,"336 GAYLENE CIR, Anchorage, AK, 99504",Match,Exact,"336 GAYLENE CIR, ANCHORAGE, AK, 99504",190803322,R,02,020,000703,3001,-149.7213,61.220383
8752,333 GAYLENE CIR,Anchorage,AK,99504,"333 GAYLENE CIR, Anchorage, AK, 99504",Match,Exact,"333 GAYLENE CIR, ANCHORAGE, AK, 99504",190803322,L,02,020,000703,3001,-149.72128,61.220397999999996
8753,7129 SHOORESIN CIR,Anchorage,AK,99504,"7129 SHOORESIN CIR, Anchorage, AK, 99504",Match,Exact,"7129 SHOORESIN CIR, ANCHORAGE, AK, 99504",190802870,R,02,020,000702,3007,-149.74817,61.22005
8754,370 VILLA CIR,Anchorage,AK,99504,"370 VILLA CIR, Anchorage, AK, 99504",Match,Exact,"370 VILLA CIR, ANCHORAGE, AK, 99504",190816175,R,02,020,000702,2002,-149.74007,61.220222
8755,337 GAYLENE CIR,Anchorage,AK,99504,"337 GAYLENE CIR, Anchorage, AK, 99504",Match,Exact,"337 GAYLENE CIR, ANCHORAGE, AK, 99504",190803322,L,02,020,000703,3001,-149.72128,61.220383
8756,355 DONNA DR,Anchorage,AK,99504,"355 DONNA DR, Anchorage, AK, 99504",Match,Exact,"355 DONNA DR, ANCHORAGE, AK, 99504",190808601,R,02,020,000701,2001,-149.75958,61.219826
8757,355 DONNA DR,Anchorage,AK,99504,"355 DONNA DR, Anchorage, AK, 99504",Match,Exact,"355 DONNA DR, ANCHORAGE, AK, 99504",190808601,R,02,020,000701,2001,-149.75958,61.219826
8758,355 DONNA DR,Anchorage,AK,99504,"355 DONNA DR, Anchorage, AK, 99504",Match,Exact,"355 DONNA DR, ANCHORAGE, AK, 99504",190808601,R,02,020,000701,2001,-149.75958,61.219826
8759,355 DONNA DR,Anchorage,AK,99504,"355 DONNA DR, Anchorage, AK, 99504",Match,Exact,"355 DONNA DR, ANCHORAGE, AK, 99504",190808601,R,02,020,000701,2001,-149.75958,61.219826
8760,355 DONNA DR,Anchorage,AK,99504,"355 DONNA DR, Anchorage, AK, 99504",Match,Exact,"355 DONNA DR, ANCHORAGE, AK, 99504",190808601,R,02,020,000701,2001,-149.75958,61.219826
8761,355 DONNA DR,Anchorage,AK,99504,"355 DONNA DR, Anchorage, AK, 99504",Match,Exact,"355 DONNA DR, ANCHORAGE, AK, 99504",190808601,R,02,020,000701,2001,-149.75958,61.219826
8762,355 DONNA DR,Anchorage,AK,99504,"355 DONNA DR, Anchorage, AK, 99504",Match,Exact,"355 DONNA DR, ANCHORAGE, AK, 99504",190808601,R,02,020,000701,2001,-149.75958,61.219826
8763,355 DONNA DR,Anchorage,AK,99504,"355 DONNA DR, Anchorage, AK, 99504",Match,Exact,"355 DONNA DR, ANCHORAGE, AK, 99504",190808601,R,02,020,000701,2001,-149.75958,61.219826
8764,355 DONNA DR,Anchorage,AK,99504,"355 DONNA DR, Anchorage, AK, 99504",Match,Exact,"355 DONNA DR, ANCHORAGE, AK, 99504",190808601,R,02,020,000701,2001,-149.75958,61.219826
8765,355 DONNA DR,Anchorage,AK,99504,"355 DONNA DR, Anchorage, AK, 99504",Match,Exact,"355 DONNA DR, ANCHORAGE, AK, 99504",190808601,R,02,020,000701,2001,-149.75958,61.219826
8766,345 PINE ST,Anchorage,AK,99508,"345 PINE ST, Anchorage, AK, 99508",Match,Non_Exact,"345 S PINE ST, ANCHORAGE, AK, 99508",190801727,L,02,020,000801,4005,-149.7934,61.21976
8767,418 CAMELOT DR,Anchorage,AK,99508,"418 CAMELOT DR, Anchorage, AK, 99508",Match,Exact,"418 CAMELOT DR, ANCHORAGE, AK, 99508",190801979,R,02,020,000801,4001,-149.78134,61.219887
8768,418 CAMELOT DR,Anchorage,AK,99508,"418 CAMELOT DR, Anchorage, AK, 99508",Match,Exact,"418 CAMELOT DR, ANCHORAGE, AK, 99508",190801979,R,02,020,000801,4001,-149.78134,61.219887
8769,418 CAMELOT DR,Anchorage,AK,99508,"418 CAMELOT DR, Anchorage, AK, 99508",Match,Exact,"418 CAMELOT DR, ANCHORAGE, AK, 99508",190801979,R,02,020,000801,4001,-149.78134,61.219887
8770,418 CAMELOT DR,Anchorage,AK,99508,"418 CAMELOT DR, Anchorage, AK, 99508",Match,Exact,"418 CAMELOT DR, ANCHORAGE, AK, 99508",190801979,R,02,020,000801,4001,-149.78134,61.219887
8771,418 CAMELOT DR,Anchorage,AK,99508,"418 CAMELOT DR, Anchorage, AK, 99508",Match,Exact,"418 CAMELOT DR, ANCHORAGE, AK, 99508",190801979,R,02,020,000801,4001,-149.78134,61.219887
8772,418 CAMELOT DR,Anchorage,AK,99508,"418 CAMELOT DR, Anchorage, AK, 99508",Match,Exact,"418 CAMELOT DR, ANCHORAGE, AK, 99508",190801979,R,02,020,000801,4001,-149.78134,61.219887
8773,418 CAMELOT DR,Anchorage,AK,99508,"418 CAMELOT DR, Anchorage, AK, 99508",Match,Exact,"418 CAMELOT DR, ANCHORAGE, AK, 99508",190801979,R,02,020,000801,4001,-149.78134,61.219887
8774,337 TURPIN ST,Anchorage,AK,99504,"337 TURPIN ST, Anchorage, AK, 99504",Match,Exact,"337 TURPIN ST, ANCHORAGE, AK, 99504",190802770,L,02,020,000702,3006,-149.75595,61.219840000000005
8775,337 TURPIN ST,Anchorage,AK,99504,"337 TURPIN ST, Anchorage, AK, 99504",Match,Exact,"337 TURPIN ST, ANCHORAGE, AK, 99504",190802770,L,02,020,000702,3006,-149.75595,61.219840000000005
8776,337 TURPIN ST,Anchorage,AK,99504,"337 TURPIN ST, Anchorage, AK, 99504",Match,Exact,"337 TURPIN ST, ANCHORAGE, AK, 99504",190802770,L,02,020,000702,3006,-149.75595,61.219840000000005
8777,335 MULDOON RD,Anchorage,AK,99504,"335 MULDOON RD, Anchorage, AK, 99504",Match,Exact,"335 MULDOON RD, ANCHORAGE, AK, 99504",190803215,L,02,020,000703,3008,-149.73346999999998,61.219715
8778,344 IDAHO ST,Anchorage,AK,99504,"344 IDAHO ST, Anchorage, AK, 99504",Match,Exact,"344 IDAHO ST, ANCHORAGE, AK, 99504",190802900,R,02,020,000702,2002,-149.73723999999999,61.21929599999999
8779,336 FERN LN,Anchorage,AK,99504,"336 FERN LN, Anchorage, AK, 99504",Match,Exact,"336 FERN LN, ANCHORAGE, AK, 99504",190802803,R,02,020,000702,3006,-149.75396999999998,61.21977
8780,6841 E 3RD AVE,Anchorage,AK,99504,"6841 E 3RD AVE, Anchorage, AK, 99504",Match,Exact,"6841 E 3RD AVE, ANCHORAGE, AK, 99504",190802807,L,02,020,000702,3004,-149.7527,61.219765
8781,330 PEPPERTREE LOOP,Anchorage,AK,99504,"330 PEPPERTREE LOOP, Anchorage, AK, 99504",Match,Exact,"330 PEPPERTREE LOOP, ANCHORAGE, AK, 99504",190826164,R,02,020,000701,1000,-149.76265,61.219646
8782,6830 E 3RD AVE,Anchorage,AK,99504,"6830 E 3RD AVE, Anchorage, AK, 99504",Match,Exact,"6830 E 3RD AVE, ANCHORAGE, AK, 99504",190802807,R,02,020,000702,3009,-149.75294,61.219765
8783,349 PAULINE ST,Anchorage,AK,99504,"349 PAULINE ST, Anchorage, AK, 99504",Match,Exact,"349 PAULINE ST, ANCHORAGE, AK, 99504",190807392,L,02,020,000703,3002,-149.7267,61.219597
8784,337 KRANE DR,Anchorage,AK,99504,"337 KRANE DR, Anchorage, AK, 99504",Match,Exact,"337 KRANE DR, ANCHORAGE, AK, 99504",605167555,R,02,020,000701,2000,-149.75708,61.21996
8785,5901 E 6TH AVE,Anchorage,AK,99504,"5901 E 6TH AVE, Anchorage, AK, 99504",Match,Exact,"5901 E 6TH AVE, ANCHORAGE, AK, 99504",190810852,L,02,020,000701,1000,-149.77061,61.216933999999995
8786,5901 E 6TH AVE,Anchorage,AK,99504,"5901 E 6TH AVE, Anchorage, AK, 99504",Match,Exact,"5901 E 6TH AVE, ANCHORAGE, AK, 99504",190810852,L,02,020,000701,1000,-149.77061,61.216933999999995
8787,5901 E 6TH AVE,Anchorage,AK,99504,"5901 E 6TH AVE, Anchorage, AK, 99504",Match,Exact,"5901 E 6TH AVE, ANCHORAGE, AK, 99504",190810852,L,02,020,000701,1000,-149.77061,61.216933999999995
8788,440 PATTERSON ST,Anchorage,AK,99504,"440 PATTERSON ST, Anchorage, AK, 99504",Match,Exact,"440 PATTERSON ST, ANCHORAGE, AK, 99504",190802869,R,02,020,000702,3007,-149.7485,61.219356999999995
8789,333 KRANE DR,Anchorage,AK,99504,"333 KRANE DR, Anchorage, AK, 99504",Match,Exact,"333 KRANE DR, ANCHORAGE, AK, 99504",605167555,R,02,020,000701,2000,-149.75708,61.220009999999995
8790,335 KRANE DR,Anchorage,AK,99504,"335 KRANE DR, Anchorage, AK, 99504",Match,Exact,"335 KRANE DR, ANCHORAGE, AK, 99504",605167555,R,02,020,000701,2000,-149.75708,61.219986
8791,400 TURPIN ST,Anchorage,AK,99504,"400 TURPIN ST, Anchorage, AK, 99504",Match,Exact,"400 TURPIN ST, ANCHORAGE, AK, 99504",190802771,R,02,020,000701,2000,-149.75597,61.21861
8792,400 TURPIN ST,Anchorage,AK,99504,"400 TURPIN ST, Anchorage, AK, 99504",Match,Exact,"400 TURPIN ST, ANCHORAGE, AK, 99504",190802771,R,02,020,000701,2000,-149.75597,61.21861
8793,505 JORDT CIR,Anchorage,AK,99504,"505 JORDT CIR, Anchorage, AK, 99504",Match,Exact,"505 JORDT CIR, ANCHORAGE, AK, 99504",190802815,L,02,020,000702,3007,-149.7499,61.21829
8794,400 PEPPERTREE LOOP,Anchorage,AK,99504,"400 PEPPERTREE LOOP, Anchorage, AK, 99504",Match,Exact,"400 PEPPERTREE LOOP, ANCHORAGE, AK, 99504",190826164,R,02,020,000701,1000,-149.76265,61.218754000000004
8795,414 EKLUTNA ST,Anchorage,AK,99504,"414 EKLUTNA ST, Anchorage, AK, 99504",No_Match,,,,,,,,,,
8796,415 STANDISH ST,Anchorage,AK,99504,"415 STANDISH ST, Anchorage, AK, 99504",Match,Exact,"415 STANDISH ST, ANCHORAGE, AK, 99504",190803259,L,02,020,000703,3013,-149.72523,61.21856
8797,413 PEPPERTREE LOOP,Anchorage,AK,99504,"413 PEPPERTREE LOOP, Anchorage, AK, 99504",Match,Exact,"413 PEPPERTREE LOOP, ANCHORAGE, AK, 99504",190826164,L,02,020,000701,1008,-149.76263,61.218596999999995
8798,500 PATSY ST,Anchorage,AK,99504,"500 PATSY ST, Anchorage, AK, 99504",Match,Exact,"500 PATSY ST, ANCHORAGE, AK, 99504",190810873,R,02,020,000702,2003,-149.74286999999998,61.21784
8799,5901 E 6TH AVE,Anchorage,AK,99504,"5901 E 6TH AVE, Anchorage, AK, 99504",Match,Exact,"5901 E 6TH AVE, ANCHORAGE, AK, 99504",190810852,L,02,020,000701,1000,-149.77061,61.216933999999995
8800,5450 NEW SMYRNA CIR,Anchorage,AK,99508,"5450 NEW SMYRNA CIR, Anchorage, AK, 99508",Match,Exact,"5450 NEW SMYRNA CIR, ANCHORAGE, AK, 99508",614862496,R,02,020,000801,4006,-149.78003999999999,61.218067000000005
8801,5901 E 6TH AVE,Anchorage,AK,99504,"5901 E 6TH AVE, Anchorage, AK, 99504",Match,Exact,"5901 E 6TH AVE, ANCHORAGE, AK, 99504",190810852,L,02,020,000701,1000,-149.77061,61.216933999999995
8802,5901 E 6TH AVE,Anchorage,AK,99504,"5901 E 6TH AVE, Anchorage, AK, 99504",Match,Exact,"5901 E 6TH AVE, ANCHORAGE, AK, 99504",190810852,L,02,020,000701,1000,-149.77061,61.216933999999995
8803,5901 E 6TH AVE,Anchorage,AK,99504,"5901 E 6TH AVE, Anchorage, AK, 99504",Match,Exact,"5901 E 6TH AVE, ANCHORAGE, AK, 99504",190810852,L,02,020,000701,1000,-149.77061,61.216933999999995
8804,5901 E 6TH AVE,Anchorage,AK,99504,"5901 E 6TH AVE, Anchorage, AK, 99504",Match,Exact,"5901 E 6TH AVE, ANCHORAGE, AK, 99504",190810852,L,02,020,000701,1000,-149.77061,61.216933999999995
8805,510 JORDT CIR,Anchorage,AK,99504,"510 JORDT CIR, Anchorage, AK, 99504",Match,Exact,"510 JORDT CIR, ANCHORAGE, AK, 99504",190802815,R,02,020,000702,3007,-149.75008,61.218346
8806,500 OKLAHOMA ST,Anchorage,AK,99504,"500 OKLAHOMA ST, Anchorage, AK, 99504",Match,Exact,"500 OKLAHOMA ST, ANCHORAGE, AK, 99504",190802877,R,02,020,000702,3007,-149.74475,61.21784
8807,500 OKLAHOMA ST,Anchorage,AK,99504,"500 OKLAHOMA ST, Anchorage, AK, 99504",Match,Exact,"500 OKLAHOMA ST, ANCHORAGE, AK, 99504",190802877,R,02,020,000702,3007,-149.74475,61.21784
8808,500 OKLAHOMA ST,Anchorage,AK,99504,"500 OKLAHOMA ST, Anchorage, AK, 99504",Match,Exact,"500 OKLAHOMA ST, ANCHORAGE, AK, 99504",190802877,R,02,020,000702,3007,-149.74475,61.21784
8809,501 OKLAHOMA ST,Anchorage,AK,99504,"501 OKLAHOMA ST, Anchorage, AK, 99504",Match,Exact,"501 OKLAHOMA ST, ANCHORAGE, AK, 99504",190802877,L,02,020,000702,2003,-149.74472,61.21784
8810,501 OKLAHOMA ST,Anchorage,AK,99504,"501 OKLAHOMA ST, Anchorage, AK, 99504",Match,Exact,"501 OKLAHOMA ST, ANCHORAGE, AK, 99504",190802877,L,02,020,000702,2003,-149.74472,61.21784
8811,501 OKLAHOMA ST,Anchorage,AK,99504,"501 OKLAHOMA ST, Anchorage, AK, 99504",Match,Exact,"501 OKLAHOMA ST, ANCHORAGE, AK, 99504",190802877,L,02,020,000702,2003,-149.74472,61.21784
8812,5901 E 6TH AVE,Anchorage,AK,99504,"5901 E 6TH AVE, Anchorage, AK, 99504",Match,Exact,"5901 E 6TH AVE, ANCHORAGE, AK, 99504",190810852,L,02,020,000701,1000,-149.77061,61.216933999999995
8813,5901 E 6TH AVE,Anchorage,AK,99504,"5901 E 6TH AVE, Anchorage, AK, 99504",Match,Exact,"5901 E 6TH AVE, ANCHORAGE, AK, 99504",190810852,L,02,020,000701,1000,-149.77061,61.216933999999995
8814,5901 E 6TH AVE,Anchorage,AK,99504,"5901 E 6TH AVE, Anchorage, AK, 99504",Match,Exact,"5901 E 6TH AVE, ANCHORAGE, AK, 99504",190810852,L,02,020,000701,1000,-149.77061,61.216933999999995
8815,5901 E 6TH AVE,Anchorage,AK,99504,"5901 E 6TH AVE, Anchorage, AK, 99504",Match,Exact,"5901 E 6TH AVE, ANCHORAGE, AK, 99504",190810852,L,02,020,000701,1000,-149.77061,61.216933999999995
8816,5901 E 6TH AVE,Anchorage,AK,99504,"5901 E 6TH AVE, Anchorage, AK, 99504",Match,Exact,"5901 E 6TH AVE, ANCHORAGE, AK, 99504",190810852,L,02,020,000701,1000,-149.77061,61.216933999999995
8817,5901 E 6TH AVE,Anchorage,AK,99504,"5901 E 6TH AVE, Anchorage, AK, 99504",Match,Exact,"5901 E 6TH AVE, ANCHORAGE, AK, 99504",190810852,L,02,020,000701,1000,-149.77061,61.216933999999995
8818,5901 E 6TH AVE,Anchorage,AK,99504,"5901 E 6TH AVE, Anchorage, AK, 99504",Match,Exact,"5901 E 6TH AVE, ANCHORAGE, AK, 99504",190810852,L,02,020,000701,1000,-149.77061,61.216933999999995
8819,5901 E 6TH AVE,Anchorage,AK,99504,"5901 E 6TH AVE, Anchorage, AK, 99504",Match,Exact,"5901 E 6TH AVE, ANCHORAGE, AK, 99504",190810852,L,02,020,000701,1000,-149.77061,61.216933999999995
8820,5901 E 6TH AVE,Anchorage,AK,99504,"5901 E 6TH AVE, Anchorage, AK, 99504",Match,Exact,"5901 E 6TH AVE, ANCHORAGE, AK, 99504",190810852,L,02,020,000701,1000,-149.77061,61.216933999999995
8821,5901 E 6TH AVE,Anchorage,AK,99504,"5901 E 6TH AVE, Anchorage, AK, 99504",Match,Exact,"5901 E 6TH AVE, ANCHORAGE, AK, 99504",190810852,L,02,020,000701,1000,-149.77061,61.216933999999995
8822,6311 HABICHT CT,Anchorage,AK,99504,"6311 HABICHT CT, Anchorage, AK, 99504",Match,Exact,"6311 HABICHT CT, ANCHORAGE, AK, 99504",190802075,R,02,020,000701,1000,-149.76198,61.21764
8823,511 FREDRICKS DR,Anchorage,AK,99504,"511 FREDRICKS DR, Anchorage, AK, 99504",Match,Non_Exact,"511 FREDERICKS DR, ANCHORAGE, AK, 99504",190816143,L,02,020,000702,3007,-149.7521,61.21833
8824,500 IDAHO ST,Anchorage,AK,99504,"500 IDAHO ST, Anchorage, AK, 99504",Match,Exact,"500 IDAHO ST, ANCHORAGE, AK, 99504",190802902,R,02,020,000702,2005,-149.73723999999999,61.217842000000005
8825,500 IDAHO ST,Anchorage,AK,99504,"500 IDAHO ST, Anchorage, AK, 99504",Match,Exact,"500 IDAHO ST, ANCHORAGE, AK, 99504",190802902,R,02,020,000702,2005,-149.73723999999999,61.217842000000005
8826,510 OKLAHOMA ST,Anchorage,AK,99504,"510 OKLAHOMA ST, Anchorage, AK, 99504",Match,Exact,"510 OKLAHOMA ST, ANCHORAGE, AK, 99504",190802877,R,02,020,000702,3007,-149.74475,61.217762
8827,510 OKLAHOMA ST,Anchorage,AK,99504,"510 OKLAHOMA ST, Anchorage, AK, 99504",Match,Exact,"510 OKLAHOMA ST, ANCHORAGE, AK, 99504",190802877,R,02,020,000702,3007,-149.74475,61.217762
8828,510 OKLAHOMA ST,Anchorage,AK,99504,"510 OKLAHOMA ST, Anchorage, AK, 99504",Match,Exact,"510 OKLAHOMA ST, ANCHORAGE, AK, 99504",190802877,R,02,020,000702,3007,-149.74475,61.217762
8829,510 OKLAHOMA ST,Anchorage,AK,99504,"510 OKLAHOMA ST, Anchorage, AK, 99504",Match,Exact,"510 OKLAHOMA ST, ANCHORAGE, AK, 99504",190802877,R,02,020,000702,3007,-149.74475,61.217762
8830,506 TURPIN ST,Anchorage,AK,99504,"506 TURPIN ST, Anchorage, AK, 99504",Match,Exact,"506 TURPIN ST, ANCHORAGE, AK, 99504",190802771,R,02,020,000701,2000,-149.75597,61.21779300000001
8831,506 TURPIN ST,Anchorage,AK,99504,"506 TURPIN ST, Anchorage, AK, 99504",Match,Exact,"506 TURPIN ST, ANCHORAGE, AK, 99504",190802771,R,02,020,000701,2000,-149.75597,61.21779300000001
8832,506 TURPIN ST,Anchorage,AK,99504,"506 TURPIN ST, Anchorage, AK, 99504",Match,Exact,"506 TURPIN ST, ANCHORAGE, AK, 99504",190802771,R,02,020,000701,2000,-149.75597,61.21779300000001
8833,322 MULDOON RD,Anchorage,AK,99504,"322 MULDOON RD, Anchorage, AK, 99504",Match,Exact,"322 MULDOON RD, ANCHORAGE, AK, 99504",190803214,R,02,020,000702,2002,-149.7335,61.22014
8834,322 MULDOON RD,Anchorage,AK,99504,"322 MULDOON RD, Anchorage, AK, 99504",Match,Exact,"322 MULDOON RD, ANCHORAGE, AK, 99504",190803214,R,02,020,000702,2002,-149.7335,61.22014
8835,322 MULDOON RD,Anchorage,AK,99504,"322 MULDOON RD, Anchorage, AK, 99504",Match,Exact,"322 MULDOON RD, ANCHORAGE, AK, 99504",190803214,R,02,020,000702,2002,-149.7335,61.22014
8836,322 MULDOON RD,Anchorage,AK,99504,"322 MULDOON RD, Anchorage, AK, 99504",Match,Exact,"322 MULDOON RD, ANCHORAGE, AK, 99504",190803214,R,02,020,000702,2002,-149.7335,61.22014
8837,305 DONNA DR,Anchorage,AK,99504,"305 DONNA DR, Anchorage, AK, 99504",Match,Exact,"305 DONNA DR, ANCHORAGE, AK, 99504",639716019,R,02,020,000701,2001,-149.75753999999998,61.220524
8838,305 DONNA DR,Anchorage,AK,99504,"305 DONNA DR, Anchorage, AK, 99504",Match,Exact,"305 DONNA DR, ANCHORAGE, AK, 99504",639716019,R,02,020,000701,2001,-149.75753999999998,61.220524
8839,305 DONNA DR,Anchorage,AK,99504,"305 DONNA DR, Anchorage, AK, 99504",Match,Exact,"305 DONNA DR, ANCHORAGE, AK, 99504",639716019,R,02,020,000701,2001,-149.75753999999998,61.220524
8840,305 DONNA DR,Anchorage,AK,99504,"305 DONNA DR, Anchorage, AK, 99504",Match,Exact,"305 DONNA DR, ANCHORAGE, AK, 99504",639716019,R,02,020,000701,2001,-149.75753999999998,61.220524
8841,305 DONNA DR,Anchorage,AK,99504,"305 DONNA DR, Anchorage, AK, 99504",Match,Exact,"305 DONNA DR, ANCHORAGE, AK, 99504",639716019,R,02,020,000701,2001,-149.75753999999998,61.220524
8842,305 DONNA DR,Anchorage,AK,99504,"305 DONNA DR, Anchorage, AK, 99504",Match,Exact,"305 DONNA DR, ANCHORAGE, AK, 99504",639716019,R,02,020,000701,2001,-149.75753999999998,61.220524
8843,305 DONNA DR,Anchorage,AK,99504,"305 DONNA DR, Anchorage, AK, 99504",Match,Exact,"305 DONNA DR, ANCHORAGE, AK, 99504",639716019,R,02,020,000701,2001,-149.75753999999998,61.220524
8844,305 DONNA DR,Anchorage,AK,99504,"305 DONNA DR, Anchorage, AK, 99504",Match,Exact,"305 DONNA DR, ANCHORAGE, AK, 99504",639716019,R,02,020,000701,2001,-149.75753999999998,61.220524
8845,305 DONNA DR,Anchorage,AK,99504,"305 DONNA DR, Anchorage, AK, 99504",Match,Exact,"305 DONNA DR, ANCHORAGE, AK, 99504",639716019,R,02,020,000701,2001,-149.75753999999998,61.220524
8846,305 DONNA DR,Anchorage,AK,99504,"305 DONNA DR, Anchorage, AK, 99504",Match,Exact,"305 DONNA DR, ANCHORAGE, AK, 99504",639716019,R,02,020,000701,2001,-149.75753999999998,61.220524
8847,305 DONNA DR,Anchorage,AK,99504,"305 DONNA DR, Anchorage, AK, 99504",Match,Exact,"305 DONNA DR, ANCHORAGE, AK, 99504",639716019,R,02,020,000701,2001,-149.75753999999998,61.220524
8848,305 DONNA DR,Anchorage,AK,99504,"305 DONNA DR, Anchorage, AK, 99504",Match,Exact,"305 DONNA DR, ANCHORAGE, AK, 99504",639716019,R,02,020,000701,2001,-149.75753999999998,61.220524
8849,305 DONNA DR,Anchorage,AK,99504,"305 DONNA DR, Anchorage, AK, 99504",Match,Exact,"305 DONNA DR, ANCHORAGE, AK, 99504",639716019,R,02,020,000701,2001,-149.75753999999998,61.220524
8850,305 DONNA DR,Anchorage,AK,99504,"305 DONNA DR, Anchorage, AK, 99504",Match,Exact,"305 DONNA DR, ANCHORAGE, AK, 99504",639716019,R,02,020,000701,2001,-149.75753999999998,61.220524
8851,305 DONNA DR,Anchorage,AK,99504,"305 DONNA DR, Anchorage, AK, 99504",Match,Exact,"305 DONNA DR, ANCHORAGE, AK, 99504",639716019,R,02,020,000701,2001,-149.75753999999998,61.220524
8852,305 DONNA DR,Anchorage,AK,99504,"305 DONNA DR, Anchorage, AK, 99504",Match,Exact,"305 DONNA DR, ANCHORAGE, AK, 99504",639716019,R,02,020,000701,2001,-149.75753999999998,61.220524
8853,305 DONNA DR,Anchorage,AK,99504,"305 DONNA DR, Anchorage, AK, 99504",Match,Exact,"305 DONNA DR, ANCHORAGE, AK, 99504",639716019,R,02,020,000701,2001,-149.75753999999998,61.220524
8854,305 DONNA DR,Anchorage,AK,99504,"305 DONNA DR, Anchorage, AK, 99504",Match,Exact,"305 DONNA DR, ANCHORAGE, AK, 99504",639716019,R,02,020,000701,2001,-149.75753999999998,61.220524
8855,305 DONNA DR,Anchorage,AK,99504,"305 DONNA DR, Anchorage, AK, 99504",Match,Exact,"305 DONNA DR, ANCHORAGE, AK, 99504",639716019,R,02,020,000701,2001,-149.75753999999998,61.220524
8856,305 DONNA DR,Anchorage,AK,99504,"305 DONNA DR, Anchorage, AK, 99504",Match,Exact,"305 DONNA DR, ANCHORAGE, AK, 99504",639716019,R,02,020,000701,2001,-149.75753999999998,61.220524
8857,305 DONNA DR,Anchorage,AK,99504,"305 DONNA DR, Anchorage, AK, 99504",Match,Exact,"305 DONNA DR, ANCHORAGE, AK, 99504",639716019,R,02,020,000701,2001,-149.75753999999998,61.220524
8858,305 DONNA DR,Anchorage,AK,99504,"305 DONNA DR, Anchorage, AK, 99504",Match,Exact,"305 DONNA DR, ANCHORAGE, AK, 99504",639716019,R,02,020,000701,2001,-149.75753999999998,61.220524
8859,305 DONNA DR,Anchorage,AK,99504,"305 DONNA DR, Anchorage, AK, 99504",Match,Exact,"305 DONNA DR, ANCHORAGE, AK, 99504",639716019,R,02,020,000701,2001,-149.75753999999998,61.220524
8860,406 CAMELOT DR,Anchorage,AK,99508,"406 CAMELOT DR, Anchorage, AK, 99508",Match,Exact,"406 CAMELOT DR, ANCHORAGE, AK, 99508",190801979,R,02,020,000801,4001,-149.7815,61.219627
8861,406 CAMELOT DR,Anchorage,AK,99508,"406 CAMELOT DR, Anchorage, AK, 99508",Match,Exact,"406 CAMELOT DR, ANCHORAGE, AK, 99508",190801979,R,02,020,000801,4001,-149.7815,61.219627
8862,406 CAMELOT DR,Anchorage,AK,99508,"406 CAMELOT DR, Anchorage, AK, 99508",Match,Exact,"406 CAMELOT DR, ANCHORAGE, AK, 99508",190801979,R,02,020,000801,4001,-149.7815,61.219627
8863,406 CAMELOT DR,Anchorage,AK,99508,"406 CAMELOT DR, Anchorage, AK, 99508",Match,Exact,"406 CAMELOT DR, ANCHORAGE, AK, 99508",190801979,R,02,020,000801,4001,-149.7815,61.219627
8864,406 CAMELOT DR,Anchorage,AK,99508,"406 CAMELOT DR, Anchorage, AK, 99508",Match,Exact,"406 CAMELOT DR, ANCHORAGE, AK, 99508",190801979,R,02,020,000801,4001,-149.7815,61.219627
8865,406 CAMELOT DR,Anchorage,AK,99508,"406 CAMELOT DR, Anchorage, AK, 99508",Match,Exact,"406 CAMELOT DR, ANCHORAGE, AK, 99508",190801979,R,02,020,000801,4001,-149.7815,61.219627
8866,325 TURPIN ST,Anchorage,AK,99504,"325 TURPIN ST, Anchorage, AK, 99504",Match,Exact,"325 TURPIN ST, ANCHORAGE, AK, 99504",190802770,L,02,020,000702,3006,-149.75597,61.220024
8867,325 TURPIN ST,Anchorage,AK,99504,"325 TURPIN ST, Anchorage, AK, 99504",Match,Exact,"325 TURPIN ST, ANCHORAGE, AK, 99504",190802770,L,02,020,000702,3006,-149.75597,61.220024
8868,325 TURPIN ST,Anchorage,AK,99504,"325 TURPIN ST, Anchorage, AK, 99504",Match,Exact,"325 TURPIN ST, ANCHORAGE, AK, 99504",190802770,L,02,020,000702,3006,-149.75597,61.220024
8869,381 DANNILYN CIR,Anchorage,AK,99504,"381 DANNILYN CIR, Anchorage, AK, 99504",Match,Exact,"381 DANNILYN CIR, ANCHORAGE, AK, 99504",190808935,L,02,020,000702,2002,-149.74373,61.220177
8870,381 VILLA CIR,Anchorage,AK,99504,"381 VILLA CIR, Anchorage, AK, 99504",Match,Exact,"381 VILLA CIR, ANCHORAGE, AK, 99504",190816175,L,02,020,000702,2002,-149.74005,61.220180000000006
8871,4800 KENAI AVE,Anchorage,AK,99508,"4800 KENAI AVE, Anchorage, AK, 99508",Match,Exact,"4800 KENAI AVE, ANCHORAGE, AK, 99508",624908526,R,02,020,000801,4004,-149.79097,61.220062
8872,380 DANNILYN CIR,Anchorage,AK,99504,"380 DANNILYN CIR, Anchorage, AK, 99504",Match,Exact,"380 DANNILYN CIR, ANCHORAGE, AK, 99504",190808935,R,02,020,000702,2002,-149.74374,61.220177
8873,5901 E 6TH AVE,Anchorage,AK,99504,"5901 E 6TH AVE, Anchorage, AK, 99504",Match,Exact,"5901 E 6TH AVE, ANCHORAGE, AK, 99504",190810852,L,02,020,000701,1000,-149.77061,61.216933999999995
8874,332 BOLIN ST,Anchorage,AK,99504,"332 BOLIN ST, Anchorage, AK, 99504",Match,Exact,"332 BOLIN ST, ANCHORAGE, AK, 99504",190803336,R,02,020,000703,3001,-149.71944,61.220107999999996
8875,380 VILLA CIR,Anchorage,AK,99504,"380 VILLA CIR, Anchorage, AK, 99504",Match,Exact,"380 VILLA CIR, ANCHORAGE, AK, 99504",190816175,R,02,020,000702,2002,-149.74007,61.220180000000006
8876,8201 E 4TH AVE,Anchorage,AK,99504,"8201 E 4TH AVE, Anchorage, AK, 99504",Match,Exact,"8201 E 4TH AVE, ANCHORAGE, AK, 99504",190803256,L,02,020,000703,3007,-149.72833,61.218864
8877,8149 E 4TH AVE,Anchorage,AK,99504,"8149 E 4TH AVE, Anchorage, AK, 99504",Match,Exact,"8149 E 4TH AVE, ANCHORAGE, AK, 99504",190803256,L,02,020,000703,3007,-149.72899999999998,61.218864
8878,8149 E 4TH AVE,Anchorage,AK,99504,"8149 E 4TH AVE, Anchorage, AK, 99504",Match,Exact,"8149 E 4TH AVE, ANCHORAGE, AK, 99504",190803256,L,02,020,000703,3007,-149.72899999999998,61.218864
8879,403 CHERRY ST,Anchorage,AK,99504,"403 CHERRY ST, Anchorage, AK, 99504",Match,Exact,"403 CHERRY ST, ANCHORAGE, AK, 99504",190803319,L,02,020,000703,3000,-149.72223,61.219105000000006
8880,8125 E 4TH AVE,Anchorage,AK,99504,"8125 E 4TH AVE, Anchorage, AK, 99504",Match,Exact,"8125 E 4TH AVE, ANCHORAGE, AK, 99504",190803256,L,02,020,000703,3007,-149.72932,61.218864
8881,8113 E 4TH AVE,Anchorage,AK,99504,"8113 E 4TH AVE, Anchorage, AK, 99504",Match,Exact,"8113 E 4TH AVE, ANCHORAGE, AK, 99504",190803256,L,02,020,000703,3007,-149.72948,61.218864
8882,8101 E 4TH AVE,Anchorage,AK,99504,"8101 E 4TH AVE, Anchorage, AK, 99504",Match,Exact,"8101 E 4TH AVE, ANCHORAGE, AK, 99504",190803256,L,02,020,000703,3007,-149.72963000000001,61.218864
8883,8025 E 4TH AVE,Anchorage,AK,99504,"8025 E 4TH AVE, Anchorage, AK, 99504",Match,Exact,"8025 E 4TH AVE, ANCHORAGE, AK, 99504",190803256,L,02,020,000703,3007,-149.73062,61.218864
8884,8015 E 4TH AVE,Anchorage,AK,99504,"8015 E 4TH AVE, Anchorage, AK, 99504",Match,Exact,"8015 E 4TH AVE, ANCHORAGE, AK, 99504",190803256,L,02,020,000703,3007,-149.73076,61.218864
8885,8001 E 4TH AVE,Anchorage,AK,99504,"8001 E 4TH AVE, Anchorage, AK, 99504",Match,Exact,"8001 E 4TH AVE, ANCHORAGE, AK, 99504",190803256,L,02,020,000703,3007,-149.73094,61.218864
8886,8001 E 4TH AVE,Anchorage,AK,99504,"8001 E 4TH AVE, Anchorage, AK, 99504",Match,Exact,"8001 E 4TH AVE, ANCHORAGE, AK, 99504",190803256,L,02,020,000703,3007,-149.73094,61.218864
8887,385 STANDISH ST,Anchorage,AK,99504,"385 STANDISH ST, Anchorage, AK, 99504",Match,Exact,"385 STANDISH ST, ANCHORAGE, AK, 99504",190803259,L,02,020,000703,3013,-149.72523,61.21881
8888,530 PEPPERTREE LOOP,Anchorage,AK,99504,"530 PEPPERTREE LOOP, Anchorage, AK, 99504",Match,Exact,"530 PEPPERTREE LOOP, ANCHORAGE, AK, 99504",190808602,R,02,020,000701,1000,-149.75981000000002,61.21898
8889,400 BUNNELL ST,Anchorage,AK,99508,"400 BUNNELL ST, Anchorage, AK, 99508",Match,Exact,"400 BUNNELL ST, ANCHORAGE, AK, 99508",190801746,R,02,020,000801,4007,-149.78972,61.219166
8890,400 BUNNELL ST,Anchorage,AK,99508,"400 BUNNELL ST, Anchorage, AK, 99508",Match,Exact,"400 BUNNELL ST, ANCHORAGE, AK, 99508",190801746,R,02,020,000801,4007,-149.78972,61.219166
8891,400 BUNNELL ST,Anchorage,AK,99508,"400 BUNNELL ST, Anchorage, AK, 99508",Match,Exact,"400 BUNNELL ST, ANCHORAGE, AK, 99508",190801746,R,02,020,000801,4007,-149.78972,61.219166
8892,375 EKLUTNA ST,Anchorage,AK,99504,"375 EKLUTNA ST, Anchorage, AK, 99504",Match,Exact,"375 EKLUTNA ST, ANCHORAGE, AK, 99504",190803261,L,02,020,000703,3001,-149.72418000000002,61.21994
8893,384 EKLUTNA ST,Anchorage,AK,99504,"384 EKLUTNA ST, Anchorage, AK, 99504",Match,Exact,"384 EKLUTNA ST, ANCHORAGE, AK, 99504",190803261,R,02,020,000703,3002,-149.72421,61.21986
8894,384 EKLUTNA ST,Anchorage,AK,99504,"384 EKLUTNA ST, Anchorage, AK, 99504",Match,Exact,"384 EKLUTNA ST, ANCHORAGE, AK, 99504",190803261,R,02,020,000703,3002,-149.72421,61.21986
8895,401 FERN LN,Anchorage,AK,99504,"401 FERN LN, Anchorage, AK, 99504",Match,Exact,"401 FERN LN, ANCHORAGE, AK, 99504",190802806,L,02,020,000702,3009,-149.75385,61.218613
8896,414 CHERRY ST,Anchorage,AK,99504,"414 CHERRY ST, Anchorage, AK, 99504",Match,Exact,"414 CHERRY ST, ANCHORAGE, AK, 99504",190803319,R,02,020,000703,3012,-149.72224,61.21866
8897,405 STANDISH ST,Anchorage,AK,99504,"405 STANDISH ST, Anchorage, AK, 99504",Match,Exact,"405 STANDISH ST, ANCHORAGE, AK, 99504",190803259,L,02,020,000703,3013,-149.72523,61.21864300000001
8898,405 EKLUTNA ST,Anchorage,AK,99504,"405 EKLUTNA ST, Anchorage, AK, 99504",No_Match,,,,,,,,,,
8899,444 FREDRICKS DR,Anchorage,AK,99504,"444 FREDRICKS DR, Anchorage, AK, 99504",Match,Non_Exact,"444 FREDERICKS DR, ANCHORAGE, AK, 99504",190816143,R,02,020,000702,3009,-149.75156,61.217766000000005
8900,404 EKLUTNA ST,Anchorage,AK,99504,"404 EKLUTNA ST, Anchorage, AK, 99504",No_Match,,,,,,,,,,
8901,404 EKLUTNA ST,Anchorage,AK,99504,"404 EKLUTNA ST, Anchorage, AK, 99504",No_Match,,,,,,,,,,
8902,390 PEPPERTREE LOOP,Anchorage,AK,99504,"390 PEPPERTREE LOOP, Anchorage, AK, 99504",Match,Exact,"390 PEPPERTREE LOOP, ANCHORAGE, AK, 99504",190826164,R,02,020,000701,1000,-149.76265,61.218880000000006
8903,5801 E 4TH AVE,Anchorage,AK,99504,"5801 E 4TH AVE, Anchorage, AK, 99504",Match,Exact,"5801 E 4TH AVE, ANCHORAGE, AK, 99504",190827503,L,02,020,000701,1000,-149.77475,61.21870799999999
8904,5419 E 4TH AVE,Anchorage,AK,99508,"5419 E 4TH AVE, Anchorage, AK, 99508",Match,Exact,"5419 E 4TH AVE, ANCHORAGE, AK, 99508",190816179,L,02,020,000801,4000,-149.78058000000001,61.21866
8905,7722 E 4TH AVE,Anchorage,AK,99504,"7722 E 4TH AVE, Anchorage, AK, 99504",Match,Exact,"7722 E 4TH AVE, ANCHORAGE, AK, 99504",190802903,R,02,020,000702,2006,-149.73676,61.218745999999996
8906,7722 E 4TH AVE,Anchorage,AK,99504,"7722 E 4TH AVE, Anchorage, AK, 99504",Match,Exact,"7722 E 4TH AVE, ANCHORAGE, AK, 99504",190802903,R,02,020,000702,2006,-149.73676,61.218745999999996
8907,7732 E 4TH AVE,Anchorage,AK,99504,"7732 E 4TH AVE, Anchorage, AK, 99504",Match,Exact,"7732 E 4TH AVE, ANCHORAGE, AK, 99504",190802903,R,02,020,000702,2006,-149.73658999999998,61.218745999999996
8908,5601 E 4TH AVE,Anchorage,AK,99504,"5601 E 4TH AVE, Anchorage, AK, 99504",No_Match,,,,,,,,,,
8909,7618 E 4TH AVE,Anchorage,AK,99504,"7618 E 4TH AVE, Anchorage, AK, 99504",Match,Exact,"7618 E 4TH AVE, ANCHORAGE, AK, 99504",190808930,R,02,020,000702,2005,-149.73851000000002,61.218745999999996
8910,7618 E 4TH AVE,Anchorage,AK,99504,"7618 E 4TH AVE, Anchorage, AK, 99504",Match,Exact,"7618 E 4TH AVE, ANCHORAGE, AK, 99504",190808930,R,02,020,000702,2005,-149.73851000000002,61.218745999999996
8911,7618 E 4TH AVE,Anchorage,AK,99504,"7618 E 4TH AVE, Anchorage, AK, 99504",Match,Exact,"7618 E 4TH AVE, ANCHORAGE, AK, 99504",190808930,R,02,020,000702,2005,-149.73851000000002,61.218745999999996
8912,7618 E 4TH AVE,Anchorage,AK,99504,"7618 E 4TH AVE, Anchorage, AK, 99504",Match,Exact,"7618 E 4TH AVE, ANCHORAGE, AK, 99504",190808930,R,02,020,000702,2005,-149.73851000000002,61.218745999999996
8913,7618 E 4TH AVE,Anchorage,AK,99504,"7618 E 4TH AVE, Anchorage, AK, 99504",Match,Exact,"7618 E 4TH AVE, ANCHORAGE, AK, 99504",190808930,R,02,020,000702,2005,-149.73851000000002,61.218745999999996
8914,410 PAULINE ST,Anchorage,AK,99504,"410 PAULINE ST, Anchorage, AK, 99504",Match,Exact,"410 PAULINE ST, ANCHORAGE, AK, 99504",190816095,R,02,020,000703,3006,-149.72673,61.21873000000001
8915,7810 E 4TH AVE,Anchorage,AK,99504,"7810 E 4TH AVE, Anchorage, AK, 99504",Match,Exact,"7810 E 4TH AVE, ANCHORAGE, AK, 99504",190803216,R,02,020,000702,2006,-149.73512,61.218745999999996
8916,7810 E 4TH AVE,Anchorage,AK,99504,"7810 E 4TH AVE, Anchorage, AK, 99504",Match,Exact,"7810 E 4TH AVE, ANCHORAGE, AK, 99504",190803216,R,02,020,000702,2006,-149.73512,61.218745999999996
8917,7810 E 4TH AVE,Anchorage,AK,99504,"7810 E 4TH AVE, Anchorage, AK, 99504",Match,Exact,"7810 E 4TH AVE, ANCHORAGE, AK, 99504",190803216,R,02,020,000702,2006,-149.73512,61.218745999999996
8918,7710 E 4TH AVE,Anchorage,AK,99504,"7710 E 4TH AVE, Anchorage, AK, 99504",Match,Exact,"7710 E 4TH AVE, ANCHORAGE, AK, 99504",190802903,R,02,020,000702,2006,-149.73694,61.218745999999996
8919,7710 E 4TH AVE,Anchorage,AK,99504,"7710 E 4TH AVE, Anchorage, AK, 99504",Match,Exact,"7710 E 4TH AVE, ANCHORAGE, AK, 99504",190802903,R,02,020,000702,2006,-149.73694,61.218745999999996
8920,7816 E 4TH AVE,Anchorage,AK,99504,"7816 E 4TH AVE, Anchorage, AK, 99504",Match,Exact,"7816 E 4TH AVE, ANCHORAGE, AK, 99504",190803216,R,02,020,000702,2006,-149.73502,61.218745999999996
8921,7820 E 4TH AVE,Anchorage,AK,99504,"7820 E 4TH AVE, Anchorage, AK, 99504",Match,Exact,"7820 E 4TH AVE, ANCHORAGE, AK, 99504",190803216,R,02,020,000702,2006,-149.73495,61.218745999999996
8922,5463 E 4TH AVE,Anchorage,AK,99508,"5463 E 4TH AVE, Anchorage, AK, 99508",Match,Exact,"5463 E 4TH AVE, ANCHORAGE, AK, 99508",190816179,L,02,020,000801,4000,-149.77945,61.21866
8923,436 PATSY ST,Anchorage,AK,99504,"436 PATSY ST, Anchorage, AK, 99504",Match,Exact,"436 PATSY ST, ANCHORAGE, AK, 99504",190810873,R,02,020,000702,2003,-149.74286999999998,61.21833
8924,439 IDAHO ST,Anchorage,AK,99504,"439 IDAHO ST, Anchorage, AK, 99504",Match,Exact,"439 IDAHO ST, ANCHORAGE, AK, 99504",190802902,L,02,020,000702,2006,-149.73721,61.21832
8925,512 FREDRICKS DR,Anchorage,AK,99504,"512 FREDRICKS DR, Anchorage, AK, 99504",Match,Non_Exact,"512 FREDERICKS DR, ANCHORAGE, AK, 99504",190816143,R,02,020,000702,3009,-149.75214,61.21835
8926,5426 NEW SMYRNA CIR,Anchorage,AK,99508,"5426 NEW SMYRNA CIR, Anchorage, AK, 99508",Match,Exact,"5426 NEW SMYRNA CIR, ANCHORAGE, AK, 99508",614862496,R,02,020,000801,4006,-149.78032,61.218067000000005
8927,5420 NEW SMYRNA CIR,Anchorage,AK,99508,"5420 NEW SMYRNA CIR, Anchorage, AK, 99508",Match,Exact,"5420 NEW SMYRNA CIR, ANCHORAGE, AK, 99508",614862496,R,02,020,000801,4006,-149.78038,61.218067000000005
8928,509 FREDRICKS DR,Anchorage,AK,99504,"509 FREDRICKS DR, Anchorage, AK, 99504",Match,Non_Exact,"509 FREDERICKS DR, ANCHORAGE, AK, 99504",190816143,L,02,020,000702,3007,-149.7521,61.218309999999995
8929,5440 NEW SMYRNA CIR,Anchorage,AK,99508,"5440 NEW SMYRNA CIR, Anchorage, AK, 99508",Match,Exact,"5440 NEW SMYRNA CIR, ANCHORAGE, AK, 99508",614862496,R,02,020,000801,4006,-149.78015,61.218067000000005
8930,5436 NEW SMYRNA CIR,Anchorage,AK,99508,"5436 NEW SMYRNA CIR, Anchorage, AK, 99508",Match,Exact,"5436 NEW SMYRNA CIR, ANCHORAGE, AK, 99508",614862496,R,02,020,000801,4006,-149.7802,61.218067000000005
8931,310 BUNNELL ST,Anchorage,AK,99508,"310 BUNNELL ST, Anchorage, AK, 99508",Match,Exact,"310 BUNNELL ST, ANCHORAGE, AK, 99508",624266935,R,02,020,000801,2007,-149.78972,61.220566000000005
8932,308 GAYLENE CIR,Anchorage,AK,99504,"308 GAYLENE CIR, Anchorage, AK, 99504",Match,Exact,"308 GAYLENE CIR, ANCHORAGE, AK, 99504",190803322,R,02,020,000703,3001,-149.72131000000002,61.2205
8933,300 DONNA DR,Anchorage,AK,99504,"300 DONNA DR, Anchorage, AK, 99504",Match,Exact,"300 DONNA DR, ANCHORAGE, AK, 99504",639716019,L,02,020,000701,1000,-149.75734,61.220535
8934,5901 E 6TH AVE,Anchorage,AK,99504,"5901 E 6TH AVE, Anchorage, AK, 99504",Match,Exact,"5901 E 6TH AVE, ANCHORAGE, AK, 99504",190810852,L,02,020,000701,1000,-149.77061,61.216933999999995
8935,8551 E 4TH AVE,Anchorage,AK,99504,"8551 E 4TH AVE, Anchorage, AK, 99504",Match,Exact,"8551 E 4TH AVE, ANCHORAGE, AK, 99504",190803337,R,02,020,000703,3001,-149.72078,61.21926
8936,5901 E 6TH AVE,Anchorage,AK,99504,"5901 E 6TH AVE, Anchorage, AK, 99504",Match,Exact,"5901 E 6TH AVE, ANCHORAGE, AK, 99504",190810852,L,02,020,000701,1000,-149.77061,61.216933999999995
8937,5901 E 6TH AVE,Anchorage,AK,99504,"5901 E 6TH AVE, Anchorage, AK, 99504",Match,Exact,"5901 E 6TH AVE, ANCHORAGE, AK, 99504",190810852,L,02,020,000701,1000,-149.77061,61.216933999999995
8938,5901 E 6TH AVE,Anchorage,AK,99504,"5901 E 6TH AVE, Anchorage, AK, 99504",Match,Exact,"5901 E 6TH AVE, ANCHORAGE, AK, 99504",190810852,L,02,020,000701,1000,-149.77061,61.216933999999995
8939,5901 E 6TH AVE,Anchorage,AK,99504,"5901 E 6TH AVE, Anchorage, AK, 99504",Match,Exact,"5901 E 6TH AVE, ANCHORAGE, AK, 99504",190810852,L,02,020,000701,1000,-149.77061,61.216933999999995
8940,347 OKLAHOMA ST,Anchorage,AK,99504,"347 OKLAHOMA ST, Anchorage, AK, 99504",Match,Exact,"347 OKLAHOMA ST, ANCHORAGE, AK, 99504",190827094,L,02,020,000702,2002,-149.74473999999998,61.2197
8941,5901 E 6TH AVE,Anchorage,AK,99504,"5901 E 6TH AVE, Anchorage, AK, 99504",Match,Exact,"5901 E 6TH AVE, ANCHORAGE, AK, 99504",190810852,L,02,020,000701,1000,-149.77061,61.216933999999995
8942,5901 E 6TH AVE,Anchorage,AK,99504,"5901 E 6TH AVE, Anchorage, AK, 99504",Match,Exact,"5901 E 6TH AVE, ANCHORAGE, AK, 99504",190810852,L,02,020,000701,1000,-149.77061,61.216933999999995
8943,8541 E 4TH AVE,Anchorage,AK,99504,"8541 E 4TH AVE, Anchorage, AK, 99504",Match,Exact,"8541 E 4TH AVE, ANCHORAGE, AK, 99504",190803337,R,02,020,000703,3001,-149.72101999999998,61.21926
8944,8541 E 4TH AVE,Anchorage,AK,99504,"8541 E 4TH AVE, Anchorage, AK, 99504",Match,Exact,"8541 E 4TH AVE, ANCHORAGE, AK, 99504",190803337,R,02,020,000703,3001,-149.72101999999998,61.21926
8945,8533 E 4TH AVE,Anchorage,AK,99504,"8533 E 4TH AVE, Anchorage, AK, 99504",Match,Exact,"8533 E 4TH AVE, ANCHORAGE, AK, 99504",190803337,R,02,020,000703,3001,-149.7212,61.21926
8946,8531 E 4TH AVE,Anchorage,AK,99504,"8531 E 4TH AVE, Anchorage, AK, 99504",Match,Exact,"8531 E 4TH AVE, ANCHORAGE, AK, 99504",190803337,R,02,020,000703,3001,-149.72125,61.21926
8947,8521 E 4TH AVE,Anchorage,AK,99504,"8521 E 4TH AVE, Anchorage, AK, 99504",Match,Exact,"8521 E 4TH AVE, ANCHORAGE, AK, 99504",190803337,R,02,020,000703,3001,-149.7215,61.21926
8948,8521 E 4TH AVE,Anchorage,AK,99504,"8521 E 4TH AVE, Anchorage, AK, 99504",Match,Exact,"8521 E 4TH AVE, ANCHORAGE, AK, 99504",190803337,R,02,020,000703,3001,-149.7215,61.21926
8949,8513 E 4TH AVE,Anchorage,AK,99504,"8513 E 4TH AVE, Anchorage, AK, 99504",Match,Exact,"8513 E 4TH AVE, ANCHORAGE, AK, 99504",190803337,R,02,020,000703,3001,-149.72168,61.21926
8950,8511 E 4TH AVE,Anchorage,AK,99504,"8511 E 4TH AVE, Anchorage, AK, 99504",Match,Exact,"8511 E 4TH AVE, ANCHORAGE, AK, 99504",190803337,R,02,020,000703,3001,-149.72173,61.21926
8951,6960 FREDRICKS DR,Anchorage,AK,99504,"6960 FREDRICKS DR, Anchorage, AK, 99504",Match,Non_Exact,"6960 FREDERICKS DR, ANCHORAGE, AK, 99504",190802812,R,02,020,000702,3007,-149.75056,61.21951
8952,5901 E 6TH AVE,Anchorage,AK,99504,"5901 E 6TH AVE, Anchorage, AK, 99504",Match,Exact,"5901 E 6TH AVE, ANCHORAGE, AK, 99504",190810852,L,02,020,000701,1000,-149.77061,61.216933999999995
8953,5901 E 6TH AVE,Anchorage,AK,99504,"5901 E 6TH AVE, Anchorage, AK, 99504",Match,Exact,"5901 E 6TH AVE, ANCHORAGE, AK, 99504",190810852,L,02,020,000701,1000,-149.77061,61.216933999999995
8954,5901 E 6TH AVE,Anchorage,AK,99504,"5901 E 6TH AVE, Anchorage, AK, 99504",Match,Exact,"5901 E 6TH AVE, ANCHORAGE, AK, 99504",190810852,L,02,020,000701,1000,-149.77061,61.216933999999995
8955,5901 E 6TH AVE,Anchorage,AK,99504,"5901 E 6TH AVE, Anchorage, AK, 99504",Match,Exact,"5901 E 6TH AVE, ANCHORAGE, AK, 99504",190810852,L,02,020,000701,1000,-149.77061,61.216933999999995
8956,5901 E 6TH AVE,Anchorage,AK,99504,"5901 E 6TH AVE, Anchorage, AK, 99504",Match,Exact,"5901 E 6TH AVE, ANCHORAGE, AK, 99504",190810852,L,02,020,000701,1000,-149.77061,61.216933999999995
8957,5452 LANCELOT CIR,Anchorage,AK,99508,"5452 LANCELOT CIR, Anchorage, AK, 99508",Match,Exact,"5452 LANCELOT CIR, ANCHORAGE, AK, 99508",190801983,R,02,020,000801,4000,-149.78053,61.219425
8958,5452 LANCELOT CIR,Anchorage,AK,99508,"5452 LANCELOT CIR, Anchorage, AK, 99508",Match,Exact,"5452 LANCELOT CIR, ANCHORAGE, AK, 99508",190801983,R,02,020,000801,4000,-149.78053,61.219425
8959,5452 LANCELOT CIR,Anchorage,AK,99508,"5452 LANCELOT CIR, Anchorage, AK, 99508",Match,Exact,"5452 LANCELOT CIR, ANCHORAGE, AK, 99508",190801983,R,02,020,000801,4000,-149.78053,61.219425
8960,5452 LANCELOT CIR,Anchorage,AK,99508,"5452 LANCELOT CIR, Anchorage, AK, 99508",Match,Exact,"5452 LANCELOT CIR, ANCHORAGE, AK, 99508",190801983,R,02,020,000801,4000,-149.78053,61.219425
8961,5452 LANCELOT CIR,Anchorage,AK,99508,"5452 LANCELOT CIR, Anchorage, AK, 99508",Match,Exact,"5452 LANCELOT CIR, ANCHORAGE, AK, 99508",190801983,R,02,020,000801,4000,-149.78053,61.219425
8962,5452 LANCELOT CIR,Anchorage,AK,99508,"5452 LANCELOT CIR, Anchorage, AK, 99508",Match,Exact,"5452 LANCELOT CIR, ANCHORAGE, AK, 99508",190801983,R,02,020,000801,4000,-149.78053,61.219425
8963,5452 LANCELOT CIR,Anchorage,AK,99508,"5452 LANCELOT CIR, Anchorage, AK, 99508",Match,Exact,"5452 LANCELOT CIR, ANCHORAGE, AK, 99508",190801983,R,02,020,000801,4000,-149.78053,61.219425
8964,5452 LANCELOT CIR,Anchorage,AK,99508,"5452 LANCELOT CIR, Anchorage, AK, 99508",Match,Exact,"5452 LANCELOT CIR, ANCHORAGE, AK, 99508",190801983,R,02,020,000801,4000,-149.78053,61.219425
8965,5452 LANCELOT CIR,Anchorage,AK,99508,"5452 LANCELOT CIR, Anchorage, AK, 99508",Match,Exact,"5452 LANCELOT CIR, ANCHORAGE, AK, 99508",190801983,R,02,020,000801,4000,-149.78053,61.219425
8966,315 PAULINE ST,Anchorage,AK,99504,"315 PAULINE ST, Anchorage, AK, 99504",Match,Exact,"315 PAULINE ST, ANCHORAGE, AK, 99504",190807392,L,02,020,000703,3002,-149.7267,61.22000500000001
8967,315 PAULINE ST,Anchorage,AK,99504,"315 PAULINE ST, Anchorage, AK, 99504",Match,Exact,"315 PAULINE ST, ANCHORAGE, AK, 99504",190807392,L,02,020,000703,3002,-149.7267,61.22000500000001
8968,317 PAMELA PL,Anchorage,AK,99504,"317 PAMELA PL, Anchorage, AK, 99504",Match,Exact,"317 PAMELA PL, ANCHORAGE, AK, 99504",190802889,L,02,020,000702,2002,-149.74206999999998,61.22044399999999
8969,5407 CAMELOT DR,Anchorage,AK,99508,"5407 CAMELOT DR, Anchorage, AK, 99508",Match,Exact,"5407 CAMELOT DR, ANCHORAGE, AK, 99508",190801978,L,02,020,000801,3008,-149.78063999999998,61.220245
8970,312 BOLIN ST,Anchorage,AK,99504,"312 BOLIN ST, Anchorage, AK, 99504",Match,Exact,"312 BOLIN ST, ANCHORAGE, AK, 99504",190803336,R,02,020,000703,3001,-149.71944,61.220333
8971,280 PEPPERTREE LOOP,Anchorage,AK,99504,"280 PEPPERTREE LOOP, Anchorage, AK, 99504",Match,Exact,"280 PEPPERTREE LOOP, ANCHORAGE, AK, 99504",190826164,R,02,020,000701,1000,-149.76236,61.22016
8972,5405 CAMELOT DR,Anchorage,AK,99508,"5405 CAMELOT DR, Anchorage, AK, 99508",Match,Exact,"5405 CAMELOT DR, ANCHORAGE, AK, 99508",190801978,L,02,020,000801,3008,-149.78067,61.220234
8973,311 BEULAH CIR,Anchorage,AK,99504,"311 BEULAH CIR, Anchorage, AK, 99504",Match,Exact,"311 BEULAH CIR, ANCHORAGE, AK, 99504",190808931,R,02,020,000702,2002,-149.74007,61.2191
8974,311 BEULAH CIR,Anchorage,AK,99504,"311 BEULAH CIR, Anchorage, AK, 99504",Match,Exact,"311 BEULAH CIR, ANCHORAGE, AK, 99504",190808931,R,02,020,000702,2002,-149.74007,61.2191
8975,311 BEULAH CIR,Anchorage,AK,99504,"311 BEULAH CIR, Anchorage, AK, 99504",Match,Exact,"311 BEULAH CIR, ANCHORAGE, AK, 99504",190808931,R,02,020,000702,2002,-149.74007,61.2191
8976,326 KRANE DR,Anchorage,AK,99504,"326 KRANE DR, Anchorage, AK, 99504",Match,Exact,"326 KRANE DR, ANCHORAGE, AK, 99504",605167555,L,02,020,000701,2001,-149.7571,61.220085
8977,310 BEULAH CIR,Anchorage,AK,99504,"310 BEULAH CIR, Anchorage, AK, 99504",Match,Exact,"310 BEULAH CIR, ANCHORAGE, AK, 99504",190808931,L,02,020,000702,2002,-149.7401,61.2191
8978,310 BEULAH CIR,Anchorage,AK,99504,"310 BEULAH CIR, Anchorage, AK, 99504",Match,Exact,"310 BEULAH CIR, ANCHORAGE, AK, 99504",190808931,L,02,020,000702,2002,-149.7401,61.2191
8979,6950 FREDRICKS DR,Anchorage,AK,99504,"6950 FREDRICKS DR, Anchorage, AK, 99504",Match,Non_Exact,"6950 FREDERICKS DR, ANCHORAGE, AK, 99504",190802812,R,02,020,000702,3007,-149.75069,61.219485999999996
8980,400 PATTERSON ST,Anchorage,AK,99504,"400 PATTERSON ST, Anchorage, AK, 99504",Match,Exact,"400 PATTERSON ST, ANCHORAGE, AK, 99504",190802869,R,02,020,000702,3007,-149.7485,61.219498
8981,366 CHERRY ST,Anchorage,AK,99504,"366 CHERRY ST, Anchorage, AK, 99504",Match,Exact,"366 CHERRY ST, ANCHORAGE, AK, 99504",190803319,R,02,020,000703,3012,-149.72224,61.21913000000001
8982,354 FERN LN,Anchorage,AK,99504,"354 FERN LN, Anchorage, AK, 99504",Match,Exact,"354 FERN LN, ANCHORAGE, AK, 99504",190802804,R,02,020,000702,3006,-149.75388,61.219418000000005
8983,372 IDAHO ST,Anchorage,AK,99504,"372 IDAHO ST, Anchorage, AK, 99504",Match,Exact,"372 IDAHO ST, ANCHORAGE, AK, 99504",190802900,R,02,020,000702,2002,-149.73723999999999,61.219055000000004
8984,372 IDAHO ST,Anchorage,AK,99504,"372 IDAHO ST, Anchorage, AK, 99504",Match,Exact,"372 IDAHO ST, ANCHORAGE, AK, 99504",190802900,R,02,020,000702,2002,-149.73723999999999,61.219055000000004
8985,372 IDAHO ST,Anchorage,AK,99504,"372 IDAHO ST, Anchorage, AK, 99504",Match,Exact,"372 IDAHO ST, ANCHORAGE, AK, 99504",190802900,R,02,020,000702,2002,-149.73723999999999,61.219055000000004
8986,372 IDAHO ST,Anchorage,AK,99504,"372 IDAHO ST, Anchorage, AK, 99504",Match,Exact,"372 IDAHO ST, ANCHORAGE, AK, 99504",190802900,R,02,020,000702,2002,-149.73723999999999,61.219055000000004
8987,364 STATE ST,Anchorage,AK,99504,"364 STATE ST, Anchorage, AK, 99504",Match,Exact,"364 STATE ST, ANCHORAGE, AK, 99504",190803229,R,02,020,000703,3008,-149.73131999999998,61.219288
8988,6420 PEPPERTREE CIR,Anchorage,AK,99504,"6420 PEPPERTREE CIR, Anchorage, AK, 99504",Match,Exact,"6420 PEPPERTREE CIR, ANCHORAGE, AK, 99504",190808603,L,02,020,000701,1008,-149.76067,61.219190000000005
8989,328 KRANE DR,Anchorage,AK,99504,"328 KRANE DR, Anchorage, AK, 99504",Match,Exact,"328 KRANE DR, ANCHORAGE, AK, 99504",605167555,L,02,020,000701,2001,-149.7571,61.220062
8990,453 CAMELOT DR,Anchorage,AK,99508,"453 CAMELOT DR, Anchorage, AK, 99508",Match,Exact,"453 CAMELOT DR, ANCHORAGE, AK, 99508",190801980,L,02,020,000801,4000,-149.78151,61.218830000000004
8991,321 BEULAH CIR,Anchorage,AK,99504,"321 BEULAH CIR, Anchorage, AK, 99504",Match,Exact,"321 BEULAH CIR, ANCHORAGE, AK, 99504",190808931,R,02,020,000702,2002,-149.74007,61.219063
8992,321 BEULAH CIR,Anchorage,AK,99504,"321 BEULAH CIR, Anchorage, AK, 99504",Match,Exact,"321 BEULAH CIR, ANCHORAGE, AK, 99504",190808931,R,02,020,000702,2002,-149.74007,61.219063
8993,8520 E 4TH AVE,Anchorage,AK,99504,"8520 E 4TH AVE, Anchorage, AK, 99504",Match,Exact,"8520 E 4TH AVE, ANCHORAGE, AK, 99504",190803337,L,02,020,000703,3000,-149.7215,61.21925
8994,8524 E 4TH AVE,Anchorage,AK,99504,"8524 E 4TH AVE, Anchorage, AK, 99504",Match,Exact,"8524 E 4TH AVE, ANCHORAGE, AK, 99504",190803337,L,02,020,000703,3000,-149.72138999999999,61.21925
8995,7719 E 4TH AVE,Anchorage,AK,99504,"7719 E 4TH AVE, Anchorage, AK, 99504",Match,Exact,"7719 E 4TH AVE, ANCHORAGE, AK, 99504",190802903,L,02,020,000702,2002,-149.73682,61.218757999999994
8996,8540 E 4TH AVE,Anchorage,AK,99504,"8540 E 4TH AVE, Anchorage, AK, 99504",Match,Exact,"8540 E 4TH AVE, ANCHORAGE, AK, 99504",190803337,L,02,020,000703,3000,-149.72101999999998,61.21925
8997,8540 E 4TH AVE,Anchorage,AK,99504,"8540 E 4TH AVE, Anchorage, AK, 99504",Match,Exact,"8540 E 4TH AVE, ANCHORAGE, AK, 99504",190803337,L,02,020,000703,3000,-149.72101999999998,61.21925
8998,8550 E 4TH AVE,Anchorage,AK,99504,"8550 E 4TH AVE, Anchorage, AK, 99504",Match,Exact,"8550 E 4TH AVE, ANCHORAGE, AK, 99504",190803337,L,02,020,000703,3000,-149.72078,61.21925
8999,8550 E 4TH AVE,Anchorage,AK,99504,"8550 E 4TH AVE, Anchorage, AK, 99504",Match,Exact,"8550 E 4TH AVE, ANCHORAGE, AK, 99504",190803337,L,02,020,000703,3000,-149.72078,61.21925
