id,address_x,city,state_x,postcode,address_y,result,match_type,address_match,tiger,side,state_y,county,tract,block,lat,long
1000,19839 TULWAR DR,Anchorage,AK,99567,"19839 TULWAR DR, Anchorage, AK, 99567",Match,Non_Exact,"19839 TULWAR DR, CHUGIAK, AK, 99567",190807474,L,02,020,000101,2050,-149.42969,61.402184
1001,20124 SOLLERET DR,Anchorage,AK,99567,"20124 SOLLERET DR, Anchorage, AK, 99567",Match,Non_Exact,"20124 SOLLERET DR, CHUGIAK, AK, 99567",190807465,L,02,020,000101,2050,-149.42337,61.40127
1002,20130 UPPER BOWERY LN,Anchorage,AK,99567,"20130 UPPER BOWERY LN, Anchorage, AK, 99567",Match,Non_Exact,"20130 UPPER BOWERY LN, CHUGIAK, AK, 99567",190793060,R,02,020,000102,2008,-149.48036000000002,61.404877
1003,20136 CRABTREE ST,Anchorage,AK,99567,"20136 CRABTREE ST, Anchorage, AK, 99567",Match,Non_Exact,"20136 CRABTREE ST, CHUGIAK, AK, 99567",190810508,R,02,020,000102,2015,-149.4916,61.402077
1004,23425 BIG SKY DR,Anchorage,AK,99567,"23425 BIG SKY DR, Anchorage, AK, 99567",Match,Non_Exact,"23425 BIG SKY DR, CHUGIAK, AK, 99567",190793229,R,02,020,000101,2073,-149.44541999999998,61.401869999999995
1005,23377 BIG SKY DR,Anchorage,AK,99567,"23377 BIG SKY DR, Anchorage, AK, 99567",Match,Non_Exact,"23377 BIG SKY DR, CHUGIAK, AK, 99567",190793229,R,02,020,000101,2073,-149.446,61.401993000000004
1006,20119 WHITE BIRCH RD,Anchorage,AK,99567,"20119 WHITE BIRCH RD, Anchorage, AK, 99567",Match,Non_Exact,"20119 WHITE BIRCH RD, CHUGIAK, AK, 99567",614867278,L,02,020,000102,2008,-149.47752,61.402935
1007,20116 STEFFES ST,Anchorage,AK,99567,"20116 STEFFES ST, Anchorage, AK, 99567",Match,Non_Exact,"20116 STEFFES ST, CHUGIAK, AK, 99567",190823237,R,02,020,000102,2008,-149.47281999999998,61.406980000000004
1008,19842 TULWAR DR,Anchorage,AK,99567,"19842 TULWAR DR, Anchorage, AK, 99567",Match,Non_Exact,"19842 TULWAR DR, CHUGIAK, AK, 99567",190807474,R,02,020,000101,2057,-149.43137,61.40114200000001
1009,20273 TULWAR DR,Anchorage,AK,99567,"20273 TULWAR DR, Anchorage, AK, 99567",Match,Non_Exact,"20273 TULWAR DR, CHUGIAK, AK, 99567",190793395,L,02,020,000101,2050,-149.42609,61.402237
1010,20106 SOLLERET DR,Anchorage,AK,99567,"20106 SOLLERET DR, Anchorage, AK, 99567",Match,Non_Exact,"20106 SOLLERET DR, CHUGIAK, AK, 99567",190807465,L,02,020,000101,2050,-149.42358000000002,61.401154000000005
1011,19855 TULWAR DR,Anchorage,AK,99567,"19855 TULWAR DR, Anchorage, AK, 99567",Match,Non_Exact,"19855 TULWAR DR, CHUGIAK, AK, 99567",190807474,L,02,020,000101,2050,-149.43015,61.401996999999994
1012,20110 PILOTS RD,Anchorage,AK,99567,"20110 PILOTS RD, Anchorage, AK, 99567",Match,Non_Exact,"20110 PILOTS RD, CHUGIAK, AK, 99567",190819919,L,02,020,000102,2009,-149.47058,61.401557999999994
1013,20036 CHUGACH PARK DR,Anchorage,AK,99567,"20036 CHUGACH PARK DR, Anchorage, AK, 99567",Match,Non_Exact,"20036 CHUGACH PARK DR, CHUGIAK, AK, 99567",190793292,R,02,020,000101,2072,-149.43477,61.401123
1014,20048 SEIKA DR,Anchorage,AK,99567,"20048 SEIKA DR, Anchorage, AK, 99567",Match,Non_Exact,"20048 SEIKA DR, CHUGIAK, AK, 99567",641297544,R,02,020,000101,2050,-149.42471,61.40144300000001
1015,20236 TULWAR DR,Anchorage,AK,99567,"20236 TULWAR DR, Anchorage, AK, 99567",Match,Non_Exact,"20236 TULWAR DR, CHUGIAK, AK, 99567",190793395,R,02,020,000101,2057,-149.4277,61.401276
1016,20044 SOLLERET DR,Anchorage,AK,99567,"20044 SOLLERET DR, Anchorage, AK, 99567",Match,Non_Exact,"20044 SOLLERET DR, CHUGIAK, AK, 99567",190807465,L,02,020,000101,2050,-149.42436,61.40074499999999
1017,19866 TULWAR DR,Anchorage,AK,99567,"19866 TULWAR DR, Anchorage, AK, 99567",Match,Non_Exact,"19866 TULWAR DR, CHUGIAK, AK, 99567",190807474,R,02,020,000101,2057,-149.4319,61.400859999999994
1018,20037 SCENIC DR,Anchorage,AK,99567,"20037 SCENIC DR, Anchorage, AK, 99567",Match,Non_Exact,"20037 SCENIC DR, CHUGIAK, AK, 99567",190810509,L,02,020,000102,2014,-149.4878,61.40178
1019,20024 WHITE BIRCH RD,Anchorage,AK,99567,"20024 WHITE BIRCH RD, Anchorage, AK, 99567",Match,Non_Exact,"20024 WHITE BIRCH RD, CHUGIAK, AK, 99567",614867278,R,02,020,000102,2008,-149.47755,61.40294
1020,20032 SCENIC DR,Anchorage,AK,99567,"20032 SCENIC DR, Anchorage, AK, 99567",Match,Non_Exact,"20032 SCENIC DR, CHUGIAK, AK, 99567",190810509,R,02,020,000102,2014,-149.48782,61.401737
1021,20037 CRABTREE ST,Anchorage,AK,99567,"20037 CRABTREE ST, Anchorage, AK, 99567",Match,Non_Exact,"20037 CRABTREE ST, CHUGIAK, AK, 99567",190810508,L,02,020,000102,2014,-149.49161,61.401309999999995
1022,20030 SUNSET BLVD,Anchorage,AK,99567,"20030 SUNSET BLVD, Anchorage, AK, 99567",No_Match,,,,,,,,,,
1023,20038 UPPER BOWERY LN,Anchorage,AK,99567,"20038 UPPER BOWERY LN, Anchorage, AK, 99567",Match,Non_Exact,"20038 UPPER BOWERY LN, CHUGIAK, AK, 99567",190793060,R,02,020,000102,2008,-149.48036000000002,61.404522
1024,20030 CRABTREE ST,Anchorage,AK,99567,"20030 CRABTREE ST, Anchorage, AK, 99567",Match,Non_Exact,"20030 CRABTREE ST, CHUGIAK, AK, 99567",190810508,R,02,020,000102,2015,-149.49161999999998,61.401264000000005
1025,20066 QUICK WAY,Anchorage,AK,99567,"20066 QUICK WAY, Anchorage, AK, 99567",Match,Non_Exact,"20066 QUICK WAY, CHUGIAK, AK, 99567",190793230,R,02,020,000101,2074,-149.44255,61.401268
1026,20025 OLD CRANBERRY DR,Anchorage,AK,99567,"20025 OLD CRANBERRY DR, Anchorage, AK, 99567",Match,Non_Exact,"20025 OLD CRANBERRY DR, CHUGIAK, AK, 99567",190793001,L,02,020,000102,2015,-149.49539,61.401219999999995
1027,20016 SEIKA DR,Anchorage,AK,99567,"20016 SEIKA DR, Anchorage, AK, 99567",Match,Non_Exact,"20016 SEIKA DR, CHUGIAK, AK, 99567",641297544,R,02,020,000101,2050,-149.42503,61.401095999999995
1028,20008 SOLLERET DR,Anchorage,AK,99567,"20008 SOLLERET DR, Anchorage, AK, 99567",Match,Non_Exact,"20008 SOLLERET DR, CHUGIAK, AK, 99567",190807465,L,02,020,000101,2050,-149.42496,61.400642000000005
1029,20012 CHUGACH PARK DR,Anchorage,AK,99567,"20012 CHUGACH PARK DR, Anchorage, AK, 99567",Match,Non_Exact,"20012 CHUGACH PARK DR, CHUGIAK, AK, 99567",190793292,R,02,020,000101,2072,-149.43517,61.40099
1030,19968 UPPER GREATLAND DR,Anchorage,AK,99567,"19968 UPPER GREATLAND DR, Anchorage, AK, 99567",Match,Non_Exact,"19968 UPPER GREATLAND DR, CHUGIAK, AK, 99567",190793276,L,02,020,000101,2073,-149.43814,61.4008
1031,20208 TULWAR DR,Anchorage,AK,99567,"20208 TULWAR DR, Anchorage, AK, 99567",Match,Non_Exact,"20208 TULWAR DR, CHUGIAK, AK, 99567",190793395,R,02,020,000101,2057,-149.42824,61.400963
1032,20014 SCENIC DR,Anchorage,AK,99567,"20014 SCENIC DR, Anchorage, AK, 99567",Match,Non_Exact,"20014 SCENIC DR, CHUGIAK, AK, 99567",190810509,R,02,020,000102,2014,-149.48782,61.401554000000004
1033,20015 SCENIC DR,Anchorage,AK,99567,"20015 SCENIC DR, Anchorage, AK, 99567",Match,Non_Exact,"20015 SCENIC DR, CHUGIAK, AK, 99567",190810509,L,02,020,000102,2014,-149.48781,61.401554000000004
1034,20007 QUICK WAY,Anchorage,AK,99567,"20007 QUICK WAY, Anchorage, AK, 99567",Match,Non_Exact,"20007 QUICK WAY, CHUGIAK, AK, 99567",190793264,L,02,020,000101,2074,-149.44191,61.401035
1035,20000 CHUGACH PARK DR,Anchorage,AK,99567,"20000 CHUGACH PARK DR, Anchorage, AK, 99567",Match,Non_Exact,"20000 CHUGACH PARK DR, CHUGIAK, AK, 99567",190793292,R,02,020,000101,2072,-149.43526,61.40088299999999
1036,19766 BELDUQUE CT,Anchorage,AK,99567,"19766 BELDUQUE CT, Anchorage, AK, 99567",Match,Non_Exact,"19766 BELDUQUE CT, CHUGIAK, AK, 99567",190793400,R,02,020,000101,2050,-149.42747,61.399174
1037,20136 TULWAR DR,Anchorage,AK,99567,"20136 TULWAR DR, Anchorage, AK, 99567",Match,Non_Exact,"20136 TULWAR DR, CHUGIAK, AK, 99567",190793395,R,02,020,000101,2057,-149.42958000000002,61.400158
1038,22914 NEEDELS LOOP,Anchorage,AK,99567,"22914 NEEDELS LOOP, Anchorage, AK, 99567",Match,Non_Exact,"22914 NEEDELS LOOP, CHUGIAK, AK, 99567",190813897,L,02,020,000102,3015,-149.45604,61.399536
1039,19837 OLD GLENN HWY,Anchorage,AK,99567,"19837 OLD GLENN HWY, Anchorage, AK, 99567",Match,Non_Exact,"19837 OLD GLENN HWY, CHUGIAK, AK, 99567",190793129,R,02,020,000102,3006,-149.46219,61.39944499999999
1040,19841 SUNSET BLVD,Anchorage,AK,99567,"19841 SUNSET BLVD, Anchorage, AK, 99567",No_Match,,,,,,,,,,
1041,19840 DORINDA DR,Anchorage,AK,99567,"19840 DORINDA DR, Anchorage, AK, 99567",Match,Non_Exact,"19840 DORINDA DR, CHUGIAK, AK, 99567",190793294,R,02,020,000101,2073,-149.43956,61.399662
1042,19836 CRABTREE ST,Anchorage,AK,99567,"19836 CRABTREE ST, Anchorage, AK, 99567",Match,Non_Exact,"19836 CRABTREE ST, CHUGIAK, AK, 99567",190793037,R,02,020,000102,2014,-149.49164,61.399506
1043,20640 UPPER BOWERY LN,Anchorage,AK,99567,"20640 UPPER BOWERY LN, Anchorage, AK, 99567",Match,Non_Exact,"20640 UPPER BOWERY LN, CHUGIAK, AK, 99567",190793060,R,02,020,000102,2008,-149.48038,61.406859999999995
1044,20633 CRABTREE ST,Anchorage,AK,99567,"20633 CRABTREE ST, Anchorage, AK, 99567",Match,Non_Exact,"20633 CRABTREE ST, CHUGIAK, AK, 99567",190827328,L,02,020,000102,2011,-149.49142,61.406707999999995
1045,20641 WHITE BIRCH RD,Anchorage,AK,99567,"20641 WHITE BIRCH RD, Anchorage, AK, 99567",Match,Non_Exact,"20641 WHITE BIRCH RD, CHUGIAK, AK, 99567",614867277,L,02,020,000102,2008,-149.47658,61.406788
1046,20640 SCENIC DR,Anchorage,AK,99567,"20640 SCENIC DR, Anchorage, AK, 99567",Match,Non_Exact,"20640 SCENIC DR, CHUGIAK, AK, 99567",605186198,R,02,020,000102,2011,-149.48772,61.406769999999995
1047,20634 CRABTREE ST,Anchorage,AK,99567,"20634 CRABTREE ST, Anchorage, AK, 99567",Match,Non_Exact,"20634 CRABTREE ST, CHUGIAK, AK, 99567",190827328,R,02,020,000102,2011,-149.49143999999998,61.406723
1048,20632 WHITE BIRCH RD,Anchorage,AK,99567,"20632 WHITE BIRCH RD, Anchorage, AK, 99567",Match,Non_Exact,"20632 WHITE BIRCH RD, CHUGIAK, AK, 99567",614867277,R,02,020,000102,2008,-149.4766,61.40671999999999
1049,20633 SCENIC DR,Anchorage,AK,99567,"20633 SCENIC DR, Anchorage, AK, 99567",Match,Non_Exact,"20633 SCENIC DR, CHUGIAK, AK, 99567",605186198,L,02,020,000102,2011,-149.48769,61.406707999999995
1050,24245 TEMPLE DR,Anchorage,AK,99567,"24245 TEMPLE DR, Anchorage, AK, 99567",Match,Non_Exact,"24245 TEMPLE DR, CHUGIAK, AK, 99567",190807458,R,02,020,000101,2072,-149.43112,61.406605000000006
1051,23619 HILLTOP DR,Anchorage,AK,99567,"23619 HILLTOP DR, Anchorage, AK, 99567",Match,Non_Exact,"23619 HILLTOP DR, CHUGIAK, AK, 99567",190826638,R,02,020,000101,2066,-149.44246,61.40662
1052,22026 BIRCHWOOD LOOP RD,Anchorage,AK,99567,"22026 BIRCHWOOD LOOP RD, Anchorage, AK, 99567",Match,Non_Exact,"22026 BIRCHWOOD LOOP RD, CHUGIAK, AK, 99567",190825810,R,02,020,000102,2008,-149.47145,61.407017
1053,20625 STARNER ST,Anchorage,AK,99567,"20625 STARNER ST, Anchorage, AK, 99567",Match,Non_Exact,"20625 STARNER ST, CHUGIAK, AK, 99567",190819822,R,02,020,000101,3047,-149.46523,61.406628000000005
1054,20622 STARNER ST,Anchorage,AK,99567,"20622 STARNER ST, Anchorage, AK, 99567",Match,Non_Exact,"20622 STARNER ST, CHUGIAK, AK, 99567",190819822,L,02,020,000101,3047,-149.46524,61.406612
1055,20617 EDWARD CIR,Anchorage,AK,99567,"20617 EDWARD CIR, Anchorage, AK, 99567",Match,Non_Exact,"20617 EDWARD CIR, CHUGIAK, AK, 99567",190813868,R,02,020,000101,2050,-149.42174,61.407738
1056,23707 HILLTOP DR,Anchorage,AK,99567,"23707 HILLTOP DR, Anchorage, AK, 99567",Match,Non_Exact,"23707 HILLTOP DR, CHUGIAK, AK, 99567",190826638,R,02,020,000101,2066,-149.43997,61.40651999999999
1057,23201 GLENN HILL CIR,Anchorage,AK,99567,"23201 GLENN HILL CIR, Anchorage, AK, 99567",Match,Non_Exact,"23201 GLENN HILL CIR, CHUGIAK, AK, 99567",190819887,R,02,020,000101,2072,-149.44968,61.406624
1058,20630 UPPER BOWERY LN,Anchorage,AK,99567,"20630 UPPER BOWERY LN, Anchorage, AK, 99567",Match,Non_Exact,"20630 UPPER BOWERY LN, CHUGIAK, AK, 99567",190793060,R,02,020,000102,2008,-149.48038,61.406822
1059,23221 GLENN HILL CIR,Anchorage,AK,99567,"23221 GLENN HILL CIR, Anchorage, AK, 99567",Match,Non_Exact,"23221 GLENN HILL CIR, CHUGIAK, AK, 99567",190819887,R,02,020,000101,2072,-149.44936,61.40662
1060,23847 HILLTOP DR,Anchorage,AK,99567,"23847 HILLTOP DR, Anchorage, AK, 99567",Match,Non_Exact,"23847 HILLTOP DR, CHUGIAK, AK, 99567",645479565,R,02,020,000101,2066,-149.43716,61.406659999999995
1061,20627 UPPER BOWERY LN,Anchorage,AK,99567,"20627 UPPER BOWERY LN, Anchorage, AK, 99567",Match,Non_Exact,"20627 UPPER BOWERY LN, CHUGIAK, AK, 99567",190793060,L,02,020,000102,2008,-149.48035,61.406707999999995
1062,20627 UPPER BOWERY LN,Anchorage,AK,99567,"20627 UPPER BOWERY LN, Anchorage, AK, 99567",Match,Non_Exact,"20627 UPPER BOWERY LN, CHUGIAK, AK, 99567",190793060,L,02,020,000102,2008,-149.48035,61.406707999999995
1063,20621 SUNSET BLVD,Anchorage,AK,99567,"20621 SUNSET BLVD, Anchorage, AK, 99567",Match,Non_Exact,"20621 SUNSET BLVD, CHUGIAK, AK, 99567",190827394,L,02,020,000102,2008,-149.48402,61.406654
1064,23241 GLENN HILL CIR,Anchorage,AK,99567,"23241 GLENN HILL CIR, Anchorage, AK, 99567",Match,Non_Exact,"23241 GLENN HILL CIR, CHUGIAK, AK, 99567",190819887,R,02,020,000101,2072,-149.44905,61.40662
1065,20624 SUNSET BLVD,Anchorage,AK,99567,"20624 SUNSET BLVD, Anchorage, AK, 99567",Match,Non_Exact,"20624 SUNSET BLVD, CHUGIAK, AK, 99567",190827394,R,02,020,000102,2011,-149.48404,61.406684999999996
1066,20616 JEHOVAHJIREH ST,Anchorage,AK,99567,"20616 JEHOVAHJIREH ST, Anchorage, AK, 99567",Match,Non_Exact,"20616 JEHOVAHIJREH ST, CHUGIAK, AK, 99567",190823633,R,02,020,000101,3046,-149.45755,61.406746
1067,23620 HILLTOP DR,Anchorage,AK,99567,"23620 HILLTOP DR, Anchorage, AK, 99567",Match,Non_Exact,"23620 HILLTOP DR, CHUGIAK, AK, 99567",614833614,L,02,020,000101,2067,-149.44373000000002,61.40659300000001
1068,20613 SCENIC DR,Anchorage,AK,99567,"20613 SCENIC DR, Anchorage, AK, 99567",Match,Non_Exact,"20613 SCENIC DR, CHUGIAK, AK, 99567",605186198,L,02,020,000102,2011,-149.48769,61.406555000000004
1069,20620 SCENIC DR,Anchorage,AK,99567,"20620 SCENIC DR, Anchorage, AK, 99567",Match,Non_Exact,"20620 SCENIC DR, CHUGIAK, AK, 99567",605186198,R,02,020,000102,2011,-149.48772,61.40661600000001
1070,20620 SCENIC DR,Anchorage,AK,99567,"20620 SCENIC DR, Anchorage, AK, 99567",Match,Non_Exact,"20620 SCENIC DR, CHUGIAK, AK, 99567",605186198,R,02,020,000102,2011,-149.48772,61.40661600000001
1071,20610 CRABTREE ST,Anchorage,AK,99567,"20610 CRABTREE ST, Anchorage, AK, 99567",Match,Non_Exact,"20610 CRABTREE ST, CHUGIAK, AK, 99567",190827328,R,02,020,000102,2011,-149.49143999999998,61.40654
1072,20566 LEPRECHAN DR,Anchorage,AK,99567,"20566 LEPRECHAN DR, Anchorage, AK, 99567",No_Match,,,,,,,,,,
1073,23716 HILLTOP DR,Anchorage,AK,99567,"23716 HILLTOP DR, Anchorage, AK, 99567",Match,Non_Exact,"23716 HILLTOP DR, CHUGIAK, AK, 99567",190826638,L,02,020,000101,2072,-149.44096000000002,61.40663000000001
1074,23303 GLENN HILL CIR,Anchorage,AK,99567,"23303 GLENN HILL CIR, Anchorage, AK, 99567",Match,Non_Exact,"23303 GLENN HILL CIR, CHUGIAK, AK, 99567",190819887,R,02,020,000101,2072,-149.44808999999998,61.406535999999996
1075,22149 AURORA BOREALIS RD,Anchorage,AK,99567,"22149 AURORA BOREALIS RD, Anchorage, AK, 99567",Match,Non_Exact,"22149 AURORA BOREALIS RD, CHUGIAK, AK, 99567",190818880,L,02,020,000102,2005,-149.46866,61.406498
1076,23846 HILLTOP DR,Anchorage,AK,99567,"23846 HILLTOP DR, Anchorage, AK, 99567",Match,Non_Exact,"23846 HILLTOP DR, CHUGIAK, AK, 99567",645479565,L,02,020,000101,2072,-149.43753,61.406437
1077,22645 CHAMBER LN,Anchorage,AK,99567,"22645 CHAMBER LN, Anchorage, AK, 99567",Match,Non_Exact,"22645 CHAMBER LN, CHUGIAK, AK, 99567",190813871,R,02,020,000101,3046,-149.46053999999998,61.406319999999994
1078,22535 CHAMBER LN,Anchorage,AK,99567,"22535 CHAMBER LN, Anchorage, AK, 99567",Match,Non_Exact,"22535 CHAMBER LN, CHUGIAK, AK, 99567",190813872,R,02,020,000101,3047,-149.46182,61.406315
1079,22535 CHAMBER LN,Anchorage,AK,99567,"22535 CHAMBER LN, Anchorage, AK, 99567",Match,Non_Exact,"22535 CHAMBER LN, CHUGIAK, AK, 99567",190813872,R,02,020,000101,3047,-149.46182,61.406315
1080,22535 CHAMBER LN,Anchorage,AK,99567,"22535 CHAMBER LN, Anchorage, AK, 99567",Match,Non_Exact,"22535 CHAMBER LN, CHUGIAK, AK, 99567",190813872,R,02,020,000101,3047,-149.46182,61.406315
1081,22535 CHAMBER LN,Anchorage,AK,99567,"22535 CHAMBER LN, Anchorage, AK, 99567",Match,Non_Exact,"22535 CHAMBER LN, CHUGIAK, AK, 99567",190813872,R,02,020,000101,3047,-149.46182,61.406315
1082,22515 CHAMBER LN,Anchorage,AK,99567,"22515 CHAMBER LN, Anchorage, AK, 99567",Match,Non_Exact,"22515 CHAMBER LN, CHUGIAK, AK, 99567",190813872,R,02,020,000101,3047,-149.46228,61.406315
1083,22515 CHAMBER LN,Anchorage,AK,99567,"22515 CHAMBER LN, Anchorage, AK, 99567",Match,Non_Exact,"22515 CHAMBER LN, CHUGIAK, AK, 99567",190813872,R,02,020,000101,3047,-149.46228,61.406315
1084,22515 CHAMBER LN,Anchorage,AK,99567,"22515 CHAMBER LN, Anchorage, AK, 99567",Match,Non_Exact,"22515 CHAMBER LN, CHUGIAK, AK, 99567",190813872,R,02,020,000101,3047,-149.46228,61.406315
1085,22515 CHAMBER LN,Anchorage,AK,99567,"22515 CHAMBER LN, Anchorage, AK, 99567",Match,Non_Exact,"22515 CHAMBER LN, CHUGIAK, AK, 99567",190813872,R,02,020,000101,3047,-149.46228,61.406315
1086,23747 HILLTOP DR,Anchorage,AK,99567,"23747 HILLTOP DR, Anchorage, AK, 99567",Match,Non_Exact,"23747 HILLTOP DR, CHUGIAK, AK, 99567",645479565,R,02,020,000101,2066,-149.43878,61.40608
1087,21237 WEEPING BIRCH AVE,Anchorage,AK,99567,"21237 WEEPING BIRCH AVE, Anchorage, AK, 99567",Match,Non_Exact,"21237 WEEPING BIRCH AVE, CHUGIAK, AK, 99567",190827392,R,02,020,000102,2011,-149.48703,61.40631
1088,23323 GLENN HILL CIR,Anchorage,AK,99567,"23323 GLENN HILL CIR, Anchorage, AK, 99567",Match,Non_Exact,"23323 GLENN HILL CIR, CHUGIAK, AK, 99567",190819887,R,02,020,000101,2072,-149.44781,61.40648
1089,24315 SKI RD,Anchorage,AK,99567,"24315 SKI RD, Anchorage, AK, 99567",Match,Non_Exact,"24315 SKI RD, CHUGIAK, AK, 99567",190793288,R,02,020,000101,2050,-149.42885,61.406180000000006
1090,20546 LEPRECHAN DR,Anchorage,AK,99567,"20546 LEPRECHAN DR, Anchorage, AK, 99567",No_Match,,,,,,,,,,
1091,23736 HILLTOP DR,Anchorage,AK,99567,"23736 HILLTOP DR, Anchorage, AK, 99567",Match,Non_Exact,"23736 HILLTOP DR, CHUGIAK, AK, 99567",190826638,L,02,020,000101,2072,-149.44046,61.406586
1092,23343 GLENN HILL CIR,Anchorage,AK,99567,"23343 GLENN HILL CIR, Anchorage, AK, 99567",Match,Non_Exact,"23343 GLENN HILL CIR, CHUGIAK, AK, 99567",190819887,R,02,020,000101,2072,-149.44754,61.406406000000004
1093,20548 MARK CIR,Anchorage,AK,99567,"20548 MARK CIR, Anchorage, AK, 99567",Match,Non_Exact,"20548 MARK CIR, CHUGIAK, AK, 99567",645482478,L,02,020,000101,2050,-149.42648,61.404892000000004
1094,24356 SKI RD,Anchorage,AK,99567,"24356 SKI RD, Anchorage, AK, 99567",Match,Non_Exact,"24356 SKI RD, CHUGIAK, AK, 99567",190793288,L,02,020,000101,2072,-149.42918,61.405437
1095,24356 SKI RD,Anchorage,AK,99567,"24356 SKI RD, Anchorage, AK, 99567",Match,Non_Exact,"24356 SKI RD, CHUGIAK, AK, 99567",190793288,L,02,020,000101,2072,-149.42918,61.405437
1096,20528 MARK CIR,Anchorage,AK,99567,"20528 MARK CIR, Anchorage, AK, 99567",Match,Non_Exact,"20528 MARK CIR, CHUGIAK, AK, 99567",645482478,L,02,020,000101,2050,-149.42647,61.405003
1097,20534 SCENIC DR,Anchorage,AK,99567,"20534 SCENIC DR, Anchorage, AK, 99567",Match,Non_Exact,"20534 SCENIC DR, CHUGIAK, AK, 99567",190827324,R,02,020,000102,2011,-149.4877,61.406017000000006
1098,20533 WHITE BIRCH RD,Anchorage,AK,99567,"20533 WHITE BIRCH RD, Anchorage, AK, 99567",Match,Non_Exact,"20533 WHITE BIRCH RD, CHUGIAK, AK, 99567",614867277,L,02,020,000102,2008,-149.47658,61.40586999999999
1099,20527 MARK CIR,Anchorage,AK,99567,"20527 MARK CIR, Anchorage, AK, 99567",Match,Non_Exact,"20527 MARK CIR, CHUGIAK, AK, 99567",645482478,R,02,020,000101,2050,-149.42639,61.405308
1100,20544 SUNSET BLVD,Anchorage,AK,99567,"20544 SUNSET BLVD, Anchorage, AK, 99567",Match,Non_Exact,"20544 SUNSET BLVD, CHUGIAK, AK, 99567",190827394,R,02,020,000102,2011,-149.48405,61.406036
1101,23806 HILLTOP DR,Anchorage,AK,99567,"23806 HILLTOP DR, Anchorage, AK, 99567",Match,Non_Exact,"23806 HILLTOP DR, CHUGIAK, AK, 99567",645479565,L,02,020,000101,2072,-149.43861,61.406116000000004
1102,23405 GLENN HILL CIR,Anchorage,AK,99567,"23405 GLENN HILL CIR, Anchorage, AK, 99567",Match,Non_Exact,"23405 GLENN HILL CIR, CHUGIAK, AK, 99567",190819887,R,02,020,000101,2072,-149.4467,61.406166000000006
1103,20013 CRABTREE ST,Anchorage,AK,99567,"20013 CRABTREE ST, Anchorage, AK, 99567",Match,Non_Exact,"20013 CRABTREE ST, CHUGIAK, AK, 99567",190810508,L,02,020,000102,2014,-149.49161,61.401127
1104,21421 TARIKA AVE,Anchorage,AK,99567,"21421 TARIKA AVE, Anchorage, AK, 99567",Match,Non_Exact,"21421 TARIKA AVE, CHUGIAK, AK, 99567",190793062,R,02,020,000102,2008,-149.48308,61.4009
1105,21939 TARIKA AVE,Anchorage,AK,99567,"21939 TARIKA AVE, Anchorage, AK, 99567",Match,Non_Exact,"21939 TARIKA AVE, CHUGIAK, AK, 99567",190810511,R,02,020,000102,2008,-149.47406,61.4009
1106,21625 TARIKA AVE,Anchorage,AK,99567,"21625 TARIKA AVE, Anchorage, AK, 99567",Match,Non_Exact,"21625 TARIKA AVE, CHUGIAK, AK, 99567",190793041,R,02,020,000102,2010,-149.47873,61.400906000000006
1107,21717 TARIKA AVE,Anchorage,AK,99567,"21717 TARIKA AVE, Anchorage, AK, 99567",Match,Non_Exact,"21717 TARIKA AVE, CHUGIAK, AK, 99567",190793041,R,02,020,000102,2010,-149.47775,61.400906000000006
1108,19932 OLD GLENN HWY,Anchorage,AK,99567,"19932 OLD GLENN HWY, Anchorage, AK, 99567",Match,Non_Exact,"19932 OLD GLENN HWY, CHUGIAK, AK, 99567",190826885,L,02,020,000102,3005,-149.4614,61.400195999999994
1109,21818 TARIKA AVE,Anchorage,AK,99567,"21818 TARIKA AVE, Anchorage, AK, 99567",Match,Non_Exact,"21818 TARIKA AVE, CHUGIAK, AK, 99567",190810511,L,02,020,000102,2014,-149.47598,61.400893999999994
1110,19931 QUIET WAY,Anchorage,AK,99567,"19931 QUIET WAY, Anchorage, AK, 99567",Match,Non_Exact,"19931 QUIET WAY, CHUGIAK, AK, 99567",190793263,L,02,020,000101,2074,-149.44214,61.400909999999996
1111,21928 TARIKA AVE,Anchorage,AK,99567,"21928 TARIKA AVE, Anchorage, AK, 99567",Match,Non_Exact,"21928 TARIKA AVE, CHUGIAK, AK, 99567",190810511,L,02,020,000102,2014,-149.47423,61.400890000000004
1112,19944 UPPER GREATLAND DR,Anchorage,AK,99567,"19944 UPPER GREATLAND DR, Anchorage, AK, 99567",Match,Non_Exact,"19944 UPPER GREATLAND DR, CHUGIAK, AK, 99567",190793276,L,02,020,000101,2073,-149.43866,61.400517
1113,21746 TARIKA AVE,Anchorage,AK,99567,"21746 TARIKA AVE, Anchorage, AK, 99567",Match,Non_Exact,"21746 TARIKA AVE, CHUGIAK, AK, 99567",190793041,L,02,020,000102,2014,-149.47743,61.400893999999994
1114,21746 TARIKA AVE,Anchorage,AK,99567,"21746 TARIKA AVE, Anchorage, AK, 99567",Match,Non_Exact,"21746 TARIKA AVE, CHUGIAK, AK, 99567",190793041,L,02,020,000102,2014,-149.47743,61.400893999999994
1115,20182 TULWAR DR,Anchorage,AK,99567,"20182 TULWAR DR, Anchorage, AK, 99567",Match,Non_Exact,"20182 TULWAR DR, CHUGIAK, AK, 99567",190793395,R,02,020,000101,2057,-149.42871,61.400673
1116,20189 TULWAR DR,Anchorage,AK,99567,"20189 TULWAR DR, Anchorage, AK, 99567",Match,Non_Exact,"20189 TULWAR DR, CHUGIAK, AK, 99567",190793395,L,02,020,000101,2050,-149.42836,61.40087
1117,21626 TARIKA AVE,Anchorage,AK,99567,"21626 TARIKA AVE, Anchorage, AK, 99567",Match,Non_Exact,"21626 TARIKA AVE, CHUGIAK, AK, 99567",190793041,L,02,020,000102,2014,-149.4787,61.400893999999994
1118,20924 TARIKA AVE,Anchorage,AK,99567,"20924 TARIKA AVE, Anchorage, AK, 99567",Match,Non_Exact,"20924 TARIKA AVE, CHUGIAK, AK, 99567",190793062,L,02,020,000102,2014,-149.48358000000002,61.400890000000004
1119,21432 TARIKA AVE,Anchorage,AK,99567,"21432 TARIKA AVE, Anchorage, AK, 99567",Match,Non_Exact,"21432 TARIKA AVE, CHUGIAK, AK, 99567",190793062,L,02,020,000102,2014,-149.48096999999999,61.400893999999994
1120,19730 UPPER GREATLAND DR,Anchorage,AK,99567,"19730 UPPER GREATLAND DR, Anchorage, AK, 99567",Match,Non_Exact,"19730 UPPER GREATLAND DR, CHUGIAK, AK, 99567",638991084,L,02,020,000101,2073,-149.44727,61.4006
1121,19932 SEIKA DR,Anchorage,AK,99567,"19932 SEIKA DR, Anchorage, AK, 99567",Match,Non_Exact,"19932 SEIKA DR, CHUGIAK, AK, 99567",190807464,R,02,020,000101,2050,-149.42581,61.400414000000005
1122,20816 TARIKA AVE,Anchorage,AK,99567,"20816 TARIKA AVE, Anchorage, AK, 99567",No_Match,,,,,,,,,,
1123,19933 SEIKA DR,Anchorage,AK,99567,"19933 SEIKA DR, Anchorage, AK, 99567",Match,Non_Exact,"19933 SEIKA DR, CHUGIAK, AK, 99567",641297544,L,02,020,000101,2050,-149.42497,61.401146
1124,19936 SUNSET BLVD,Anchorage,AK,99567,"19936 SUNSET BLVD, Anchorage, AK, 99567",Match,Non_Exact,"19936 SUNSET BLVD, CHUGIAK, AK, 99567",190826403,R,02,020,000102,2014,-149.48398,61.40023000000001
1125,19930 SCENIC DR,Anchorage,AK,99567,"19930 SCENIC DR, Anchorage, AK, 99567",Match,Non_Exact,"19930 SCENIC DR, CHUGIAK, AK, 99567",190810509,R,02,020,000102,2014,-149.48783999999998,61.4007
1126,19945 TULWAR DR,Anchorage,AK,99567,"19945 TULWAR DR, Anchorage, AK, 99567",Match,Non_Exact,"19945 TULWAR DR, CHUGIAK, AK, 99567",190807474,L,02,020,000101,2050,-149.43223999999998,61.40073
1127,22750 HUNTERS DR,Anchorage,AK,99567,"22750 HUNTERS DR, Anchorage, AK, 99567",Match,Non_Exact,"22750 HUNTERS DR, CHUGIAK, AK, 99567",190793132,R,02,020,000102,3007,-149.45882,61.400806
1128,20160 TULWAR DR,Anchorage,AK,99567,"20160 TULWAR DR, Anchorage, AK, 99567",Match,Non_Exact,"20160 TULWAR DR, CHUGIAK, AK, 99567",190793395,R,02,020,000101,2057,-149.42911999999998,61.400425
1129,19912 UPPER GREATLAND DR,Anchorage,AK,99567,"19912 UPPER GREATLAND DR, Anchorage, AK, 99567",Match,Non_Exact,"19912 UPPER GREATLAND DR, CHUGIAK, AK, 99567",190793276,L,02,020,000101,2073,-149.43945,61.400185
1130,19841 CHUGACH PARK DR,Anchorage,AK,99567,"19841 CHUGACH PARK DR, Anchorage, AK, 99567",Match,Non_Exact,"19841 CHUGACH PARK DR, CHUGIAK, AK, 99567",190810520,R,02,020,000101,2050,-149.43666000000002,61.3981
1131,19950 TULWAR DR,Anchorage,AK,99567,"19950 TULWAR DR, Anchorage, AK, 99567",Match,Non_Exact,"19950 TULWAR DR, CHUGIAK, AK, 99567",190807474,R,02,020,000101,2057,-149.43358,61.399840000000005
1132,19921 CRABTREE ST,Anchorage,AK,99567,"19921 CRABTREE ST, Anchorage, AK, 99567",Match,Non_Exact,"19921 CRABTREE ST, CHUGIAK, AK, 99567",190793037,L,02,020,000102,2014,-149.49161999999998,61.40015
1133,19920 SCENIC DR,Anchorage,AK,99567,"19920 SCENIC DR, Anchorage, AK, 99567",Match,Non_Exact,"19920 SCENIC DR, CHUGIAK, AK, 99567",190810509,R,02,020,000102,2014,-149.48783999999998,61.4006
1134,19835 SEIKA DR,Anchorage,AK,99567,"19835 SEIKA DR, Anchorage, AK, 99567",Match,Non_Exact,"19835 SEIKA DR, CHUGIAK, AK, 99567",190807464,L,02,020,000101,2050,-149.42633,61.399963
1135,22960 NEEDELS LOOP,Anchorage,AK,99567,"22960 NEEDELS LOOP, Anchorage, AK, 99567",Match,Non_Exact,"22960 NEEDELS LOOP, CHUGIAK, AK, 99567",190813897,L,02,020,000102,3015,-149.45691000000002,61.39978000000001
1136,22980 NEEDELS LOOP,Anchorage,AK,99567,"22980 NEEDELS LOOP, Anchorage, AK, 99567",Match,Non_Exact,"22980 NEEDELS LOOP, CHUGIAK, AK, 99567",190813897,L,02,020,000102,3015,-149.45729,61.399887
1137,22970 NEEDELS LOOP,Anchorage,AK,99567,"22970 NEEDELS LOOP, Anchorage, AK, 99567",Match,Non_Exact,"22970 NEEDELS LOOP, CHUGIAK, AK, 99567",190813897,L,02,020,000102,3015,-149.45709,61.399834
1138,19971 TULWAR DR,Anchorage,AK,99567,"19971 TULWAR DR, Anchorage, AK, 99567",Match,Non_Exact,"19971 TULWAR DR, CHUGIAK, AK, 99567",190807474,L,02,020,000101,2050,-149.43295,61.400414000000005
1139,20145 TULWAR DR,Anchorage,AK,99567,"20145 TULWAR DR, Anchorage, AK, 99567",Match,Non_Exact,"20145 TULWAR DR, CHUGIAK, AK, 99567",190793395,L,02,020,000101,2050,-149.42955,61.400154
1140,20435 STEPHEN CIR,Anchorage,AK,99567,"20435 STEPHEN CIR, Anchorage, AK, 99567",Match,Non_Exact,"20435 STEPHEN CIR, CHUGIAK, AK, 99567",190807459,L,02,020,000101,2072,-149.43344,61.405415000000005
1141,20454 LEPRECHAN DR,Anchorage,AK,99567,"20454 LEPRECHAN DR, Anchorage, AK, 99567",Match,Non_Exact,"20454 LEPRECHAN DR, CHUGIAK, AK, 99567",605186246,L,02,020,000101,2072,-149.44106000000002,61.4046
1142,20473 LEPRECHAN DR,Anchorage,AK,99567,"20473 LEPRECHAN DR, Anchorage, AK, 99567",Match,Non_Exact,"20473 LEPRECHAN DR, CHUGIAK, AK, 99567",605186244,L,02,020,000101,2072,-149.43715,61.405131999999995
1143,20435 CHAPEL DR,Anchorage,AK,99567,"20435 CHAPEL DR, Anchorage, AK, 99567",Match,Non_Exact,"20435 CHAPEL DR, CHUGIAK, AK, 99567",190807462,L,02,020,000101,2072,-149.45018000000002,61.405163
1144,24389 SKI RD,Anchorage,AK,99567,"24389 SKI RD, Anchorage, AK, 99567",Match,Non_Exact,"24389 SKI RD, CHUGIAK, AK, 99567",190793288,R,02,020,000101,2050,-149.42924,61.40486
1145,20434 SCENIC DR,Anchorage,AK,99567,"20434 SCENIC DR, Anchorage, AK, 99567",Match,Non_Exact,"20434 SCENIC DR, CHUGIAK, AK, 99567",190827324,R,02,020,000102,2011,-149.48772,61.40566
1146,23111 MELANA CIR,Anchorage,AK,99567,"23111 MELANA CIR, Anchorage, AK, 99567",Match,Non_Exact,"23111 MELANA CIR, CHUGIAK, AK, 99567",190793217,R,02,020,000101,2073,-149.45141999999998,61.404971999999994
1147,22186 BIRCHWOOD LOOP RD,Anchorage,AK,99567,"22186 BIRCHWOOD LOOP RD, Anchorage, AK, 99567",Match,Non_Exact,"22186 BIRCHWOOD LOOP RD, CHUGIAK, AK, 99567",190825810,R,02,020,000102,2008,-149.46893,61.404990000000005
1148,22186 BIRCHWOOD LOOP RD,Anchorage,AK,99567,"22186 BIRCHWOOD LOOP RD, Anchorage, AK, 99567",Match,Non_Exact,"22186 BIRCHWOOD LOOP RD, CHUGIAK, AK, 99567",190825810,R,02,020,000102,2008,-149.46893,61.404990000000005
1149,23131 MELANA CIR,Anchorage,AK,99567,"23131 MELANA CIR, Anchorage, AK, 99567",Match,Non_Exact,"23131 MELANA CIR, CHUGIAK, AK, 99567",190793217,R,02,020,000101,2073,-149.45117,61.404971999999994
1150,20453 LEPRECHAN DR,Anchorage,AK,99567,"20453 LEPRECHAN DR, Anchorage, AK, 99567",Match,Non_Exact,"20453 LEPRECHAN DR, CHUGIAK, AK, 99567",605186244,L,02,020,000101,2072,-149.43752,61.405014
1151,22913 GINA CIR,Anchorage,AK,99567,"22913 GINA CIR, Anchorage, AK, 99567",Match,Non_Exact,"22913 GINA CIR, CHUGIAK, AK, 99567",190807473,L,02,020,000101,2073,-149.45512,61.405333999999996
1152,20415 STEPHEN CIR,Anchorage,AK,99567,"20415 STEPHEN CIR, Anchorage, AK, 99567",Match,Non_Exact,"20415 STEPHEN CIR, CHUGIAK, AK, 99567",190807459,L,02,020,000101,2072,-149.43348999999998,61.40529
1153,20420 OLD GLENN HWY,Anchorage,AK,99567,"20420 OLD GLENN HWY, Anchorage, AK, 99567",Match,Non_Exact,"20420 OLD GLENN HWY, CHUGIAK, AK, 99567",190826889,L,02,020,000101,2069,-149.45686,61.404106000000006
1154,20434 UPPER BOWERY LN,Anchorage,AK,99567,"20434 UPPER BOWERY LN, Anchorage, AK, 99567",Match,Non_Exact,"20434 UPPER BOWERY LN, CHUGIAK, AK, 99567",190793060,R,02,020,000102,2008,-149.48038,61.40606
1155,20436 SUNSET BLVD,Anchorage,AK,99567,"20436 SUNSET BLVD, Anchorage, AK, 99567",Match,Non_Exact,"20436 SUNSET BLVD, CHUGIAK, AK, 99567",190827394,R,02,020,000102,2011,-149.48405,61.405159999999995
1156,20429 OLD CRANBERRY DR,Anchorage,AK,99567,"20429 OLD CRANBERRY DR, Anchorage, AK, 99567",Match,Non_Exact,"20429 OLD CRANBERRY DR, CHUGIAK, AK, 99567",641432859,R,02,020,000102,2011,-149.49525,61.404865
1157,22933 GINA CIR,Anchorage,AK,99567,"22933 GINA CIR, Anchorage, AK, 99567",Match,Non_Exact,"22933 GINA CIR, CHUGIAK, AK, 99567",190807473,L,02,020,000101,2073,-149.45494,61.40521
1158,20435 SCENIC DR,Anchorage,AK,99567,"20435 SCENIC DR, Anchorage, AK, 99567",Match,Non_Exact,"20435 SCENIC DR, CHUGIAK, AK, 99567",190827324,L,02,020,000102,2011,-149.48769,61.40566
1159,22914 GINA CIR,Anchorage,AK,99567,"22914 GINA CIR, Anchorage, AK, 99567",Match,Non_Exact,"22914 GINA CIR, CHUGIAK, AK, 99567",190807473,R,02,020,000101,2073,-149.45512,61.405315
1160,24393 SKI RD,Anchorage,AK,99567,"24393 SKI RD, Anchorage, AK, 99567",Match,Non_Exact,"24393 SKI RD, CHUGIAK, AK, 99567",190793288,R,02,020,000101,2050,-149.42924,61.404790000000006
1161,20406 LEPRECHAN DR,Anchorage,AK,99567,"20406 LEPRECHAN DR, Anchorage, AK, 99567",Match,Non_Exact,"20406 LEPRECHAN DR, CHUGIAK, AK, 99567",605186246,L,02,020,000101,2072,-149.44312,61.4046
1162,20439 UPPER BOWERY LN,Anchorage,AK,99567,"20439 UPPER BOWERY LN, Anchorage, AK, 99567",Match,Non_Exact,"20439 UPPER BOWERY LN, CHUGIAK, AK, 99567",190793060,L,02,020,000102,2008,-149.48035,61.405876
1163,24417 WHALEY AVE,Anchorage,AK,99567,"24417 WHALEY AVE, Anchorage, AK, 99567",Match,Non_Exact,"24417 WHALEY AVE, CHUGIAK, AK, 99567",190793392,L,02,020,000101,2050,-149.42671,61.40452
1164,24223 WHALEY AVE,Anchorage,AK,99567,"24223 WHALEY AVE, Anchorage, AK, 99567",Match,Non_Exact,"24223 WHALEY AVE, CHUGIAK, AK, 99567",190827395,L,02,020,000101,2072,-149.43103,61.40452
1165,20420 SCENIC DR,Anchorage,AK,99567,"20420 SCENIC DR, Anchorage, AK, 99567",Match,Non_Exact,"20420 SCENIC DR, CHUGIAK, AK, 99567",190827324,R,02,020,000102,2011,-149.48772,61.405605
1166,20455 CRABTREE ST,Anchorage,AK,99567,"20455 CRABTREE ST, Anchorage, AK, 99567",Match,Non_Exact,"20455 CRABTREE ST, CHUGIAK, AK, 99567",190827329,L,02,020,000102,2011,-149.4914,61.40609
1167,22111 MC KINLEY VIEW AVE,Anchorage,AK,99567,"22111 MC KINLEY VIEW AVE, Anchorage, AK, 99567",Match,Non_Exact,"22111 MCKINLEY VIEW AVE, CHUGIAK, AK, 99567",190825230,L,02,020,000102,2008,-149.47215,61.404514
1168,20470 CRABTREE ST,Anchorage,AK,99567,"20470 CRABTREE ST, Anchorage, AK, 99567",Match,Non_Exact,"20470 CRABTREE ST, CHUGIAK, AK, 99567",190827329,R,02,020,000102,2011,-149.49142,61.40611
1169,24324 WHALEY AVE,Anchorage,AK,99567,"24324 WHALEY AVE, Anchorage, AK, 99567",Match,Non_Exact,"24324 WHALEY AVE, CHUGIAK, AK, 99567",190793392,R,02,020,000101,2050,-149.42858999999999,61.404506999999995
1170,24236 WHALEY AVE,Anchorage,AK,99567,"24236 WHALEY AVE, Anchorage, AK, 99567",Match,Non_Exact,"24236 WHALEY AVE, CHUGIAK, AK, 99567",190827395,R,02,020,000101,2050,-149.43074,61.404506999999995
1171,21237 MC KINLEY VIEW AVE,Anchorage,AK,99567,"21237 MC KINLEY VIEW AVE, Anchorage, AK, 99567",No_Match,,,,,,,,,,
1172,20385 TULWAR DR,Anchorage,AK,99567,"20385 TULWAR DR, Anchorage, AK, 99567",Match,Non_Exact,"20385 TULWAR DR, CHUGIAK, AK, 99567",190793394,L,02,020,000101,2050,-149.4241,61.40432
1173,21438 MC KINLEY VIEW AVE,Anchorage,AK,99567,"21438 MC KINLEY VIEW AVE, Anchorage, AK, 99567",Match,Non_Exact,"21438 MC KINLEY VIEW AVE, CHUGIAK, AK, 99567",614867513,R,02,020,000102,2008,-149.48369,61.404545
1174,20325 LEPRECHAN DR,Anchorage,AK,99567,"20325 LEPRECHAN DR, Anchorage, AK, 99567",Match,Non_Exact,"20325 LEPRECHAN DR, CHUGIAK, AK, 99567",605186245,L,02,020,000101,2072,-149.43877,61.403940000000006
1175,22410 MC KINLEY VIEW AVE,Anchorage,AK,99567,"22410 MC KINLEY VIEW AVE, Anchorage, AK, 99567",No_Match,,,,,,,,,,
1176,20348 SUNSET BLVD,Anchorage,AK,99567,"20348 SUNSET BLVD, Anchorage, AK, 99567",Match,Non_Exact,"20348 SUNSET BLVD, CHUGIAK, AK, 99567",190825479,R,02,020,000102,2011,-149.48405,61.403614000000005
1177,20348 SUNSET BLVD,Anchorage,AK,99567,"20348 SUNSET BLVD, Anchorage, AK, 99567",Match,Non_Exact,"20348 SUNSET BLVD, CHUGIAK, AK, 99567",190825479,R,02,020,000102,2011,-149.48405,61.403614000000005
1178,20318 CRABTREE ST,Anchorage,AK,99567,"20318 CRABTREE ST, Anchorage, AK, 99567",Match,Non_Exact,"20318 CRABTREE ST, CHUGIAK, AK, 99567",190793018,R,02,020,000102,2011,-149.49141,61.4038
1179,20340 WHITE BIRCH RD,Anchorage,AK,99567,"20340 WHITE BIRCH RD, Anchorage, AK, 99567",Match,Non_Exact,"20340 WHITE BIRCH RD, CHUGIAK, AK, 99567",614867278,R,02,020,000102,2008,-149.4768,61.404143999999995
1180,20305 WHITE BIRCH RD,Anchorage,AK,99567,"20305 WHITE BIRCH RD, Anchorage, AK, 99567",Match,Non_Exact,"20305 WHITE BIRCH RD, CHUGIAK, AK, 99567",614867278,L,02,020,000102,2008,-149.47693999999998,61.403884999999995
1181,22636 NEEDELS LOOP,Anchorage,AK,99567,"22636 NEEDELS LOOP, Anchorage, AK, 99567",Match,Non_Exact,"22636 NEEDELS LOOP, CHUGIAK, AK, 99567",190826233,R,02,020,000102,3013,-149.4591,61.398196999999996
1182,22606 NEEDELS LOOP,Anchorage,AK,99567,"22606 NEEDELS LOOP, Anchorage, AK, 99567",Match,Non_Exact,"22606 NEEDELS LOOP, CHUGIAK, AK, 99567",190826233,R,02,020,000102,3013,-149.45967,61.398196999999996
1183,19657 CREEK WAY,Anchorage,AK,99567,"19657 CREEK WAY, Anchorage, AK, 99567",Match,Non_Exact,"19657 CREEK WAY, CHUGIAK, AK, 99567",190827384,L,02,020,000102,3000,-149.44662,61.397877
1184,19619 CHUGACH PARK DR,Anchorage,AK,99567,"19619 CHUGACH PARK DR, Anchorage, AK, 99567",Match,Non_Exact,"19619 CHUGACH PARK DR, CHUGIAK, AK, 99567",190810520,R,02,020,000101,2050,-149.43634,61.396175
1185,19623 OLD CRANBERRY DR,Anchorage,AK,99567,"19623 OLD CRANBERRY DR, Anchorage, AK, 99567",Match,Non_Exact,"19623 OLD CRANBERRY DR, CHUGIAK, AK, 99567",190793006,L,02,020,000102,2014,-149.49538,61.398552
1186,19658 CREEK WAY,Anchorage,AK,99567,"19658 CREEK WAY, Anchorage, AK, 99567",Match,Non_Exact,"19658 CREEK WAY, CHUGIAK, AK, 99567",190827384,R,02,020,000102,3002,-149.4467,61.397877
1187,18631 JASMINE RD,Anchorage,AK,99567,"18631 JASMINE RD, Anchorage, AK, 99567",Match,Non_Exact,"18631 JASMINE RD, CHUGIAK, AK, 99567",190810519,R,02,020,000102,3018,-149.45016,61.389366
1188,23876 MOUNTAIN CIR,Anchorage,AK,99567,"23876 MOUNTAIN CIR, Anchorage, AK, 99567",Match,Non_Exact,"23876 MOUNTAIN CIR, CHUGIAK, AK, 99567",190793299,R,02,020,000102,3000,-149.43652,61.388687
1189,23851 MOUNTAIN CIR,Anchorage,AK,99567,"23851 MOUNTAIN CIR, Anchorage, AK, 99567",Match,Non_Exact,"23851 MOUNTAIN CIR, CHUGIAK, AK, 99567",190793299,L,02,020,000102,3000,-149.43653999999998,61.388695
1190,18618 AMONSON RD,Anchorage,AK,99567,"18618 AMONSON RD, Anchorage, AK, 99567",Match,Non_Exact,"18618 AMONSON RD, CHUGIAK, AK, 99567",190826881,R,02,020,000102,3018,-149.47404,61.388905
1191,18692 AMONSON RD,Anchorage,AK,99567,"18692 AMONSON RD, Anchorage, AK, 99567",Match,Non_Exact,"18692 AMONSON RD, CHUGIAK, AK, 99567",190826881,R,02,020,000102,3018,-149.47777,61.388630000000006
1192,18682 AMONSON RD,Anchorage,AK,99567,"18682 AMONSON RD, Anchorage, AK, 99567",Match,Non_Exact,"18682 AMONSON RD, CHUGIAK, AK, 99567",190826881,R,02,020,000102,3018,-149.47728,61.38853
1193,18605 JASMINE RD,Anchorage,AK,99567,"18605 JASMINE RD, Anchorage, AK, 99567",Match,Non_Exact,"18605 JASMINE RD, CHUGIAK, AK, 99567",190810519,R,02,020,000102,3018,-149.45016,61.389236
1194,18606 OLD GLENN HWY,Anchorage,AK,99567,"18606 OLD GLENN HWY, Anchorage, AK, 99567",Match,Non_Exact,"18606 OLD GLENN HWY, CHUGIAK, AK, 99567",190793088,L,02,020,000102,3010,-149.48,61.38884
1195,18604 AMONSON RD,Anchorage,AK,99567,"18604 AMONSON RD, Anchorage, AK, 99567",Match,Non_Exact,"18604 AMONSON RD, CHUGIAK, AK, 99567",190826881,R,02,020,000102,3018,-149.47337,61.389065
1196,21635 SWANEE CT,Anchorage,AK,99567,"21635 SWANEE CT, Anchorage, AK, 99567",Match,Non_Exact,"21635 SWANEE CT, CHUGIAK, AK, 99567",190793090,L,02,020,000102,3018,-149.4796,61.38815699999999
1197,21625 SWANEE CT,Anchorage,AK,99567,"21625 SWANEE CT, Anchorage, AK, 99567",Match,Non_Exact,"21625 SWANEE CT, CHUGIAK, AK, 99567",190793090,L,02,020,000102,3018,-149.47977,61.38815699999999
1198,23800 MOUNTAIN CIR,Anchorage,AK,99567,"23800 MOUNTAIN CIR, Anchorage, AK, 99567",Match,Non_Exact,"23800 MOUNTAIN CIR, CHUGIAK, AK, 99567",190793299,R,02,020,000102,3000,-149.43655,61.388676000000004
1199,18550 BENDING BIRCH DR,Anchorage,AK,99567,"18550 BENDING BIRCH DR, Anchorage, AK, 99567",Match,Non_Exact,"18550 BENDING BIRCH DR, CHUGIAK, AK, 99567",190793166,R,02,020,000102,3018,-149.4818,61.38679499999999
1200,18600 JASMINE RD,Anchorage,AK,99567,"18600 JASMINE RD, Anchorage, AK, 99567",Match,Non_Exact,"18600 JASMINE RD, CHUGIAK, AK, 99567",190810519,L,02,020,000102,3018,-149.45018000000002,61.388226
1201,18544 MOUNTAIN RD,Anchorage,AK,99567,"18544 MOUNTAIN RD, Anchorage, AK, 99567",Match,Non_Exact,"18544 MOUNTAIN RD, CHUGIAK, AK, 99567",190813900,L,02,020,000102,3000,-149.44055,61.38794300000001
1202,18530 OLD GLENN HWY,Anchorage,AK,99567,"18530 OLD GLENN HWY, Anchorage, AK, 99567",Match,Non_Exact,"18530 OLD GLENN HWY, CHUGIAK, AK, 99567",605186325,L,02,020,000102,3010,-149.48314,61.387783
1203,18506 MOUNTAIN RD,Anchorage,AK,99567,"18506 MOUNTAIN RD, Anchorage, AK, 99567",Match,Non_Exact,"18506 MOUNTAIN RD, CHUGIAK, AK, 99567",190813900,L,02,020,000102,3000,-149.43965,61.38760799999999
1204,22032 SPRING CREEK LN,Anchorage,AK,99567,"22032 SPRING CREEK LN, Anchorage, AK, 99567",Match,Non_Exact,"22032 SPRING CREEK LN, CHUGIAK, AK, 99567",190809921,R,02,020,000102,3018,-149.47363,61.387043000000006
1205,18415 SUE TAWN DR,Anchorage,AK,99567,"18415 SUE TAWN DR, Anchorage, AK, 99567",Match,Non_Exact,"18415 SUE TAWN DR, CHUGIAK, AK, 99567",190807726,L,02,020,000102,3000,-149.44333,61.386715
1206,18520 BENDING BIRCH DR,Anchorage,AK,99567,"18520 BENDING BIRCH DR, Anchorage, AK, 99567",Match,Non_Exact,"18520 BENDING BIRCH DR, CHUGIAK, AK, 99567",190793166,R,02,020,000102,3018,-149.48317,61.386242
1207,18561 OLD GLENN HWY,Anchorage,AK,99567,"18561 OLD GLENN HWY, Anchorage, AK, 99567",Match,Non_Exact,"18561 OLD GLENN HWY, CHUGIAK, AK, 99567",605186325,R,02,020,000102,3018,-149.48273,61.38791
1208,18433 MOUNTAIN RD,Anchorage,AK,99567,"18433 MOUNTAIN RD, Anchorage, AK, 99567",Match,Non_Exact,"18433 MOUNTAIN RD, CHUGIAK, AK, 99567",190793417,L,02,020,000102,3000,-149.43681,61.38694
1209,18515 OLD GLENN HWY,Anchorage,AK,99567,"18515 OLD GLENN HWY, Anchorage, AK, 99567",Match,Non_Exact,"18515 OLD GLENN HWY, CHUGIAK, AK, 99567",605186325,R,02,020,000102,3018,-149.48434,61.38736
1210,22000 SPRING CREEK LN,Anchorage,AK,99567,"22000 SPRING CREEK LN, Anchorage, AK, 99567",Match,Non_Exact,"22000 SPRING CREEK LN, CHUGIAK, AK, 99567",190809921,R,02,020,000102,3018,-149.47441,61.386790000000005
1211,18557 OLD GLENN HWY,Anchorage,AK,99567,"18557 OLD GLENN HWY, Anchorage, AK, 99567",Match,Non_Exact,"18557 OLD GLENN HWY, CHUGIAK, AK, 99567",605186325,R,02,020,000102,3018,-149.48286000000002,61.387859999999996
1212,18515 OLD GLENN HWY,Anchorage,AK,99567,"18515 OLD GLENN HWY, Anchorage, AK, 99567",Match,Non_Exact,"18515 OLD GLENN HWY, CHUGIAK, AK, 99567",605186325,R,02,020,000102,3018,-149.48434,61.38736
1213,18444 OLD GLENN HWY,Anchorage,AK,99567,"18444 OLD GLENN HWY, Anchorage, AK, 99567",Match,Non_Exact,"18444 OLD GLENN HWY, CHUGIAK, AK, 99567",605186325,L,02,020,000102,3010,-149.48543,61.38701
1214,19311 PENSTEMON LN,Anchorage,AK,99567,"19311 PENSTEMON LN, Anchorage, AK, 99567",No_Match,,,,,,,,,,
1215,19340 KULLBERG DR,Anchorage,AK,99567,"19340 KULLBERG DR, Anchorage, AK, 99567",Match,Non_Exact,"19340 KULLBERG DR, CHUGIAK, AK, 99567",190793406,R,02,020,000101,2073,-149.42803999999998,61.394893999999994
1216,19312 IRIS ST,Anchorage,AK,99567,"19312 IRIS ST, Anchorage, AK, 99567",Match,Non_Exact,"19312 IRIS ST, CHUGIAK, AK, 99567",190826041,L,02,020,000102,3017,-149.4584,61.394737
1217,19312 STARFLOWER CIR,Anchorage,AK,99567,"19312 STARFLOWER CIR, Anchorage, AK, 99567",Match,Non_Exact,"19312 STARFLOWER CIR, CHUGIAK, AK, 99567",190807736,L,02,020,000102,3017,-149.4543,61.394732999999995
1218,23031 SKYVIEW AVE,Anchorage,AK,99567,"23031 SKYVIEW AVE, Anchorage, AK, 99567",Match,Non_Exact,"23031 SKYVIEW AVE, CHUGIAK, AK, 99567",190807735,L,02,020,000102,3017,-149.45302,61.394546999999996
1219,22821 SKYVIEW AVE,Anchorage,AK,99567,"22821 SKYVIEW AVE, Anchorage, AK, 99567",Match,Non_Exact,"22821 SKYVIEW AVE, CHUGIAK, AK, 99567",190826891,L,02,020,000102,3017,-149.45786999999999,61.39455
1220,19210 KULLBERG DR,Anchorage,AK,99567,"19210 KULLBERG DR, Anchorage, AK, 99567",Match,Non_Exact,"19210 KULLBERG DR, CHUGIAK, AK, 99567",190793406,R,02,020,000101,2073,-149.42851000000002,61.39444
1221,19200 KULLBERG DR,Anchorage,AK,99567,"19200 KULLBERG DR, Anchorage, AK, 99567",Match,Non_Exact,"19200 KULLBERG DR, CHUGIAK, AK, 99567",190793406,R,02,020,000101,2073,-149.42844,61.394417000000004
1222,19223 OLD GLENN HWY,Anchorage,AK,99567,"19223 OLD GLENN HWY, Anchorage, AK, 99567",Match,Non_Exact,"19223 OLD GLENN HWY, CHUGIAK, AK, 99567",190793126,R,02,020,000102,3018,-149.4657,61.39314
1223,19251 MOUNTAIN RD,Anchorage,AK,99567,"19251 MOUNTAIN RD, Anchorage, AK, 99567",Match,Non_Exact,"19251 MOUNTAIN RD, CHUGIAK, AK, 99567",626997081,R,02,020,000102,3000,-149.44066,61.394090000000006
1224,19211 OLD GLENN HWY,Anchorage,AK,99567,"19211 OLD GLENN HWY, Anchorage, AK, 99567",Match,Non_Exact,"19211 OLD GLENN HWY, CHUGIAK, AK, 99567",190793126,R,02,020,000102,3018,-149.46587,61.393013
1225,23015 DOTBERRY DR,Anchorage,AK,99567,"23015 DOTBERRY DR, Anchorage, AK, 99567",Match,Non_Exact,"23015 DOTBERRY DR, CHUGIAK, AK, 99567",639714973,L,02,020,000102,3015,-149.45543999999998,61.39362
1226,23125 DOTBERRY DR,Anchorage,AK,99567,"23125 DOTBERRY DR, Anchorage, AK, 99567",Match,Non_Exact,"23125 DOTBERRY DR, CHUGIAK, AK, 99567",639714973,L,02,020,000102,3015,-149.45241000000001,61.39362
1227,19127 MELISSA LN,Anchorage,AK,99567,"19127 MELISSA LN, Anchorage, AK, 99567",Match,Non_Exact,"19127 MELISSA LN, CHUGIAK, AK, 99567",190807728,R,02,020,000102,3003,-149.44378999999998,61.39293000000001
1228,19162 MOUNTAIN RD,Anchorage,AK,99567,"19162 MOUNTAIN RD, Anchorage, AK, 99567",Match,Non_Exact,"19162 MOUNTAIN RD, CHUGIAK, AK, 99567",626997081,L,02,020,000102,3003,-149.44194,61.394794
1229,19137 OLD GLENN HWY,Anchorage,AK,99567,"19137 OLD GLENN HWY, Anchorage, AK, 99567",Match,Non_Exact,"19137 OLD GLENN HWY, CHUGIAK, AK, 99567",190793126,R,02,020,000102,3018,-149.46687,61.392230000000005
1230,19151 DOGWOOD RD,Anchorage,AK,99567,"19151 DOGWOOD RD, Anchorage, AK, 99567",Match,Non_Exact,"19151 DOGWOOD RD, CHUGIAK, AK, 99567",190826892,L,02,020,000102,3018,-149.45633,61.39286
1231,19122 DOGWOOD RD,Anchorage,AK,99567,"19122 DOGWOOD RD, Anchorage, AK, 99567",Match,Non_Exact,"19122 DOGWOOD RD, CHUGIAK, AK, 99567",190826892,R,02,020,000102,3018,-149.45636000000002,61.39283399999999
1232,19144 MELISSA LN,Anchorage,AK,99567,"19144 MELISSA LN, Anchorage, AK, 99567",No_Match,,,,,,,,,,
1233,19130 MOUNTAIN RD,Anchorage,AK,99567,"19130 MOUNTAIN RD, Anchorage, AK, 99567",Match,Non_Exact,"19130 MOUNTAIN RD, CHUGIAK, AK, 99567",626997081,L,02,020,000102,3003,-149.44128,61.394417000000004
1234,23745 SLEEPY CIR,Anchorage,AK,99567,"23745 SLEEPY CIR, Anchorage, AK, 99567",Match,Non_Exact,"23745 SLEEPY CIR, CHUGIAK, AK, 99567",626996655,L,02,020,000102,3000,-149.43901,61.39134
1235,19048 MELISSA LN,Anchorage,AK,99567,"19048 MELISSA LN, Anchorage, AK, 99567",Match,Non_Exact,"19048 MELISSA LN, CHUGIAK, AK, 99567",190807728,L,02,020,000102,3003,-149.44377,61.392967000000006
1236,23023 ELDER DR,Anchorage,AK,99567,"23023 ELDER DR, Anchorage, AK, 99567",Match,Non_Exact,"23023 ELDER DR, CHUGIAK, AK, 99567",190826033,L,02,020,000102,3018,-149.45549,61.39255
1237,23137 ELDER DR,Anchorage,AK,99567,"23137 ELDER DR, Anchorage, AK, 99567",Match,Non_Exact,"23137 ELDER DR, CHUGIAK, AK, 99567",190826033,L,02,020,000102,3018,-149.45311,61.39255
1238,19039 MELISSA LN,Anchorage,AK,99567,"19039 MELISSA LN, Anchorage, AK, 99567",Match,Non_Exact,"19039 MELISSA LN, CHUGIAK, AK, 99567",190807728,R,02,020,000102,3003,-149.44446000000002,61.392357
1239,19042 DOGWOOD RD,Anchorage,AK,99567,"19042 DOGWOOD RD, Anchorage, AK, 99567",Match,Non_Exact,"19042 DOGWOOD RD, CHUGIAK, AK, 99567",635725400,R,02,020,000102,3018,-149.45633999999998,61.391613
1240,23741 SLEEPY CIR,Anchorage,AK,99567,"23741 SLEEPY CIR, Anchorage, AK, 99567",Match,Non_Exact,"23741 SLEEPY CIR, CHUGIAK, AK, 99567",626996655,L,02,020,000102,3000,-149.43903999999998,61.39134
1241,19028 MELISSA LN,Anchorage,AK,99567,"19028 MELISSA LN, Anchorage, AK, 99567",Match,Non_Exact,"19028 MELISSA LN, CHUGIAK, AK, 99567",190807728,L,02,020,000102,3003,-149.44397,61.392796
1242,19029 JASMINE RD,Anchorage,AK,99567,"19029 JASMINE RD, Anchorage, AK, 99567",Match,Non_Exact,"19029 JASMINE RD, CHUGIAK, AK, 99567",190793245,R,02,020,000102,3018,-149.45016,61.391921999999994
1243,23266 RICKY WAY,Anchorage,AK,99567,"23266 RICKY WAY, Anchorage, AK, 99567",Match,Non_Exact,"23266 RICKY WAY, CHUGIAK, AK, 99567",190807734,R,02,020,000102,3000,-149.44789,61.392219999999995
1244,23262 RICKY WAY,Anchorage,AK,99567,"23262 RICKY WAY, Anchorage, AK, 99567",Match,Non_Exact,"23262 RICKY WAY, CHUGIAK, AK, 99567",190807734,R,02,020,000102,3000,-149.44791999999998,61.392212
1245,19009 DOGWOOD RD,Anchorage,AK,99567,"19009 DOGWOOD RD, Anchorage, AK, 99567",Match,Non_Exact,"19009 DOGWOOD RD, CHUGIAK, AK, 99567",635725400,L,02,020,000102,3018,-149.45633,61.391777000000005
1246,18943 MELISSA LN,Anchorage,AK,99567,"18943 MELISSA LN, Anchorage, AK, 99567",Match,Non_Exact,"18943 MELISSA LN, CHUGIAK, AK, 99567",190807728,R,02,020,000102,3003,-149.44447,61.391705
1247,19000 MELISSA LN,Anchorage,AK,99567,"19000 MELISSA LN, Anchorage, AK, 99567",Match,Non_Exact,"19000 MELISSA LN, CHUGIAK, AK, 99567",190807728,L,02,020,000102,3003,-149.44423999999998,61.39255
1248,18935 JASMINE RD,Anchorage,AK,99567,"18935 JASMINE RD, Anchorage, AK, 99567",Match,Non_Exact,"18935 JASMINE RD, CHUGIAK, AK, 99567",190793245,R,02,020,000102,3018,-149.45016,61.391290000000005
1249,18924 MOUNTAIN RD,Anchorage,AK,99567,"18924 MOUNTAIN RD, Anchorage, AK, 99567",Match,Non_Exact,"18924 MOUNTAIN RD, CHUGIAK, AK, 99567",626997003,L,02,020,000102,3003,-149.44102,61.391254
1250,18940 SUE TAWN DR,Anchorage,AK,99567,"18940 SUE TAWN DR, Anchorage, AK, 99567",Match,Non_Exact,"18940 SUE TAWN DR, CHUGIAK, AK, 99567",190827701,R,02,020,000102,3000,-149.44658,61.39149499999999
1251,23737 SLEEPY CIR,Anchorage,AK,99567,"23737 SLEEPY CIR, Anchorage, AK, 99567",Match,Non_Exact,"23737 SLEEPY CIR, CHUGIAK, AK, 99567",626996654,L,02,020,000102,3000,-149.43941999999998,61.391296
1252,23841 SLEEPY CIR,Anchorage,AK,99567,"23841 SLEEPY CIR, Anchorage, AK, 99567",Match,Non_Exact,"23841 SLEEPY CIR, CHUGIAK, AK, 99567",626996655,L,02,020,000102,3000,-149.43839,61.39133
1253,23919 SLEEPY CIR,Anchorage,AK,99567,"23919 SLEEPY CIR, Anchorage, AK, 99567",Match,Non_Exact,"23919 SLEEPY CIR, CHUGIAK, AK, 99567",626996655,L,02,020,000102,3000,-149.43788,61.391262
1254,18916 MELISSA LN,Anchorage,AK,99567,"18916 MELISSA LN, Anchorage, AK, 99567",Match,Non_Exact,"18916 MELISSA LN, CHUGIAK, AK, 99567",190807728,L,02,020,000102,3003,-149.44461,61.391777000000005
1255,23740 SLEEPY CIR,Anchorage,AK,99567,"23740 SLEEPY CIR, Anchorage, AK, 99567",Match,Non_Exact,"23740 SLEEPY CIR, CHUGIAK, AK, 99567",626996654,R,02,020,000102,3000,-149.44023,61.391186
1256,23838 SLEEPY CIR,Anchorage,AK,99567,"23838 SLEEPY CIR, Anchorage, AK, 99567",Match,Non_Exact,"23838 SLEEPY CIR, CHUGIAK, AK, 99567",626996655,R,02,020,000102,3000,-149.43839,61.39131999999999
1257,18907 JASMINE RD,Anchorage,AK,99567,"18907 JASMINE RD, Anchorage, AK, 99567",Match,Non_Exact,"18907 JASMINE RD, CHUGIAK, AK, 99567",190793245,R,02,020,000102,3018,-149.45016,61.3911
1258,18915 OLD GLENN HWY,Anchorage,AK,99567,"18915 OLD GLENN HWY, Anchorage, AK, 99567",Match,Non_Exact,"18915 OLD GLENN HWY, CHUGIAK, AK, 99567",190793126,R,02,020,000102,3018,-149.47122,61.390602
1259,23125 SUMAC DR,Anchorage,AK,99567,"23125 SUMAC DR, Anchorage, AK, 99567",Match,Non_Exact,"23125 SUMAC DR, CHUGIAK, AK, 99567",190825487,L,02,020,000102,3018,-149.45322,61.39088
1260,23125 SUMAC DR,Anchorage,AK,99567,"23125 SUMAC DR, Anchorage, AK, 99567",Match,Non_Exact,"23125 SUMAC DR, CHUGIAK, AK, 99567",190825487,L,02,020,000102,3018,-149.45322,61.39088
1261,23025 SUMAC DR,Anchorage,AK,99567,"23025 SUMAC DR, Anchorage, AK, 99567",Match,Non_Exact,"23025 SUMAC DR, CHUGIAK, AK, 99567",190825487,L,02,020,000102,3018,-149.4554,61.39088
1262,23001 SUMAC DR,Anchorage,AK,99567,"23001 SUMAC DR, Anchorage, AK, 99567",Match,Non_Exact,"23001 SUMAC DR, CHUGIAK, AK, 99567",190825487,L,02,020,000102,3018,-149.45592,61.39088
1263,18912 SUE TAWN DR,Anchorage,AK,99567,"18912 SUE TAWN DR, Anchorage, AK, 99567",Match,Non_Exact,"18912 SUE TAWN DR, CHUGIAK, AK, 99567",190827701,R,02,020,000102,3000,-149.44627,61.391247
1264,18895 MOUNTAIN RD,Anchorage,AK,99567,"18895 MOUNTAIN RD, Anchorage, AK, 99567",Match,Non_Exact,"18895 MOUNTAIN RD, CHUGIAK, AK, 99567",190813901,R,02,020,000102,3000,-149.44069,61.390533
1265,23140 SUMAC DR,Anchorage,AK,99567,"23140 SUMAC DR, Anchorage, AK, 99567",Match,Non_Exact,"23140 SUMAC DR, CHUGIAK, AK, 99567",190825487,R,02,020,000102,3018,-149.45245,61.39086999999999
1266,18880 MELISSA LN,Anchorage,AK,99567,"18880 MELISSA LN, Anchorage, AK, 99567",Match,Non_Exact,"18880 MELISSA LN, CHUGIAK, AK, 99567",190807728,L,02,020,000102,3003,-149.44418000000002,61.391482999999994
1267,23110 SUMAC DR,Anchorage,AK,99567,"23110 SUMAC DR, Anchorage, AK, 99567",Match,Non_Exact,"23110 SUMAC DR, CHUGIAK, AK, 99567",190825487,R,02,020,000102,3018,-149.45288,61.39086999999999
1268,18909 OLD GLENN HWY,Anchorage,AK,99567,"18909 OLD GLENN HWY, Anchorage, AK, 99567",Match,Non_Exact,"18909 OLD GLENN HWY, CHUGIAK, AK, 99567",190793126,R,02,020,000102,3018,-149.47137,61.39058000000001
1269,23645 CHARLIE RD,Anchorage,AK,99567,"23645 CHARLIE RD, Anchorage, AK, 99567",Match,Non_Exact,"23645 CHARLIE RD, CHUGIAK, AK, 99567",190807730,L,02,020,000102,3003,-149.44234,61.390483999999994
1270,18923 OLD GLENN HWY,Anchorage,AK,99567,"18923 OLD GLENN HWY, Anchorage, AK, 99567",Match,Non_Exact,"18923 OLD GLENN HWY, CHUGIAK, AK, 99567",190793126,R,02,020,000102,3018,-149.47101999999998,61.39063
1271,18821 JASMINE RD,Anchorage,AK,99567,"18821 JASMINE RD, Anchorage, AK, 99567",Match,Non_Exact,"18821 JASMINE RD, CHUGIAK, AK, 99567",190810519,R,02,020,000102,3018,-149.45016,61.390312
1272,18845 OLD GLENN HWY,Anchorage,AK,99567,"18845 OLD GLENN HWY, Anchorage, AK, 99567",Match,Non_Exact,"18845 OLD GLENN HWY, CHUGIAK, AK, 99567",190793126,R,02,020,000102,3018,-149.47296,61.390347
1273,23644 CHARLIE RD,Anchorage,AK,99567,"23644 CHARLIE RD, Anchorage, AK, 99567",Match,Non_Exact,"23644 CHARLIE RD, CHUGIAK, AK, 99567",190807730,R,02,020,000102,3000,-149.44232,61.390471999999995
1274,18810 SUE TAWN DR,Anchorage,AK,99567,"18810 SUE TAWN DR, Anchorage, AK, 99567",Match,Non_Exact,"18810 SUE TAWN DR, CHUGIAK, AK, 99567",190827701,R,02,020,000102,3000,-149.44522,61.390324
1275,18861 MOUNTAIN RD,Anchorage,AK,99567,"18861 MOUNTAIN RD, Anchorage, AK, 99567",Match,Non_Exact,"18861 MOUNTAIN RD, CHUGIAK, AK, 99567",190813900,R,02,020,000102,3000,-149.43913,61.389996
1276,23612 CHARLIE RD,Anchorage,AK,99567,"23612 CHARLIE RD, Anchorage, AK, 99567",Match,Non_Exact,"23612 CHARLIE RD, CHUGIAK, AK, 99567",190807730,R,02,020,000102,3000,-149.44313,61.390434
1277,18843 MOUNTAIN RD,Anchorage,AK,99567,"18843 MOUNTAIN RD, Anchorage, AK, 99567",Match,Non_Exact,"18843 MOUNTAIN RD, CHUGIAK, AK, 99567",190813900,R,02,020,000102,3000,-149.43633,61.39029
1278,18749 OLD GLENN HWY,Anchorage,AK,99567,"18749 OLD GLENN HWY, Anchorage, AK, 99567",Match,Non_Exact,"18749 OLD GLENN HWY, CHUGIAK, AK, 99567",190793126,R,02,020,000102,3018,-149.47534,61.389990000000004
1279,18864 MOUNTAIN RD,Anchorage,AK,99567,"18864 MOUNTAIN RD, Anchorage, AK, 99567",Match,Non_Exact,"18864 MOUNTAIN RD, CHUGIAK, AK, 99567",190813901,L,02,020,000102,3000,-149.44043,61.390080000000005
1280,18743 JASMINE RD,Anchorage,AK,99567,"18743 JASMINE RD, Anchorage, AK, 99567",Match,Non_Exact,"18743 JASMINE RD, CHUGIAK, AK, 99567",190810519,R,02,020,000102,3018,-149.45016,61.389922999999996
1281,18766 MOUNTAIN RD,Anchorage,AK,99567,"18766 MOUNTAIN RD, Anchorage, AK, 99567",Match,Non_Exact,"18766 MOUNTAIN RD, CHUGIAK, AK, 99567",190813900,L,02,020,000102,3000,-149.43666000000002,61.390519999999995
1282,18743 OLD GLENN HWY,Anchorage,AK,99567,"18743 OLD GLENN HWY, Anchorage, AK, 99567",Match,Non_Exact,"18743 OLD GLENN HWY, CHUGIAK, AK, 99567",190793126,R,02,020,000102,3018,-149.4755,61.38997
1283,18854 MOUNTAIN RD,Anchorage,AK,99567,"18854 MOUNTAIN RD, Anchorage, AK, 99567",Match,Non_Exact,"18854 MOUNTAIN RD, CHUGIAK, AK, 99567",190813900,L,02,020,000102,3000,-149.43912,61.389984
1284,18725 JASMINE RD,Anchorage,AK,99567,"18725 JASMINE RD, Anchorage, AK, 99567",Match,Non_Exact,"18725 JASMINE RD, CHUGIAK, AK, 99567",190810519,R,02,020,000102,3018,-149.45016,61.389835
1285,18717 SUE TAWN DR,Anchorage,AK,99567,"18717 SUE TAWN DR, Anchorage, AK, 99567",Match,Non_Exact,"18717 SUE TAWN DR, CHUGIAK, AK, 99567",190827701,L,02,020,000102,3003,-149.44493,61.389534
1286,18620 OLD GLENN HWY,Anchorage,AK,99567,"18620 OLD GLENN HWY, Anchorage, AK, 99567",Match,Non_Exact,"18620 OLD GLENN HWY, CHUGIAK, AK, 99567",190793088,L,02,020,000102,3010,-149.4797,61.388935
1287,18707 JASMINE RD,Anchorage,AK,99567,"18707 JASMINE RD, Anchorage, AK, 99567",Match,Non_Exact,"18707 JASMINE RD, CHUGIAK, AK, 99567",190810519,R,02,020,000102,3018,-149.45016,61.38974399999999
1288,18707 MELISSA LN,Anchorage,AK,99567,"18707 MELISSA LN, Anchorage, AK, 99567",Match,Non_Exact,"18707 MELISSA LN, CHUGIAK, AK, 99567",190807727,R,02,020,000102,3000,-149.4435,61.390094999999995
1289,23873 MOUNTAIN CIR,Anchorage,AK,99567,"23873 MOUNTAIN CIR, Anchorage, AK, 99567",Match,Non_Exact,"23873 MOUNTAIN CIR, CHUGIAK, AK, 99567",190793299,L,02,020,000102,3000,-149.43653999999998,61.3887
1290,23833 MOUNTAIN CIR,Anchorage,AK,99567,"23833 MOUNTAIN CIR, Anchorage, AK, 99567",Match,Non_Exact,"23833 MOUNTAIN CIR, CHUGIAK, AK, 99567",190793299,L,02,020,000102,3000,-149.43655,61.388690000000004
1291,18300 MOUNTAIN RD,Anchorage,AK,99567,"18300 MOUNTAIN RD, Anchorage, AK, 99567",Match,Non_Exact,"18300 MOUNTAIN RD, CHUGIAK, AK, 99567",190793417,R,02,020,000102,3000,-149.43657,61.386559999999996
1292,18317 AMONSON RD,Anchorage,AK,99567,"18317 AMONSON RD, Anchorage, AK, 99567",Match,Non_Exact,"18317 AMONSON RD, CHUGIAK, AK, 99567",190793174,L,02,020,000102,3018,-149.47478,61.385833999999996
1293,18251 BENDING BIRCH DR,Anchorage,AK,99567,"18251 BENDING BIRCH DR, Anchorage, AK, 99567",Match,Non_Exact,"18251 BENDING BIRCH DR, CHUGIAK, AK, 99567",190793166,L,02,020,000102,3018,-149.48386000000002,61.385780000000004
1294,18243 BENDING BIRCH DR,Anchorage,AK,99567,"18243 BENDING BIRCH DR, Anchorage, AK, 99567",Match,Non_Exact,"18243 BENDING BIRCH DR, CHUGIAK, AK, 99567",190827382,L,02,020,000102,3018,-149.48288,61.3855
1295,18308 AMONSON RD,Anchorage,AK,99567,"18308 AMONSON RD, Anchorage, AK, 99567",Match,Non_Exact,"18308 AMONSON RD, CHUGIAK, AK, 99567",190793174,R,02,020,000102,3018,-149.47486999999998,61.38584
1296,18309 AMONSON RD,Anchorage,AK,99567,"18309 AMONSON RD, Anchorage, AK, 99567",Match,Non_Exact,"18309 AMONSON RD, CHUGIAK, AK, 99567",190807714,L,02,020,000102,3018,-149.47453000000002,61.385715000000005
1297,18330 AMONSON RD,Anchorage,AK,99567,"18330 AMONSON RD, Anchorage, AK, 99567",Match,Non_Exact,"18330 AMONSON RD, CHUGIAK, AK, 99567",190793174,R,02,020,000102,3018,-149.47527,61.385833999999996
1298,18358 AMONSON RD,Anchorage,AK,99567,"18358 AMONSON RD, Anchorage, AK, 99567",Match,Non_Exact,"18358 AMONSON RD, CHUGIAK, AK, 99567",190793168,R,02,020,000102,3018,-149.47612,61.385707999999994
1299,18368 AMONSON RD,Anchorage,AK,99567,"18368 AMONSON RD, Anchorage, AK, 99567",Match,Non_Exact,"18368 AMONSON RD, CHUGIAK, AK, 99567",190793168,R,02,020,000102,3018,-149.4768,61.38564
1300,18232 BENDING BIRCH DR,Anchorage,AK,99567,"18232 BENDING BIRCH DR, Anchorage, AK, 99567",No_Match,,,,,,,,,,
1301,18305 OLD GLENN HWY,Anchorage,AK,99567,"18305 OLD GLENN HWY, Anchorage, AK, 99567",Match,Non_Exact,"18305 OLD GLENN HWY, CHUGIAK, AK, 99567",605186325,R,02,020,000102,3018,-149.49158,61.384730000000005
1302,18242 POPLAR ST,Anchorage,AK,99567,"18242 POPLAR ST, Anchorage, AK, 99567",Match,Non_Exact,"18242 POPLAR ST, CHUGIAK, AK, 99567",627000206,R,02,020,000102,3018,-149.48396,61.384857
1303,18221 AMONSON RD,Anchorage,AK,99567,"18221 AMONSON RD, Anchorage, AK, 99567",Match,Non_Exact,"18221 AMONSON RD, CHUGIAK, AK, 99567",190807714,L,02,020,000102,3018,-149.47545,61.385040000000004
1304,18212 POPLAR ST,Anchorage,AK,99567,"18212 POPLAR ST, Anchorage, AK, 99567",Match,Non_Exact,"18212 POPLAR ST, CHUGIAK, AK, 99567",627000206,R,02,020,000102,3018,-149.48396,61.384840000000004
1305,18206 AMONSON RD,Anchorage,AK,99567,"18206 AMONSON RD, Anchorage, AK, 99567",Match,Non_Exact,"18206 AMONSON RD, CHUGIAK, AK, 99567",190793175,R,02,020,000102,3018,-149.47769,61.384119999999996
1306,18211 OLD GLENN HWY,Anchorage,AK,99567,"18211 OLD GLENN HWY, Anchorage, AK, 99567",No_Match,,,,,,,,,,
1307,18017 AMONSON RD,Anchorage,AK,99567,"18017 AMONSON RD, Anchorage, AK, 99567",Match,Non_Exact,"18017 AMONSON RD, CHUGIAK, AK, 99567",605186345,L,02,020,000102,3018,-149.47278,61.38375500000001
1308,18149 BENDING BIRCH DR,Anchorage,AK,99567,"18149 BENDING BIRCH DR, Anchorage, AK, 99567",Match,Non_Exact,"18149 BENDING BIRCH DR, CHUGIAK, AK, 99567",190827382,L,02,020,000102,3018,-149.4804,61.384598
1309,18161 OLD GLENN HWY,Anchorage,AK,99567,"18161 OLD GLENN HWY, Anchorage, AK, 99567",Match,Non_Exact,"18161 OLD GLENN HWY, CHUGIAK, AK, 99567",605186325,R,02,020,000102,3018,-149.48846,61.385940000000005
1310,18134 MALL CIR,Anchorage,AK,99567,"18134 MALL CIR, Anchorage, AK, 99567",Match,Non_Exact,"18134 MALL CIR, CHUGIAK, AK, 99567",627000207,R,02,020,000102,3018,-149.48651,61.38389
1311,18134 MALL CIR,Anchorage,AK,99567,"18134 MALL CIR, Anchorage, AK, 99567",Match,Non_Exact,"18134 MALL CIR, CHUGIAK, AK, 99567",627000207,R,02,020,000102,3018,-149.48651,61.38389
1312,18134 BENDING BIRCH DR,Anchorage,AK,99567,"18134 BENDING BIRCH DR, Anchorage, AK, 99567",Match,Non_Exact,"18134 BENDING BIRCH DR, CHUGIAK, AK, 99567",190827382,R,02,020,000102,3018,-149.4803,61.38465
1313,18170 AMONSON RD,Anchorage,AK,99567,"18170 AMONSON RD, Anchorage, AK, 99567",Match,Non_Exact,"18170 AMONSON RD, CHUGIAK, AK, 99567",190793175,R,02,020,000102,3018,-149.47801,61.383796999999994
1314,18135 OLD GLENN HWY,Anchorage,AK,99567,"18135 OLD GLENN HWY, Anchorage, AK, 99567",Match,Non_Exact,"18135 OLD GLENN HWY, CHUGIAK, AK, 99567",605247212,R,02,020,000102,3018,-149.49298000000002,61.384113
1315,18131 BENDING BIRCH DR,Anchorage,AK,99567,"18131 BENDING BIRCH DR, Anchorage, AK, 99567",Match,Non_Exact,"18131 BENDING BIRCH DR, CHUGIAK, AK, 99567",190827382,L,02,020,000102,3018,-149.48126000000002,61.384586
1316,18408 AMONSON RD,Anchorage,AK,99567,"18408 AMONSON RD, Anchorage, AK, 99567",Match,Non_Exact,"18408 AMONSON RD, CHUGIAK, AK, 99567",190826881,R,02,020,000102,3018,-149.47734,61.386948
1317,18351 BENDING BIRCH DR,Anchorage,AK,99567,"18351 BENDING BIRCH DR, Anchorage, AK, 99567",Match,Non_Exact,"18351 BENDING BIRCH DR, CHUGIAK, AK, 99567",190793166,L,02,020,000102,3018,-149.48279,61.386387
1318,18411 MOUNTAIN RD,Anchorage,AK,99567,"18411 MOUNTAIN RD, Anchorage, AK, 99567",Match,Non_Exact,"18411 MOUNTAIN RD, CHUGIAK, AK, 99567",190793417,L,02,020,000102,3000,-149.43658,61.386683999999995
1319,18443 OLD GLENN HWY,Anchorage,AK,99567,"18443 OLD GLENN HWY, Anchorage, AK, 99567",Match,Non_Exact,"18443 OLD GLENN HWY, CHUGIAK, AK, 99567",605186325,R,02,020,000102,3018,-149.4869,61.3865
1320,18404 AMONSON RD,Anchorage,AK,99567,"18404 AMONSON RD, Anchorage, AK, 99567",Match,Non_Exact,"18404 AMONSON RD, CHUGIAK, AK, 99567",190826881,R,02,020,000102,3018,-149.47748,61.38686800000001
1321,18435 JASMINE RD,Anchorage,AK,99567,"18435 JASMINE RD, Anchorage, AK, 99567",Match,Non_Exact,"18435 JASMINE RD, CHUGIAK, AK, 99567",190810519,R,02,020,000102,3018,-149.45016,61.38839300000001
1322,22015 BIRCH LN,Anchorage,AK,99567,"22015 BIRCH LN, Anchorage, AK, 99567",Match,Non_Exact,"22015 BIRCH LN, CHUGIAK, AK, 99567",190807715,R,02,020,000102,3018,-149.47377,61.38615
1323,24291 PLATSEK DR,Anchorage,AK,99567,"24291 PLATSEK DR, Anchorage, AK, 99567",Match,Non_Exact,"24291 PLATSEK DR, CHUGIAK, AK, 99567",190793403,L,02,020,000101,2050,-149.4298,61.396538
1324,24217 PLATSEK DR,Anchorage,AK,99567,"24217 PLATSEK DR, Anchorage, AK, 99567",Match,Non_Exact,"24217 PLATSEK DR, CHUGIAK, AK, 99567",190793403,L,02,020,000101,2050,-149.43167,61.396397
1325,24271 PLATSEK DR,Anchorage,AK,99567,"24271 PLATSEK DR, Anchorage, AK, 99567",Match,Non_Exact,"24271 PLATSEK DR, CHUGIAK, AK, 99567",190793403,L,02,020,000101,2050,-149.43027,61.39643
1326,19512 KULLBERG CIR,Anchorage,AK,99567,"19512 KULLBERG CIR, Anchorage, AK, 99567",No_Match,,,,,,,,,,
1327,24245 PLATSEK DR,Anchorage,AK,99567,"24245 PLATSEK DR, Anchorage, AK, 99567",Match,Non_Exact,"24245 PLATSEK DR, CHUGIAK, AK, 99567",190793403,L,02,020,000101,2050,-149.43094,61.396393
1328,24290 PLATSEK DR,Anchorage,AK,99567,"24290 PLATSEK DR, Anchorage, AK, 99567",No_Match,,,,,,,,,,
1329,19519 SUE TAWN DR,Anchorage,AK,99567,"19519 SUE TAWN DR, Anchorage, AK, 99567",Match,Non_Exact,"19519 SUE TAWN DR, CHUGIAK, AK, 99567",190807725,L,02,020,000102,3003,-149.44833,61.396496
1330,22647 SHERMAN ST,Anchorage,AK,99567,"22647 SHERMAN ST, Anchorage, AK, 99567",Match,Non_Exact,"22647 SHERMAN ST, CHUGIAK, AK, 99567",190826232,L,02,020,000102,3013,-149.46147,61.3964
1331,22717 SHERMAN ST,Anchorage,AK,99567,"22717 SHERMAN ST, Anchorage, AK, 99567",Match,Non_Exact,"22717 SHERMAN ST, CHUGIAK, AK, 99567",190826232,L,02,020,000102,3013,-149.46045,61.3964
1332,22635 SHERMAN ST,Anchorage,AK,99567,"22635 SHERMAN ST, Anchorage, AK, 99567",Match,Non_Exact,"22635 SHERMAN ST, CHUGIAK, AK, 99567",190826232,L,02,020,000102,3013,-149.46165,61.3964
1333,22615 SHERMAN ST,Anchorage,AK,99567,"22615 SHERMAN ST, Anchorage, AK, 99567",Match,Non_Exact,"22615 SHERMAN ST, CHUGIAK, AK, 99567",190826232,L,02,020,000102,3013,-149.46194,61.3964
1334,22625 SHERMAN ST,Anchorage,AK,99567,"22625 SHERMAN ST, Anchorage, AK, 99567",Match,Non_Exact,"22625 SHERMAN ST, CHUGIAK, AK, 99567",190826232,L,02,020,000102,3013,-149.46178999999998,61.3964
1335,24164 PLATSEK DR,Anchorage,AK,99567,"24164 PLATSEK DR, Anchorage, AK, 99567",Match,Non_Exact,"24164 PLATSEK DR, CHUGIAK, AK, 99567",190793301,R,02,020,000101,2050,-149.43233999999998,61.39573000000001
1336,22604 SHERMAN ST,Anchorage,AK,99567,"22604 SHERMAN ST, Anchorage, AK, 99567",Match,Non_Exact,"22604 SHERMAN ST, CHUGIAK, AK, 99567",190826232,R,02,020,000102,3017,-149.46204,61.396393
1337,24193 PLATSEK DR,Anchorage,AK,99567,"24193 PLATSEK DR, Anchorage, AK, 99567",Match,Non_Exact,"24193 PLATSEK DR, CHUGIAK, AK, 99567",190793301,L,02,020,000101,2050,-149.43236000000002,61.396159999999995
1338,19448 WILDWOOD DR,Anchorage,AK,99567,"19448 WILDWOOD DR, Anchorage, AK, 99567",Match,Non_Exact,"19448 WILDWOOD DR, CHUGIAK, AK, 99567",190793235,R,02,020,000102,3017,-149.45228999999998,61.39585
1339,19428 MOUNTAIN RD,Anchorage,AK,99567,"19428 MOUNTAIN RD, Anchorage, AK, 99567",Match,Non_Exact,"19428 MOUNTAIN RD, CHUGIAK, AK, 99567",190826899,L,02,020,000102,3003,-149.44258,61.396812
1340,19436 SUE TAWN DR,Anchorage,AK,99567,"19436 SUE TAWN DR, Anchorage, AK, 99567",Match,Non_Exact,"19436 SUE TAWN DR, CHUGIAK, AK, 99567",190807725,R,02,020,000102,3001,-149.44778,61.39565
1341,19436 KULLBERG DR,Anchorage,AK,99567,"19436 KULLBERG DR, Anchorage, AK, 99567",Match,Non_Exact,"19436 KULLBERG DR, CHUGIAK, AK, 99567",190826639,R,02,020,000101,2050,-149.42657,61.396114000000004
1342,19451 SULLINS DR,Anchorage,AK,99567,"19451 SULLINS DR, Anchorage, AK, 99567",Match,Non_Exact,"19451 SULLINS DR, CHUGIAK, AK, 99567",605186299,L,02,020,000101,2073,-149.42383,61.395756000000006
1343,19472 SULLINS DR,Anchorage,AK,99567,"19472 SULLINS DR, Anchorage, AK, 99567",Match,Non_Exact,"19472 SULLINS DR, CHUGIAK, AK, 99567",605186299,R,02,020,000101,2050,-149.42155,61.395680000000006
1344,19411 SUE TAWN DR,Anchorage,AK,99567,"19411 SUE TAWN DR, Anchorage, AK, 99567",Match,Non_Exact,"19411 SUE TAWN DR, CHUGIAK, AK, 99567",190807725,L,02,020,000102,3003,-149.44778,61.39598
1345,19426 WILDWOOD DR,Anchorage,AK,99567,"19426 WILDWOOD DR, Anchorage, AK, 99567",Match,Non_Exact,"19426 WILDWOOD DR, CHUGIAK, AK, 99567",190793235,R,02,020,000102,3017,-149.45228999999998,61.395680000000006
1346,19376 DOGWOOD ST,Anchorage,AK,99567,"19376 DOGWOOD ST, Anchorage, AK, 99567",No_Match,,,,,,,,,,
1347,19425 OLD GLENN HWY,Anchorage,AK,99567,"19425 OLD GLENN HWY, Anchorage, AK, 99567",Match,Non_Exact,"19425 OLD GLENN HWY, CHUGIAK, AK, 99567",190793124,R,02,020,000102,3017,-149.46262,61.39561
1348,19300 OLD GLENN HWY,Anchorage,AK,99567,"19300 OLD GLENN HWY, Anchorage, AK, 99567",No_Match,,,,,,,,,,
1349,24157 PLATSEK DR,Anchorage,AK,99567,"24157 PLATSEK DR, Anchorage, AK, 99567",Match,Non_Exact,"24157 PLATSEK DR, CHUGIAK, AK, 99567",190793301,L,02,020,000101,2050,-149.43236000000002,61.395603
1350,23443 HICKLING CIR,Anchorage,AK,99567,"23443 HICKLING CIR, Anchorage, AK, 99567",No_Match,,,,,,,,,,
1351,19346 SULLINS DR,Anchorage,AK,99567,"19346 SULLINS DR, Anchorage, AK, 99567",Match,Non_Exact,"19346 SULLINS DR, CHUGIAK, AK, 99567",605186299,R,02,020,000101,2050,-149.42393,61.395687
1352,19374 STARFLOWER CIR,Anchorage,AK,99567,"19374 STARFLOWER CIR, Anchorage, AK, 99567",Match,Non_Exact,"19374 STARFLOWER CIR, CHUGIAK, AK, 99567",190807736,L,02,020,000102,3017,-149.4543,61.395286999999996
1353,19373 STARFLOWER CIR,Anchorage,AK,99567,"19373 STARFLOWER CIR, Anchorage, AK, 99567",Match,Non_Exact,"19373 STARFLOWER CIR, CHUGIAK, AK, 99567",190807736,R,02,020,000102,3017,-149.45427,61.395267000000004
1354,19374 IRIS ST,Anchorage,AK,99567,"19374 IRIS ST, Anchorage, AK, 99567",Match,Non_Exact,"19374 IRIS ST, CHUGIAK, AK, 99567",190826041,L,02,020,000102,3017,-149.4584,61.39529
1355,24130 PLATSEK DR,Anchorage,AK,99567,"24130 PLATSEK DR, Anchorage, AK, 99567",Match,Non_Exact,"24130 PLATSEK DR, CHUGIAK, AK, 99567",190793301,R,02,020,000101,2050,-149.43225,61.39520600000001
1356,19410 WILDWOOD DR,Anchorage,AK,99567,"19410 WILDWOOD DR, Anchorage, AK, 99567",Match,Non_Exact,"19410 WILDWOOD DR, CHUGIAK, AK, 99567",190793235,R,02,020,000102,3017,-149.45228999999998,61.395554000000004
1357,24149 PLATSEK DR,Anchorage,AK,99567,"24149 PLATSEK DR, Anchorage, AK, 99567",Match,Non_Exact,"24149 PLATSEK DR, CHUGIAK, AK, 99567",190793301,L,02,020,000101,2050,-149.43236000000002,61.395480000000006
1358,19364 DOGWOOD ST,Anchorage,AK,99567,"19364 DOGWOOD ST, Anchorage, AK, 99567",No_Match,,,,,,,,,,
1359,19354 IRIS ST,Anchorage,AK,99567,"19354 IRIS ST, Anchorage, AK, 99567",Match,Non_Exact,"19354 IRIS ST, CHUGIAK, AK, 99567",190826041,L,02,020,000102,3017,-149.4584,61.395109999999995
1360,19361 STARFLOWER CIR,Anchorage,AK,99567,"19361 STARFLOWER CIR, Anchorage, AK, 99567",Match,Non_Exact,"19361 STARFLOWER CIR, CHUGIAK, AK, 99567",190807736,R,02,020,000102,3017,-149.45427,61.39516
1361,19407 OLD GLENN HWY,Anchorage,AK,99567,"19407 OLD GLENN HWY, Anchorage, AK, 99567",Match,Non_Exact,"19407 OLD GLENN HWY, CHUGIAK, AK, 99567",190793124,R,02,020,000102,3017,-149.46274,61.395466000000006
1362,19355 IRIS ST,Anchorage,AK,99567,"19355 IRIS ST, Anchorage, AK, 99567",Match,Non_Exact,"19355 IRIS ST, CHUGIAK, AK, 99567",190826041,R,02,020,000102,3017,-149.45837,61.395109999999995
1363,19311 CHUGACH PARK DR,Anchorage,AK,99567,"19311 CHUGACH PARK DR, Anchorage, AK, 99567",Match,Non_Exact,"19311 CHUGACH PARK DR, CHUGIAK, AK, 99567",190811190,R,02,020,000101,2050,-149.42857,61.395313
1364,24124 PLATSEK DR,Anchorage,AK,99567,"24124 PLATSEK DR, Anchorage, AK, 99567",Match,Non_Exact,"24124 PLATSEK DR, CHUGIAK, AK, 99567",190793301,R,02,020,000101,2050,-149.4322,61.39512
1365,19400 WILDWOOD DR,Anchorage,AK,99567,"19400 WILDWOOD DR, Anchorage, AK, 99567",Match,Non_Exact,"19400 WILDWOOD DR, CHUGIAK, AK, 99567",190793235,R,02,020,000102,3017,-149.45228999999998,61.395472999999996
1366,19344 DOGWOOD ST,Anchorage,AK,99567,"19344 DOGWOOD ST, Anchorage, AK, 99567",No_Match,,,,,,,,,,
1367,19344 IRIS ST,Anchorage,AK,99567,"19344 IRIS ST, Anchorage, AK, 99567",Match,Non_Exact,"19344 IRIS ST, CHUGIAK, AK, 99567",190826041,L,02,020,000102,3017,-149.4584,61.395022999999995
1368,19342 LUPIN ST,Anchorage,AK,99567,"19342 LUPIN ST, Anchorage, AK, 99567",Match,Non_Exact,"19342 LUPIN ST, CHUGIAK, AK, 99567",190807740,L,02,020,000102,3017,-149.46045,61.39500400000001
1369,19342 LUPIN ST,Anchorage,AK,99567,"19342 LUPIN ST, Anchorage, AK, 99567",Match,Non_Exact,"19342 LUPIN ST, CHUGIAK, AK, 99567",190807740,L,02,020,000102,3017,-149.46045,61.39500400000001
1370,19325 SUE TAWN DR,Anchorage,AK,99567,"19325 SUE TAWN DR, Anchorage, AK, 99567",Match,Non_Exact,"19325 SUE TAWN DR, CHUGIAK, AK, 99567",190807725,L,02,020,000102,3003,-149.44777,61.39552
1371,19457 SULLINS DR,Anchorage,AK,99567,"19457 SULLINS DR, Anchorage, AK, 99567",Match,Non_Exact,"19457 SULLINS DR, CHUGIAK, AK, 99567",605186299,L,02,020,000101,2073,-149.42378,61.395798
1372,19327 PENSTEMON LN,Anchorage,AK,99567,"19327 PENSTEMON LN, Anchorage, AK, 99567",No_Match,,,,,,,,,,
1373,19246 SULLINS DR,Anchorage,AK,99567,"19246 SULLINS DR, Anchorage, AK, 99567",Match,Non_Exact,"19246 SULLINS DR, CHUGIAK, AK, 99567",605186300,R,02,020,000101,2050,-149.42600000000002,61.394656999999995
1374,19328 WILDWOOD DR,Anchorage,AK,99567,"19328 WILDWOOD DR, Anchorage, AK, 99567",Match,Non_Exact,"19328 WILDWOOD DR, CHUGIAK, AK, 99567",190793235,R,02,020,000102,3017,-149.45228999999998,61.394909999999996
1375,19328 IRIS ST,Anchorage,AK,99567,"19328 IRIS ST, Anchorage, AK, 99567",Match,Non_Exact,"19328 IRIS ST, CHUGIAK, AK, 99567",190826041,L,02,020,000102,3017,-149.4584,61.39488000000001
1376,19330 DOGWOOD ST,Anchorage,AK,99567,"19330 DOGWOOD ST, Anchorage, AK, 99567",No_Match,,,,,,,,,,
1377,19325 SULLINS DR,Anchorage,AK,99567,"19325 SULLINS DR, Anchorage, AK, 99567",Match,Non_Exact,"19325 SULLINS DR, CHUGIAK, AK, 99567",605186299,L,02,020,000101,2073,-149.42484,61.394897
1378,19311 JASMINE RD,Anchorage,AK,99567,"19311 JASMINE RD, Anchorage, AK, 99567",Match,Non_Exact,"19311 JASMINE RD, CHUGIAK, AK, 99567",190827320,R,02,020,000102,3015,-149.45016,61.393882999999995
1379,19331 KULLBERG DR,Anchorage,AK,99567,"19331 KULLBERG DR, Anchorage, AK, 99567",Match,Non_Exact,"19331 KULLBERG DR, CHUGIAK, AK, 99567",190793404,L,02,020,000101,2073,-149.42741,61.395396999999996
1380,19323 OLD GLENN HWY,Anchorage,AK,99567,"19323 OLD GLENN HWY, Anchorage, AK, 99567",Match,Non_Exact,"19323 OLD GLENN HWY, CHUGIAK, AK, 99567",190793124,R,02,020,000102,3017,-149.4635,61.39484399999999
1381,19324 SUE TAWN DR,Anchorage,AK,99567,"19324 SUE TAWN DR, Anchorage, AK, 99567",Match,Non_Exact,"19324 SUE TAWN DR, CHUGIAK, AK, 99567",190807725,R,02,020,000102,3001,-149.44775,61.393215000000005
1382,19290 OLD GLENN HWY,Anchorage,AK,99567,"19290 OLD GLENN HWY, Anchorage, AK, 99567",No_Match,,,,,,,,,,
1383,19375 CHUGACH PARK DR,Anchorage,AK,99567,"19375 CHUGACH PARK DR, Anchorage, AK, 99567",Match,Non_Exact,"19375 CHUGACH PARK DR, CHUGIAK, AK, 99567",190810520,R,02,020,000101,2050,-149.43327,61.394577000000005
1384,19834 THORNTON ST,Anchorage,AK,99567,"19834 THORNTON ST, Anchorage, AK, 99567",Match,Non_Exact,"19834 THORNTON ST, CHUGIAK, AK, 99567",190793407,R,02,020,000101,2050,-149.42003,61.398216000000005
1385,19824 SCENIC DR,Anchorage,AK,99567,"19824 SCENIC DR, Anchorage, AK, 99567",Match,Non_Exact,"19824 SCENIC DR, CHUGIAK, AK, 99567",190810509,R,02,020,000102,2014,-149.48787,61.39962
1386,19978 TULWAR DR,Anchorage,AK,99567,"19978 TULWAR DR, Anchorage, AK, 99567",Match,Non_Exact,"19978 TULWAR DR, CHUGIAK, AK, 99567",190807474,R,02,020,000101,2057,-149.43367,61.399406000000006
1387,19838 SUNSET BLVD,Anchorage,AK,99567,"19838 SUNSET BLVD, Anchorage, AK, 99567",Match,Non_Exact,"19838 SUNSET BLVD, CHUGIAK, AK, 99567",190826403,R,02,020,000102,2014,-149.48393000000002,61.399513
1388,19815 UPPER BOWERY LN,Anchorage,AK,99567,"19815 UPPER BOWERY LN, Anchorage, AK, 99567",Match,Non_Exact,"19815 UPPER BOWERY LN, CHUGIAK, AK, 99567",190826404,L,02,020,000102,2014,-149.48032,61.39946
1389,22876 NEEDELS LOOP,Anchorage,AK,99567,"22876 NEEDELS LOOP, Anchorage, AK, 99567",Match,Non_Exact,"22876 NEEDELS LOOP, CHUGIAK, AK, 99567",190813898,L,02,020,000102,3015,-149.45481999999998,61.399376000000004
1390,22854 NEEDELS LOOP,Anchorage,AK,99567,"22854 NEEDELS LOOP, Anchorage, AK, 99567",Match,Non_Exact,"22854 NEEDELS LOOP, CHUGIAK, AK, 99567",190813898,L,02,020,000102,3015,-149.45439,61.399376000000004
1391,19761 UPPER GREATLAND DR,Anchorage,AK,99567,"19761 UPPER GREATLAND DR, Anchorage, AK, 99567",Match,Non_Exact,"19761 UPPER GREATLAND DR, CHUGIAK, AK, 99567",638991084,R,02,020,000101,2074,-149.44643,61.40000500000001
1392,19812 UPPER BOWERY LN,Anchorage,AK,99567,"19812 UPPER BOWERY LN, Anchorage, AK, 99567",No_Match,,,,,,,,,,
1393,19831 CRABTREE ST,Anchorage,AK,99567,"19831 CRABTREE ST, Anchorage, AK, 99567",Match,Non_Exact,"19831 CRABTREE ST, CHUGIAK, AK, 99567",190793037,L,02,020,000102,2014,-149.49161999999998,61.39946
1394,19991 TULWAR DR,Anchorage,AK,99567,"19991 TULWAR DR, Anchorage, AK, 99567",Match,Non_Exact,"19991 TULWAR DR, CHUGIAK, AK, 99567",190807474,L,02,020,000101,2050,-149.4334,61.400116000000004
1395,22838 NEEDELS LOOP,Anchorage,AK,99567,"22838 NEEDELS LOOP, Anchorage, AK, 99567",Match,Non_Exact,"22838 NEEDELS LOOP, CHUGIAK, AK, 99567",190813898,L,02,020,000102,3015,-149.45408999999998,61.399353000000005
1396,19824 LACE RD,Anchorage,AK,99567,"19824 LACE RD, Anchorage, AK, 99567",Match,Non_Exact,"19824 LACE RD, CHUGIAK, AK, 99567",190807723,L,02,020,000102,3001,-149.45067,61.399475
1397,19827 OLD CRANBERRY DR,Anchorage,AK,99567,"19827 OLD CRANBERRY DR, Anchorage, AK, 99567",Match,Non_Exact,"19827 OLD CRANBERRY DR, CHUGIAK, AK, 99567",190793006,L,02,020,000102,2014,-149.49539,61.39970400000001
1398,20110 TULWAR DR,Anchorage,AK,99567,"20110 TULWAR DR, Anchorage, AK, 99567",Match,Non_Exact,"20110 TULWAR DR, CHUGIAK, AK, 99567",190793395,R,02,020,000101,2050,-149.43005,61.399864
1399,22823 NEEDELS LOOP,Anchorage,AK,99567,"22823 NEEDELS LOOP, Anchorage, AK, 99567",Match,Non_Exact,"22823 NEEDELS LOOP, CHUGIAK, AK, 99567",190813898,R,02,020,000102,3014,-149.45383,61.399277000000005
1400,19748 CHUGACH PARK DR,Anchorage,AK,99567,"19748 CHUGACH PARK DR, Anchorage, AK, 99567",Match,Non_Exact,"19748 CHUGACH PARK DR, CHUGIAK, AK, 99567",190810520,L,02,020,000101,2073,-149.43726999999998,61.3978
1401,19764 HARDROCK DR,Anchorage,AK,99567,"19764 HARDROCK DR, Anchorage, AK, 99567",Match,Non_Exact,"19764 HARDROCK DR, CHUGIAK, AK, 99567",190793248,L,02,020,000102,3000,-149.44829,61.398674
1402,22839 DANIEL CT,Anchorage,AK,99567,"22839 DANIEL CT, Anchorage, AK, 99567",No_Match,,,,,,,,,,
1403,19745 HARDROCK DR,Anchorage,AK,99567,"19745 HARDROCK DR, Anchorage, AK, 99567",Match,Non_Exact,"19745 HARDROCK DR, CHUGIAK, AK, 99567",190793248,R,02,020,000102,3000,-149.44818,61.398502
1404,19783 UPPER GREATLAND DR,Anchorage,AK,99567,"19783 UPPER GREATLAND DR, Anchorage, AK, 99567",Match,Non_Exact,"19783 UPPER GREATLAND DR, CHUGIAK, AK, 99567",638991084,R,02,020,000101,2074,-149.44568,61.399612
1405,20107 TULWAR DR,Anchorage,AK,99567,"20107 TULWAR DR, Anchorage, AK, 99567",Match,Non_Exact,"20107 TULWAR DR, CHUGIAK, AK, 99567",190793395,L,02,020,000101,2050,-149.43057,61.399536
1406,19746 RANCH RD,Anchorage,AK,99567,"19746 RANCH RD, Anchorage, AK, 99567",Match,Non_Exact,"19746 RANCH RD, CHUGIAK, AK, 99567",190807747,R,02,020,000102,3006,-149.45775,61.39865
1407,22808 NEEDELS LOOP,Anchorage,AK,99567,"22808 NEEDELS LOOP, Anchorage, AK, 99567",Match,Non_Exact,"22808 NEEDELS LOOP, CHUGIAK, AK, 99567",190813898,L,02,020,000102,3015,-149.45361,61.3992
1408,21540 TENADA AVE,Anchorage,AK,99567,"21540 TENADA AVE, Anchorage, AK, 99567",Match,Non_Exact,"21540 TENADA AVE, CHUGIAK, AK, 99567",605186269,R,02,020,000102,2014,-149.48094,61.39909399999999
1409,21432 TENADA AVE,Anchorage,AK,99567,"21432 TENADA AVE, Anchorage, AK, 99567",Match,Non_Exact,"21432 TENADA AVE, CHUGIAK, AK, 99567",605186269,R,02,020,000102,2014,-149.48181,61.39909399999999
1410,19727 CHUGACH PARK DR,Anchorage,AK,99567,"19727 CHUGACH PARK DR, Anchorage, AK, 99567",Match,Non_Exact,"19727 CHUGACH PARK DR, CHUGIAK, AK, 99567",190810520,R,02,020,000101,2050,-149.43726,61.397152
1411,21014 TENADA AVE,Anchorage,AK,99567,"21014 TENADA AVE, Anchorage, AK, 99567",Match,Non_Exact,"21014 TENADA AVE, CHUGIAK, AK, 99567",190823170,R,02,020,000102,2014,-149.49142,61.399080000000005
1412,19722 LACE RD,Anchorage,AK,99567,"19722 LACE RD, Anchorage, AK, 99567",Match,Non_Exact,"19722 LACE RD, CHUGIAK, AK, 99567",190807723,L,02,020,000102,3001,-149.45148,61.400330000000004
1413,20087 TULWAR DR,Anchorage,AK,99567,"20087 TULWAR DR, Anchorage, AK, 99567",Match,Non_Exact,"20087 TULWAR DR, CHUGIAK, AK, 99567",190793395,L,02,020,000101,2050,-149.43112,61.39921
1414,22792 NEEDELS LOOP,Anchorage,AK,99567,"22792 NEEDELS LOOP, Anchorage, AK, 99567",Match,Non_Exact,"22792 NEEDELS LOOP, CHUGIAK, AK, 99567",190813898,L,02,020,000102,3015,-149.45346,61.399069999999995
1415,19725 HARDROCK DR,Anchorage,AK,99567,"19725 HARDROCK DR, Anchorage, AK, 99567",Match,Non_Exact,"19725 HARDROCK DR, CHUGIAK, AK, 99567",190793248,R,02,020,000102,3000,-149.44817,61.398323
1416,19740 CODY CT,Anchorage,AK,99567,"19740 CODY CT, Anchorage, AK, 99567",Match,Non_Exact,"19740 CODY CT, CHUGIAK, AK, 99567",190807746,L,02,020,000102,3006,-149.45998,61.39840699999999
1417,19744 HARDROCK DR,Anchorage,AK,99567,"19744 HARDROCK DR, Anchorage, AK, 99567",Match,Non_Exact,"19744 HARDROCK DR, CHUGIAK, AK, 99567",190793248,L,02,020,000102,3000,-149.44821000000002,61.3985
1418,19741 CODY CT,Anchorage,AK,99567,"19741 CODY CT, Anchorage, AK, 99567",Match,Non_Exact,"19741 CODY CT, CHUGIAK, AK, 99567",190807746,R,02,020,000102,3006,-149.45996,61.39840699999999
1419,22402 BIRCHWOOD LOOP RD,Anchorage,AK,99567,"22402 BIRCHWOOD LOOP RD, Anchorage, AK, 99567",Match,Non_Exact,"22402 BIRCHWOOD LOOP RD, CHUGIAK, AK, 99567",190807717,R,02,020,000102,3010,-149.46643,61.400330000000004
1420,19726 RANCH RD,Anchorage,AK,99567,"19726 RANCH RD, Anchorage, AK, 99567",Match,Non_Exact,"19726 RANCH RD, CHUGIAK, AK, 99567",190807747,R,02,020,000102,3006,-149.45775,61.398487
1421,19740 SCENIC DR,Anchorage,AK,99567,"19740 SCENIC DR, Anchorage, AK, 99567",Match,Non_Exact,"19740 SCENIC DR, CHUGIAK, AK, 99567",190807623,R,02,020,000102,2014,-149.48788000000002,61.398796
1422,19740 CRABTREE ST,Anchorage,AK,99567,"19740 CRABTREE ST, Anchorage, AK, 99567",Match,Non_Exact,"19740 CRABTREE ST, CHUGIAK, AK, 99567",190807625,R,02,020,000102,2014,-149.49164,61.398495
1423,19744 SUNSET BLVD,Anchorage,AK,99567,"19744 SUNSET BLVD, Anchorage, AK, 99567",Match,Non_Exact,"19744 SUNSET BLVD, CHUGIAK, AK, 99567",190826403,R,02,020,000102,2014,-149.48389,61.398823
1424,19712 RANCH RD,Anchorage,AK,99567,"19712 RANCH RD, Anchorage, AK, 99567",Match,Non_Exact,"19712 RANCH RD, CHUGIAK, AK, 99567",190807747,R,02,020,000102,3006,-149.45775,61.398373
1425,19735 SCENIC DR,Anchorage,AK,99567,"19735 SCENIC DR, Anchorage, AK, 99567",Match,Non_Exact,"19735 SCENIC DR, CHUGIAK, AK, 99567",190807623,L,02,020,000102,2014,-149.48785,61.398773
1426,19613 BELDUQUE CT,Anchorage,AK,99567,"19613 BELDUQUE CT, Anchorage, AK, 99567",Match,Non_Exact,"19613 BELDUQUE CT, CHUGIAK, AK, 99567",190793400,L,02,020,000101,2050,-149.42938,61.397938
1427,19630 KULLBERG CIR,Anchorage,AK,99567,"19630 KULLBERG CIR, Anchorage, AK, 99567",No_Match,,,,,,,,,,
1428,19651 SCENIC DR,Anchorage,AK,99567,"19651 SCENIC DR, Anchorage, AK, 99567",Match,Non_Exact,"19651 SCENIC DR, CHUGIAK, AK, 99567",190807623,L,02,020,000102,2014,-149.48785,61.398453
1429,19631 CREEK WAY,Anchorage,AK,99567,"19631 CREEK WAY, Anchorage, AK, 99567",Match,Non_Exact,"19631 CREEK WAY, CHUGIAK, AK, 99567",190827384,L,02,020,000102,3000,-149.44592,61.397659999999995
1430,19619 CRABTREE ST,Anchorage,AK,99567,"19619 CRABTREE ST, Anchorage, AK, 99567",Match,Non_Exact,"19619 CRABTREE ST, CHUGIAK, AK, 99567",190807625,L,02,020,000102,2014,-149.49161,61.39755600000001
1431,19628 CHUGACH PARK DR,Anchorage,AK,99567,"19628 CHUGACH PARK DR, Anchorage, AK, 99567",Match,Non_Exact,"19628 CHUGACH PARK DR, CHUGIAK, AK, 99567",190810520,L,02,020,000101,2073,-149.43688999999998,61.396774
1432,19616 SCENIC DR,Anchorage,AK,99567,"19616 SCENIC DR, Anchorage, AK, 99567",Match,Non_Exact,"19616 SCENIC DR, CHUGIAK, AK, 99567",190807623,R,02,020,000102,2014,-149.48788000000002,61.398323
1433,19626 CRABTREE ST,Anchorage,AK,99567,"19626 CRABTREE ST, Anchorage, AK, 99567",Match,Non_Exact,"19626 CRABTREE ST, CHUGIAK, AK, 99567",190807625,R,02,020,000102,2014,-149.49164,61.397617000000004
1434,23635 CREEK RD,Anchorage,AK,99567,"23635 CREEK RD, Anchorage, AK, 99567",Match,Non_Exact,"23635 CREEK RD, CHUGIAK, AK, 99567",190793295,L,02,020,000102,3000,-149.4422,61.397296999999995
1435,23515 CREEK RD,Anchorage,AK,99567,"23515 CREEK RD, Anchorage, AK, 99567",Match,Non_Exact,"23515 CREEK RD, CHUGIAK, AK, 99567",190793250,R,02,020,000102,3000,-149.44443,61.3973
1436,19543 KULLBERG CIR,Anchorage,AK,99567,"19543 KULLBERG CIR, Anchorage, AK, 99567",No_Match,,,,,,,,,,
1437,19550 CHUGACH PARK DR,Anchorage,AK,99567,"19550 CHUGACH PARK DR, Anchorage, AK, 99567",Match,Non_Exact,"19550 CHUGACH PARK DR, CHUGIAK, AK, 99567",190810520,L,02,020,000101,2073,-149.43631000000002,61.3961
1438,19540 KULLBERG CIR,Anchorage,AK,99567,"19540 KULLBERG CIR, Anchorage, AK, 99567",No_Match,,,,,,,,,,
1439,19535 OLD GLENN HWY,Anchorage,AK,99567,"19535 OLD GLENN HWY, Anchorage, AK, 99567",Match,Non_Exact,"19535 OLD GLENN HWY, CHUGIAK, AK, 99567",190793121,R,02,020,000102,3013,-149.46243,61.396730000000005
1440,19531 KULLBERG CIR,Anchorage,AK,99567,"19531 KULLBERG CIR, Anchorage, AK, 99567",No_Match,,,,,,,,,,
1441,19715 CRABTREE ST,Anchorage,AK,99567,"19715 CRABTREE ST, Anchorage, AK, 99567",Match,Non_Exact,"19715 CRABTREE ST, CHUGIAK, AK, 99567",190807625,L,02,020,000102,2014,-149.49161,61.398293
1442,22737 NEEDELS LOOP,Anchorage,AK,99567,"22737 NEEDELS LOOP, Anchorage, AK, 99567",Match,Non_Exact,"22737 NEEDELS LOOP, CHUGIAK, AK, 99567",190813898,R,02,020,000102,3014,-149.45317,61.398586
1443,22611 NEEDELS LOOP,Anchorage,AK,99567,"22611 NEEDELS LOOP, Anchorage, AK, 99567",Match,Non_Exact,"22611 NEEDELS LOOP, CHUGIAK, AK, 99567",190826233,L,02,020,000102,3006,-149.45927,61.39821
1444,22723 NEEDELS LOOP,Anchorage,AK,99567,"22723 NEEDELS LOOP, Anchorage, AK, 99567",Match,Non_Exact,"22723 NEEDELS LOOP, CHUGIAK, AK, 99567",190813898,R,02,020,000102,3014,-149.45323,61.398464000000004
1445,22595 NEEDELS LOOP,Anchorage,AK,99567,"22595 NEEDELS LOOP, Anchorage, AK, 99567",Match,Non_Exact,"22595 NEEDELS LOOP, CHUGIAK, AK, 99567",190826233,L,02,020,000102,3006,-149.45952,61.39821
1446,22565 NEEDELS LOOP,Anchorage,AK,99567,"22565 NEEDELS LOOP, Anchorage, AK, 99567",Match,Non_Exact,"22565 NEEDELS LOOP, CHUGIAK, AK, 99567",190793123,L,02,020,000102,3006,-149.46046,61.39821
1447,22575 NEEDELS LOOP,Anchorage,AK,99567,"22575 NEEDELS LOOP, Anchorage, AK, 99567",Match,Non_Exact,"22575 NEEDELS LOOP, CHUGIAK, AK, 99567",190793123,L,02,020,000102,3006,-149.46017,61.39821
1448,22539 NEEDELS LOOP,Anchorage,AK,99567,"22539 NEEDELS LOOP, Anchorage, AK, 99567",Match,Non_Exact,"22539 NEEDELS LOOP, CHUGIAK, AK, 99567",190793123,L,02,020,000102,3006,-149.46121000000002,61.39821
1449,19712 CHUGACH PARK DR,Anchorage,AK,99567,"19712 CHUGACH PARK DR, Anchorage, AK, 99567",Match,Non_Exact,"19712 CHUGACH PARK DR, CHUGIAK, AK, 99567",190810520,L,02,020,000101,2073,-149.43755,61.39749499999999
1450,19730 SCENIC DR,Anchorage,AK,99567,"19730 SCENIC DR, Anchorage, AK, 99567",Match,Non_Exact,"19730 SCENIC DR, CHUGIAK, AK, 99567",190807623,R,02,020,000102,2014,-149.48788000000002,61.398757999999994
1451,19626 BELDUQUE CT,Anchorage,AK,99567,"19626 BELDUQUE CT, Anchorage, AK, 99567",Match,Non_Exact,"19626 BELDUQUE CT, CHUGIAK, AK, 99567",190793400,R,02,020,000101,2050,-149.42911,61.398006
1452,19823 TENADA AVE,Anchorage,AK,99567,"19823 TENADA AVE, Anchorage, AK, 99567",Match,Non_Exact,"19823 TENADA AVE, CHUGIAK, AK, 99567",190819873,R,02,020,000102,1010,-149.51286000000002,61.39911
1453,19731 TENADA AVE,Anchorage,AK,99567,"19731 TENADA AVE, Anchorage, AK, 99567",Match,Non_Exact,"19731 TENADA AVE, CHUGIAK, AK, 99567",190819874,R,02,020,000102,1010,-149.5151,61.399105000000006
1454,20049 TENADA AVE,Anchorage,AK,99567,"20049 TENADA AVE, Anchorage, AK, 99567",Match,Non_Exact,"20049 TENADA AVE, CHUGIAK, AK, 99567",190826815,R,02,020,000102,2016,-149.50928000000002,61.39911
1455,17933 OLD GLENN HWY,Anchorage,AK,99567,"17933 OLD GLENN HWY, Anchorage, AK, 99567",Match,Non_Exact,"17933 OLD GLENN HWY, CHUGIAK, AK, 99567",605247212,R,02,020,000102,3018,-149.49522,61.382816000000005
1456,17909 WERRE ST,Anchorage,AK,99567,"17909 WERRE ST, Anchorage, AK, 99567",Match,Non_Exact,"17909 WERRE ST, CHUGIAK, AK, 99567",190792303,L,02,020,000102,2024,-149.52542,61.382027
1457,19497 KLONDIKE DR,Anchorage,AK,99567,"19497 KLONDIKE DR, Anchorage, AK, 99567",Match,Non_Exact,"19497 KLONDIKE DR, CHUGIAK, AK, 99567",190792314,L,02,020,000102,2024,-149.51955,61.382107
1458,17939 BIRCHTREE ST,Anchorage,AK,99567,"17939 BIRCHTREE ST, Anchorage, AK, 99567",Match,Non_Exact,"17939 BIRCHTREE ST, CHUGIAK, AK, 99567",190814681,L,02,020,000102,2025,-149.53323,61.381702000000004
1459,19411 KLONDIKE ST,Anchorage,AK,99567,"19411 KLONDIKE ST, Anchorage, AK, 99567",Match,Non_Exact,"19411 KLONDIKE ST, CHUGIAK, AK, 99567",190810458,L,02,020,000102,2024,-149.52254,61.381046
1460,19399 KLONDIKE ST,Anchorage,AK,99567,"19399 KLONDIKE ST, Anchorage, AK, 99567",Match,Non_Exact,"19399 KLONDIKE ST, CHUGIAK, AK, 99567",190810458,L,02,020,000102,2024,-149.52267,61.381046
1461,19435 KLONDIKE DR,Anchorage,AK,99567,"19435 KLONDIKE DR, Anchorage, AK, 99567",Match,Non_Exact,"19435 KLONDIKE DR, CHUGIAK, AK, 99567",190792314,L,02,020,000102,2024,-149.52043,61.381508
1462,17851 BIRCHTREE ST,Anchorage,AK,99567,"17851 BIRCHTREE ST, Anchorage, AK, 99567",Match,Non_Exact,"17851 BIRCHTREE ST, CHUGIAK, AK, 99567",190814681,L,02,020,000102,2025,-149.53296,61.381355000000006
1463,17620 S BIRCHWOOD LOOP RD,Anchorage,AK,99567,"17620 S BIRCHWOOD LOOP RD, Anchorage, AK, 99567",Match,Non_Exact,"17620 BIRCHWOOD LOOP RD, CHUGIAK, AK, 99567",190826825,R,02,020,000102,1015,-149.53752,61.37974499999999
1464,17620 S BIRCHWOOD LOOP RD,Anchorage,AK,99567,"17620 S BIRCHWOOD LOOP RD, Anchorage, AK, 99567",Match,Non_Exact,"17620 BIRCHWOOD LOOP RD, CHUGIAK, AK, 99567",190826825,R,02,020,000102,1015,-149.53752,61.37974499999999
1465,19027 KLONDIKE ST,Anchorage,AK,99567,"19027 KLONDIKE ST, Anchorage, AK, 99567",Match,Non_Exact,"19027 KLONDIKE ST, CHUGIAK, AK, 99567",190814689,L,02,020,000102,2025,-149.52968,61.381065
1466,19397 KLONDIKE ST,Anchorage,AK,99567,"19397 KLONDIKE ST, Anchorage, AK, 99567",Match,Non_Exact,"19397 KLONDIKE ST, CHUGIAK, AK, 99567",190810458,L,02,020,000102,2024,-149.5227,61.381046
1467,19369 KLONDIKE ST,Anchorage,AK,99567,"19369 KLONDIKE ST, Anchorage, AK, 99567",Match,Non_Exact,"19369 KLONDIKE ST, CHUGIAK, AK, 99567",190810458,L,02,020,000102,2024,-149.52303999999998,61.381046
1468,19331 KLONDIKE ST,Anchorage,AK,99567,"19331 KLONDIKE ST, Anchorage, AK, 99567",Match,Non_Exact,"19331 KLONDIKE ST, CHUGIAK, AK, 99567",190810458,L,02,020,000102,2024,-149.5235,61.38105
1469,19331 KLONDIKE ST,Anchorage,AK,99567,"19331 KLONDIKE ST, Anchorage, AK, 99567",Match,Non_Exact,"19331 KLONDIKE ST, CHUGIAK, AK, 99567",190810458,L,02,020,000102,2024,-149.5235,61.38105
1470,19331 KLONDIKE ST,Anchorage,AK,99567,"19331 KLONDIKE ST, Anchorage, AK, 99567",Match,Non_Exact,"19331 KLONDIKE ST, CHUGIAK, AK, 99567",190810458,L,02,020,000102,2024,-149.5235,61.38105
1471,18915 KLONDIKE ST,Anchorage,AK,99567,"18915 KLONDIKE ST, Anchorage, AK, 99567",Match,Non_Exact,"18915 KLONDIKE ST, CHUGIAK, AK, 99567",190814689,L,02,020,000102,2025,-149.53206,61.381069999999994
1472,19141 KLONDIKE ST,Anchorage,AK,99567,"19141 KLONDIKE ST, Anchorage, AK, 99567",Match,Non_Exact,"19141 KLONDIKE ST, CHUGIAK, AK, 99567",190814689,L,02,020,000102,2025,-149.52727,61.381057999999996
1473,19342 KLONDIKE ST,Anchorage,AK,99567,"19342 KLONDIKE ST, Anchorage, AK, 99567",Match,Non_Exact,"19342 KLONDIKE ST, CHUGIAK, AK, 99567",190810458,R,02,020,000102,2023,-149.52249,61.381035
1474,19006 KLONDIKE ST,Anchorage,AK,99567,"19006 KLONDIKE ST, Anchorage, AK, 99567",Match,Non_Exact,"19006 KLONDIKE ST, CHUGIAK, AK, 99567",190814689,R,02,020,000102,2023,-149.5301,61.381054000000006
1475,19140 KLONDIKE ST,Anchorage,AK,99567,"19140 KLONDIKE ST, Anchorage, AK, 99567",Match,Non_Exact,"19140 KLONDIKE ST, CHUGIAK, AK, 99567",190814689,R,02,020,000102,2023,-149.52727,61.381046
1476,19140 KLONDIKE ST,Anchorage,AK,99567,"19140 KLONDIKE ST, Anchorage, AK, 99567",Match,Non_Exact,"19140 KLONDIKE ST, CHUGIAK, AK, 99567",190814689,R,02,020,000102,2023,-149.52727,61.381046
1477,17720 WERRE ST,Anchorage,AK,99567,"17720 WERRE ST, Anchorage, AK, 99567",Match,Non_Exact,"17720 WERRE ST, CHUGIAK, AK, 99567",190823622,R,02,020,000102,2023,-149.52544,61.379776
1478,17668 WERRE ST,Anchorage,AK,99567,"17668 WERRE ST, Anchorage, AK, 99567",Match,Non_Exact,"17668 WERRE ST, CHUGIAK, AK, 99567",190823622,R,02,020,000102,2023,-149.52544,61.379578
1479,17668 WERRE ST,Anchorage,AK,99567,"17668 WERRE ST, Anchorage, AK, 99567",Match,Non_Exact,"17668 WERRE ST, CHUGIAK, AK, 99567",190823622,R,02,020,000102,2023,-149.52544,61.379578
1480,17693 WERRE ST,Anchorage,AK,99567,"17693 WERRE ST, Anchorage, AK, 99567",Match,Non_Exact,"17693 WERRE ST, CHUGIAK, AK, 99567",190823622,L,02,020,000102,2023,-149.5254,61.380028
1481,17824 OLD GLENN HWY,Anchorage,AK,99567,"17824 OLD GLENN HWY, Anchorage, AK, 99567",Match,Non_Exact,"17824 OLD GLENN HWY, CHUGIAK, AK, 99567",605247211,L,02,020,000102,3010,-149.49931,61.379837
1482,17625 OLD GLENN HWY,Anchorage,AK,99567,"17625 OLD GLENN HWY, Anchorage, AK, 99567",No_Match,,,,,,,,,,
1483,17659 S BIRCHWOOD LOOP RD,Anchorage,AK,99567,"17659 S BIRCHWOOD LOOP RD, Anchorage, AK, 99567",Match,Non_Exact,"17659 BIRCHWOOD LOOP RD, CHUGIAK, AK, 99567",190826825,L,02,020,000102,2026,-149.53611999999998,61.380543
1484,17611 S BIRCHWOOD LOOP RD,Anchorage,AK,99567,"17611 S BIRCHWOOD LOOP RD, Anchorage, AK, 99567",Match,Non_Exact,"17611 BIRCHWOOD LOOP RD, CHUGIAK, AK, 99567",190826825,L,02,020,000102,2026,-149.5368,61.380145999999996
1485,17651 WERRE ST,Anchorage,AK,99567,"17651 WERRE ST, Anchorage, AK, 99567",Match,Non_Exact,"17651 WERRE ST, CHUGIAK, AK, 99567",190823622,L,02,020,000102,2023,-149.5254,61.379704000000004
1486,19143 K AND R ST,Anchorage,AK,99567,"19143 K AND R ST, Anchorage, AK, 99567",No_Match,,,,,,,,,,
1487,19015 K AND R ST,Anchorage,AK,99567,"19015 K AND R ST, Anchorage, AK, 99567",No_Match,,,,,,,,,,
1488,18923 K AND R ST,Anchorage,AK,99567,"18923 K AND R ST, Anchorage, AK, 99567",No_Match,,,,,,,,,,
1489,17577 OLD GLENN HWY,Anchorage,AK,99567,"17577 OLD GLENN HWY, Anchorage, AK, 99567",No_Match,,,,,,,,,,
1490,17300 S BIRCHWOOD LOOP RD,Anchorage,AK,99567,"17300 S BIRCHWOOD LOOP RD, Anchorage, AK, 99567",No_Match,,,,,,,,,,
1491,17415 OLD GLENN HWY,Anchorage,AK,99567,"17415 OLD GLENN HWY, Anchorage, AK, 99567",No_Match,,,,,,,,,,
1492,17345 OLD GLENN HWY,Anchorage,AK,99567,"17345 OLD GLENN HWY, Anchorage, AK, 99567",No_Match,,,,,,,,,,
1493,17345 OLD GLENN HWY,Anchorage,AK,99567,"17345 OLD GLENN HWY, Anchorage, AK, 99567",No_Match,,,,,,,,,,
1494,17215 OLD GLENN HWY,Anchorage,AK,99567,"17215 OLD GLENN HWY, Anchorage, AK, 99567",No_Match,,,,,,,,,,
1495,17215 OLD GLENN HWY,Anchorage,AK,99567,"17215 OLD GLENN HWY, Anchorage, AK, 99567",No_Match,,,,,,,,,,
1496,17215 OLD GLENN HWY,Anchorage,AK,99567,"17215 OLD GLENN HWY, Anchorage, AK, 99567",No_Match,,,,,,,,,,
1497,17215 OLD GLENN HWY,Anchorage,AK,99567,"17215 OLD GLENN HWY, Anchorage, AK, 99567",No_Match,,,,,,,,,,
1498,17215 OLD GLENN HWY,Anchorage,AK,99567,"17215 OLD GLENN HWY, Anchorage, AK, 99567",No_Match,,,,,,,,,,
1499,17215 OLD GLENN HWY,Anchorage,AK,99567,"17215 OLD GLENN HWY, Anchorage, AK, 99567",No_Match,,,,,,,,,,
1500,17139 OLD GLENN HWY,Anchorage,AK,99567,"17139 OLD GLENN HWY, Anchorage, AK, 99567",Match,Non_Exact,"17139 OLD GLENN HWY, CHUGIAK, AK, 99567",636132025,R,02,020,000102,4002,-149.50117,61.377219999999994
1501,17010 BIRCHTREE ST,Anchorage,AK,99567,"17010 BIRCHTREE ST, Anchorage, AK, 99567",Match,Non_Exact,"17010 BIRCHTREE ST, CHUGIAK, AK, 99567",605247233,R,02,020,000102,2026,-149.53069,61.375603000000005
1502,17124 OLD GLENN HWY,Anchorage,AK,99567,"17124 OLD GLENN HWY, Anchorage, AK, 99567",No_Match,,,,,,,,,,
1503,17005 OLD GLENN HWY,Anchorage,AK,99567,"17005 OLD GLENN HWY, Anchorage, AK, 99567",Match,Non_Exact,"17005 OLD GLENN HWY, CHUGIAK, AK, 99567",636132025,R,02,020,000102,4002,-149.50267,61.375781999999994
1504,16906 OLD GLENN HWY,Anchorage,AK,99567,"16906 OLD GLENN HWY, Anchorage, AK, 99567",Match,Non_Exact,"16906 OLD GLENN HWY, CHUGIAK, AK, 99567",636132025,L,02,020,000102,4008,-149.50322,61.375523
1505,16849 OLD GLENN HWY,Anchorage,AK,99567,"16849 OLD GLENN HWY, Anchorage, AK, 99567",Match,Non_Exact,"16849 OLD GLENN HWY, CHUGIAK, AK, 99567",636132025,R,02,020,000102,4002,-149.5048,61.374207
1506,16743 PLEASANT VIEW DR,Anchorage,AK,99567,"16743 PLEASANT VIEW DR, Anchorage, AK, 99567",Match,Non_Exact,"16743 PLEASANT VIEW DR, CHUGIAK, AK, 99567",190823241,R,02,020,000102,4002,-149.50275,61.37131
1507,19314 INLET VIEW DR,Anchorage,AK,99567,"19314 INLET VIEW DR, Anchorage, AK, 99567",Match,Non_Exact,"19314 INLET VIEW DR, CHUGIAK, AK, 99567",190826814,L,02,020,000102,1010,-149.51605,61.39425
1508,19236 INLET VIEW DR,Anchorage,AK,99567,"19236 INLET VIEW DR, Anchorage, AK, 99567",Match,Non_Exact,"19236 INLET VIEW DR, CHUGIAK, AK, 99567",190826814,L,02,020,000102,1010,-149.5162,61.394009999999994
1509,19220 GANOE ST,Anchorage,AK,99567,"19220 GANOE ST, Anchorage, AK, 99567",Match,Non_Exact,"19220 GANOE ST, CHUGIAK, AK, 99567",190826813,R,02,020,000102,1009,-149.51793,61.393980000000006
1510,19219 GANOE ST,Anchorage,AK,99567,"19219 GANOE ST, Anchorage, AK, 99567",Match,Non_Exact,"19219 GANOE ST, CHUGIAK, AK, 99567",190826813,L,02,020,000102,1010,-149.51791,61.393963
1511,19178 S BIRCHWOOD LOOP RD,Anchorage,AK,99567,"19178 S BIRCHWOOD LOOP RD, Anchorage, AK, 99567",Match,Non_Exact,"19178 BIRCHWOOD LOOP RD, CHUGIAK, AK, 99567",190807634,R,02,020,000102,1026,-149.51303000000001,61.39368
1512,19182 S BIRCHWOOD LOOP RD,Anchorage,AK,99567,"19182 S BIRCHWOOD LOOP RD, Anchorage, AK, 99567",Tie,,,,,,,,,,
1513,19166 S BIRCHWOOD LOOP RD,Anchorage,AK,99567,"19166 S BIRCHWOOD LOOP RD, Anchorage, AK, 99567",Match,Non_Exact,"19166 BIRCHWOOD LOOP RD, CHUGIAK, AK, 99567",190807634,R,02,020,000102,1026,-149.51434,61.39368
1514,19166 S BIRCHWOOD LOOP RD,Anchorage,AK,99567,"19166 S BIRCHWOOD LOOP RD, Anchorage, AK, 99567",Match,Non_Exact,"19166 BIRCHWOOD LOOP RD, CHUGIAK, AK, 99567",190807634,R,02,020,000102,1026,-149.51434,61.39368
1515,19425 BECKY LN,Anchorage,AK,99567,"19425 BECKY LN, Anchorage, AK, 99567",Match,Non_Exact,"19425 BECKY LN, CHUGIAK, AK, 99567",636132038,R,02,020,000102,1009,-149.51979,61.39368399999999
1516,19434 BECKY LN,Anchorage,AK,99567,"19434 BECKY LN, Anchorage, AK, 99567",Match,Non_Exact,"19434 BECKY LN, CHUGIAK, AK, 99567",636132038,L,02,020,000102,1009,-149.5196,61.393673
1517,19165 S BIRCHWOOD LOOP RD,Anchorage,AK,99567,"19165 S BIRCHWOOD LOOP RD, Anchorage, AK, 99567",Match,Non_Exact,"19165 BIRCHWOOD LOOP RD, CHUGIAK, AK, 99567",190807634,L,02,020,000102,2017,-149.515,61.39366999999999
1518,19155 S BIRCHWOOD LOOP RD,Anchorage,AK,99567,"19155 S BIRCHWOOD LOOP RD, Anchorage, AK, 99567",Tie,,,,,,,,,,
1519,19338 BECKY LN,Anchorage,AK,99567,"19338 BECKY LN, Anchorage, AK, 99567",Match,Non_Exact,"19338 BECKY LN, CHUGIAK, AK, 99567",636132038,L,02,020,000102,1009,-149.52136000000002,61.393673
1520,19136 S BIRCHWOOD LOOP RD,Anchorage,AK,99567,"19136 S BIRCHWOOD LOOP RD, Anchorage, AK, 99567",Match,Non_Exact,"19136 BIRCHWOOD LOOP RD, CHUGIAK, AK, 99567",190792131,R,02,020,000102,1009,-149.51791,61.393409999999996
1521,19107 S BIRCHWOOD LOOP RD,Anchorage,AK,99567,"19107 S BIRCHWOOD LOOP RD, Anchorage, AK, 99567",Match,Non_Exact,"19107 BIRCHWOOD LOOP RD, CHUGIAK, AK, 99567",190792131,L,02,020,000102,2017,-149.5179,61.393480000000004
1522,19111 S BIRCHWOOD LOOP RD,Anchorage,AK,99567,"19111 S BIRCHWOOD LOOP RD, Anchorage, AK, 99567",Tie,,,,,,,,,,
1523,19110 S BIRCHWOOD LOOP RD,Anchorage,AK,99567,"19110 S BIRCHWOOD LOOP RD, Anchorage, AK, 99567",Match,Non_Exact,"19110 BIRCHWOOD LOOP RD, CHUGIAK, AK, 99567",190792131,R,02,020,000102,1009,-149.5179,61.393143
1524,19103 S BIRCHWOOD LOOP RD,Anchorage,AK,99567,"19103 S BIRCHWOOD LOOP RD, Anchorage, AK, 99567",Match,Non_Exact,"19103 BIRCHWOOD LOOP RD, CHUGIAK, AK, 99567",190792131,L,02,020,000102,2017,-149.5179,61.39341999999999
1525,19040 S BIRCHWOOD LOOP RD,Anchorage,AK,99567,"19040 S BIRCHWOOD LOOP RD, Anchorage, AK, 99567",Match,Non_Exact,"19040 BIRCHWOOD LOOP RD, CHUGIAK, AK, 99567",190792131,R,02,020,000102,1009,-149.51785,61.392426
1526,19042 BAIDARKA ST,Anchorage,AK,99567,"19042 BAIDARKA ST, Anchorage, AK, 99567",Match,Non_Exact,"19042 BAIDARKA ST, CHUGIAK, AK, 99567",190807635,L,02,020,000102,2017,-149.51228,61.392338
1527,19022 BAIDARKA ST,Anchorage,AK,99567,"19022 BAIDARKA ST, Anchorage, AK, 99567",Match,Non_Exact,"19022 BAIDARKA ST, CHUGIAK, AK, 99567",190807635,L,02,020,000102,2017,-149.51228,61.392185
1528,19939 ADRIAN AVE,Anchorage,AK,99567,"19939 ADRIAN AVE, Anchorage, AK, 99567",Match,Non_Exact,"19939 ADRIAN AVE, CHUGIAK, AK, 99567",190807633,L,02,020,000102,2014,-149.51152,61.391876
1529,19625 ADRIAN AVE,Anchorage,AK,99567,"19625 ADRIAN AVE, Anchorage, AK, 99567",Match,Non_Exact,"19625 ADRIAN AVE, CHUGIAK, AK, 99567",605186306,L,02,020,000102,2017,-149.51715,61.391876
1530,19715 ADRIAN AVE,Anchorage,AK,99567,"19715 ADRIAN AVE, Anchorage, AK, 99567",Match,Non_Exact,"19715 ADRIAN AVE, CHUGIAK, AK, 99567",605186306,L,02,020,000102,2017,-149.51576,61.391876
1531,19433 ADRIAN AVE,Anchorage,AK,99567,"19433 ADRIAN AVE, Anchorage, AK, 99567",Match,Non_Exact,"19433 ADRIAN AVE, CHUGIAK, AK, 99567",190792133,L,02,020,000102,1009,-149.5203,61.391876
1532,19407 ADRIAN AVE,Anchorage,AK,99567,"19407 ADRIAN AVE, Anchorage, AK, 99567",Match,Non_Exact,"19407 ADRIAN AVE, CHUGIAK, AK, 99567",190792133,L,02,020,000102,1009,-149.52061,61.391876
1533,19519 ADRIAN AVE,Anchorage,AK,99567,"19519 ADRIAN AVE, Anchorage, AK, 99567",Match,Non_Exact,"19519 ADRIAN AVE, CHUGIAK, AK, 99567",190792133,L,02,020,000102,1009,-149.51926,61.391876
1534,19645 ADRIAN AVE,Anchorage,AK,99567,"19645 ADRIAN AVE, Anchorage, AK, 99567",Match,Non_Exact,"19645 ADRIAN AVE, CHUGIAK, AK, 99567",605186306,L,02,020,000102,2017,-149.51685,61.391876
1535,19333 ADRIAN AVE,Anchorage,AK,99567,"19333 ADRIAN AVE, Anchorage, AK, 99567",Match,Non_Exact,"19333 ADRIAN AVE, CHUGIAK, AK, 99567",190792133,L,02,020,000102,1009,-149.52151,61.391876
1536,19816 ADRIAN AVE,Anchorage,AK,99567,"19816 ADRIAN AVE, Anchorage, AK, 99567",Match,Non_Exact,"19816 ADRIAN AVE, CHUGIAK, AK, 99567",605186307,R,02,020,000102,2014,-149.51376000000002,61.391865
1537,19520 ADRIAN AVE,Anchorage,AK,99567,"19520 ADRIAN AVE, Anchorage, AK, 99567",Match,Non_Exact,"19520 ADRIAN AVE, CHUGIAK, AK, 99567",190792133,R,02,020,000102,1009,-149.51923,61.39187
1538,19632 ADRIAN AVE,Anchorage,AK,99567,"19632 ADRIAN AVE, Anchorage, AK, 99567",Match,Non_Exact,"19632 ADRIAN AVE, CHUGIAK, AK, 99567",605186306,R,02,020,000102,2014,-149.51703,61.391865
1539,19718 ADRIAN AVE,Anchorage,AK,99567,"19718 ADRIAN AVE, Anchorage, AK, 99567",Match,Non_Exact,"19718 ADRIAN AVE, CHUGIAK, AK, 99567",605186306,R,02,020,000102,2014,-149.5157,61.391865
1540,19932 ADRIAN AVE,Anchorage,AK,99567,"19932 ADRIAN AVE, Anchorage, AK, 99567",Match,Non_Exact,"19932 ADRIAN AVE, CHUGIAK, AK, 99567",190807633,R,02,020,000102,2014,-149.51161000000002,61.391865
1541,19412 ADRIAN AVE,Anchorage,AK,99567,"19412 ADRIAN AVE, Anchorage, AK, 99567",Match,Non_Exact,"19412 ADRIAN AVE, CHUGIAK, AK, 99567",190792133,R,02,020,000102,1009,-149.52053999999998,61.39187
1542,19412 ADRIAN AVE,Anchorage,AK,99567,"19412 ADRIAN AVE, Anchorage, AK, 99567",Match,Non_Exact,"19412 ADRIAN AVE, CHUGIAK, AK, 99567",190792133,R,02,020,000102,1009,-149.52053999999998,61.39187
1543,19436 ADRIAN AVE,Anchorage,AK,99567,"19436 ADRIAN AVE, Anchorage, AK, 99567",Match,Non_Exact,"19436 ADRIAN AVE, CHUGIAK, AK, 99567",190792133,R,02,020,000102,1009,-149.52025,61.39187
1544,19314 ADRIAN AVE,Anchorage,AK,99567,"19314 ADRIAN AVE, Anchorage, AK, 99567",Match,Non_Exact,"19314 ADRIAN AVE, CHUGIAK, AK, 99567",190792133,R,02,020,000102,1009,-149.52173,61.39187
1545,18832 S BIRCHWOOD LOOP RD,Anchorage,AK,99567,"18832 S BIRCHWOOD LOOP RD, Anchorage, AK, 99567",Match,Non_Exact,"18832 BIRCHWOOD LOOP RD, CHUGIAK, AK, 99567",190792134,R,02,020,000102,1009,-149.51924,61.390415000000004
1546,18828 MOOSE PL,Anchorage,AK,99567,"18828 MOOSE PL, Anchorage, AK, 99567",Match,Non_Exact,"18828 MOOSE PL, CHUGIAK, AK, 99567",190792158,R,02,020,000102,2014,-149.51041999999998,61.390980000000006
1547,18830 TRUDY ST,Anchorage,AK,99567,"18830 TRUDY ST, Anchorage, AK, 99567",Match,Non_Exact,"18830 TRUDY ST, CHUGIAK, AK, 99567",190823391,L,02,020,000102,1009,-149.52527,61.390285
1548,19041 HIDDEN HILL CT,Anchorage,AK,99567,"19041 HIDDEN HILL CT, Anchorage, AK, 99567",Match,Non_Exact,"19041 HIDDEN HILL CT, CHUGIAK, AK, 99567",190792101,R,02,020,000102,1009,-149.52723999999998,61.390069999999994
1549,19016 HIDDEN HILL CT,Anchorage,AK,99567,"19016 HIDDEN HILL CT, Anchorage, AK, 99567",Match,Non_Exact,"19016 HIDDEN HILL CT, CHUGIAK, AK, 99567",190792101,L,02,020,000102,1009,-149.52745,61.39006
1550,19591 BEACH LAKE RD,Anchorage,AK,99567,"19591 BEACH LAKE RD, Anchorage, AK, 99567",No_Match,,,,,,,,,,
1551,19517 BEVERLY AVE,Anchorage,AK,99567,"19517 BEVERLY AVE, Anchorage, AK, 99567",Match,Non_Exact,"19517 BEVERLY AVE, CHUGIAK, AK, 99567",190819974,L,02,020,000102,2014,-149.52043,61.38827
1552,19439 BEVERLY AVE,Anchorage,AK,99567,"19439 BEVERLY AVE, Anchorage, AK, 99567",Match,Non_Exact,"19439 BEVERLY AVE, CHUGIAK, AK, 99567",190819974,L,02,020,000102,2014,-149.52136000000002,61.38827
1553,18080 AMONSON RD,Anchorage,AK,99567,"18080 AMONSON RD, Anchorage, AK, 99567",Match,Non_Exact,"18080 AMONSON RD, CHUGIAK, AK, 99567",605186333,R,02,020,000102,3018,-149.47752,61.383823
1554,18005 AMONSON RD,Anchorage,AK,99567,"18005 AMONSON RD, Anchorage, AK, 99567",Match,Non_Exact,"18005 AMONSON RD, CHUGIAK, AK, 99567",605186345,L,02,020,000102,3018,-149.47234,61.38375500000001
1555,21837 EARL CT,Anchorage,AK,99567,"21837 EARL CT, Anchorage, AK, 99567",Match,Non_Exact,"21837 EARL CT, CHUGIAK, AK, 99567",605186335,L,02,020,000102,3018,-149.47576999999998,61.383759999999995
1556,18027 AMONSON RD,Anchorage,AK,99567,"18027 AMONSON RD, Anchorage, AK, 99567",Match,Non_Exact,"18027 AMONSON RD, CHUGIAK, AK, 99567",605186345,L,02,020,000102,3018,-149.47316,61.38375500000001
1557,18107 MALL CIR,Anchorage,AK,99567,"18107 MALL CIR, Anchorage, AK, 99567",Match,Non_Exact,"18107 MALL CIR, CHUGIAK, AK, 99567",627000207,L,02,020,000102,3018,-149.48674,61.383357999999994
1558,18016 AMONSON RD,Anchorage,AK,99567,"18016 AMONSON RD, Anchorage, AK, 99567",Match,Non_Exact,"18016 AMONSON RD, CHUGIAK, AK, 99567",605186345,R,02,020,000102,3018,-149.47528,61.383312
1559,18110 BENDING BIRCH DR,Anchorage,AK,99567,"18110 BENDING BIRCH DR, Anchorage, AK, 99567",Match,Non_Exact,"18110 BENDING BIRCH DR, CHUGIAK, AK, 99567",190827382,R,02,020,000102,3018,-149.4818,61.3844
1560,18045 AMONSON RD,Anchorage,AK,99567,"18045 AMONSON RD, Anchorage, AK, 99567",Match,Non_Exact,"18045 AMONSON RD, CHUGIAK, AK, 99567",605186345,L,02,020,000102,3018,-149.47383,61.38369
1561,18034 AMONSON RD,Anchorage,AK,99567,"18034 AMONSON RD, Anchorage, AK, 99567",Match,Non_Exact,"18034 AMONSON RD, CHUGIAK, AK, 99567",605186345,R,02,020,000102,3018,-149.47551,61.38329
1562,18064 AMONSON RD,Anchorage,AK,99567,"18064 AMONSON RD, Anchorage, AK, 99567",Match,Non_Exact,"18064 AMONSON RD, CHUGIAK, AK, 99567",605186344,R,02,020,000102,3018,-149.47618,61.383736
1563,18101 MALL CIR,Anchorage,AK,99567,"18101 MALL CIR, Anchorage, AK, 99567",Match,Non_Exact,"18101 MALL CIR, CHUGIAK, AK, 99567",627000207,L,02,020,000102,3018,-149.48692,61.383278000000004
1564,18101 MALL CIR,Anchorage,AK,99567,"18101 MALL CIR, Anchorage, AK, 99567",Match,Non_Exact,"18101 MALL CIR, CHUGIAK, AK, 99567",627000207,L,02,020,000102,3018,-149.48692,61.383278000000004
1565,18101 MALL CIR,Anchorage,AK,99567,"18101 MALL CIR, Anchorage, AK, 99567",Match,Non_Exact,"18101 MALL CIR, CHUGIAK, AK, 99567",627000207,L,02,020,000102,3018,-149.48692,61.383278000000004
1566,18050 AMONSON RD,Anchorage,AK,99567,"18050 AMONSON RD, Anchorage, AK, 99567",Match,Non_Exact,"18050 AMONSON RD, CHUGIAK, AK, 99567",605186345,R,02,020,000102,3018,-149.47572,61.383357999999994
1567,18128 AMONSON RD,Anchorage,AK,99567,"18128 AMONSON RD, Anchorage, AK, 99567",Match,Non_Exact,"18128 AMONSON RD, CHUGIAK, AK, 99567",190793175,R,02,020,000102,3018,-149.47849,61.383442
1568,18042 AMONSON RD,Anchorage,AK,99567,"18042 AMONSON RD, Anchorage, AK, 99567",Match,Non_Exact,"18042 AMONSON RD, CHUGIAK, AK, 99567",605186345,R,02,020,000102,3018,-149.47562,61.383324
1569,21535 CANYON DR,Anchorage,AK,99567,"21535 CANYON DR, Anchorage, AK, 99567",Match,Non_Exact,"21535 CANYON DR, CHUGIAK, AK, 99567",190827704,R,02,020,000102,3018,-149.48021,61.382847
1570,18026 AMONSON RD,Anchorage,AK,99567,"18026 AMONSON RD, Anchorage, AK, 99567",Match,Non_Exact,"18026 AMONSON RD, CHUGIAK, AK, 99567",605186345,R,02,020,000102,3018,-149.4754,61.383266000000006
1571,21930 SOUTHEAST APRON RD,Anchorage,AK,99567,"21930 SOUTHEAST APRON RD, Anchorage, AK, 99567",No_Match,,,,,,,,,,
1572,21980 SOUTHEAST APRON RD,Anchorage,AK,99567,"21980 SOUTHEAST APRON RD, Anchorage, AK, 99567",No_Match,,,,,,,,,,
1573,21910 SOUTHEAST APRON RD,Anchorage,AK,99567,"21910 SOUTHEAST APRON RD, Anchorage, AK, 99567",No_Match,,,,,,,,,,
1574,21960 SOUTHEAST APRON RD,Anchorage,AK,99567,"21960 SOUTHEAST APRON RD, Anchorage, AK, 99567",No_Match,,,,,,,,,,
1575,20032 BIRCHWOOD SPUR RD,Anchorage,AK,99567,"20032 BIRCHWOOD SPUR RD, Anchorage, AK, 99567",No_Match,,,,,,,,,,
1576,21940 SOUTHEAST APRON RD,Anchorage,AK,99567,"21940 SOUTHEAST APRON RD, Anchorage, AK, 99567",No_Match,,,,,,,,,,
1577,21920 SOUTHEAST APRON RD,Anchorage,AK,99567,"21920 SOUTHEAST APRON RD, Anchorage, AK, 99567",No_Match,,,,,,,,,,
1578,21900 SOUTHEAST APRON RD,Anchorage,AK,99567,"21900 SOUTHEAST APRON RD, Anchorage, AK, 99567",No_Match,,,,,,,,,,
1579,20016 BIRCHWOOD SPUR RD,Anchorage,AK,99567,"20016 BIRCHWOOD SPUR RD, Anchorage, AK, 99567",No_Match,,,,,,,,,,
1580,19938 BIRCHWOOD SPUR RD,Anchorage,AK,99567,"19938 BIRCHWOOD SPUR RD, Anchorage, AK, 99567",No_Match,,,,,,,,,,
1581,19908 BIRCHWOOD SPUR RD,Anchorage,AK,99567,"19908 BIRCHWOOD SPUR RD, Anchorage, AK, 99567",No_Match,,,,,,,,,,
1582,20180 BIRCHWOOD SPUR RD,Anchorage,AK,99567,"20180 BIRCHWOOD SPUR RD, Anchorage, AK, 99567",No_Match,,,,,,,,,,
1583,19826 BIRCHWOOD SPUR RD,Anchorage,AK,99567,"19826 BIRCHWOOD SPUR RD, Anchorage, AK, 99567",No_Match,,,,,,,,,,
1584,19814 BIRCHWOOD SPUR RD,Anchorage,AK,99567,"19814 BIRCHWOOD SPUR RD, Anchorage, AK, 99567",No_Match,,,,,,,,,,
1585,19744 BIRCHWOOD SPUR RD,Anchorage,AK,99567,"19744 BIRCHWOOD SPUR RD, Anchorage, AK, 99567",No_Match,,,,,,,,,,
1586,19758 BIRCHWOOD SPUR RD,Anchorage,AK,99567,"19758 BIRCHWOOD SPUR RD, Anchorage, AK, 99567",No_Match,,,,,,,,,,
1587,19710 BIRCHWOOD SPUR RD,Anchorage,AK,99567,"19710 BIRCHWOOD SPUR RD, Anchorage, AK, 99567",No_Match,,,,,,,,,,
1588,19734 BIRCHWOOD SPUR RD,Anchorage,AK,99567,"19734 BIRCHWOOD SPUR RD, Anchorage, AK, 99567",No_Match,,,,,,,,,,
1589,19722 BIRCHWOOD SPUR RD,Anchorage,AK,99567,"19722 BIRCHWOOD SPUR RD, Anchorage, AK, 99567",No_Match,,,,,,,,,,
1590,19688 BIRCHWOOD SPUR RD,Anchorage,AK,99567,"19688 BIRCHWOOD SPUR RD, Anchorage, AK, 99567",No_Match,,,,,,,,,,
1591,19680 BIRCHWOOD SPUR RD,Anchorage,AK,99567,"19680 BIRCHWOOD SPUR RD, Anchorage, AK, 99567",No_Match,,,,,,,,,,
1592,19672 BIRCHWOOD SPUR RD,Anchorage,AK,99567,"19672 BIRCHWOOD SPUR RD, Anchorage, AK, 99567",No_Match,,,,,,,,,,
1593,19664 BIRCHWOOD SPUR RD,Anchorage,AK,99567,"19664 BIRCHWOOD SPUR RD, Anchorage, AK, 99567",No_Match,,,,,,,,,,
1594,19656 BIRCHWOOD SPUR RD,Anchorage,AK,99567,"19656 BIRCHWOOD SPUR RD, Anchorage, AK, 99567",No_Match,,,,,,,,,,
1595,19648 BIRCHWOOD SPUR RD,Anchorage,AK,99567,"19648 BIRCHWOOD SPUR RD, Anchorage, AK, 99567",No_Match,,,,,,,,,,
1596,19640 BIRCHWOOD SPUR RD,Anchorage,AK,99567,"19640 BIRCHWOOD SPUR RD, Anchorage, AK, 99567",No_Match,,,,,,,,,,
1597,19632 BIRCHWOOD SPUR RD,Anchorage,AK,99567,"19632 BIRCHWOOD SPUR RD, Anchorage, AK, 99567",No_Match,,,,,,,,,,
1598,21210 SOUTHEAST APRON RD,Anchorage,AK,99567,"21210 SOUTHEAST APRON RD, Anchorage, AK, 99567",Match,Non_Exact,"21210 SE APRON RD, CHUGIAK, AK, 99567",614867556,L,02,020,000102,1008,-149.50522,61.416637
1599,21162 SOUTHEAST APRON RD,Anchorage,AK,99567,"21162 SOUTHEAST APRON RD, Anchorage, AK, 99567",Match,Non_Exact,"21162 SE APRON RD, CHUGIAK, AK, 99567",614867556,L,02,020,000102,1008,-149.5084,61.41455
1600,21100 SOUTHEAST APRON RD,Anchorage,AK,99567,"21100 SOUTHEAST APRON RD, Anchorage, AK, 99567",Match,Non_Exact,"21100 SE APRON RD, CHUGIAK, AK, 99567",614867556,L,02,020,000102,1008,-149.51189,61.41163
1601,21021 SOUTHEAST APRON RD,Anchorage,AK,99567,"21021 SOUTHEAST APRON RD, Anchorage, AK, 99567",Match,Non_Exact,"21021 SE APRON RD, CHUGIAK, AK, 99567",614867556,R,02,020,000102,1008,-149.50964,61.413532
1602,20789 S BIRCHWOOD LOOP RD,Anchorage,AK,99567,"20789 S BIRCHWOOD LOOP RD, Anchorage, AK, 99567",Match,Non_Exact,"20789 BIRCHWOOD LOOP RD, CHUGIAK, AK, 99567",190819940,L,02,020,000102,2013,-149.49709,61.40811
1603,19643 TENADA AVE,Anchorage,AK,99567,"19643 TENADA AVE, Anchorage, AK, 99567",Match,Non_Exact,"19643 TENADA AVE, CHUGIAK, AK, 99567",190819874,R,02,020,000102,1010,-149.51568999999998,61.399105000000006
1604,20112 TENADA AVE,Anchorage,AK,99567,"20112 TENADA AVE, Anchorage, AK, 99567",Match,Non_Exact,"20112 TENADA AVE, CHUGIAK, AK, 99567",190826815,L,02,020,000102,2014,-149.50888,61.39909399999999
1605,19926 TENADA AVE,Anchorage,AK,99567,"19926 TENADA AVE, Anchorage, AK, 99567",Match,Non_Exact,"19926 TENADA AVE, CHUGIAK, AK, 99567",190792126,L,02,020,000102,1010,-149.51248,61.399097
1606,20024 TENADA AVE,Anchorage,AK,99567,"20024 TENADA AVE, Anchorage, AK, 99567",Match,Non_Exact,"20024 TENADA AVE, CHUGIAK, AK, 99567",190826815,L,02,020,000102,2014,-149.50978,61.399097
1607,19824 TENADA AVE,Anchorage,AK,99567,"19824 TENADA AVE, Anchorage, AK, 99567",Match,Non_Exact,"19824 TENADA AVE, CHUGIAK, AK, 99567",190819873,L,02,020,000102,1010,-149.51483000000002,61.39909399999999
1608,20230 TENADA AVE,Anchorage,AK,99567,"20230 TENADA AVE, Anchorage, AK, 99567",Match,Non_Exact,"20230 TENADA AVE, CHUGIAK, AK, 99567",190826815,L,02,020,000102,2014,-149.50766000000002,61.39909
1609,19732 TENADA AVE,Anchorage,AK,99567,"19732 TENADA AVE, Anchorage, AK, 99567",Match,Non_Exact,"19732 TENADA AVE, CHUGIAK, AK, 99567",190819874,L,02,020,000102,1010,-149.51568999999998,61.39909399999999
1610,19621 GANOE ST,Anchorage,AK,99567,"19621 GANOE ST, Anchorage, AK, 99567",Match,Non_Exact,"19621 GANOE ST, CHUGIAK, AK, 99567",605186283,R,02,020,000102,1010,-149.51793,61.39751999999999
1611,19614 GANOE ST,Anchorage,AK,99567,"19614 GANOE ST, Anchorage, AK, 99567",Match,Non_Exact,"19614 GANOE ST, CHUGIAK, AK, 99567",605186283,L,02,020,000102,1009,-149.51793999999998,61.397472
1612,19739 DOTIE'S DR,Anchorage,AK,99567,"19739 DOTIE'S DR, Anchorage, AK, 99567",Match,Non_Exact,"19739 DOTIE'S DR, CHUGIAK, AK, 99567",605186281,L,02,020,000102,1010,-149.5173,61.397293000000005
1613,19739 DOTIE'S DR,Anchorage,AK,99567,"19739 DOTIE'S DR, Anchorage, AK, 99567",Match,Non_Exact,"19739 DOTIE'S DR, CHUGIAK, AK, 99567",605186281,L,02,020,000102,1010,-149.5173,61.397293000000005
1614,19537 INLET VIEW DR,Anchorage,AK,99567,"19537 INLET VIEW DR, Anchorage, AK, 99567",Match,Non_Exact,"19537 INLET VIEW DR, CHUGIAK, AK, 99567",190792128,R,02,020,000102,1026,-149.51443,61.39675
1615,19526 GANOE ST,Anchorage,AK,99567,"19526 GANOE ST, Anchorage, AK, 99567",Match,Non_Exact,"19526 GANOE ST, CHUGIAK, AK, 99567",190813801,R,02,020,000102,1009,-149.51793999999998,61.396595
1616,19517 INLET VIEW DR,Anchorage,AK,99567,"19517 INLET VIEW DR, Anchorage, AK, 99567",Match,Non_Exact,"19517 INLET VIEW DR, CHUGIAK, AK, 99567",190792128,R,02,020,000102,1026,-149.51453999999998,61.3966
1617,19436 GANOE ST,Anchorage,AK,99567,"19436 GANOE ST, Anchorage, AK, 99567",Match,Non_Exact,"19436 GANOE ST, CHUGIAK, AK, 99567",190813801,R,02,020,000102,1009,-149.51793999999998,61.395912
1618,19426 S BIRCHWOOD LOOP RD,Anchorage,AK,99567,"19426 S BIRCHWOOD LOOP RD, Anchorage, AK, 99567",Match,Non_Exact,"19426 BIRCHWOOD LOOP RD, CHUGIAK, AK, 99567",190826818,R,02,020,000102,1026,-149.51035,61.396023
1619,19424 INLET VIEW DR,Anchorage,AK,99567,"19424 INLET VIEW DR, Anchorage, AK, 99567",Match,Non_Exact,"19424 INLET VIEW DR, CHUGIAK, AK, 99567",190826814,L,02,020,000102,1010,-149.51584,61.394592
1620,19416 GANOE ST,Anchorage,AK,99567,"19416 GANOE ST, Anchorage, AK, 99567",Match,Non_Exact,"19416 GANOE ST, CHUGIAK, AK, 99567",190813801,R,02,020,000102,1009,-149.51793999999998,61.395759999999996
1621,19911 JUHNKE DR,Anchorage,AK,99567,"19911 JUHNKE DR, Anchorage, AK, 99567",Match,Non_Exact,"19911 JUHNKE DR, CHUGIAK, AK, 99567",190813800,L,02,020,000102,1026,-149.51183,61.395495999999994
1622,19429 JOY AVE,Anchorage,AK,99567,"19429 JOY AVE, Anchorage, AK, 99567",Match,Non_Exact,"19429 JOY AVE, CHUGIAK, AK, 99567",190813803,R,02,020,000102,1009,-149.51944,61.395504
1623,19513 JOY AVE,Anchorage,AK,99567,"19513 JOY AVE, Anchorage, AK, 99567",Match,Non_Exact,"19513 JOY AVE, CHUGIAK, AK, 99567",190813803,R,02,020,000102,1009,-149.51877,61.395504
1624,19336 INLET VIEW DR,Anchorage,AK,99567,"19336 INLET VIEW DR, Anchorage, AK, 99567",Match,Non_Exact,"19336 INLET VIEW DR, CHUGIAK, AK, 99567",190826814,L,02,020,000102,1010,-149.516,61.394318000000005
1625,19335 INLET VIEW DR,Anchorage,AK,99567,"19335 INLET VIEW DR, Anchorage, AK, 99567",Match,Non_Exact,"19335 INLET VIEW DR, CHUGIAK, AK, 99567",190826814,R,02,020,000102,1026,-149.5156,61.394928
1626,19337 GANOE ST,Anchorage,AK,99567,"19337 GANOE ST, Anchorage, AK, 99567",Match,Non_Exact,"19337 GANOE ST, CHUGIAK, AK, 99567",190826813,L,02,020,000102,1010,-149.51791,61.39487
1627,19314 S BIRCHWOOD LOOP RD,Anchorage,AK,99567,"19314 S BIRCHWOOD LOOP RD, Anchorage, AK, 99567",Match,Non_Exact,"19314 BIRCHWOOD LOOP RD, CHUGIAK, AK, 99567",636132037,R,02,020,000102,1026,-149.51036000000002,61.39434
1628,19320 GANOE ST,Anchorage,AK,99567,"19320 GANOE ST, Anchorage, AK, 99567",Match,Non_Exact,"19320 GANOE ST, CHUGIAK, AK, 99567",190826813,R,02,020,000102,1009,-149.51793,61.39475
1629,19313 INLET VIEW DR,Anchorage,AK,99567,"19313 INLET VIEW DR, Anchorage, AK, 99567",Match,Non_Exact,"19313 INLET VIEW DR, CHUGIAK, AK, 99567",190826814,R,02,020,000102,1026,-149.5157,61.39475600000001
1630,19314 INLET VIEW DR,Anchorage,AK,99567,"19314 INLET VIEW DR, Anchorage, AK, 99567",Match,Non_Exact,"19314 INLET VIEW DR, CHUGIAK, AK, 99567",190826814,L,02,020,000102,1010,-149.51605,61.39425
1631,20334 J-K LN,Anchorage,AK,99567,"20334 J-K LN, Anchorage, AK, 99567",Match,Non_Exact,"20334 J-K LN, CHUGIAK, AK, 99567",190792977,L,02,020,000102,1011,-149.50429,61.408108
1632,20722 OLD CRANBERRY DR,Anchorage,AK,99567,"20722 OLD CRANBERRY DR, Anchorage, AK, 99567",Match,Non_Exact,"20722 OLD CRANBERRY DR, CHUGIAK, AK, 99567",641432859,L,02,020,000102,2013,-149.49527,61.407109999999996
1633,20616 OLD CRANBERRY DR,Anchorage,AK,99567,"20616 OLD CRANBERRY DR, Anchorage, AK, 99567",Match,Non_Exact,"20616 OLD CRANBERRY DR, CHUGIAK, AK, 99567",641432859,L,02,020,000102,2013,-149.49524,61.4063
1634,20537 WEEPING BIRCH AVE,Anchorage,AK,99567,"20537 WEEPING BIRCH AVE, Anchorage, AK, 99567",Match,Non_Exact,"20537 WEEPING BIRCH AVE, CHUGIAK, AK, 99567",190823624,R,02,020,000102,2013,-149.50024,61.406319999999994
1635,20427 WEEPING BIRCH AVE,Anchorage,AK,99567,"20427 WEEPING BIRCH AVE, Anchorage, AK, 99567",Match,Non_Exact,"20427 WEEPING BIRCH AVE, CHUGIAK, AK, 99567",190823624,R,02,020,000102,2013,-149.50201,61.406319999999994
1636,20241 WEEPING BIRCH AVE,Anchorage,AK,99567,"20241 WEEPING BIRCH AVE, Anchorage, AK, 99567",Match,Non_Exact,"20241 WEEPING BIRCH AVE, CHUGIAK, AK, 99567",635725324,R,02,020,000102,1011,-149.5069,61.406319999999994
1637,20209 WEEPING BIRCH AVE,Anchorage,AK,99567,"20209 WEEPING BIRCH AVE, Anchorage, AK, 99567",Match,Non_Exact,"20209 WEEPING BIRCH AVE, CHUGIAK, AK, 99567",635725324,R,02,020,000102,1011,-149.50761,61.406333999999994
1638,20510 WEEPING BIRCH AVE,Anchorage,AK,99567,"20510 WEEPING BIRCH AVE, Anchorage, AK, 99567",Match,Non_Exact,"20510 WEEPING BIRCH AVE, CHUGIAK, AK, 99567",190823624,L,02,020,000102,2013,-149.50218,61.406307
1639,20622 WEEPING BIRCH AVE,Anchorage,AK,99567,"20622 WEEPING BIRCH AVE, Anchorage, AK, 99567",Match,Non_Exact,"20622 WEEPING BIRCH AVE, CHUGIAK, AK, 99567",190823624,L,02,020,000102,2013,-149.49948,61.406307
1640,20536 S BIRCHWOOD LOOP RD,Anchorage,AK,99567,"20536 S BIRCHWOOD LOOP RD, Anchorage, AK, 99567",Match,Non_Exact,"20536 BIRCHWOOD LOOP RD, CHUGIAK, AK, 99567",190792982,R,02,020,000102,1011,-149.50287,61.405696999999996
1641,20518 OLD CRANBERRY DR,Anchorage,AK,99567,"20518 OLD CRANBERRY DR, Anchorage, AK, 99567",Match,Non_Exact,"20518 OLD CRANBERRY DR, CHUGIAK, AK, 99567",641432859,L,02,020,000102,2013,-149.49525,61.405552
1642,20525 S BIRCHWOOD LOOP RD,Anchorage,AK,99567,"20525 S BIRCHWOOD LOOP RD, Anchorage, AK, 99567",Match,Non_Exact,"20525 BIRCHWOOD LOOP RD, CHUGIAK, AK, 99567",190792982,L,02,020,000102,2013,-149.50285,61.405605
1643,20444 OLD CRANBERRY DR,Anchorage,AK,99567,"20444 OLD CRANBERRY DR, Anchorage, AK, 99567",Match,Non_Exact,"20444 OLD CRANBERRY DR, CHUGIAK, AK, 99567",641432859,L,02,020,000102,2013,-149.49527,61.404987
1644,20649 MC KINLEY VIEW AVE,Anchorage,AK,99567,"20649 MC KINLEY VIEW AVE, Anchorage, AK, 99567",No_Match,,,,,,,,,,
1645,20633 MC KINLEY VIEW AVE,Anchorage,AK,99567,"20633 MC KINLEY VIEW AVE, Anchorage, AK, 99567",No_Match,,,,,,,,,,
1646,20617 MC KINLEY VIEW AVE,Anchorage,AK,99567,"20617 MC KINLEY VIEW AVE, Anchorage, AK, 99567",No_Match,,,,,,,,,,
1647,20211 MC KINLEY VIEW AVE,Anchorage,AK,99567,"20211 MC KINLEY VIEW AVE, Anchorage, AK, 99567",Match,Non_Exact,"20211 MCKINLEY VIEW AVE, CHUGIAK, AK, 99567",190813792,L,02,020,000102,1011,-149.50623000000002,61.40452
1648,20241 MC KINLEY VIEW AVE,Anchorage,AK,99567,"20241 MC KINLEY VIEW AVE, Anchorage, AK, 99567",Match,Non_Exact,"20241 MCKINLEY VIEW AVE, CHUGIAK, AK, 99567",190813792,L,02,020,000102,1011,-149.50572,61.40452
1649,20316 MC KINLEY VIEW AVE,Anchorage,AK,99567,"20316 MC KINLEY VIEW AVE, Anchorage, AK, 99567",Match,Non_Exact,"20316 MCKINLEY VIEW AVE, CHUGIAK, AK, 99567",190813792,R,02,020,000102,1011,-149.50449,61.404506999999995
1650,20329 S BIRCHWOOD LOOP RD,Anchorage,AK,99567,"20329 S BIRCHWOOD LOOP RD, Anchorage, AK, 99567",Match,Non_Exact,"20329 BIRCHWOOD LOOP RD, CHUGIAK, AK, 99567",190792985,L,02,020,000102,2013,-149.5028,61.403830000000006
1651,20319 S BIRCHWOOD LOOP RD,Anchorage,AK,99567,"20319 S BIRCHWOOD LOOP RD, Anchorage, AK, 99567",Match,Non_Exact,"20319 BIRCHWOOD LOOP RD, CHUGIAK, AK, 99567",190792985,L,02,020,000102,2013,-149.5028,61.403755000000004
1652,19965 WEEPING BIRCH AVE,Anchorage,AK,99567,"19965 WEEPING BIRCH AVE, Anchorage, AK, 99567",Match,Non_Exact,"19965 WEEPING BIRCH AVE, CHUGIAK, AK, 99567",190818902,R,02,020,000102,1011,-149.509,61.40512
1653,20320 OLD CRANBERRY DR,Anchorage,AK,99567,"20320 OLD CRANBERRY DR, Anchorage, AK, 99567",Match,Non_Exact,"20320 OLD CRANBERRY DR, CHUGIAK, AK, 99567",641432859,L,02,020,000102,2013,-149.49532,61.404044999999996
1654,20318 BOWLBY ST,Anchorage,AK,99567,"20318 BOWLBY ST, Anchorage, AK, 99567",Match,Non_Exact,"20318 BOWLBY ST, CHUGIAK, AK, 99567",190792994,R,02,020,000102,2013,-149.49893,61.40381
1655,20246 MC KINLEY VIEW AVE,Anchorage,AK,99567,"20246 MC KINLEY VIEW AVE, Anchorage, AK, 99567",Match,Non_Exact,"20246 MCKINLEY VIEW AVE, CHUGIAK, AK, 99567",190813792,R,02,020,000102,1011,-149.50563,61.404506999999995
1656,20208 CYRUS ST,Anchorage,AK,99567,"20208 CYRUS ST, Anchorage, AK, 99567",Match,Non_Exact,"20208 CYRUS ST, CHUGIAK, AK, 99567",190813793,R,02,020,000102,1011,-149.5067,61.40371
1657,20232 S BIRCHWOOD LOOP RD,Anchorage,AK,99567,"20232 S BIRCHWOOD LOOP RD, Anchorage, AK, 99567",Match,Non_Exact,"20232 BIRCHWOOD LOOP RD, CHUGIAK, AK, 99567",190792985,R,02,020,000102,1011,-149.50284,61.40309
1658,19936 WEEPING BIRCH AVE,Anchorage,AK,99567,"19936 WEEPING BIRCH AVE, Anchorage, AK, 99567",Match,Non_Exact,"19936 WEEPING BIRCH AVE, CHUGIAK, AK, 99567",190818902,L,02,020,000102,1011,-149.50988999999998,61.403645
1659,20232 OLD CRANBERRY DR,Anchorage,AK,99567,"20232 OLD CRANBERRY DR, Anchorage, AK, 99567",Match,Non_Exact,"20232 OLD CRANBERRY DR, CHUGIAK, AK, 99567",641432859,L,02,020,000102,2013,-149.49536,61.403374
1660,19915 WEEPING BIRCH AVE,Anchorage,AK,99567,"19915 WEEPING BIRCH AVE, Anchorage, AK, 99567",Match,Non_Exact,"19915 WEEPING BIRCH AVE, CHUGIAK, AK, 99567",190818902,R,02,020,000102,1011,-149.50987,61.40371
1661,20631 JAYHAWK DR,Anchorage,AK,99567,"20631 JAYHAWK DR, Anchorage, AK, 99567",Match,Non_Exact,"20631 JAYHAWK DR, CHUGIAK, AK, 99567",190793000,L,02,020,000102,2013,-149.49817,61.4027
1662,20531 JAYHAWK DR,Anchorage,AK,99567,"20531 JAYHAWK DR, Anchorage, AK, 99567",Match,Non_Exact,"20531 JAYHAWK DR, CHUGIAK, AK, 99567",190792995,L,02,020,000102,2013,-149.50034,61.402702000000005
1663,20443 JAYHAWK DR,Anchorage,AK,99567,"20443 JAYHAWK DR, Anchorage, AK, 99567",Match,Non_Exact,"20443 JAYHAWK DR, CHUGIAK, AK, 99567",190792995,L,02,020,000102,2013,-149.5018,61.402702000000005
1664,20610 JAYHAWK DR,Anchorage,AK,99567,"20610 JAYHAWK DR, Anchorage, AK, 99567",Match,Non_Exact,"20610 JAYHAWK DR, CHUGIAK, AK, 99567",190792995,R,02,020,000102,2014,-149.50018,61.40269
1665,20726 JAYHAWK DR,Anchorage,AK,99567,"20726 JAYHAWK DR, Anchorage, AK, 99567",Match,Non_Exact,"20726 JAYHAWK DR, CHUGIAK, AK, 99567",190793000,R,02,020,000102,2014,-149.49783,61.402687
1666,20111 LORI ST,Anchorage,AK,99567,"20111 LORI ST, Anchorage, AK, 99567",Match,Non_Exact,"20111 LORI ST, CHUGIAK, AK, 99567",190792444,L,02,020,000102,1011,-149.51414,61.401759999999996
1667,20112 LORI ST,Anchorage,AK,99567,"20112 LORI ST, Anchorage, AK, 99567",Match,Non_Exact,"20112 LORI ST, CHUGIAK, AK, 99567",190792444,R,02,020,000102,1010,-149.51418,61.40164
1668,20100 BEACH LAKE RD,Anchorage,AK,99567,"20100 BEACH LAKE RD, Anchorage, AK, 99567",Match,Non_Exact,"20100 BEACH LAKE RD, CHUGIAK, AK, 99567",605186322,L,02,020,000102,1002,-149.5649,61.399536
1669,20000 BEACH LAKE RD,Anchorage,AK,99567,"20000 BEACH LAKE RD, Anchorage, AK, 99567",No_Match,,,,,,,,,,
1670,19972 S BIRCHWOOD LOOP RD,Anchorage,AK,99567,"19972 S BIRCHWOOD LOOP RD, Anchorage, AK, 99567",Match,Non_Exact,"19972 BIRCHWOOD LOOP RD, CHUGIAK, AK, 99567",190792141,R,02,020,000102,1011,-149.50743,61.400913
1671,19958 S BIRCHWOOD LOOP RD,Anchorage,AK,99567,"19958 S BIRCHWOOD LOOP RD, Anchorage, AK, 99567",Match,Non_Exact,"19958 BIRCHWOOD LOOP RD, CHUGIAK, AK, 99567",190792141,R,02,020,000102,1011,-149.5091,61.40091700000001
1672,19954 S BIRCHWOOD LOOP RD,Anchorage,AK,99567,"19954 S BIRCHWOOD LOOP RD, Anchorage, AK, 99567",Match,Non_Exact,"19954 BIRCHWOOD LOOP RD, CHUGIAK, AK, 99567",190792141,R,02,020,000102,1011,-149.50957,61.40091700000001
1673,19968 S BIRCHWOOD LOOP RD,Anchorage,AK,99567,"19968 S BIRCHWOOD LOOP RD, Anchorage, AK, 99567",Match,Non_Exact,"19968 BIRCHWOOD LOOP RD, CHUGIAK, AK, 99567",190792141,R,02,020,000102,1011,-149.5079,61.400913
1674,19919 TARIKA AVE,Anchorage,AK,99567,"19919 TARIKA AVE, Anchorage, AK, 99567",Match,Non_Exact,"19919 TARIKA AVE, CHUGIAK, AK, 99567",190792434,R,02,020,000102,1011,-149.51279,61.400913
1675,19994 S BIRCHWOOD LOOP RD,Anchorage,AK,99567,"19994 S BIRCHWOOD LOOP RD, Anchorage, AK, 99567",Match,Non_Exact,"19994 BIRCHWOOD LOOP RD, CHUGIAK, AK, 99567",190793003,R,02,020,000102,1011,-149.50377,61.4009
1676,19835 TARIKA AVE,Anchorage,AK,99567,"19835 TARIKA AVE, Anchorage, AK, 99567",Match,Non_Exact,"19835 TARIKA AVE, CHUGIAK, AK, 99567",190792434,R,02,020,000102,1011,-149.51363999999998,61.400913
1677,19942 LORI ST,Anchorage,AK,99567,"19942 LORI ST, Anchorage, AK, 99567",Match,Non_Exact,"19942 LORI ST, CHUGIAK, AK, 99567",614874962,L,02,020,000102,1010,-149.51418999999999,61.400406000000004
1678,19936 CYRUS ST,Anchorage,AK,99567,"19936 CYRUS ST, Anchorage, AK, 99567",Match,Non_Exact,"19936 CYRUS ST, CHUGIAK, AK, 99567",645480039,R,02,020,000102,2016,-149.50666999999999,61.400288
1679,19928 TOFSON ST,Anchorage,AK,99567,"19928 TOFSON ST, Anchorage, AK, 99567",No_Match,,,,,,,,,,
1680,19914 TOFSON ST,Anchorage,AK,99567,"19914 TOFSON ST, Anchorage, AK, 99567",Match,Non_Exact,"19914 TOFFSON ST, CHUGIAK, AK, 99567",190793005,R,02,020,000102,2014,-149.50285,61.400321999999996
1681,19818 TOFSON ST,Anchorage,AK,99567,"19818 TOFSON ST, Anchorage, AK, 99567",Match,Non_Exact,"19818 TOFFSON ST, CHUGIAK, AK, 99567",190793005,R,02,020,000102,2014,-149.5029,61.400093000000005
1682,19830 CYRUS ST,Anchorage,AK,99567,"19830 CYRUS ST, Anchorage, AK, 99567",Match,Non_Exact,"19830 CYRUS ST, CHUGIAK, AK, 99567",645480039,R,02,020,000102,2016,-149.50666999999999,61.399469999999994
1683,16727 PLEASANT VIEW DR,Anchorage,AK,99567,"16727 PLEASANT VIEW DR, Anchorage, AK, 99567",Match,Non_Exact,"16727 PLEASANT VIEW DR, CHUGIAK, AK, 99567",190823241,R,02,020,000102,4002,-149.50275,61.371190000000006
1684,16709 PLEASANT VIEW DR,Anchorage,AK,99567,"16709 PLEASANT VIEW DR, Anchorage, AK, 99567",Match,Non_Exact,"16709 PLEASANT VIEW DR, CHUGIAK, AK, 99567",190823241,R,02,020,000102,4002,-149.50273,61.371056
1685,16623 OLD GLENN HWY,Anchorage,AK,99567,"16623 OLD GLENN HWY, Anchorage, AK, 99567",Match,Non_Exact,"16623 OLD GLENN HWY, CHUGIAK, AK, 99567",636132025,R,02,020,000102,4002,-149.50732,61.371735
1686,16631 PLEASANT VIEW DR,Anchorage,AK,99567,"16631 PLEASANT VIEW DR, Anchorage, AK, 99567",Match,Non_Exact,"16631 PLEASANT VIEW DR, CHUGIAK, AK, 99567",190823241,R,02,020,000102,4002,-149.50273,61.370464
1687,16533 OLD GLENN HWY,Anchorage,AK,99567,"16533 OLD GLENN HWY, Anchorage, AK, 99567",Match,Non_Exact,"16533 OLD GLENN HWY, CHUGIAK, AK, 99567",636132025,R,02,020,000102,4002,-149.50832,61.37075
1688,16533 OLD GLENN HWY,Anchorage,AK,99567,"16533 OLD GLENN HWY, Anchorage, AK, 99567",Match,Non_Exact,"16533 OLD GLENN HWY, CHUGIAK, AK, 99567",636132025,R,02,020,000102,4002,-149.50832,61.37075
1689,16533 OLD GLENN HWY,Anchorage,AK,99567,"16533 OLD GLENN HWY, Anchorage, AK, 99567",Match,Non_Exact,"16533 OLD GLENN HWY, CHUGIAK, AK, 99567",636132025,R,02,020,000102,4002,-149.50832,61.37075
1690,16533 OLD GLENN HWY,Anchorage,AK,99567,"16533 OLD GLENN HWY, Anchorage, AK, 99567",Match,Non_Exact,"16533 OLD GLENN HWY, CHUGIAK, AK, 99567",636132025,R,02,020,000102,4002,-149.50832,61.37075
1691,16533 OLD GLENN HWY,Anchorage,AK,99567,"16533 OLD GLENN HWY, Anchorage, AK, 99567",Match,Non_Exact,"16533 OLD GLENN HWY, CHUGIAK, AK, 99567",636132025,R,02,020,000102,4002,-149.50832,61.37075
1692,16533 OLD GLENN HWY,Anchorage,AK,99567,"16533 OLD GLENN HWY, Anchorage, AK, 99567",Match,Non_Exact,"16533 OLD GLENN HWY, CHUGIAK, AK, 99567",636132025,R,02,020,000102,4002,-149.50832,61.37075
1693,16533 OLD GLENN HWY,Anchorage,AK,99567,"16533 OLD GLENN HWY, Anchorage, AK, 99567",Match,Non_Exact,"16533 OLD GLENN HWY, CHUGIAK, AK, 99567",636132025,R,02,020,000102,4002,-149.50832,61.37075
1694,16533 OLD GLENN HWY,Anchorage,AK,99567,"16533 OLD GLENN HWY, Anchorage, AK, 99567",Match,Non_Exact,"16533 OLD GLENN HWY, CHUGIAK, AK, 99567",636132025,R,02,020,000102,4002,-149.50832,61.37075
1695,16533 OLD GLENN HWY,Anchorage,AK,99567,"16533 OLD GLENN HWY, Anchorage, AK, 99567",Match,Non_Exact,"16533 OLD GLENN HWY, CHUGIAK, AK, 99567",636132025,R,02,020,000102,4002,-149.50832,61.37075
1696,16533 OLD GLENN HWY,Anchorage,AK,99567,"16533 OLD GLENN HWY, Anchorage, AK, 99567",Match,Non_Exact,"16533 OLD GLENN HWY, CHUGIAK, AK, 99567",636132025,R,02,020,000102,4002,-149.50832,61.37075
1697,16533 OLD GLENN HWY,Anchorage,AK,99567,"16533 OLD GLENN HWY, Anchorage, AK, 99567",Match,Non_Exact,"16533 OLD GLENN HWY, CHUGIAK, AK, 99567",636132025,R,02,020,000102,4002,-149.50832,61.37075
1698,16533 OLD GLENN HWY,Anchorage,AK,99567,"16533 OLD GLENN HWY, Anchorage, AK, 99567",Match,Non_Exact,"16533 OLD GLENN HWY, CHUGIAK, AK, 99567",636132025,R,02,020,000102,4002,-149.50832,61.37075
1699,16533 OLD GLENN HWY,Anchorage,AK,99567,"16533 OLD GLENN HWY, Anchorage, AK, 99567",Match,Non_Exact,"16533 OLD GLENN HWY, CHUGIAK, AK, 99567",636132025,R,02,020,000102,4002,-149.50832,61.37075
1700,16535 PLEASANT VIEW DR,Anchorage,AK,99567,"16535 PLEASANT VIEW DR, Anchorage, AK, 99567",Match,Non_Exact,"16535 PLEASANT VIEW DR, CHUGIAK, AK, 99567",190823241,R,02,020,000102,4002,-149.50273,61.36974
1701,16533 OLD GLENN HWY,Anchorage,AK,99567,"16533 OLD GLENN HWY, Anchorage, AK, 99567",Match,Non_Exact,"16533 OLD GLENN HWY, CHUGIAK, AK, 99567",636132025,R,02,020,000102,4002,-149.50832,61.37075
1702,16533 OLD GLENN HWY,Anchorage,AK,99567,"16533 OLD GLENN HWY, Anchorage, AK, 99567",Match,Non_Exact,"16533 OLD GLENN HWY, CHUGIAK, AK, 99567",636132025,R,02,020,000102,4002,-149.50832,61.37075
1703,16533 OLD GLENN HWY,Anchorage,AK,99567,"16533 OLD GLENN HWY, Anchorage, AK, 99567",Match,Non_Exact,"16533 OLD GLENN HWY, CHUGIAK, AK, 99567",636132025,R,02,020,000102,4002,-149.50832,61.37075
1704,16533 OLD GLENN HWY,Anchorage,AK,99567,"16533 OLD GLENN HWY, Anchorage, AK, 99567",Match,Non_Exact,"16533 OLD GLENN HWY, CHUGIAK, AK, 99567",636132025,R,02,020,000102,4002,-149.50832,61.37075
1705,16533 OLD GLENN HWY,Anchorage,AK,99567,"16533 OLD GLENN HWY, Anchorage, AK, 99567",Match,Non_Exact,"16533 OLD GLENN HWY, CHUGIAK, AK, 99567",636132025,R,02,020,000102,4002,-149.50832,61.37075
1706,16533 OLD GLENN HWY,Anchorage,AK,99567,"16533 OLD GLENN HWY, Anchorage, AK, 99567",Match,Non_Exact,"16533 OLD GLENN HWY, CHUGIAK, AK, 99567",636132025,R,02,020,000102,4002,-149.50832,61.37075
1707,16533 OLD GLENN HWY,Anchorage,AK,99567,"16533 OLD GLENN HWY, Anchorage, AK, 99567",Match,Non_Exact,"16533 OLD GLENN HWY, CHUGIAK, AK, 99567",636132025,R,02,020,000102,4002,-149.50832,61.37075
1708,16533 OLD GLENN HWY,Anchorage,AK,99567,"16533 OLD GLENN HWY, Anchorage, AK, 99567",Match,Non_Exact,"16533 OLD GLENN HWY, CHUGIAK, AK, 99567",636132025,R,02,020,000102,4002,-149.50832,61.37075
1709,16533 OLD GLENN HWY,Anchorage,AK,99567,"16533 OLD GLENN HWY, Anchorage, AK, 99567",Match,Non_Exact,"16533 OLD GLENN HWY, CHUGIAK, AK, 99567",636132025,R,02,020,000102,4002,-149.50832,61.37075
1710,16533 OLD GLENN HWY,Anchorage,AK,99567,"16533 OLD GLENN HWY, Anchorage, AK, 99567",Match,Non_Exact,"16533 OLD GLENN HWY, CHUGIAK, AK, 99567",636132025,R,02,020,000102,4002,-149.50832,61.37075
1711,16457 PLEASANT VIEW DR,Anchorage,AK,99567,"16457 PLEASANT VIEW DR, Anchorage, AK, 99567",Match,Non_Exact,"16457 PLEASANT VIEW DR, CHUGIAK, AK, 99567",190823241,R,02,020,000102,4002,-149.50273,61.369152
1712,16533 OLD GLENN HWY,Anchorage,AK,99567,"16533 OLD GLENN HWY, Anchorage, AK, 99567",Match,Non_Exact,"16533 OLD GLENN HWY, CHUGIAK, AK, 99567",636132025,R,02,020,000102,4002,-149.50832,61.37075
1713,16533 OLD GLENN HWY,Anchorage,AK,99567,"16533 OLD GLENN HWY, Anchorage, AK, 99567",Match,Non_Exact,"16533 OLD GLENN HWY, CHUGIAK, AK, 99567",636132025,R,02,020,000102,4002,-149.50832,61.37075
1714,16533 OLD GLENN HWY,Anchorage,AK,99567,"16533 OLD GLENN HWY, Anchorage, AK, 99567",Match,Non_Exact,"16533 OLD GLENN HWY, CHUGIAK, AK, 99567",636132025,R,02,020,000102,4002,-149.50832,61.37075
1715,16533 OLD GLENN HWY,Anchorage,AK,99567,"16533 OLD GLENN HWY, Anchorage, AK, 99567",Match,Non_Exact,"16533 OLD GLENN HWY, CHUGIAK, AK, 99567",636132025,R,02,020,000102,4002,-149.50832,61.37075
1716,16533 OLD GLENN HWY,Anchorage,AK,99567,"16533 OLD GLENN HWY, Anchorage, AK, 99567",Match,Non_Exact,"16533 OLD GLENN HWY, CHUGIAK, AK, 99567",636132025,R,02,020,000102,4002,-149.50832,61.37075
1717,16533 OLD GLENN HWY,Anchorage,AK,99567,"16533 OLD GLENN HWY, Anchorage, AK, 99567",Match,Non_Exact,"16533 OLD GLENN HWY, CHUGIAK, AK, 99567",636132025,R,02,020,000102,4002,-149.50832,61.37075
1718,16533 OLD GLENN HWY,Anchorage,AK,99567,"16533 OLD GLENN HWY, Anchorage, AK, 99567",Match,Non_Exact,"16533 OLD GLENN HWY, CHUGIAK, AK, 99567",636132025,R,02,020,000102,4002,-149.50832,61.37075
1719,16533 OLD GLENN HWY,Anchorage,AK,99567,"16533 OLD GLENN HWY, Anchorage, AK, 99567",Match,Non_Exact,"16533 OLD GLENN HWY, CHUGIAK, AK, 99567",636132025,R,02,020,000102,4002,-149.50832,61.37075
1720,16533 OLD GLENN HWY,Anchorage,AK,99567,"16533 OLD GLENN HWY, Anchorage, AK, 99567",Match,Non_Exact,"16533 OLD GLENN HWY, CHUGIAK, AK, 99567",636132025,R,02,020,000102,4002,-149.50832,61.37075
1721,16443 PLEASANT VIEW DR,Anchorage,AK,99567,"16443 PLEASANT VIEW DR, Anchorage, AK, 99567",Match,Non_Exact,"16443 PLEASANT VIEW DR, CHUGIAK, AK, 99567",190823241,R,02,020,000102,4002,-149.50273,61.36904499999999
1722,16533 OLD GLENN HWY,Anchorage,AK,99567,"16533 OLD GLENN HWY, Anchorage, AK, 99567",Match,Non_Exact,"16533 OLD GLENN HWY, CHUGIAK, AK, 99567",636132025,R,02,020,000102,4002,-149.50832,61.37075
1723,16533 OLD GLENN HWY,Anchorage,AK,99567,"16533 OLD GLENN HWY, Anchorage, AK, 99567",Match,Non_Exact,"16533 OLD GLENN HWY, CHUGIAK, AK, 99567",636132025,R,02,020,000102,4002,-149.50832,61.37075
1724,16533 OLD GLENN HWY,Anchorage,AK,99567,"16533 OLD GLENN HWY, Anchorage, AK, 99567",Match,Non_Exact,"16533 OLD GLENN HWY, CHUGIAK, AK, 99567",636132025,R,02,020,000102,4002,-149.50832,61.37075
1725,16525 S BIRCHWOOD LOOP RD,Anchorage,AK,99567,"16525 S BIRCHWOOD LOOP RD, Anchorage, AK, 99567",Match,Non_Exact,"16525 BIRCHWOOD LOOP RD, CHUGIAK, AK, 99567",632985994,L,02,020,000102,2026,-149.53903,61.371390000000005
1726,16533 OLD GLENN HWY,Anchorage,AK,99567,"16533 OLD GLENN HWY, Anchorage, AK, 99567",Match,Non_Exact,"16533 OLD GLENN HWY, CHUGIAK, AK, 99567",636132025,R,02,020,000102,4002,-149.50832,61.37075
1727,16533 OLD GLENN HWY,Anchorage,AK,99567,"16533 OLD GLENN HWY, Anchorage, AK, 99567",Match,Non_Exact,"16533 OLD GLENN HWY, CHUGIAK, AK, 99567",636132025,R,02,020,000102,4002,-149.50832,61.37075
1728,16429 PLEASANT VIEW DR,Anchorage,AK,99567,"16429 PLEASANT VIEW DR, Anchorage, AK, 99567",Match,Non_Exact,"16429 PLEASANT VIEW DR, CHUGIAK, AK, 99567",190823241,R,02,020,000102,4002,-149.50273,61.36894
1729,16533 OLD GLENN HWY,Anchorage,AK,99567,"16533 OLD GLENN HWY, Anchorage, AK, 99567",Match,Non_Exact,"16533 OLD GLENN HWY, CHUGIAK, AK, 99567",636132025,R,02,020,000102,4002,-149.50832,61.37075
1730,16533 OLD GLENN HWY,Anchorage,AK,99567,"16533 OLD GLENN HWY, Anchorage, AK, 99567",Match,Non_Exact,"16533 OLD GLENN HWY, CHUGIAK, AK, 99567",636132025,R,02,020,000102,4002,-149.50832,61.37075
1731,16533 OLD GLENN HWY,Anchorage,AK,99567,"16533 OLD GLENN HWY, Anchorage, AK, 99567",Match,Non_Exact,"16533 OLD GLENN HWY, CHUGIAK, AK, 99567",636132025,R,02,020,000102,4002,-149.50832,61.37075
1732,16533 OLD GLENN HWY,Anchorage,AK,99567,"16533 OLD GLENN HWY, Anchorage, AK, 99567",Match,Non_Exact,"16533 OLD GLENN HWY, CHUGIAK, AK, 99567",636132025,R,02,020,000102,4002,-149.50832,61.37075
1733,16533 OLD GLENN HWY,Anchorage,AK,99567,"16533 OLD GLENN HWY, Anchorage, AK, 99567",Match,Non_Exact,"16533 OLD GLENN HWY, CHUGIAK, AK, 99567",636132025,R,02,020,000102,4002,-149.50832,61.37075
1734,16413 PLEASANT VIEW DR,Anchorage,AK,99567,"16413 PLEASANT VIEW DR, Anchorage, AK, 99567",Match,Non_Exact,"16413 PLEASANT VIEW DR, CHUGIAK, AK, 99567",190823241,R,02,020,000102,4002,-149.50273,61.36881999999999
1735,16423 OLD GLENN HWY,Anchorage,AK,99567,"16423 OLD GLENN HWY, Anchorage, AK, 99567",Match,Non_Exact,"16423 OLD GLENN HWY, CHUGIAK, AK, 99567",190792324,R,02,020,000102,4002,-149.5103,61.368797
1736,20509 LAUGHLIN ST,Anchorage,AK,99567,"20509 LAUGHLIN ST, Anchorage, AK, 99567",Match,Non_Exact,"20509 LAUGHLIN ST, CHUGIAK, AK, 99567",190823260,L,02,020,000102,4002,-149.50172,61.368404000000005
1737,20501 LAUGHLIN ST,Anchorage,AK,99567,"20501 LAUGHLIN ST, Anchorage, AK, 99567",Match,Non_Exact,"20501 LAUGHLIN ST, CHUGIAK, AK, 99567",190823260,L,02,020,000102,4002,-149.50179,61.368404000000005
1738,20333 LAUGHLIN ST,Anchorage,AK,99567,"20333 LAUGHLIN ST, Anchorage, AK, 99567",Match,Non_Exact,"20333 LAUGHLIN ST, CHUGIAK, AK, 99567",645480005,L,02,020,000102,4002,-149.50447,61.368423
1739,20333 LAUGHLIN ST,Anchorage,AK,99567,"20333 LAUGHLIN ST, Anchorage, AK, 99567",Match,Non_Exact,"20333 LAUGHLIN ST, CHUGIAK, AK, 99567",645480005,L,02,020,000102,4002,-149.50447,61.368423
1740,20333 LAUGHLIN ST,Anchorage,AK,99567,"20333 LAUGHLIN ST, Anchorage, AK, 99567",Match,Non_Exact,"20333 LAUGHLIN ST, CHUGIAK, AK, 99567",645480005,L,02,020,000102,4002,-149.50447,61.368423
1741,20143 LAUGHLIN ST,Anchorage,AK,99567,"20143 LAUGHLIN ST, Anchorage, AK, 99567",Match,Non_Exact,"20143 LAUGHLIN ST, CHUGIAK, AK, 99567",645480005,L,02,020,000102,4002,-149.50766000000002,61.368506999999994
1742,20143 LAUGHLIN ST,Anchorage,AK,99567,"20143 LAUGHLIN ST, Anchorage, AK, 99567",Match,Non_Exact,"20143 LAUGHLIN ST, CHUGIAK, AK, 99567",645480005,L,02,020,000102,4002,-149.50766000000002,61.368506999999994
1743,20143 LAUGHLIN ST,Anchorage,AK,99567,"20143 LAUGHLIN ST, Anchorage, AK, 99567",Match,Non_Exact,"20143 LAUGHLIN ST, CHUGIAK, AK, 99567",645480005,L,02,020,000102,4002,-149.50766000000002,61.368506999999994
1744,20143 LAUGHLIN ST,Anchorage,AK,99567,"20143 LAUGHLIN ST, Anchorage, AK, 99567",Match,Non_Exact,"20143 LAUGHLIN ST, CHUGIAK, AK, 99567",645480005,L,02,020,000102,4002,-149.50766000000002,61.368506999999994
1745,20123 LAUGHLIN ST,Anchorage,AK,99567,"20123 LAUGHLIN ST, Anchorage, AK, 99567",Match,Non_Exact,"20123 LAUGHLIN ST, CHUGIAK, AK, 99567",645480005,L,02,020,000102,4002,-149.50799999999998,61.36851
1746,20049 LAUGHLIN ST,Anchorage,AK,99567,"20049 LAUGHLIN ST, Anchorage, AK, 99567",Match,Non_Exact,"20049 LAUGHLIN ST, CHUGIAK, AK, 99567",645480005,L,02,020,000102,4002,-149.50923,61.368534
1747,20228 LAUGHLIN ST,Anchorage,AK,99567,"20228 LAUGHLIN ST, Anchorage, AK, 99567",Match,Non_Exact,"20228 LAUGHLIN ST, CHUGIAK, AK, 99567",645480005,R,02,020,000102,4002,-149.50621,61.368465
1748,16232 CLINE ST,Anchorage,AK,99577,"16232 CLINE ST, Anchorage, AK, 99577",Match,Non_Exact,"16232 CLINE ST, EAGLE RIVER, AK, 99577",190823251,L,02,020,000102,1016,-149.55008,61.36773
1749,16244 OLD GLENN HWY,Anchorage,AK,99567,"16244 OLD GLENN HWY, Anchorage, AK, 99567",Match,Non_Exact,"16244 OLD GLENN HWY, CHUGIAK, AK, 99567",625420779,L,02,020,000102,4008,-149.5129,61.366917
1750,16230 OLD GLENN HWY,Anchorage,AK,99567,"16230 OLD GLENN HWY, Anchorage, AK, 99567",Match,Non_Exact,"16230 OLD GLENN HWY, CHUGIAK, AK, 99567",625420779,L,02,020,000102,4008,-149.51299,61.36684
1751,16220 PARKSVILLE DR,Anchorage,AK,99567,"16220 PARKSVILLE DR, Anchorage, AK, 99567",Match,Non_Exact,"16220 PARKSVILLE DR, CHUGIAK, AK, 99567",190813944,R,02,020,000102,4002,-149.50371,61.36741
1752,16217 OLD GLENN HWY,Anchorage,AK,99567,"16217 OLD GLENN HWY, Anchorage, AK, 99567",Match,Non_Exact,"16217 OLD GLENN HWY, CHUGIAK, AK, 99567",625420779,R,02,020,000102,4002,-149.51237,61.367256000000005
1753,16230 OLD GLENN HWY,Anchorage,AK,99567,"16230 OLD GLENN HWY, Anchorage, AK, 99567",Match,Non_Exact,"16230 OLD GLENN HWY, CHUGIAK, AK, 99567",625420779,L,02,020,000102,4008,-149.51299,61.36684
1754,16225 SHIMS ST,Anchorage,AK,99577,"16225 SHIMS ST, Anchorage, AK, 99577",Match,Non_Exact,"16225 SHIMS ST, EAGLE RIVER, AK, 99577",190792199,L,02,020,000102,1019,-149.54263,61.366974
1755,16211 PARKSVILLE DR,Anchorage,AK,99567,"16211 PARKSVILLE DR, Anchorage, AK, 99567",Match,Non_Exact,"16211 PARKSVILLE DR, CHUGIAK, AK, 99567",190813944,L,02,020,000102,4002,-149.50383,61.36731700000001
1756,16140 OLD GLENN HWY,Anchorage,AK,99567,"16140 OLD GLENN HWY, Anchorage, AK, 99567",Match,Non_Exact,"16140 OLD GLENN HWY, CHUGIAK, AK, 99567",636132154,L,02,020,000102,4008,-149.51448,61.365566
1757,20107 KABOB CIR,Anchorage,AK,99567,"20107 KABOB CIR, Anchorage, AK, 99567",Match,Non_Exact,"20107 KABOB CIR, CHUGIAK, AK, 99567",190792332,L,02,020,000102,4002,-149.50905,61.36660799999999
1758,16250 OLD GLENN HWY,Anchorage,AK,99567,"16250 OLD GLENN HWY, Anchorage, AK, 99567",Match,Non_Exact,"16250 OLD GLENN HWY, CHUGIAK, AK, 99567",625420779,L,02,020,000102,4008,-149.51285,61.36695
1759,20109 KABOB CIR,Anchorage,AK,99567,"20109 KABOB CIR, Anchorage, AK, 99567",Match,Non_Exact,"20109 KABOB CIR, CHUGIAK, AK, 99567",190792332,L,02,020,000102,4002,-149.50903,61.36660799999999
1760,16206 OLD GLENN HWY,Anchorage,AK,99567,"16206 OLD GLENN HWY, Anchorage, AK, 99567",Match,Non_Exact,"16206 OLD GLENN HWY, CHUGIAK, AK, 99567",190792329,L,02,020,000102,4008,-149.5134,61.366528
1761,16140 OLD GLENN HWY,Anchorage,AK,99567,"16140 OLD GLENN HWY, Anchorage, AK, 99567",Match,Non_Exact,"16140 OLD GLENN HWY, CHUGIAK, AK, 99567",636132154,L,02,020,000102,4008,-149.51448,61.365566
1762,16207 OLD GLENN HWY,Anchorage,AK,99567,"16207 OLD GLENN HWY, Anchorage, AK, 99567",Match,Non_Exact,"16207 OLD GLENN HWY, CHUGIAK, AK, 99567",625420779,R,02,020,000102,4002,-149.51247,61.3672
1763,17907 KAMKOFF AVE,Anchorage,AK,99577,"17907 KAMKOFF AVE, Anchorage, AK, 99577",Match,Non_Exact,"17907 KAMKOFF AVE, EAGLE RIVER, AK, 99577",190823249,L,02,020,000102,1016,-149.54823000000002,61.366665000000005
1764,16200 PARKSVILLE DR,Anchorage,AK,99567,"16200 PARKSVILLE DR, Anchorage, AK, 99567",Match,Non_Exact,"16200 PARKSVILLE DR, CHUGIAK, AK, 99567",190813944,R,02,020,000102,4002,-149.504,61.367237
1765,18111 KAMKOFF AVE,Anchorage,AK,99577,"18111 KAMKOFF AVE, Anchorage, AK, 99577",Match,Non_Exact,"18111 KAMKOFF AVE, EAGLE RIVER, AK, 99577",190819978,L,02,020,000102,1017,-149.54433999999998,61.366653
1766,17831 KAMKOFF AVE,Anchorage,AK,99577,"17831 KAMKOFF AVE, Anchorage, AK, 99577",Match,Non_Exact,"17831 KAMKOFF AVE, EAGLE RIVER, AK, 99577",605114369,L,02,020,000102,1016,-149.54955,61.366569999999996
1767,17927 KAMKOFF AVE,Anchorage,AK,99577,"17927 KAMKOFF AVE, Anchorage, AK, 99577",Match,Non_Exact,"17927 KAMKOFF AVE, EAGLE RIVER, AK, 99577",190823249,L,02,020,000102,1016,-149.54787,61.366659999999996
1768,16140 OLD GLENN HWY,Anchorage,AK,99567,"16140 OLD GLENN HWY, Anchorage, AK, 99567",Match,Non_Exact,"16140 OLD GLENN HWY, CHUGIAK, AK, 99567",636132154,L,02,020,000102,4008,-149.51448,61.365566
1769,17651 KAMKOFF AVE,Anchorage,AK,99577,"17651 KAMKOFF AVE, Anchorage, AK, 99577",Match,Non_Exact,"17651 KAMKOFF AVE, EAGLE RIVER, AK, 99577",190809885,L,02,020,000102,1016,-149.55136000000002,61.366623
1770,16140 OLD GLENN HWY,Anchorage,AK,99567,"16140 OLD GLENN HWY, Anchorage, AK, 99567",Match,Non_Exact,"16140 OLD GLENN HWY, CHUGIAK, AK, 99567",636132154,L,02,020,000102,4008,-149.51448,61.365566
1771,16140 OLD GLENN HWY,Anchorage,AK,99567,"16140 OLD GLENN HWY, Anchorage, AK, 99567",Match,Non_Exact,"16140 OLD GLENN HWY, CHUGIAK, AK, 99567",636132154,L,02,020,000102,4008,-149.51448,61.365566
1772,20110 KABOB CIR,Anchorage,AK,99567,"20110 KABOB CIR, Anchorage, AK, 99567",Match,Non_Exact,"20110 KABOB CIR, CHUGIAK, AK, 99567",190792332,R,02,020,000102,4002,-149.50902,61.366595999999994
1773,20026 KABOB CIR,Anchorage,AK,99567,"20026 KABOB CIR, Anchorage, AK, 99567",Match,Non_Exact,"20026 KABOB CIR, CHUGIAK, AK, 99567",190792332,R,02,020,000102,4002,-149.50977,61.366592000000004
1774,16140 OLD GLENN HWY,Anchorage,AK,99567,"16140 OLD GLENN HWY, Anchorage, AK, 99567",Match,Non_Exact,"16140 OLD GLENN HWY, CHUGIAK, AK, 99567",636132154,L,02,020,000102,4008,-149.51448,61.365566
1775,20108 KABOB CIR,Anchorage,AK,99567,"20108 KABOB CIR, Anchorage, AK, 99567",Match,Non_Exact,"20108 KABOB CIR, CHUGIAK, AK, 99567",190792332,R,02,020,000102,4002,-149.50903,61.366595999999994
1776,16143 OLD GLENN HWY,Anchorage,AK,99567,"16143 OLD GLENN HWY, Anchorage, AK, 99567",Match,Non_Exact,"16143 OLD GLENN HWY, CHUGIAK, AK, 99567",625420779,R,02,020,000102,4002,-149.513,61.36681
1777,18130 KAMKOFF AVE,Anchorage,AK,99577,"18130 KAMKOFF AVE, Anchorage, AK, 99577",Match,Non_Exact,"18130 KAMKOFF AVE, EAGLE RIVER, AK, 99577",190819978,R,02,020,000102,1018,-149.54402,61.366642000000006
1778,18112 KAMKOFF AVE,Anchorage,AK,99577,"18112 KAMKOFF AVE, Anchorage, AK, 99577",Match,Non_Exact,"18112 KAMKOFF AVE, EAGLE RIVER, AK, 99577",190819978,R,02,020,000102,1018,-149.54431,61.366642000000006
1779,17824 KAMKOFF AVE,Anchorage,AK,99577,"17824 KAMKOFF AVE, Anchorage, AK, 99577",Match,Non_Exact,"17824 KAMKOFF AVE, EAGLE RIVER, AK, 99577",190823249,R,02,020,000102,1018,-149.54813000000001,61.366653
1780,18040 KAMKOFF AVE,Anchorage,AK,99577,"18040 KAMKOFF AVE, Anchorage, AK, 99577",Match,Non_Exact,"18040 KAMKOFF AVE, EAGLE RIVER, AK, 99577",190819978,R,02,020,000102,1018,-149.54546000000002,61.366645999999996
1781,17620 KAMKOFF AVE,Anchorage,AK,99577,"17620 KAMKOFF AVE, Anchorage, AK, 99577",Match,Non_Exact,"17620 KAMKOFF AVE, EAGLE RIVER, AK, 99577",190809885,R,02,020,000102,1016,-149.5516,61.36660799999999
1782,17914 KAMKOFF AVE,Anchorage,AK,99577,"17914 KAMKOFF AVE, Anchorage, AK, 99577",Match,Non_Exact,"17914 KAMKOFF AVE, EAGLE RIVER, AK, 99577",190823249,R,02,020,000102,1018,-149.54731999999998,61.36665
1783,16140 OLD GLENN HWY,Anchorage,AK,99567,"16140 OLD GLENN HWY, Anchorage, AK, 99567",Match,Non_Exact,"16140 OLD GLENN HWY, CHUGIAK, AK, 99567",636132154,L,02,020,000102,4008,-149.51448,61.365566
1784,16136 DIVISION ST,Anchorage,AK,99567,"16136 DIVISION ST, Anchorage, AK, 99567",Match,Non_Exact,"16136 DIVISION ST, CHUGIAK, AK, 99567",190826043,R,02,020,000102,4002,-149.5102,61.36596
1785,16140 OLD GLENN HWY,Anchorage,AK,99567,"16140 OLD GLENN HWY, Anchorage, AK, 99567",Match,Non_Exact,"16140 OLD GLENN HWY, CHUGIAK, AK, 99567",636132154,L,02,020,000102,4008,-149.51448,61.365566
1786,16128 PARKSVILLE DR,Anchorage,AK,99567,"16128 PARKSVILLE DR, Anchorage, AK, 99567",Match,Non_Exact,"16128 PARKSVILLE DR, CHUGIAK, AK, 99567",190813944,R,02,020,000102,4002,-149.50465,61.366519999999994
1787,16127 OLD GLENN HWY,Anchorage,AK,99567,"16127 OLD GLENN HWY, Anchorage, AK, 99567",Match,Non_Exact,"16127 OLD GLENN HWY, CHUGIAK, AK, 99567",625420779,R,02,020,000102,4002,-149.51314,61.36671
1788,16128 CARLISLE ST,Anchorage,AK,99577,"16128 CARLISLE ST, Anchorage, AK, 99577",Match,Non_Exact,"16128 CARLISLE ST, EAGLE RIVER, AK, 99577",190816273,L,02,020,000102,1019,-149.53911000000002,61.36541
1789,16124 CLINE ST,Anchorage,AK,99577,"16124 CLINE ST, Anchorage, AK, 99577",Match,Non_Exact,"16124 CLINE ST, EAGLE RIVER, AK, 99577",190792173,L,02,020,000102,1016,-149.55011000000002,61.365864
1790,16127 SHIMS ST,Anchorage,AK,99577,"16127 SHIMS ST, Anchorage, AK, 99577",Match,Non_Exact,"16127 SHIMS ST, EAGLE RIVER, AK, 99577",190792200,L,02,020,000102,1019,-149.54263,61.365947999999996
1791,16127 SHIMS ST,Anchorage,AK,99577,"16127 SHIMS ST, Anchorage, AK, 99577",Match,Non_Exact,"16127 SHIMS ST, EAGLE RIVER, AK, 99577",190792200,L,02,020,000102,1019,-149.54263,61.365947999999996
1792,16116 DIVISION ST,Anchorage,AK,99567,"16116 DIVISION ST, Anchorage, AK, 99567",Match,Non_Exact,"16116 DIVISION ST, CHUGIAK, AK, 99567",190826043,R,02,020,000102,4002,-149.51021,61.365809999999996
1793,16115 OLD GLENN HWY,Anchorage,AK,99567,"16115 OLD GLENN HWY, Anchorage, AK, 99567",Match,Non_Exact,"16115 OLD GLENN HWY, CHUGIAK, AK, 99567",190792329,R,02,020,000102,4002,-149.51372,61.366240000000005
1794,16130 OLD GLENN HWY,Anchorage,AK,99567,"16130 OLD GLENN HWY, Anchorage, AK, 99567",Match,Non_Exact,"16130 OLD GLENN HWY, CHUGIAK, AK, 99567",636132154,L,02,020,000102,4008,-149.51456000000002,61.365505000000006
1795,16123 DIVISION ST,Anchorage,AK,99567,"16123 DIVISION ST, Anchorage, AK, 99567",Match,Non_Exact,"16123 DIVISION ST, CHUGIAK, AK, 99567",190826043,L,02,020,000102,4002,-149.51018,61.365869999999994
1796,16110 OLD GLENN HWY,Anchorage,AK,99567,"16110 OLD GLENN HWY, Anchorage, AK, 99567",Match,Non_Exact,"16110 OLD GLENN HWY, CHUGIAK, AK, 99567",636132154,L,02,020,000102,4008,-149.51468,61.365382999999994
1797,16110 OLD GLENN HWY,Anchorage,AK,99567,"16110 OLD GLENN HWY, Anchorage, AK, 99567",Match,Non_Exact,"16110 OLD GLENN HWY, CHUGIAK, AK, 99567",636132154,L,02,020,000102,4008,-149.51468,61.365382999999994
1798,16110 OLD GLENN HWY,Anchorage,AK,99567,"16110 OLD GLENN HWY, Anchorage, AK, 99567",Match,Non_Exact,"16110 OLD GLENN HWY, CHUGIAK, AK, 99567",636132154,L,02,020,000102,4008,-149.51468,61.365382999999994
1799,16110 OLD GLENN HWY,Anchorage,AK,99567,"16110 OLD GLENN HWY, Anchorage, AK, 99567",Match,Non_Exact,"16110 OLD GLENN HWY, CHUGIAK, AK, 99567",636132154,L,02,020,000102,4008,-149.51468,61.365382999999994
1800,16110 OLD GLENN HWY,Anchorage,AK,99567,"16110 OLD GLENN HWY, Anchorage, AK, 99567",Match,Non_Exact,"16110 OLD GLENN HWY, CHUGIAK, AK, 99567",636132154,L,02,020,000102,4008,-149.51468,61.365382999999994
1801,16110 OLD GLENN HWY,Anchorage,AK,99567,"16110 OLD GLENN HWY, Anchorage, AK, 99567",Match,Non_Exact,"16110 OLD GLENN HWY, CHUGIAK, AK, 99567",636132154,L,02,020,000102,4008,-149.51468,61.365382999999994
1802,16110 OLD GLENN HWY,Anchorage,AK,99567,"16110 OLD GLENN HWY, Anchorage, AK, 99567",Match,Non_Exact,"16110 OLD GLENN HWY, CHUGIAK, AK, 99567",636132154,L,02,020,000102,4008,-149.51468,61.365382999999994
1803,16110 OLD GLENN HWY,Anchorage,AK,99567,"16110 OLD GLENN HWY, Anchorage, AK, 99567",Match,Non_Exact,"16110 OLD GLENN HWY, CHUGIAK, AK, 99567",636132154,L,02,020,000102,4008,-149.51468,61.365382999999994
1804,16110 OLD GLENN HWY,Anchorage,AK,99567,"16110 OLD GLENN HWY, Anchorage, AK, 99567",Match,Non_Exact,"16110 OLD GLENN HWY, CHUGIAK, AK, 99567",636132154,L,02,020,000102,4008,-149.51468,61.365382999999994
1805,16110 OLD GLENN HWY,Anchorage,AK,99567,"16110 OLD GLENN HWY, Anchorage, AK, 99567",Match,Non_Exact,"16110 OLD GLENN HWY, CHUGIAK, AK, 99567",636132154,L,02,020,000102,4008,-149.51468,61.365382999999994
1806,16110 OLD GLENN HWY,Anchorage,AK,99567,"16110 OLD GLENN HWY, Anchorage, AK, 99567",Match,Non_Exact,"16110 OLD GLENN HWY, CHUGIAK, AK, 99567",636132154,L,02,020,000102,4008,-149.51468,61.365382999999994
1807,16110 OLD GLENN HWY,Anchorage,AK,99567,"16110 OLD GLENN HWY, Anchorage, AK, 99567",Match,Non_Exact,"16110 OLD GLENN HWY, CHUGIAK, AK, 99567",636132154,L,02,020,000102,4008,-149.51468,61.365382999999994
1808,16110 OLD GLENN HWY,Anchorage,AK,99567,"16110 OLD GLENN HWY, Anchorage, AK, 99567",Match,Non_Exact,"16110 OLD GLENN HWY, CHUGIAK, AK, 99567",636132154,L,02,020,000102,4008,-149.51468,61.365382999999994
1809,16110 OLD GLENN HWY,Anchorage,AK,99567,"16110 OLD GLENN HWY, Anchorage, AK, 99567",Match,Non_Exact,"16110 OLD GLENN HWY, CHUGIAK, AK, 99567",636132154,L,02,020,000102,4008,-149.51468,61.365382999999994
1810,16110 OLD GLENN HWY,Anchorage,AK,99567,"16110 OLD GLENN HWY, Anchorage, AK, 99567",Match,Non_Exact,"16110 OLD GLENN HWY, CHUGIAK, AK, 99567",636132154,L,02,020,000102,4008,-149.51468,61.365382999999994
1811,16110 OLD GLENN HWY,Anchorage,AK,99567,"16110 OLD GLENN HWY, Anchorage, AK, 99567",Match,Non_Exact,"16110 OLD GLENN HWY, CHUGIAK, AK, 99567",636132154,L,02,020,000102,4008,-149.51468,61.365382999999994
1812,16110 OLD GLENN HWY,Anchorage,AK,99567,"16110 OLD GLENN HWY, Anchorage, AK, 99567",Match,Non_Exact,"16110 OLD GLENN HWY, CHUGIAK, AK, 99567",636132154,L,02,020,000102,4008,-149.51468,61.365382999999994
1813,16110 OLD GLENN HWY,Anchorage,AK,99567,"16110 OLD GLENN HWY, Anchorage, AK, 99567",Match,Non_Exact,"16110 OLD GLENN HWY, CHUGIAK, AK, 99567",636132154,L,02,020,000102,4008,-149.51468,61.365382999999994
1814,20332 LAUGHLIN ST,Anchorage,AK,99567,"20332 LAUGHLIN ST, Anchorage, AK, 99567",Match,Non_Exact,"20332 LAUGHLIN ST, CHUGIAK, AK, 99567",645480005,R,02,020,000102,4002,-149.50447,61.368412
1815,20114 LAUGHLIN ST,Anchorage,AK,99567,"20114 LAUGHLIN ST, Anchorage, AK, 99567",Match,Non_Exact,"20114 LAUGHLIN ST, CHUGIAK, AK, 99567",645480005,R,02,020,000102,4002,-149.50812,61.368504
1816,20144 LAUGHLIN ST,Anchorage,AK,99567,"20144 LAUGHLIN ST, Anchorage, AK, 99567",Match,Non_Exact,"20144 LAUGHLIN ST, CHUGIAK, AK, 99567",645480005,R,02,020,000102,4002,-149.50761,61.36849599999999
1817,20040 LAUGHLIN ST,Anchorage,AK,99567,"20040 LAUGHLIN ST, Anchorage, AK, 99567",Match,Non_Exact,"20040 LAUGHLIN ST, CHUGIAK, AK, 99567",645480005,R,02,020,000102,4002,-149.50937,61.368526
1818,17922 HILLCREST DR,Anchorage,AK,99577,"17922 HILLCREST DR, Anchorage, AK, 99577",Match,Non_Exact,"17922 HILLCREST DR, EAGLE RIVER, AK, 99577",190819975,R,02,020,000102,1016,-149.54791,61.368446
1819,17922 HILLCREST DR,Anchorage,AK,99577,"17922 HILLCREST DR, Anchorage, AK, 99577",Match,Non_Exact,"17922 HILLCREST DR, EAGLE RIVER, AK, 99577",190819975,R,02,020,000102,1016,-149.54791,61.368446
1820,17922 HILLCREST DR,Anchorage,AK,99577,"17922 HILLCREST DR, Anchorage, AK, 99577",Match,Non_Exact,"17922 HILLCREST DR, EAGLE RIVER, AK, 99577",190819975,R,02,020,000102,1016,-149.54791,61.368446
1821,17922 HILLCREST DR,Anchorage,AK,99577,"17922 HILLCREST DR, Anchorage, AK, 99577",Match,Non_Exact,"17922 HILLCREST DR, EAGLE RIVER, AK, 99577",190819975,R,02,020,000102,1016,-149.54791,61.368446
1822,17940 HILLCREST DR,Anchorage,AK,99577,"17940 HILLCREST DR, Anchorage, AK, 99577",Match,Non_Exact,"17940 HILLCREST DR, EAGLE RIVER, AK, 99577",190819975,R,02,020,000102,1016,-149.54764,61.368446
1823,17722 HILLCREST DR,Anchorage,AK,99577,"17722 HILLCREST DR, Anchorage, AK, 99577",Match,Non_Exact,"17722 HILLCREST DR, EAGLE RIVER, AK, 99577",190826042,R,02,020,000102,1016,-149.55156000000002,61.36845
1824,17820 HILLCREST DR,Anchorage,AK,99577,"17820 HILLCREST DR, Anchorage, AK, 99577",Match,Non_Exact,"17820 HILLCREST DR, EAGLE RIVER, AK, 99577",190819975,R,02,020,000102,1016,-149.54946999999999,61.368446
1825,17820 HILLCREST DR,Anchorage,AK,99577,"17820 HILLCREST DR, Anchorage, AK, 99577",Match,Non_Exact,"17820 HILLCREST DR, EAGLE RIVER, AK, 99577",190819975,R,02,020,000102,1016,-149.54946999999999,61.368446
1826,17820 HILLCREST DR,Anchorage,AK,99577,"17820 HILLCREST DR, Anchorage, AK, 99577",Match,Non_Exact,"17820 HILLCREST DR, EAGLE RIVER, AK, 99577",190819975,R,02,020,000102,1016,-149.54946999999999,61.368446
1827,17820 HILLCREST DR,Anchorage,AK,99577,"17820 HILLCREST DR, Anchorage, AK, 99577",Match,Non_Exact,"17820 HILLCREST DR, EAGLE RIVER, AK, 99577",190819975,R,02,020,000102,1016,-149.54946999999999,61.368446
1828,18012 HILLCREST DR,Anchorage,AK,99577,"18012 HILLCREST DR, Anchorage, AK, 99577",Match,Non_Exact,"18012 HILLCREST DR, EAGLE RIVER, AK, 99577",625444299,R,02,020,000102,1017,-149.5462,61.368443000000006
1829,17842 HILLCREST DR,Anchorage,AK,99577,"17842 HILLCREST DR, Anchorage, AK, 99577",Match,Non_Exact,"17842 HILLCREST DR, EAGLE RIVER, AK, 99577",190819975,R,02,020,000102,1016,-149.54913,61.368446
1830,17636 HILLCREST DR,Anchorage,AK,99577,"17636 HILLCREST DR, Anchorage, AK, 99577",Match,Non_Exact,"17636 HILLCREST DR, EAGLE RIVER, AK, 99577",190826042,R,02,020,000102,1016,-149.55293,61.36845
1831,16330 OLD GLENN HWY,Anchorage,AK,99567,"16330 OLD GLENN HWY, Anchorage, AK, 99567",Match,Non_Exact,"16330 OLD GLENN HWY, CHUGIAK, AK, 99567",625420779,L,02,020,000102,4008,-149.51221999999999,61.367385999999996
1832,16327 FORD DR,Anchorage,AK,99577,"16327 FORD DR, Anchorage, AK, 99577",Match,Non_Exact,"16327 FORD DR, EAGLE RIVER, AK, 99577",190823247,R,02,020,000102,1016,-149.55168,61.367672
1833,16324 CARLISLE ST,Anchorage,AK,99577,"16324 CARLISLE ST, Anchorage, AK, 99577",Match,Non_Exact,"16324 CARLISLE ST, EAGLE RIVER, AK, 99577",190816273,L,02,020,000102,1019,-149.53914,61.3674
1834,16311 FORD DR,Anchorage,AK,99577,"16311 FORD DR, Anchorage, AK, 99577",Match,Non_Exact,"16311 FORD DR, EAGLE RIVER, AK, 99577",190823247,R,02,020,000102,1016,-149.55208000000002,61.367626
1835,16310 SHIMS ST,Anchorage,AK,99577,"16310 SHIMS ST, Anchorage, AK, 99577",Match,Non_Exact,"16310 SHIMS ST, EAGLE RIVER, AK, 99577",190792199,R,02,020,000102,1017,-149.54265,61.367630000000005
1836,16310 SHIMS ST,Anchorage,AK,99577,"16310 SHIMS ST, Anchorage, AK, 99577",Match,Non_Exact,"16310 SHIMS ST, EAGLE RIVER, AK, 99577",190792199,R,02,020,000102,1017,-149.54265,61.367630000000005
1837,16302 PARKSVILLE DR,Anchorage,AK,99567,"16302 PARKSVILLE DR, Anchorage, AK, 99567",No_Match,,,,,,,,,,
1838,16105 OLD GLENN HWY,Anchorage,AK,99567,"16105 OLD GLENN HWY, Anchorage, AK, 99567",Match,Non_Exact,"16105 OLD GLENN HWY, CHUGIAK, AK, 99567",636132154,R,02,020,000102,4002,-149.51411000000002,61.36589
1839,16038 DIVISION ST,Anchorage,AK,99567,"16038 DIVISION ST, Anchorage, AK, 99567",Match,Non_Exact,"16038 DIVISION ST, CHUGIAK, AK, 99567",190826043,R,02,020,000102,4002,-149.51022,61.365223
1840,16039 DIVISION ST,Anchorage,AK,99567,"16039 DIVISION ST, Anchorage, AK, 99567",Match,Non_Exact,"16039 DIVISION ST, CHUGIAK, AK, 99567",190826043,L,02,020,000102,4002,-149.51021,61.365230000000004
1841,16035 OLD GLENN HWY,Anchorage,AK,99567,"16035 OLD GLENN HWY, Anchorage, AK, 99567",Match,Non_Exact,"16035 OLD GLENN HWY, CHUGIAK, AK, 99567",636132154,R,02,020,000102,4002,-149.51462,61.365417
1842,16037 SHIMS ST,Anchorage,AK,99577,"16037 SHIMS ST, Anchorage, AK, 99577",Match,Non_Exact,"16037 SHIMS ST, EAGLE RIVER, AK, 99577",190792200,L,02,020,000102,1019,-149.54263,61.36525699999999
1843,16026 SHIMS ST,Anchorage,AK,99577,"16026 SHIMS ST, Anchorage, AK, 99577",Match,Non_Exact,"16026 SHIMS ST, EAGLE RIVER, AK, 99577",190792200,R,02,020,000102,1018,-149.54265,61.36518
1844,16022 DIVISION ST,Anchorage,AK,99567,"16022 DIVISION ST, Anchorage, AK, 99567",Match,Non_Exact,"16022 DIVISION ST, CHUGIAK, AK, 99567",190826043,R,02,020,000102,4002,-149.51023999999998,61.36510500000001
1845,16030 CLINE ST,Anchorage,AK,99577,"16030 CLINE ST, Anchorage, AK, 99577",Match,Non_Exact,"16030 CLINE ST, EAGLE RIVER, AK, 99577",190792173,L,02,020,000102,1016,-149.55011000000002,61.365196
1846,16000 S BIRCHWOOD LOOP RD,Anchorage,AK,99577,"16000 S BIRCHWOOD LOOP RD, Anchorage, AK, 99577",No_Match,,,,,,,,,,
1847,16016 OLD GLENN HWY,Anchorage,AK,99567,"16016 OLD GLENN HWY, Anchorage, AK, 99567",Match,Non_Exact,"16016 OLD GLENN HWY, CHUGIAK, AK, 99567",636132154,L,02,020,000102,4008,-149.51526,61.364803
1848,16017 DIVISION ST,Anchorage,AK,99567,"16017 DIVISION ST, Anchorage, AK, 99567",Match,Non_Exact,"16017 DIVISION ST, CHUGIAK, AK, 99567",190826043,L,02,020,000102,4002,-149.51021,61.365063
1849,19822 GILBERT RD,Anchorage,AK,99567,"19822 GILBERT RD, Anchorage, AK, 99567",Match,Non_Exact,"19822 GILBERT RD, CHUGIAK, AK, 99567",625421011,R,02,020,000102,4002,-149.51215,61.364952
1850,16011 SHIMS ST,Anchorage,AK,99577,"16011 SHIMS ST, Anchorage, AK, 99577",Match,Non_Exact,"16011 SHIMS ST, EAGLE RIVER, AK, 99577",190792200,L,02,020,000102,1019,-149.54263,61.36506
1851,16013 PARKSVILLE DR,Anchorage,AK,99567,"16013 PARKSVILLE DR, Anchorage, AK, 99567",Match,Non_Exact,"16013 PARKSVILLE DR, CHUGIAK, AK, 99567",190813944,L,02,020,000102,4002,-149.50464,61.36524
1852,16008 DIVISION ST,Anchorage,AK,99567,"16008 DIVISION ST, Anchorage, AK, 99567",Match,Non_Exact,"16008 DIVISION ST, CHUGIAK, AK, 99567",190826043,R,02,020,000102,4002,-149.51023999999998,61.365
1853,19842 GILBERT RD,Anchorage,AK,99567,"19842 GILBERT RD, Anchorage, AK, 99567",Match,Non_Exact,"19842 GILBERT RD, CHUGIAK, AK, 99567",625421011,R,02,020,000102,4002,-149.51253,61.365055000000005
1854,20153 DONELAR ST,Anchorage,AK,99567,"20153 DONELAR ST, Anchorage, AK, 99567",Match,Non_Exact,"20153 DONELAR ST, CHUGIAK, AK, 99567",190813943,L,02,020,000102,4002,-149.50842,61.36479
1855,20133 DONELAR ST,Anchorage,AK,99567,"20133 DONELAR ST, Anchorage, AK, 99567",Match,Non_Exact,"20133 DONELAR ST, CHUGIAK, AK, 99567",190813943,L,02,020,000102,4002,-149.50862,61.36479
1856,20027 DONELAR ST,Anchorage,AK,99567,"20027 DONELAR ST, Anchorage, AK, 99567",Match,Non_Exact,"20027 DONELAR ST, CHUGIAK, AK, 99567",190813943,L,02,020,000102,4002,-149.50968999999998,61.3648
1857,20111 DONELAR ST,Anchorage,AK,99567,"20111 DONELAR ST, Anchorage, AK, 99567",Match,Non_Exact,"20111 DONELAR ST, CHUGIAK, AK, 99567",190813943,L,02,020,000102,4002,-149.50885,61.36479
1858,17643 PIONEER DR,Anchorage,AK,99577,"17643 PIONEER DR, Anchorage, AK, 99577",Match,Non_Exact,"17643 PIONEER DR, EAGLE RIVER, AK, 99577",190811042,R,02,020,000102,1016,-149.5504,61.36485699999999
1859,18319 PIONEER DR,Anchorage,AK,99577,"18319 PIONEER DR, Anchorage, AK, 99577",Match,Non_Exact,"18319 PIONEER DR, EAGLE RIVER, AK, 99577",190816272,L,02,020,000102,1019,-149.54181,61.36484
1860,18035 PIONEER DR,Anchorage,AK,99577,"18035 PIONEER DR, Anchorage, AK, 99577",Match,Non_Exact,"18035 PIONEER DR, EAGLE RIVER, AK, 99577",190825434,L,02,020,000102,1018,-149.54501000000002,61.364844999999995
1861,17937 PIONEER DR,Anchorage,AK,99577,"17937 PIONEER DR, Anchorage, AK, 99577",Match,Non_Exact,"17937 PIONEER DR, EAGLE RIVER, AK, 99577",190809897,L,02,020,000102,1018,-149.54768,61.36485
1862,18015 PIONEER DR,Anchorage,AK,99577,"18015 PIONEER DR, Anchorage, AK, 99577",Match,Non_Exact,"18015 PIONEER DR, EAGLE RIVER, AK, 99577",190825434,L,02,020,000102,1018,-149.54565,61.364844999999995
1863,17913 PIONEER DR,Anchorage,AK,99577,"17913 PIONEER DR, Anchorage, AK, 99577",Match,Non_Exact,"17913 PIONEER DR, EAGLE RIVER, AK, 99577",190809897,L,02,020,000102,1018,-149.54807,61.36485
1864,17839 PIONEER DR,Anchorage,AK,99577,"17839 PIONEER DR, Anchorage, AK, 99577",Match,Non_Exact,"17839 PIONEER DR, EAGLE RIVER, AK, 99577",190809897,L,02,020,000102,1018,-149.54921000000002,61.364853000000004
1865,17815 PIONEER DR,Anchorage,AK,99577,"17815 PIONEER DR, Anchorage, AK, 99577",Match,Non_Exact,"17815 PIONEER DR, EAGLE RIVER, AK, 99577",190809897,L,02,020,000102,1018,-149.54959,61.364853000000004
1866,20210 DONELAR ST,Anchorage,AK,99567,"20210 DONELAR ST, Anchorage, AK, 99567",Match,Non_Exact,"20210 DONELAR ST, CHUGIAK, AK, 99567",190813943,R,02,020,000102,4002,-149.50784,61.36478
1867,20100 DONELAR ST,Anchorage,AK,99567,"20100 DONELAR ST, Anchorage, AK, 99567",Match,Non_Exact,"20100 DONELAR ST, CHUGIAK, AK, 99567",190813943,R,02,020,000102,4002,-149.50894,61.36478
1868,17932 PIONEER DR,Anchorage,AK,99577,"17932 PIONEER DR, Anchorage, AK, 99577",No_Match,,,,,,,,,,
1869,16252 OLD GLENN HWY,Anchorage,AK,99567,"16252 OLD GLENN HWY, Anchorage, AK, 99567",Match,Non_Exact,"16252 OLD GLENN HWY, CHUGIAK, AK, 99567",625420779,L,02,020,000102,4008,-149.51283,61.36696
1870,16235 OLD GLENN HWY,Anchorage,AK,99567,"16235 OLD GLENN HWY, Anchorage, AK, 99567",Match,Non_Exact,"16235 OLD GLENN HWY, CHUGIAK, AK, 99567",625420779,R,02,020,000102,4002,-149.51221999999999,61.367367
1871,16241 PARKSVILLE DR,Anchorage,AK,99567,"16241 PARKSVILLE DR, Anchorage, AK, 99567",Match,Non_Exact,"16241 PARKSVILLE DR, CHUGIAK, AK, 99567",190813944,L,02,020,000102,4002,-149.50339,61.367573
1872,16240 SHIMS ST,Anchorage,AK,99577,"16240 SHIMS ST, Anchorage, AK, 99577",Match,Non_Exact,"16240 SHIMS ST, EAGLE RIVER, AK, 99577",190792199,R,02,020,000102,1017,-149.54265,61.367096
1873,16240 PARKSVILLE DR,Anchorage,AK,99567,"16240 PARKSVILLE DR, Anchorage, AK, 99567",Match,Non_Exact,"16240 PARKSVILLE DR, CHUGIAK, AK, 99567",190813944,R,02,020,000102,4002,-149.5034,61.367580000000004
1874,16232 CLINE ST,Anchorage,AK,99577,"16232 CLINE ST, Anchorage, AK, 99577",Match,Non_Exact,"16232 CLINE ST, EAGLE RIVER, AK, 99577",190823251,L,02,020,000102,1016,-149.55008,61.36773
1875,16232 CLINE ST,Anchorage,AK,99577,"16232 CLINE ST, Anchorage, AK, 99577",Match,Non_Exact,"16232 CLINE ST, EAGLE RIVER, AK, 99577",190823251,L,02,020,000102,1016,-149.55008,61.36773
1876,16232 CLINE ST,Anchorage,AK,99577,"16232 CLINE ST, Anchorage, AK, 99577",Match,Non_Exact,"16232 CLINE ST, EAGLE RIVER, AK, 99577",190823251,L,02,020,000102,1016,-149.55008,61.36773
1877,16232 CLINE ST,Anchorage,AK,99577,"16232 CLINE ST, Anchorage, AK, 99577",Match,Non_Exact,"16232 CLINE ST, EAGLE RIVER, AK, 99577",190823251,L,02,020,000102,1016,-149.55008,61.36773
1878,16232 CLINE ST,Anchorage,AK,99577,"16232 CLINE ST, Anchorage, AK, 99577",Match,Non_Exact,"16232 CLINE ST, EAGLE RIVER, AK, 99577",190823251,L,02,020,000102,1016,-149.55008,61.36773
1879,16232 CLINE ST,Anchorage,AK,99577,"16232 CLINE ST, Anchorage, AK, 99577",Match,Non_Exact,"16232 CLINE ST, EAGLE RIVER, AK, 99577",190823251,L,02,020,000102,1016,-149.55008,61.36773
1880,16232 CLINE ST,Anchorage,AK,99577,"16232 CLINE ST, Anchorage, AK, 99577",Match,Non_Exact,"16232 CLINE ST, EAGLE RIVER, AK, 99577",190823251,L,02,020,000102,1016,-149.55008,61.36773
1881,19439 BEVERLY AVE,Anchorage,AK,99567,"19439 BEVERLY AVE, Anchorage, AK, 99567",Match,Non_Exact,"19439 BEVERLY AVE, CHUGIAK, AK, 99567",190819974,L,02,020,000102,2014,-149.52136000000002,61.38827
1882,19439 BEVERLY AVE,Anchorage,AK,99567,"19439 BEVERLY AVE, Anchorage, AK, 99567",Match,Non_Exact,"19439 BEVERLY AVE, CHUGIAK, AK, 99567",190819974,L,02,020,000102,2014,-149.52136000000002,61.38827
1883,19415 BEVERLY AVE,Anchorage,AK,99567,"19415 BEVERLY AVE, Anchorage, AK, 99567",Match,Non_Exact,"19415 BEVERLY AVE, CHUGIAK, AK, 99567",190819974,L,02,020,000102,2014,-149.52165,61.38827
1884,19415 BEVERLY AVE,Anchorage,AK,99567,"19415 BEVERLY AVE, Anchorage, AK, 99567",Match,Non_Exact,"19415 BEVERLY AVE, CHUGIAK, AK, 99567",190819974,L,02,020,000102,2014,-149.52165,61.38827
1885,19528 BEVERLY AVE,Anchorage,AK,99567,"19528 BEVERLY AVE, Anchorage, AK, 99567",Match,Non_Exact,"19528 BEVERLY AVE, CHUGIAK, AK, 99567",190819974,R,02,020,000102,2014,-149.52018999999999,61.388259999999995
1886,19412 BEVERLY AVE,Anchorage,AK,99567,"19412 BEVERLY AVE, Anchorage, AK, 99567",Match,Non_Exact,"19412 BEVERLY AVE, CHUGIAK, AK, 99567",190819974,R,02,020,000102,2014,-149.52141,61.388259999999995
1887,19336 BEVERLY AVE,Anchorage,AK,99567,"19336 BEVERLY AVE, Anchorage, AK, 99567",Match,Non_Exact,"19336 BEVERLY AVE, CHUGIAK, AK, 99567",190819974,R,02,020,000102,2014,-149.5222,61.388259999999995
1888,19444 BEVERLY AVE,Anchorage,AK,99567,"19444 BEVERLY AVE, Anchorage, AK, 99567",Match,Non_Exact,"19444 BEVERLY AVE, CHUGIAK, AK, 99567",190819974,R,02,020,000102,2014,-149.52107,61.388259999999995
1889,18581 BEACH LAKE RD,Anchorage,AK,99567,"18581 BEACH LAKE RD, Anchorage, AK, 99567",No_Match,,,,,,,,,,
1890,18681 MINK CREEK DR,Anchorage,AK,99567,"18681 MINK CREEK DR, Anchorage, AK, 99567",Match,Non_Exact,"18681 MINK CREEK DR, CHUGIAK, AK, 99567",190792186,L,02,020,000102,1015,-149.53447,61.38466
1891,19507 RICHNER RD,Anchorage,AK,99567,"19507 RICHNER RD, Anchorage, AK, 99567",Match,Non_Exact,"19507 RICHNER RD, CHUGIAK, AK, 99567",190792304,L,02,020,000102,2014,-149.52097,61.386467
1892,19507 RICHNER RD,Anchorage,AK,99567,"19507 RICHNER RD, Anchorage, AK, 99567",Match,Non_Exact,"19507 RICHNER RD, CHUGIAK, AK, 99567",190792304,L,02,020,000102,2014,-149.52097,61.386467
1893,19041 RICHNER RD,Anchorage,AK,99567,"19041 RICHNER RD, Anchorage, AK, 99567",Match,Non_Exact,"19041 RICHNER RD, CHUGIAK, AK, 99567",190791952,R,02,020,000102,1012,-149.53033,61.386463
1894,19013 RICHNER RD,Anchorage,AK,99567,"19013 RICHNER RD, Anchorage, AK, 99567",Match,Non_Exact,"19013 RICHNER RD, CHUGIAK, AK, 99567",190791952,R,02,020,000102,1012,-149.53104,61.386463
1895,19036 RICHNER RD,Anchorage,AK,99567,"19036 RICHNER RD, Anchorage, AK, 99567",Match,Non_Exact,"19036 RICHNER RD, CHUGIAK, AK, 99567",190791952,L,02,020,000102,1014,-149.52907,61.38645
1896,18924 RICHNER RD,Anchorage,AK,99567,"18924 RICHNER RD, Anchorage, AK, 99567",Match,Non_Exact,"18924 RICHNER RD, CHUGIAK, AK, 99567",190791952,L,02,020,000102,1014,-149.53094,61.38645
1897,18340 BIRCHTREE ST,Anchorage,AK,99567,"18340 BIRCHTREE ST, Anchorage, AK, 99567",Match,Non_Exact,"18340 BIRCHTREE ST, CHUGIAK, AK, 99567",190792185,L,02,020,000102,1015,-149.533,61.385536
1898,18325 BIRCHTREE ST,Anchorage,AK,99567,"18325 BIRCHTREE ST, Anchorage, AK, 99567",Match,Non_Exact,"18325 BIRCHTREE ST, CHUGIAK, AK, 99567",190792185,R,02,020,000102,1015,-149.53298999999998,61.38545
1899,18306 BIRCHTREE ST,Anchorage,AK,99567,"18306 BIRCHTREE ST, Anchorage, AK, 99567",Match,Non_Exact,"18306 BIRCHTREE ST, CHUGIAK, AK, 99567",190792185,L,02,020,000102,1015,-149.533,61.385344999999994
1900,18671 MINK CREEK DR,Anchorage,AK,99567,"18671 MINK CREEK DR, Anchorage, AK, 99567",Match,Non_Exact,"18671 MINK CREEK DR, CHUGIAK, AK, 99567",190792186,L,02,020,000102,1015,-149.53458,61.384663
1901,18236 WERRE ST,Anchorage,AK,99567,"18236 WERRE ST, Anchorage, AK, 99567",Match,Non_Exact,"18236 WERRE ST, CHUGIAK, AK, 99567",639714512,R,02,020,000102,2021,-149.52539,61.38506999999999
1902,18238 BIRCHTREE ST,Anchorage,AK,99567,"18238 BIRCHTREE ST, Anchorage, AK, 99567",Match,Non_Exact,"18238 BIRCHTREE ST, CHUGIAK, AK, 99567",190792185,L,02,020,000102,1015,-149.533,61.38496800000001
1903,18232 S BIRCHWOOD LOOP RD,Anchorage,AK,99567,"18232 S BIRCHWOOD LOOP RD, Anchorage, AK, 99567",Match,Non_Exact,"18232 BIRCHWOOD LOOP RD, CHUGIAK, AK, 99567",190807401,R,02,020,000102,1014,-149.528,61.38523000000001
1904,18232 S BIRCHWOOD LOOP RD,Anchorage,AK,99567,"18232 S BIRCHWOOD LOOP RD, Anchorage, AK, 99567",Match,Non_Exact,"18232 BIRCHWOOD LOOP RD, CHUGIAK, AK, 99567",190807401,R,02,020,000102,1014,-149.528,61.38523000000001
1905,18222 WERRE ST,Anchorage,AK,99567,"18222 WERRE ST, Anchorage, AK, 99567",Match,Non_Exact,"18222 WERRE ST, CHUGIAK, AK, 99567",639714512,R,02,020,000102,2021,-149.52539,61.384964000000004
1906,18220 BIRCHTREE ST,Anchorage,AK,99567,"18220 BIRCHTREE ST, Anchorage, AK, 99567",Match,Non_Exact,"18220 BIRCHTREE ST, CHUGIAK, AK, 99567",190792185,L,02,020,000102,1015,-149.533,61.38486999999999
1907,18661 MINK CREEK DR,Anchorage,AK,99567,"18661 MINK CREEK DR, Anchorage, AK, 99567",Match,Non_Exact,"18661 MINK CREEK DR, CHUGIAK, AK, 99567",190792186,L,02,020,000102,1015,-149.53468,61.384663
1908,18525 MINK CREEK DR,Anchorage,AK,99567,"18525 MINK CREEK DR, Anchorage, AK, 99567",Match,Non_Exact,"18525 MINK CREEK DR, CHUGIAK, AK, 99567",190792186,L,02,020,000102,1015,-149.53606000000002,61.384666
1909,18534 MINK CREEK DR,Anchorage,AK,99567,"18534 MINK CREEK DR, Anchorage, AK, 99567",Match,Non_Exact,"18534 MINK CREEK DR, CHUGIAK, AK, 99567",190792186,R,02,020,000102,1015,-149.53595,61.384655
1910,18626 MINK CREEK DR,Anchorage,AK,99567,"18626 MINK CREEK DR, Anchorage, AK, 99567",Match,Non_Exact,"18626 MINK CREEK DR, CHUGIAK, AK, 99567",190792186,R,02,020,000102,1015,-149.53502,61.38465
1911,18714 MINK CREEK DR,Anchorage,AK,99567,"18714 MINK CREEK DR, Anchorage, AK, 99567",Match,Non_Exact,"18714 MINK CREEK DR, CHUGIAK, AK, 99567",190792186,R,02,020,000102,1015,-149.53413,61.384646999999994
1912,18714 MINK CREEK DR,Anchorage,AK,99567,"18714 MINK CREEK DR, Anchorage, AK, 99567",Match,Non_Exact,"18714 MINK CREEK DR, CHUGIAK, AK, 99567",190792186,R,02,020,000102,1015,-149.53413,61.384646999999994
1913,19561 KLONDIKE DR,Anchorage,AK,99567,"19561 KLONDIKE DR, Anchorage, AK, 99567",Match,Non_Exact,"19561 KLONDIKE DR, CHUGIAK, AK, 99567",190807637,L,02,020,000102,2021,-149.51833,61.38293
1914,18140 WERRE ST,Anchorage,AK,99567,"18140 WERRE ST, Anchorage, AK, 99567",Match,Non_Exact,"18140 WERRE ST, CHUGIAK, AK, 99567",614864799,R,02,020,000102,2021,-149.52534,61.384167000000005
1915,17161 DAVID BLACKBURN RD,Anchorage,AK,99567,"17161 DAVID BLACKBURN RD, Anchorage, AK, 99567",Match,Non_Exact,"17161 DAVID BLACKBURN RD, CHUGIAK, AK, 99567",605186323,R,02,020,000102,1002,-149.55829,61.386
1916,18112 WERRE ST,Anchorage,AK,99567,"18112 WERRE ST, Anchorage, AK, 99567",Match,Non_Exact,"18112 WERRE ST, CHUGIAK, AK, 99567",614864799,R,02,020,000102,2021,-149.52534,61.384094
1917,18111 S BIRCHWOOD LOOP RD,Anchorage,AK,99567,"18111 S BIRCHWOOD LOOP RD, Anchorage, AK, 99567",Match,Non_Exact,"18111 BIRCHWOOD LOOP RD, CHUGIAK, AK, 99567",190792288,L,02,020,000102,2021,-149.52975,61.384167000000005
1918,19551 KLONDIKE DR,Anchorage,AK,99567,"19551 KLONDIKE DR, Anchorage, AK, 99567",Match,Non_Exact,"19551 KLONDIKE DR, CHUGIAK, AK, 99567",190792314,L,02,020,000102,2024,-149.51878,61.382626
1919,18126 BIRCHTREE ST,Anchorage,AK,99567,"18126 BIRCHTREE ST, Anchorage, AK, 99567",Match,Non_Exact,"18126 BIRCHTREE ST, CHUGIAK, AK, 99567",190813926,R,02,020,000102,1015,-149.533,61.384308
1920,18546 MINK CREEK DR,Anchorage,AK,99567,"18546 MINK CREEK DR, Anchorage, AK, 99567",Match,Non_Exact,"18546 MINK CREEK DR, CHUGIAK, AK, 99567",190792186,R,02,020,000102,1015,-149.53583,61.384655
1921,18035 S BIRCHWOOD LOOP RD,Anchorage,AK,99567,"18035 S BIRCHWOOD LOOP RD, Anchorage, AK, 99567",Match,Non_Exact,"18035 BIRCHWOOD LOOP RD, CHUGIAK, AK, 99567",190792288,L,02,020,000102,2021,-149.53101999999998,61.38338
1922,18024 BIRCHTREE ST,Anchorage,AK,99567,"18024 BIRCHTREE ST, Anchorage, AK, 99567",Match,Non_Exact,"18024 BIRCHTREE ST, CHUGIAK, AK, 99567",190813926,R,02,020,000102,1015,-149.533,61.383922999999996
1923,18036 S BIRCHWOOD LOOP RD,Anchorage,AK,99567,"18036 S BIRCHWOOD LOOP RD, Anchorage, AK, 99567",Match,Non_Exact,"18036 BIRCHWOOD LOOP RD, CHUGIAK, AK, 99567",190826026,R,02,020,000102,1015,-149.53305,61.38234
1924,19535 SPRUCE CREST DR,Anchorage,AK,99567,"19535 SPRUCE CREST DR, Anchorage, AK, 99567",Match,Non_Exact,"19535 SPRUCE CREST DR, CHUGIAK, AK, 99567",190807638,L,02,020,000102,2021,-149.51996,61.382854
1925,18012 S BIRCHWOOD LOOP RD,Anchorage,AK,99567,"18012 S BIRCHWOOD LOOP RD, Anchorage, AK, 99567",Match,Non_Exact,"18012 BIRCHWOOD LOOP RD, CHUGIAK, AK, 99567",190826026,R,02,020,000102,1015,-149.53342,61.382126
1926,19039 SPRUCE CREST DR,Anchorage,AK,99567,"19039 SPRUCE CREST DR, Anchorage, AK, 99567",Match,Non_Exact,"19039 SPRUCE CREST DR, CHUGIAK, AK, 99567",190792302,R,02,020,000102,2021,-149.52882,61.38289
1927,19037 SPRUCE CREST DR,Anchorage,AK,99567,"19037 SPRUCE CREST DR, Anchorage, AK, 99567",Match,Non_Exact,"19037 SPRUCE CREST DR, CHUGIAK, AK, 99567",190792302,R,02,020,000102,2021,-149.52885,61.38289
1928,18939 SPRUCE CREST DR,Anchorage,AK,99567,"18939 SPRUCE CREST DR, Anchorage, AK, 99567",Match,Non_Exact,"18939 SPRUCE CREST DR, CHUGIAK, AK, 99567",190792302,R,02,020,000102,2021,-149.53062,61.382895999999995
1929,19413 SPRUCE CREST DR,Anchorage,AK,99567,"19413 SPRUCE CREST DR, Anchorage, AK, 99567",Match,Non_Exact,"19413 SPRUCE CREST DR, CHUGIAK, AK, 99567",190807638,L,02,020,000102,2021,-149.52176,61.38286
1930,19317 SPRUCE CREST DR,Anchorage,AK,99567,"19317 SPRUCE CREST DR, Anchorage, AK, 99567",Match,Non_Exact,"19317 SPRUCE CREST DR, CHUGIAK, AK, 99567",190807638,L,02,020,000102,2021,-149.52318,61.382862
1931,19515 SPRUCE CREST DR,Anchorage,AK,99567,"19515 SPRUCE CREST DR, Anchorage, AK, 99567",Match,Non_Exact,"19515 SPRUCE CREST DR, CHUGIAK, AK, 99567",190807638,L,02,020,000102,2021,-149.52025,61.382854
1932,19337 SPRUCE CREST DR,Anchorage,AK,99567,"19337 SPRUCE CREST DR, Anchorage, AK, 99567",Match,Non_Exact,"19337 SPRUCE CREST DR, CHUGIAK, AK, 99567",190807638,L,02,020,000102,2021,-149.52286999999998,61.382862
1933,19439 SPRUCE CREST DR,Anchorage,AK,99567,"19439 SPRUCE CREST DR, Anchorage, AK, 99567",Match,Non_Exact,"19439 SPRUCE CREST DR, CHUGIAK, AK, 99567",190807638,L,02,020,000102,2021,-149.52138,61.38286
1934,19213 SPRUCE CREST DR,Anchorage,AK,99567,"19213 SPRUCE CREST DR, Anchorage, AK, 99567",Match,Non_Exact,"19213 SPRUCE CREST DR, CHUGIAK, AK, 99567",190807638,L,02,020,000102,2021,-149.5247,61.38287
1935,21698 CANYON DR,Anchorage,AK,99567,"21698 CANYON DR, Anchorage, AK, 99567",No_Match,,,,,,,,,,
1936,17926 HOLLOW ST,Anchorage,AK,99567,"17926 HOLLOW ST, Anchorage, AK, 99567",Match,Non_Exact,"17926 HOLLOW ST, CHUGIAK, AK, 99567",190814042,R,02,020,000102,3018,-149.48125,61.381744
1937,21405 RAINBOW CIR,Anchorage,AK,99567,"21405 RAINBOW CIR, Anchorage, AK, 99567",Match,Non_Exact,"21405 RAINBOW CIR, CHUGIAK, AK, 99567",190814043,R,02,020,000102,3018,-149.48256,61.381813
1938,21399 RAINBOW CIR,Anchorage,AK,99567,"21399 RAINBOW CIR, Anchorage, AK, 99567",Match,Non_Exact,"21399 RAINBOW CIR, CHUGIAK, AK, 99567",190814043,R,02,020,000102,3018,-149.48247,61.381824
1939,17814 HOLLOW ST,Anchorage,AK,99567,"17814 HOLLOW ST, Anchorage, AK, 99567",Match,Non_Exact,"17814 HOLLOW ST, CHUGIAK, AK, 99567",190814042,R,02,020,000102,3018,-149.48164,61.380917000000004
1940,17507 OLD GLENN HWY,Anchorage,AK,99567,"17507 OLD GLENN HWY, Anchorage, AK, 99567",No_Match,,,,,,,,,,
1941,19312 SPRUCE CREST DR,Anchorage,AK,99567,"19312 SPRUCE CREST DR, Anchorage, AK, 99567",Match,Non_Exact,"19312 SPRUCE CREST DR, CHUGIAK, AK, 99567",190807638,R,02,020,000102,2024,-149.52322,61.382854
1942,19244 SPRUCE CREST DR,Anchorage,AK,99567,"19244 SPRUCE CREST DR, Anchorage, AK, 99567",Match,Non_Exact,"19244 SPRUCE CREST DR, CHUGIAK, AK, 99567",190807638,R,02,020,000102,2024,-149.52423000000002,61.382854
1943,19150 SPRUCE CREST DR,Anchorage,AK,99567,"19150 SPRUCE CREST DR, Anchorage, AK, 99567",Match,Non_Exact,"19150 SPRUCE CREST DR, CHUGIAK, AK, 99567",190792302,L,02,020,000102,2025,-149.52681,61.382866
1944,18920 SPRUCE CREST DR,Anchorage,AK,99567,"18920 SPRUCE CREST DR, Anchorage, AK, 99567",Match,Non_Exact,"18920 SPRUCE CREST DR, CHUGIAK, AK, 99567",190792302,L,02,020,000102,2025,-149.53094,61.38289
1945,19032 SPRUCE CREST DR,Anchorage,AK,99567,"19032 SPRUCE CREST DR, Anchorage, AK, 99567",Match,Non_Exact,"19032 SPRUCE CREST DR, CHUGIAK, AK, 99567",190792302,L,02,020,000102,2025,-149.52893,61.382877
1946,19511 KLONDIKE DR,Anchorage,AK,99567,"19511 KLONDIKE DR, Anchorage, AK, 99567",Match,Non_Exact,"19511 KLONDIKE DR, CHUGIAK, AK, 99567",190792314,L,02,020,000102,2024,-149.51935,61.38224
1947,19511 KLONDIKE DR,Anchorage,AK,99567,"19511 KLONDIKE DR, Anchorage, AK, 99567",Match,Non_Exact,"19511 KLONDIKE DR, CHUGIAK, AK, 99567",190792314,L,02,020,000102,2024,-149.51935,61.38224
1948,19037 MONASTERY DR,Anchorage,AK,99577,"19037 MONASTERY DR, Anchorage, AK, 99577",Match,Non_Exact,"19037 MONASTERY DR, EAGLE RIVER, AK, 99577",190792333,R,02,020,000102,4006,-149.52832,61.361219999999996
1949,19037 MONASTERY DR,Anchorage,AK,99577,"19037 MONASTERY DR, Anchorage, AK, 99577",Match,Non_Exact,"19037 MONASTERY DR, EAGLE RIVER, AK, 99577",190792333,R,02,020,000102,4006,-149.52832,61.361219999999996
1950,17911 ALMDALE AVE,Anchorage,AK,99577,"17911 ALMDALE AVE, Anchorage, AK, 99577",No_Match,,,,,,,,,,
1951,17641 ALMDALE AVE,Anchorage,AK,99577,"17641 ALMDALE AVE, Anchorage, AK, 99577",Match,Non_Exact,"17641 ALMDALE AVE, EAGLE RIVER, AK, 99577",190823253,L,02,020,000102,1016,-149.5517,61.361263
1952,19042 MONASTERY DR,Anchorage,AK,99577,"19042 MONASTERY DR, Anchorage, AK, 99577",Match,Non_Exact,"19042 MONASTERY DR, EAGLE RIVER, AK, 99577",190792333,L,02,020,000102,4006,-149.52823999999998,61.36121
1953,19042 MONASTERY DR,Anchorage,AK,99577,"19042 MONASTERY DR, Anchorage, AK, 99577",Match,Non_Exact,"19042 MONASTERY DR, EAGLE RIVER, AK, 99577",190792333,L,02,020,000102,4006,-149.52823999999998,61.36121
1954,19216 MONASTERY DR,Anchorage,AK,99577,"19216 MONASTERY DR, Anchorage, AK, 99577",Match,Non_Exact,"19216 MONASTERY DR, EAGLE RIVER, AK, 99577",190826840,L,02,020,000102,4006,-149.5237,61.361206
1955,19216 MONASTERY DR,Anchorage,AK,99577,"19216 MONASTERY DR, Anchorage, AK, 99577",Match,Non_Exact,"19216 MONASTERY DR, EAGLE RIVER, AK, 99577",190826840,L,02,020,000102,4006,-149.5237,61.361206
1956,19126 MONASTERY DR,Anchorage,AK,99577,"19126 MONASTERY DR, Anchorage, AK, 99577",Match,Non_Exact,"19126 MONASTERY DR, EAGLE RIVER, AK, 99577",190826840,L,02,020,000102,4006,-149.52573,61.36121
1957,19106 MONASTERY DR,Anchorage,AK,99577,"19106 MONASTERY DR, Anchorage, AK, 99577",Match,Non_Exact,"19106 MONASTERY DR, EAGLE RIVER, AK, 99577",190792333,L,02,020,000102,4006,-149.52727,61.36121
1958,19240 MONASTERY DR,Anchorage,AK,99577,"19240 MONASTERY DR, Anchorage, AK, 99577",Match,Non_Exact,"19240 MONASTERY DR, EAGLE RIVER, AK, 99577",190826840,L,02,020,000102,4006,-149.52315,61.361202
1959,19240 MONASTERY DR,Anchorage,AK,99577,"19240 MONASTERY DR, Anchorage, AK, 99577",Match,Non_Exact,"19240 MONASTERY DR, EAGLE RIVER, AK, 99577",190826840,L,02,020,000102,4006,-149.52315,61.361202
1960,18844 MONASTERY DR,Anchorage,AK,99577,"18844 MONASTERY DR, Anchorage, AK, 99577",Match,Non_Exact,"18844 MONASTERY DR, EAGLE RIVER, AK, 99577",190792333,L,02,020,000102,4006,-149.53125,61.361214000000004
1961,19118 MONASTERY DR,Anchorage,AK,99577,"19118 MONASTERY DR, Anchorage, AK, 99577",Match,Non_Exact,"19118 MONASTERY DR, EAGLE RIVER, AK, 99577",190826840,L,02,020,000102,4006,-149.52591,61.36121
1962,17926 ALMDALE AVE,Anchorage,AK,99577,"17926 ALMDALE AVE, Anchorage, AK, 99577",Match,Non_Exact,"17926 ALMDALE AVE, EAGLE RIVER, AK, 99577",190792220,R,02,020,000102,1020,-149.54783999999998,61.361247999999996
1963,17838 ALMDALE AVE,Anchorage,AK,99577,"17838 ALMDALE AVE, Anchorage, AK, 99577",Match,Non_Exact,"17838 ALMDALE AVE, EAGLE RIVER, AK, 99577",190792220,R,02,020,000102,1020,-149.54924,61.36125
1964,17634 ALMDALE AVE,Anchorage,AK,99577,"17634 ALMDALE AVE, Anchorage, AK, 99577",Match,Non_Exact,"17634 ALMDALE AVE, EAGLE RIVER, AK, 99577",190823253,R,02,020,000102,1016,-149.553,61.361256000000004
1965,15536 HUSKY ST,Anchorage,AK,99577,"15536 HUSKY ST, Anchorage, AK, 99577",Match,Non_Exact,"15536 HUSKY ST, EAGLE RIVER, AK, 99577",190807584,L,02,020,000102,1016,-149.55016,61.360634
1966,18735 MONASTERY DR,Anchorage,AK,99577,"18735 MONASTERY DR, Anchorage, AK, 99577",Match,Non_Exact,"18735 MONASTERY DR, EAGLE RIVER, AK, 99577",190792333,R,02,020,000102,4006,-149.53264,61.360847
1967,18741 MONASTERY DR,Anchorage,AK,99577,"18741 MONASTERY DR, Anchorage, AK, 99577",Match,Non_Exact,"18741 MONASTERY DR, EAGLE RIVER, AK, 99577",190792333,R,02,020,000102,4006,-149.53258,61.36088
1968,18739 MONASTERY DR,Anchorage,AK,99577,"18739 MONASTERY DR, Anchorage, AK, 99577",Match,Non_Exact,"18739 MONASTERY DR, EAGLE RIVER, AK, 99577",190792333,R,02,020,000102,4006,-149.5326,61.36087
1969,15524 OLD GLENN HWY,Anchorage,AK,99577,"15524 OLD GLENN HWY, Anchorage, AK, 99577",Match,Non_Exact,"15524 OLD GLENN HWY, EAGLE RIVER, AK, 99577",190826841,L,02,020,000102,4006,-149.52026,61.360409999999995
1970,15512 HUSKY ST,Anchorage,AK,99577,"15512 HUSKY ST, Anchorage, AK, 99577",Match,Non_Exact,"15512 HUSKY ST, EAGLE RIVER, AK, 99577",190807584,L,02,020,000102,1016,-149.55016,61.36045
1971,15511 SROUFE ST,Anchorage,AK,99577,"15511 SROUFE ST, Anchorage, AK, 99577",Match,Non_Exact,"15511 SROUFE ST, EAGLE RIVER, AK, 99577",190792244,R,02,020,000102,4006,-149.54263,61.359917
1972,15453 OLD GLENN HWY,Anchorage,AK,99577,"15453 OLD GLENN HWY, Anchorage, AK, 99577",Match,Non_Exact,"15453 OLD GLENN HWY, EAGLE RIVER, AK, 99577",190826841,R,02,020,000102,4002,-149.52065,61.36023
1973,18743 MONASTERY DR,Anchorage,AK,99577,"18743 MONASTERY DR, Anchorage, AK, 99577",Match,Non_Exact,"18743 MONASTERY DR, EAGLE RIVER, AK, 99577",190792333,R,02,020,000102,4006,-149.53256000000002,61.360893000000004
1974,15443 OLD GLENN HWY,Anchorage,AK,99577,"15443 OLD GLENN HWY, Anchorage, AK, 99577",Match,Non_Exact,"15443 OLD GLENN HWY, EAGLE RIVER, AK, 99577",190826841,R,02,020,000102,4002,-149.52075,61.360184
1975,18745 MONASTERY DR,Anchorage,AK,99577,"18745 MONASTERY DR, Anchorage, AK, 99577",Match,Non_Exact,"18745 MONASTERY DR, EAGLE RIVER, AK, 99577",190792333,R,02,020,000102,4006,-149.53253,61.360905
1976,15433 OLD GLENN HWY,Anchorage,AK,99577,"15433 OLD GLENN HWY, Anchorage, AK, 99577",Match,Non_Exact,"15433 OLD GLENN HWY, EAGLE RIVER, AK, 99577",190826841,R,02,020,000102,4002,-149.52087,61.360138
1977,15432 HUSKY ST,Anchorage,AK,99577,"15432 HUSKY ST, Anchorage, AK, 99577",Match,Non_Exact,"15432 HUSKY ST, EAGLE RIVER, AK, 99577",190807584,L,02,020,000102,1016,-149.55016,61.359832999999995
1978,18747 MONASTERY DR,Anchorage,AK,99577,"18747 MONASTERY DR, Anchorage, AK, 99577",Match,Non_Exact,"18747 MONASTERY DR, EAGLE RIVER, AK, 99577",190792333,R,02,020,000102,4006,-149.53252,61.360912
1979,15427 SROUFE ST,Anchorage,AK,99577,"15427 SROUFE ST, Anchorage, AK, 99577",Match,Non_Exact,"15427 SROUFE ST, EAGLE RIVER, AK, 99577",190792244,R,02,020,000102,4006,-149.54265,61.359642
1980,15427 SROUFE ST,Anchorage,AK,99577,"15427 SROUFE ST, Anchorage, AK, 99577",Match,Non_Exact,"15427 SROUFE ST, EAGLE RIVER, AK, 99577",190792244,R,02,020,000102,4006,-149.54265,61.359642
1981,19239 DARBY RD,Anchorage,AK,99577,"19239 DARBY RD, Anchorage, AK, 99577",Match,Non_Exact,"19239 DARBY RD, EAGLE RIVER, AK, 99577",636132024,R,02,020,000102,4006,-149.52403,61.359413
1982,19215 DARBY RD,Anchorage,AK,99577,"19215 DARBY RD, Anchorage, AK, 99577",Match,Non_Exact,"19215 DARBY RD, EAGLE RIVER, AK, 99577",636132024,R,02,020,000102,4006,-149.5241,61.359413
1983,19107 DARBY RD,Anchorage,AK,99577,"19107 DARBY RD, Anchorage, AK, 99577",Match,Non_Exact,"19107 DARBY RD, EAGLE RIVER, AK, 99577",636132024,R,02,020,000102,4006,-149.52441000000002,61.359413
1984,19133 DARBY RD,Anchorage,AK,99577,"19133 DARBY RD, Anchorage, AK, 99577",Match,Non_Exact,"19133 DARBY RD, EAGLE RIVER, AK, 99577",636132024,R,02,020,000102,4006,-149.52434,61.359413
1985,18915 DARBY RD,Anchorage,AK,99577,"18915 DARBY RD, Anchorage, AK, 99577",Match,Non_Exact,"18915 DARBY RD, EAGLE RIVER, AK, 99577",636132024,R,02,020,000102,4006,-149.52498,61.35941700000001
1986,18915 DARBY RD,Anchorage,AK,99577,"18915 DARBY RD, Anchorage, AK, 99577",Match,Non_Exact,"18915 DARBY RD, EAGLE RIVER, AK, 99577",636132024,R,02,020,000102,4006,-149.52498,61.35941700000001
1987,18319 NORTH FIRE LAKE AVE,Anchorage,AK,99577,"18319 NORTH FIRE LAKE AVE, Anchorage, AK, 99577",No_Match,,,,,,,,,,
1988,18939 DARBY RD,Anchorage,AK,99577,"18939 DARBY RD, Anchorage, AK, 99577",Match,Non_Exact,"18939 DARBY RD, EAGLE RIVER, AK, 99577",636132024,R,02,020,000102,4006,-149.5249,61.35941700000001
1989,18251 NORTH FIRE LAKE AVE,Anchorage,AK,99577,"18251 NORTH FIRE LAKE AVE, Anchorage, AK, 99577",No_Match,,,,,,,,,,
1990,17645 SEE SAW AVE,Anchorage,AK,99577,"17645 SEE SAW AVE, Anchorage, AK, 99577",Match,Non_Exact,"17645 SEE SAW AVE, EAGLE RIVER, AK, 99577",190825852,R,02,020,000102,1016,-149.55153,61.35945
1991,15407 OLD GLENN HWY,Anchorage,AK,99577,"15407 OLD GLENN HWY, Anchorage, AK, 99577",Match,Non_Exact,"15407 OLD GLENN HWY, EAGLE RIVER, AK, 99577",190826841,R,02,020,000102,4002,-149.52118000000002,61.36002
1992,18222 NORTH FIRE LAKE AVE,Anchorage,AK,99577,"18222 NORTH FIRE LAKE AVE, Anchorage, AK, 99577",No_Match,,,,,,,,,,
1993,18222 NORTH FIRE LAKE AVE,Anchorage,AK,99577,"18222 NORTH FIRE LAKE AVE, Anchorage, AK, 99577",No_Match,,,,,,,,,,
1994,18212 NORTH FIRE LAKE AVE,Anchorage,AK,99577,"18212 NORTH FIRE LAKE AVE, Anchorage, AK, 99577",No_Match,,,,,,,,,,
1995,17922 SEE SAW AVE,Anchorage,AK,99577,"17922 SEE SAW AVE, Anchorage, AK, 99577",Match,Non_Exact,"17922 SEE SAW AVE, EAGLE RIVER, AK, 99577",190813972,R,02,020,000102,1020,-149.54903000000002,61.359432
1996,17646 SEE SAW AVE,Anchorage,AK,99577,"17646 SEE SAW AVE, Anchorage, AK, 99577",Match,Non_Exact,"17646 SEE SAW AVE, EAGLE RIVER, AK, 99577",190825852,L,02,020,000102,1016,-149.5515,61.35944
1997,19126 DARBY RD,Anchorage,AK,99577,"19126 DARBY RD, Anchorage, AK, 99577",Match,Non_Exact,"19126 DARBY RD, EAGLE RIVER, AK, 99577",636132024,L,02,020,000102,4005,-149.52435,61.35940600000001
1998,18932 DARBY RD,Anchorage,AK,99577,"18932 DARBY RD, Anchorage, AK, 99577",Match,Non_Exact,"18932 DARBY RD, EAGLE RIVER, AK, 99577",636132024,L,02,020,000102,4005,-149.52493,61.35940600000001
1999,15339 OLD GLENN HWY,Anchorage,AK,99577,"15339 OLD GLENN HWY, Anchorage, AK, 99577",Match,Non_Exact,"15339 OLD GLENN HWY, EAGLE RIVER, AK, 99577",190826841,R,02,020,000102,4002,-149.52199,61.359719999999996
