id,address_x,city,state_x,postcode,address_y,result,match_type,address_match,tiger,side,state_y,county,tract,block,lat,long
0,22525 MIRROR LAKE DR,Anchorage,AK,99567,"22525 MIRROR LAKE DR, Anchorage, AK, 99567",Match,Non_Exact,"22525 MIRROR LAKE DR, CHUGIAK, AK, 99567",190826407,L,02,020,000101,2050,-149.42215,61.42363
1,22528 SARAH CIR,Anchorage,AK,99567,"22528 SARAH CIR, Anchorage, AK, 99567",Match,Non_Exact,"22528 SARAH CIR, CHUGIAK, AK, 99567",190807684,L,02,020,000101,3019,-149.43748,61.423653
2,22522 SARAH CIR,Anchorage,AK,99567,"22522 SARAH CIR, Anchorage, AK, 99567",Match,Non_Exact,"22522 SARAH CIR, CHUGIAK, AK, 99567",190807684,L,02,020,000101,3019,-149.43753,61.423621999999995
3,22540 WHISPERING BIRCH CIR,Anchorage,AK,99567,"22540 WHISPERING BIRCH CIR, Anchorage, AK, 99567",Match,Non_Exact,"22540 WHISPERING BIRCH CIR, CHUGIAK, AK, 99567",190807520,L,02,020,000101,3016,-149.44997,61.423775
4,22555 MARGARET MIELKE ST,Anchorage,AK,99567,"22555 MARGARET MIELKE ST, Anchorage, AK, 99567",Match,Non_Exact,"22555 MARGARET MIELKE ST, CHUGIAK, AK, 99567",190819901,R,02,020,000101,3003,-149.49168,61.423866000000004
5,22524 MILLER RD,Anchorage,AK,99567,"22524 MILLER RD, Anchorage, AK, 99567",Match,Non_Exact,"22524 MILLER RD, CHUGIAK, AK, 99567",190793321,R,02,020,000101,3035,-149.42612,61.424126
6,22533 DAVIDSON DR,Anchorage,AK,99567,"22533 DAVIDSON DR, Anchorage, AK, 99567",Match,Non_Exact,"22533 DAVIDSON DR, CHUGIAK, AK, 99567",639716533,R,02,020,000101,3003,-149.48793,61.42335
7,22566 SAMPSON DR,Anchorage,AK,99567,"22566 SAMPSON DR, Anchorage, AK, 99567",Match,Non_Exact,"22566 SAMPSON DR, CHUGIAK, AK, 99567",190807685,L,02,020,000101,3004,-149.44089,61.423603
8,21921 REBECCA CIR,Anchorage,AK,99567,"21921 REBECCA CIR, Anchorage, AK, 99567",Match,Non_Exact,"21921 REBECCA CIR, CHUGIAK, AK, 99567",190827389,L,02,020,000101,3007,-149.47607,61.423286
9,26735 PARADIS LN,Anchorage,AK,99567,"26735 PARADIS LN, Anchorage, AK, 99567",Match,Non_Exact,"26735 PARADIS LN, CHUGIAK, AK, 99567",190793627,L,02,020,000101,1055,-149.3834,61.438812
10,26525 PARADIS LN,Anchorage,AK,99567,"26525 PARADIS LN, Anchorage, AK, 99567",Match,Non_Exact,"26525 PARADIS LN, CHUGIAK, AK, 99567",190793625,R,02,020,000101,1056,-149.38818,61.43804
11,26755 KERRY LOOP,Anchorage,AK,99567,"26755 KERRY LOOP, Anchorage, AK, 99567",Match,Non_Exact,"26755 KERRY LOOP, CHUGIAK, AK, 99567",190793623,L,02,020,000101,1057,-149.38313,61.438217
12,26465 PARADIS LN,Anchorage,AK,99567,"26465 PARADIS LN, Anchorage, AK, 99567",No_Match,,,,,,,,,,
13,26445 PARADIS LN,Anchorage,AK,99567,"26445 PARADIS LN, Anchorage, AK, 99567",Match,Non_Exact,"26445 PARADIS LN, CHUGIAK, AK, 99567",190793622,R,02,020,000101,1056,-149.38893000000002,61.437546
14,26535 KERRY LOOP,Anchorage,AK,99567,"26535 KERRY LOOP, Anchorage, AK, 99567",Match,Non_Exact,"26535 KERRY LOOP, CHUGIAK, AK, 99567",190793623,L,02,020,000101,1057,-149.38731,61.437580000000004
15,26715 KERRY LOOP,Anchorage,AK,99567,"26715 KERRY LOOP, Anchorage, AK, 99567",Match,Non_Exact,"26715 KERRY LOOP, CHUGIAK, AK, 99567",190793623,L,02,020,000101,1057,-149.38377,61.43788000000001
16,23980 OLD GLENN HWY,Anchorage,AK,99567,"23980 OLD GLENN HWY, Anchorage, AK, 99567",No_Match,,,,,,,,,,
17,23001 CAMP GORSUCH RD,Anchorage,AK,99567,"23001 CAMP GORSUCH RD, Anchorage, AK, 99567",Match,Non_Exact,"23001 CAMP GORSUCH RD, CHUGIAK, AK, 99567",190807572,L,02,020,000101,1072,-149.40598,61.427464
18,23101 OLD GLENN HWY,Anchorage,AK,99567,"23101 OLD GLENN HWY, Anchorage, AK, 99567",No_Match,,,,,,,,,,
19,22700 CAMP GORSUCH RD,Anchorage,AK,99567,"22700 CAMP GORSUCH RD, Anchorage, AK, 99567",Match,Non_Exact,"22700 CAMP GORSUCH RD, CHUGIAK, AK, 99567",190807572,R,02,020,000101,1073,-149.40723,61.427006000000006
20,22454 HILLTOP CIR,Anchorage,AK,99567,"22454 HILLTOP CIR, Anchorage, AK, 99567",Match,Non_Exact,"22454 HILLTOP CIR, CHUGIAK, AK, 99567",190793376,L,02,020,000101,2050,-149.4129,61.423412
21,22424 HILLTOP CIR,Anchorage,AK,99567,"22424 HILLTOP CIR, Anchorage, AK, 99567",Match,Non_Exact,"22424 HILLTOP CIR, CHUGIAK, AK, 99567",190793376,L,02,020,000101,2050,-149.41348,61.423374
22,22412 HILLTOP CIR,Anchorage,AK,99567,"22412 HILLTOP CIR, Anchorage, AK, 99567",Match,Non_Exact,"22412 HILLTOP CIR, CHUGIAK, AK, 99567",190793376,L,02,020,000101,2050,-149.41364,61.423283
23,22329 MIRROR LAKE DR,Anchorage,AK,99567,"22329 MIRROR LAKE DR, Anchorage, AK, 99567",Match,Non_Exact,"22329 MIRROR LAKE DR, CHUGIAK, AK, 99567",190793375,L,02,020,000101,2050,-149.41429,61.422062
24,22339 MIRROR LAKE DR,Anchorage,AK,99567,"22339 MIRROR LAKE DR, Anchorage, AK, 99567",Match,Non_Exact,"22339 MIRROR LAKE DR, CHUGIAK, AK, 99567",190793373,L,02,020,000101,2050,-149.41458,61.422043
25,22349 MIRROR LAKE DR,Anchorage,AK,99567,"22349 MIRROR LAKE DR, Anchorage, AK, 99567",Match,Non_Exact,"22349 MIRROR LAKE DR, CHUGIAK, AK, 99567",190793373,L,02,020,000101,2050,-149.41541999999998,61.42199300000001
26,22359 MIRROR LAKE DR,Anchorage,AK,99567,"22359 MIRROR LAKE DR, Anchorage, AK, 99567",Match,Non_Exact,"22359 MIRROR LAKE DR, CHUGIAK, AK, 99567",605186113,L,02,020,000101,2050,-149.41641,61.421932
27,22411 MIRROR LAKE DR,Anchorage,AK,99567,"22411 MIRROR LAKE DR, Anchorage, AK, 99567",Match,Non_Exact,"22411 MIRROR LAKE DR, CHUGIAK, AK, 99567",605186113,L,02,020,000101,2050,-149.4181,61.421818
28,22421 MIRROR LAKE DR,Anchorage,AK,99567,"22421 MIRROR LAKE DR, Anchorage, AK, 99567",Match,Non_Exact,"22421 MIRROR LAKE DR, CHUGIAK, AK, 99567",605186113,L,02,020,000101,2050,-149.41843,61.421794999999996
29,22245 ANTHEM PL,Anchorage,AK,99567,"22245 ANTHEM PL, Anchorage, AK, 99567",Match,Non_Exact,"22245 ANTHEM PL, CHUGIAK, AK, 99567",190793358,L,02,020,000101,2050,-149.41643,61.42125
30,22228 BEAR MOUNTAIN VIEW CIR,Anchorage,AK,99567,"22228 BEAR MOUNTAIN VIEW CIR, Anchorage, AK, 99567",Match,Non_Exact,"22228 BEAR MOUNTAIN VIEW CIR, CHUGIAK, AK, 99567",190793374,R,02,020,000101,2050,-149.41428,61.421493999999996
31,22257 BANNER CIR,Anchorage,AK,99567,"22257 BANNER CIR, Anchorage, AK, 99567",Match,Non_Exact,"22257 BANNER CIR, CHUGIAK, AK, 99567",605186114,R,02,020,000101,2056,-149.41893000000002,61.42129499999999
32,22257 BANNER CIR,Anchorage,AK,99567,"22257 BANNER CIR, Anchorage, AK, 99567",Match,Non_Exact,"22257 BANNER CIR, CHUGIAK, AK, 99567",605186114,R,02,020,000101,2056,-149.41893000000002,61.42129499999999
33,22246 BANNER CIR,Anchorage,AK,99567,"22246 BANNER CIR, Anchorage, AK, 99567",Match,Non_Exact,"22246 BANNER CIR, CHUGIAK, AK, 99567",605186114,L,02,020,000101,2056,-149.41899999999998,61.421204
34,22215 BEAR MOUNTAIN VIEW CIR,Anchorage,AK,99567,"22215 BEAR MOUNTAIN VIEW CIR, Anchorage, AK, 99567",Match,Non_Exact,"22215 BEAR MOUNTAIN VIEW CIR, CHUGIAK, AK, 99567",190793374,L,02,020,000101,2050,-149.4142,61.421413
35,22227 BANNER CIR,Anchorage,AK,99567,"22227 BANNER CIR, Anchorage, AK, 99567",Match,Non_Exact,"22227 BANNER CIR, CHUGIAK, AK, 99567",605186114,R,02,020,000101,2056,-149.4191,61.421013
36,22200 BEAR MOUNTAIN VIEW CIR,Anchorage,AK,99567,"22200 BEAR MOUNTAIN VIEW CIR, Anchorage, AK, 99567",Match,Non_Exact,"22200 BEAR MOUNTAIN VIEW CIR, CHUGIAK, AK, 99567",190793374,R,02,020,000101,2050,-149.41415,61.421330000000005
37,22207 BANNER CIR,Anchorage,AK,99567,"22207 BANNER CIR, Anchorage, AK, 99567",Match,Non_Exact,"22207 BANNER CIR, CHUGIAK, AK, 99567",605186114,R,02,020,000101,2056,-149.41922,61.420826
38,22110 ANTHEM PL,Anchorage,AK,99567,"22110 ANTHEM PL, Anchorage, AK, 99567",Match,Non_Exact,"22110 ANTHEM PL, CHUGIAK, AK, 99567",190793358,R,02,020,000101,2056,-149.41661000000002,61.420124
39,25037 MOUNT EKLUTNA DR,Anchorage,AK,99567,"25037 MOUNT EKLUTNA DR, Anchorage, AK, 99567",Match,Non_Exact,"25037 MOUNT EKLUTNA DR, CHUGIAK, AK, 99567",190807429,L,02,020,000101,2050,-149.41595,61.41896
40,25115 MOUNT EKLUTNA DR,Anchorage,AK,99567,"25115 MOUNT EKLUTNA DR, Anchorage, AK, 99567",Match,Non_Exact,"25115 MOUNT EKLUTNA DR, CHUGIAK, AK, 99567",190807433,L,02,020,000101,2050,-149.41443999999998,61.41896
41,25135 MOUNT EKLUTNA DR,Anchorage,AK,99567,"25135 MOUNT EKLUTNA DR, Anchorage, AK, 99567",Match,Non_Exact,"25135 MOUNT EKLUTNA DR, CHUGIAK, AK, 99567",190807433,L,02,020,000101,2050,-149.414,61.418964
42,22901 LAKE HILL DR,Anchorage,AK,99567,"22901 LAKE HILL DR, Anchorage, AK, 99567",Match,Non_Exact,"22901 LAKE HILL DR, CHUGIAK, AK, 99567",605340177,R,02,020,000101,3004,-149.4276,61.426919999999996
43,23951 REESE RD,Anchorage,AK,99567,"23951 REESE RD, Anchorage, AK, 99567",Match,Non_Exact,"23951 REESE RD, CHUGIAK, AK, 99567",190807694,L,02,020,000101,3004,-149.43526,61.42613000000001
44,22216 RANKIN RD,Anchorage,AK,99567,"22216 RANKIN RD, Anchorage, AK, 99567",Match,Non_Exact,"22216 RANKIN RD, CHUGIAK, AK, 99567",605115245,L,02,020,000101,3007,-149.46872,61.426193000000005
45,22748 SAMPSON DR,Anchorage,AK,99567,"22748 SAMPSON DR, Anchorage, AK, 99567",Match,Non_Exact,"22748 SAMPSON DR, CHUGIAK, AK, 99567",190807687,L,02,020,000101,3004,-149.43688999999998,61.425453000000005
46,21408 CONLEY AVE,Anchorage,AK,99567,"21408 CONLEY AVE, Anchorage, AK, 99567",No_Match,,,,,,,,,,
47,21324 CONLEY AVE,Anchorage,AK,99567,"21324 CONLEY AVE, Anchorage, AK, 99567",No_Match,,,,,,,,,,
48,21354 CONLEY AVE,Anchorage,AK,99567,"21354 CONLEY AVE, Anchorage, AK, 99567",No_Match,,,,,,,,,,
49,22738 JUDD DR,Anchorage,AK,99567,"22738 JUDD DR, Anchorage, AK, 99567",Match,Non_Exact,"22738 JUDD DR, CHUGIAK, AK, 99567",190813779,L,02,020,000101,3004,-149.47545,61.42560600000001
50,22737 OAK KNOLL DR,Anchorage,AK,99567,"22737 OAK KNOLL DR, Anchorage, AK, 99567",Match,Non_Exact,"22737 OAK KNOLL DR, CHUGIAK, AK, 99567",190809825,R,02,020,000101,3004,-149.467,61.425422999999995
51,23345 MULEY CIR,Anchorage,AK,99567,"23345 MULEY CIR, Anchorage, AK, 99567",Match,Non_Exact,"23345 MULEY CIR, CHUGIAK, AK, 99567",605335995,L,02,020,000101,3004,-149.44823,61.425734999999996
52,22724 MILLER RD,Anchorage,AK,99567,"22724 MILLER RD, Anchorage, AK, 99567",Match,Non_Exact,"22724 MILLER RD, CHUGIAK, AK, 99567",190793325,R,02,020,000101,3008,-149.42418,61.425681999999995
53,22651 GABRIEL CIR,Anchorage,AK,99567,"22651 GABRIEL CIR, Anchorage, AK, 99567",Match,Non_Exact,"22651 GABRIEL CIR, CHUGIAK, AK, 99567",190807688,R,02,020,000101,3004,-149.44083999999998,61.425132999999995
54,22655 GABRIEL CIR,Anchorage,AK,99567,"22655 GABRIEL CIR, Anchorage, AK, 99567",Match,Non_Exact,"22655 GABRIEL CIR, CHUGIAK, AK, 99567",190807688,R,02,020,000101,3004,-149.44089,61.42516
55,22714 ROBINSON RD,Anchorage,AK,99567,"22714 ROBINSON RD, Anchorage, AK, 99567",Match,Non_Exact,"22714 ROBINSON RD, CHUGIAK, AK, 99567",190793191,L,02,020,000101,3019,-149.43329,61.425476
56,22738 URSA MAJOR CIR,Anchorage,AK,99567,"22738 URSA MAJOR CIR, Anchorage, AK, 99567",Match,Non_Exact,"22738 URSA MAJOR CIR, CHUGIAK, AK, 99567",190809829,R,02,020,000101,3007,-149.47131000000002,61.42563199999999
57,22722 OAK KNOLL DR,Anchorage,AK,99567,"22722 OAK KNOLL DR, Anchorage, AK, 99567",Match,Non_Exact,"22722 OAK KNOLL DR, CHUGIAK, AK, 99567",190809825,L,02,020,000101,3007,-149.46703,61.425312
58,22722 JUDD DR,Anchorage,AK,99567,"22722 JUDD DR, Anchorage, AK, 99567",Match,Non_Exact,"22722 JUDD DR, CHUGIAK, AK, 99567",190813779,L,02,020,000101,3004,-149.47554,61.42547
59,22719 ROBINSON RD,Anchorage,AK,99567,"22719 ROBINSON RD, Anchorage, AK, 99567",Match,Non_Exact,"22719 ROBINSON RD, CHUGIAK, AK, 99567",190793191,R,02,020,000101,3034,-149.43326000000002,61.425503000000006
60,22724 KNIK VISTA ST,Anchorage,AK,99567,"22724 KNIK VISTA ST, Anchorage, AK, 99567",Match,Non_Exact,"22724 KNIK VISTA ST, CHUGIAK, AK, 99567",190813782,L,02,020,000101,3004,-149.48042,61.42564
61,22652 GABRIEL CIR,Anchorage,AK,99567,"22652 GABRIEL CIR, Anchorage, AK, 99567",Match,Non_Exact,"22652 GABRIEL CIR, CHUGIAK, AK, 99567",190807688,L,02,020,000101,3004,-149.44089,61.42514
62,22713 MARGARET MIELKE ST,Anchorage,AK,99567,"22713 MARGARET MIELKE ST, Anchorage, AK, 99567",Match,Non_Exact,"22713 MARGARET MIELKE ST, CHUGIAK, AK, 99567",190819902,R,02,020,000101,3003,-149.4917,61.425230000000006
63,22704 MILLER RD,Anchorage,AK,99567,"22704 MILLER RD, Anchorage, AK, 99567",Match,Non_Exact,"22704 MILLER RD, CHUGIAK, AK, 99567",190793325,R,02,020,000101,3013,-149.4243,61.42556999999999
64,22709 OAK KNOLL DR,Anchorage,AK,99567,"22709 OAK KNOLL DR, Anchorage, AK, 99567",Match,Non_Exact,"22709 OAK KNOLL DR, CHUGIAK, AK, 99567",190809825,R,02,020,000101,3004,-149.467,61.4252
65,22631 GABRIEL CIR,Anchorage,AK,99567,"22631 GABRIEL CIR, Anchorage, AK, 99567",Match,Non_Exact,"22631 GABRIEL CIR, CHUGIAK, AK, 99567",190807688,R,02,020,000101,3004,-149.44061000000002,61.42501
66,22700 LAKE HILL DR,Anchorage,AK,99567,"22700 LAKE HILL DR, Anchorage, AK, 99567",Match,Non_Exact,"22700 LAKE HILL DR, CHUGIAK, AK, 99567",190793305,R,02,020,000101,3034,-149.42763,61.425205000000005
67,21925 JUDD CIR,Anchorage,AK,99567,"21925 JUDD CIR, Anchorage, AK, 99567",Match,Non_Exact,"21925 JUDD CIR, CHUGIAK, AK, 99567",190813780,L,02,020,000101,3007,-149.47528,61.425293
68,22706 OAK KNOLL DR,Anchorage,AK,99567,"22706 OAK KNOLL DR, Anchorage, AK, 99567",Match,Non_Exact,"22706 OAK KNOLL DR, CHUGIAK, AK, 99567",190809825,L,02,020,000101,3007,-149.46703,61.42518199999999
69,22700 KNIK VISTA ST,Anchorage,AK,99567,"22700 KNIK VISTA ST, Anchorage, AK, 99567",Match,Non_Exact,"22700 KNIK VISTA ST, CHUGIAK, AK, 99567",190813782,L,02,020,000101,3004,-149.48042,61.42549
70,22700 JUDD DR,Anchorage,AK,99567,"22700 JUDD DR, Anchorage, AK, 99567",Match,Non_Exact,"22700 JUDD DR, CHUGIAK, AK, 99567",635209426,L,02,020,000101,3004,-149.47574,61.42511
71,24515 GRACE ST,Anchorage,AK,99567,"24515 GRACE ST, Anchorage, AK, 99567",Match,Non_Exact,"24515 GRACE ST, CHUGIAK, AK, 99567",190826904,R,02,020,000101,3008,-149.42567,61.425059999999995
72,22706 URSA MAJOR CIR,Anchorage,AK,99567,"22706 URSA MAJOR CIR, Anchorage, AK, 99567",Match,Non_Exact,"22706 URSA MAJOR CIR, CHUGIAK, AK, 99567",190809829,R,02,020,000101,3007,-149.47153,61.42545
73,22686 ROBINSON RD,Anchorage,AK,99567,"22686 ROBINSON RD, Anchorage, AK, 99567",Match,Non_Exact,"22686 ROBINSON RD, CHUGIAK, AK, 99567",190793191,L,02,020,000101,3019,-149.43329,61.425297
74,22611 GABRIEL CIR,Anchorage,AK,99567,"22611 GABRIEL CIR, Anchorage, AK, 99567",Match,Non_Exact,"22611 GABRIEL CIR, CHUGIAK, AK, 99567",190807688,R,02,020,000101,3004,-149.4404,61.42489200000001
75,22625 LAKE HILL DR,Anchorage,AK,99567,"22625 LAKE HILL DR, Anchorage, AK, 99567",Match,Non_Exact,"22625 LAKE HILL DR, CHUGIAK, AK, 99567",190827386,L,02,020,000101,3035,-149.4276,61.424274
76,22639 OAK KNOLL DR,Anchorage,AK,99567,"22639 OAK KNOLL DR, Anchorage, AK, 99567",Match,Non_Exact,"22639 OAK KNOLL DR, CHUGIAK, AK, 99567",190809825,R,02,020,000101,3004,-149.46704,61.424643999999994
77,22612 GABRIEL CIR,Anchorage,AK,99567,"22612 GABRIEL CIR, Anchorage, AK, 99567",Match,Non_Exact,"22612 GABRIEL CIR, CHUGIAK, AK, 99567",190807688,L,02,020,000101,3004,-149.44044,61.424896
78,22626 LAKE HILL DR,Anchorage,AK,99567,"22626 LAKE HILL DR, Anchorage, AK, 99567",Match,Non_Exact,"22626 LAKE HILL DR, CHUGIAK, AK, 99567",190827386,R,02,020,000101,3034,-149.42763,61.424664
79,22641 KNIK VISTA ST,Anchorage,AK,99567,"22641 KNIK VISTA ST, Anchorage, AK, 99567",Match,Non_Exact,"22641 KNIK VISTA ST, CHUGIAK, AK, 99567",190813782,R,02,020,000101,3004,-149.4804,61.42515600000001
80,22640 KNIK VISTA ST,Anchorage,AK,99567,"22640 KNIK VISTA ST, Anchorage, AK, 99567",Match,Non_Exact,"22640 KNIK VISTA ST, CHUGIAK, AK, 99567",190813782,L,02,020,000101,3004,-149.48042,61.425125
81,22636 OAK KNOLL DR,Anchorage,AK,99567,"22636 OAK KNOLL DR, Anchorage, AK, 99567",Match,Non_Exact,"22636 OAK KNOLL DR, CHUGIAK, AK, 99567",190809825,L,02,020,000101,3007,-149.46707,61.42463299999999
82,22635 DAVIDSON DR,Anchorage,AK,99567,"22635 DAVIDSON DR, Anchorage, AK, 99567",Match,Non_Exact,"22635 DAVIDSON DR, CHUGIAK, AK, 99567",190813765,R,02,020,000101,3003,-149.48793,61.42479
83,22634 JUDD DR,Anchorage,AK,99567,"22634 JUDD DR, Anchorage, AK, 99567",Match,Non_Exact,"22634 JUDD DR, CHUGIAK, AK, 99567",635209426,L,02,020,000101,3004,-149.47676,61.42466700000001
84,22627 MARGARET MIELKE ST,Anchorage,AK,99567,"22627 MARGARET MIELKE ST, Anchorage, AK, 99567",Match,Non_Exact,"22627 MARGARET MIELKE ST, CHUGIAK, AK, 99567",190819902,R,02,020,000101,3003,-149.4917,61.424659999999996
85,22612 ROBINSON RD,Anchorage,AK,99567,"22612 ROBINSON RD, Anchorage, AK, 99567",Match,Non_Exact,"22612 ROBINSON RD, CHUGIAK, AK, 99567",190793191,L,02,020,000101,3019,-149.43329,61.424824
86,22611 ROBINSON RD,Anchorage,AK,99567,"22611 ROBINSON RD, Anchorage, AK, 99567",Match,Non_Exact,"22611 ROBINSON RD, CHUGIAK, AK, 99567",190793191,R,02,020,000101,3034,-149.43326000000002,61.424812
87,22620 INLET VISTA DR,Anchorage,AK,99567,"22620 INLET VISTA DR, Anchorage, AK, 99567",Match,Non_Exact,"22620 INLET VISTA DR, CHUGIAK, AK, 99567",190813789,R,02,020,000101,3004,-149.48169,61.424603000000005
88,22611 OAK KNOLL DR,Anchorage,AK,99567,"22611 OAK KNOLL DR, Anchorage, AK, 99567",Match,Non_Exact,"22611 OAK KNOLL DR, CHUGIAK, AK, 99567",190809825,R,02,020,000101,3004,-149.46722,61.424440000000004
89,21701 KNIK VISTA CT,Anchorage,AK,99567,"21701 KNIK VISTA CT, Anchorage, AK, 99567",Match,Non_Exact,"21701 KNIK VISTA CT, CHUGIAK, AK, 99567",190813785,L,02,020,000101,3004,-149.47862,61.424755000000005
90,22611 LAKE HILL DR,Anchorage,AK,99567,"22611 LAKE HILL DR, Anchorage, AK, 99567",Match,Non_Exact,"22611 LAKE HILL DR, CHUGIAK, AK, 99567",190827386,L,02,020,000101,3035,-149.4276,61.424130000000005
91,22618 URSA MAJOR CIR,Anchorage,AK,99567,"22618 URSA MAJOR CIR, Anchorage, AK, 99567",Match,Non_Exact,"22618 URSA MAJOR CIR, CHUGIAK, AK, 99567",190809829,R,02,020,000101,3007,-149.47194,61.424904000000005
92,22524 SAMBAR LOOP,Anchorage,AK,99567,"22524 SAMBAR LOOP, Anchorage, AK, 99567",Match,Non_Exact,"22524 SAMBAR LOOP, CHUGIAK, AK, 99567",605336183,L,02,020,000101,3004,-149.46118,61.424324
93,21713 KNIK VISTA CT,Anchorage,AK,99567,"21713 KNIK VISTA CT, Anchorage, AK, 99567",Match,Non_Exact,"21713 KNIK VISTA CT, CHUGIAK, AK, 99567",190813785,L,02,020,000101,3004,-149.47845,61.42471
94,22606 OAK KNOLL DR,Anchorage,AK,99567,"22606 OAK KNOLL DR, Anchorage, AK, 99567",Match,Non_Exact,"22606 OAK KNOLL DR, CHUGIAK, AK, 99567",190809825,L,02,020,000101,3007,-149.46729,61.42442
95,22610 KNIK VISTA ST,Anchorage,AK,99567,"22610 KNIK VISTA ST, Anchorage, AK, 99567",Match,Non_Exact,"22610 KNIK VISTA ST, CHUGIAK, AK, 99567",190813787,L,02,020,000101,3014,-149.48041,61.424664
96,21331 ORIGINAL AVE,Anchorage,AK,99567,"21331 ORIGINAL AVE, Anchorage, AK, 99567",Match,Non_Exact,"21331 ORIGINAL AVE, CHUGIAK, AK, 99567",190809813,L,02,020,000101,3003,-149.48729,61.42439
97,22548 OLD GLENN HWY,Anchorage,AK,99567,"22548 OLD GLENN HWY, Anchorage, AK, 99567",Match,Non_Exact,"22548 OLD GLENN HWY, CHUGIAK, AK, 99567",190826905,R,02,020,000101,3021,-149.42535,61.423405
98,22520 WHISPERING BIRCH CIR,Anchorage,AK,99567,"22520 WHISPERING BIRCH CIR, Anchorage, AK, 99567",Match,Non_Exact,"22520 WHISPERING BIRCH CIR, CHUGIAK, AK, 99567",190807520,L,02,020,000101,3016,-149.44987,61.423719999999996
99,22536 DAVIDSON DR,Anchorage,AK,99567,"22536 DAVIDSON DR, Anchorage, AK, 99567",Match,Non_Exact,"22536 DAVIDSON DR, CHUGIAK, AK, 99567",639716533,L,02,020,000101,3003,-149.48795,61.423390000000005
100,22513 MARGARET MIELKE ST,Anchorage,AK,99567,"22513 MARGARET MIELKE ST, Anchorage, AK, 99567",Match,Non_Exact,"22513 MARGARET MIELKE ST, CHUGIAK, AK, 99567",190819901,R,02,020,000101,3003,-149.49168,61.42358
101,24739 TEAL LOOP,Anchorage,AK,99567,"24739 TEAL LOOP, Anchorage, AK, 99567",Match,Non_Exact,"24739 TEAL LOOP, CHUGIAK, AK, 99567",190814665,L,02,020,000101,1053,-149.36545,61.444164
102,27607 MALLARD CT,Anchorage,AK,99567,"27607 MALLARD CT, Anchorage, AK, 99567",Match,Non_Exact,"27607 MALLARD CT, CHUGIAK, AK, 99567",190807562,L,02,020,000101,1054,-149.36783,61.442665000000005
103,24616 TEAL LOOP,Anchorage,AK,99567,"24616 TEAL LOOP, Anchorage, AK, 99567",Match,Non_Exact,"24616 TEAL LOOP, CHUGIAK, AK, 99567",190814665,R,02,020,000101,1054,-149.36496,61.442859999999996
104,24546 TEAL LOOP,Anchorage,AK,99567,"24546 TEAL LOOP, Anchorage, AK, 99567",Match,Non_Exact,"24546 TEAL LOOP, CHUGIAK, AK, 99567",190814665,R,02,020,000101,1054,-149.36494,61.44206
105,24518 TEAL LOOP,Anchorage,AK,99567,"24518 TEAL LOOP, Anchorage, AK, 99567",Match,Non_Exact,"24518 TEAL LOOP, CHUGIAK, AK, 99567",190814665,R,02,020,000101,1054,-149.36494,61.441742000000005
106,24520 THUNDERBIRD DR,Anchorage,AK,99567,"24520 THUNDERBIRD DR, Anchorage, AK, 99567",Match,Non_Exact,"24520 THUNDERBIRD DR, CHUGIAK, AK, 99567",190805416,L,02,020,000101,1055,-149.3677,61.441734
107,24506 TEAL LOOP,Anchorage,AK,99567,"24506 TEAL LOOP, Anchorage, AK, 99567",Match,Non_Exact,"24506 TEAL LOOP, CHUGIAK, AK, 99567",190814665,R,02,020,000101,1054,-149.36494,61.441605
108,27927 RAVEN CT,Anchorage,AK,99567,"27927 RAVEN CT, Anchorage, AK, 99567",Match,Non_Exact,"27927 RAVEN CT, CHUGIAK, AK, 99567",190814661,R,02,020,000101,1053,-149.36128,61.441093
109,24344 THUNDERBIRD DR,Anchorage,AK,99567,"24344 THUNDERBIRD DR, Anchorage, AK, 99567",Match,Non_Exact,"24344 THUNDERBIRD DR, CHUGIAK, AK, 99567",190810419,R,02,020,000101,1055,-149.37004,61.441254
110,27635 RAVEN CT,Anchorage,AK,99567,"27635 RAVEN CT, Anchorage, AK, 99567",Match,Non_Exact,"27635 RAVEN CT, CHUGIAK, AK, 99567",190805418,R,02,020,000101,1054,-149.36743,61.441288
111,27907 RAVEN CT,Anchorage,AK,99567,"27907 RAVEN CT, Anchorage, AK, 99567",Match,Non_Exact,"27907 RAVEN CT, CHUGIAK, AK, 99567",190814661,R,02,020,000101,1053,-149.36176,61.441097
112,27811 RAVEN CT,Anchorage,AK,99567,"27811 RAVEN CT, Anchorage, AK, 99567",Match,Non_Exact,"27811 RAVEN CT, CHUGIAK, AK, 99567",190814662,R,02,020,000101,1053,-149.36333,61.4411
113,27733 RAVEN CT,Anchorage,AK,99567,"27733 RAVEN CT, Anchorage, AK, 99567",Match,Non_Exact,"27733 RAVEN CT, CHUGIAK, AK, 99567",190814662,R,02,020,000101,1053,-149.36428999999998,61.44110500000001
114,27831 RAVEN CT,Anchorage,AK,99567,"27831 RAVEN CT, Anchorage, AK, 99567",Match,Non_Exact,"27831 RAVEN CT, CHUGIAK, AK, 99567",190814662,R,02,020,000101,1053,-149.36308,61.4411
115,24411 MAGPIE DR,Anchorage,AK,99567,"24411 MAGPIE DR, Anchorage, AK, 99567",Match,Non_Exact,"24411 MAGPIE DR, CHUGIAK, AK, 99567",190805419,R,02,020,000101,1055,-149.36671,61.440712
116,24420 WIDGEON DR,Anchorage,AK,99567,"24420 WIDGEON DR, Anchorage, AK, 99567",No_Match,,,,,,,,,,
117,26800 EKLUTNA VILLAGE RD,Anchorage,AK,99567,"26800 EKLUTNA VILLAGE RD, Anchorage, AK, 99567",No_Match,,,,,,,,,,
118,26960 EKLUTNA VILLAGE RD,Anchorage,AK,99567,"26960 EKLUTNA VILLAGE RD, Anchorage, AK, 99567",No_Match,,,,,,,,,,
119,26636 EKLUTNA VILLAGE RD,Anchorage,AK,99567,"26636 EKLUTNA VILLAGE RD, Anchorage, AK, 99567",No_Match,,,,,,,,,,
120,26585 EKLUTNA VILLAGE RD,Anchorage,AK,99567,"26585 EKLUTNA VILLAGE RD, Anchorage, AK, 99567",Match,Non_Exact,"26585 EKLUTNA VILLAGE RD, CHUGIAK, AK, 99567",645480076,R,02,020,000101,1018,-149.36108000000002,61.461174
121,26612 EKLUTNA VILLAGE RD,Anchorage,AK,99567,"26612 EKLUTNA VILLAGE RD, Anchorage, AK, 99567",No_Match,,,,,,,,,,
122,26527 EKLUTNA VILLAGE RD,Anchorage,AK,99567,"26527 EKLUTNA VILLAGE RD, Anchorage, AK, 99567",Match,Non_Exact,"26527 EKLUTNA VILLAGE RD, CHUGIAK, AK, 99567",645480076,R,02,020,000101,1018,-149.3613,61.46056
123,26527 EKLUTNA VILLAGE RD,Anchorage,AK,99567,"26527 EKLUTNA VILLAGE RD, Anchorage, AK, 99567",Match,Non_Exact,"26527 EKLUTNA VILLAGE RD, CHUGIAK, AK, 99567",645480076,R,02,020,000101,1018,-149.3613,61.46056
124,26527 EKLUTNA VILLAGE RD,Anchorage,AK,99567,"26527 EKLUTNA VILLAGE RD, Anchorage, AK, 99567",Match,Non_Exact,"26527 EKLUTNA VILLAGE RD, CHUGIAK, AK, 99567",645480076,R,02,020,000101,1018,-149.3613,61.46056
125,26527 EKLUTNA VILLAGE RD,Anchorage,AK,99567,"26527 EKLUTNA VILLAGE RD, Anchorage, AK, 99567",Match,Non_Exact,"26527 EKLUTNA VILLAGE RD, CHUGIAK, AK, 99567",645480076,R,02,020,000101,1018,-149.3613,61.46056
126,26450 EKLUTNA VILLAGE RD,Anchorage,AK,99567,"26450 EKLUTNA VILLAGE RD, Anchorage, AK, 99567",Match,Non_Exact,"26450 EKLUTNA VILLAGE RD, CHUGIAK, AK, 99567",190807406,R,02,020,000101,1012,-149.3651,61.456419999999994
127,26428 EKLUTNA VILLAGE RD,Anchorage,AK,99567,"26428 EKLUTNA VILLAGE RD, Anchorage, AK, 99567",Match,Non_Exact,"26428 EKLUTNA VILLAGE RD, CHUGIAK, AK, 99567",190807406,R,02,020,000101,1012,-149.36475,61.456577
128,26439 EKLUTNA VILLAGE RD,Anchorage,AK,99567,"26439 EKLUTNA VILLAGE RD, Anchorage, AK, 99567",Match,Non_Exact,"26439 EKLUTNA VILLAGE RD, CHUGIAK, AK, 99567",645480076,R,02,020,000101,1018,-149.36162,61.459630000000004
129,28350 GLACIER LOOP RD,Anchorage,AK,99567,"28350 GLACIER LOOP RD, Anchorage, AK, 99567",Match,Non_Exact,"28350 GLACIER LOOP RD, CHUGIAK, AK, 99567",190807419,R,02,020,000101,1022,-149.35468,61.459446
130,26338 EKLUTNA VILLAGE RD,Anchorage,AK,99567,"26338 EKLUTNA VILLAGE RD, Anchorage, AK, 99567",Match,Non_Exact,"26338 EKLUTNA VILLAGE RD, CHUGIAK, AK, 99567",190807406,R,02,020,000101,1012,-149.3635,61.457275
131,26301 RUSTICATE DR,Anchorage,AK,99567,"26301 RUSTICATE DR, Anchorage, AK, 99567",Match,Non_Exact,"26301 RUSTICATE DR, CHUGIAK, AK, 99567",190807408,L,02,020,000101,1012,-149.3669,61.456256999999994
132,26281 RUSTICATE DR,Anchorage,AK,99567,"26281 RUSTICATE DR, Anchorage, AK, 99567",Match,Non_Exact,"26281 RUSTICATE DR, CHUGIAK, AK, 99567",190807408,L,02,020,000101,1012,-149.36684,61.45616999999999
133,26118 RUSTICATE DR,Anchorage,AK,99567,"26118 RUSTICATE DR, Anchorage, AK, 99567",Match,Non_Exact,"26118 RUSTICATE DR, CHUGIAK, AK, 99567",190807408,R,02,020,000101,1012,-149.36661,61.456019999999995
134,26106 RUSTICATE DR,Anchorage,AK,99567,"26106 RUSTICATE DR, Anchorage, AK, 99567",Match,Non_Exact,"26106 RUSTICATE DR, CHUGIAK, AK, 99567",190807408,R,02,020,000101,1012,-149.36643999999998,61.455948
135,26101 OLD GLENN HWY,Anchorage,AK,99567,"26101 OLD GLENN HWY, Anchorage, AK, 99567",No_Match,,,,,,,,,,
136,34709 EKLUTNA LAKE RD,Anchorage,AK,99567,"34709 EKLUTNA LAKE RD, Anchorage, AK, 99567",Match,Non_Exact,"34709 EKLUTNA LAKE RD, CHUGIAK, AK, 99567",190817422,L,02,020,000101,1040,-149.23616,61.441784
137,35851 EKLUTNA LAKE RD,Anchorage,AK,99567,"35851 EKLUTNA LAKE RD, Anchorage, AK, 99567",Match,Non_Exact,"35851 EKLUTNA LAKE RD, CHUGIAK, AK, 99567",614861401,L,02,020,000101,1039,-149.21371000000002,61.43
138,35845 EKLUTNA LAKE RD,Anchorage,AK,99567,"35845 EKLUTNA LAKE RD, Anchorage, AK, 99567",Match,Non_Exact,"35845 EKLUTNA LAKE RD, CHUGIAK, AK, 99567",614861401,L,02,020,000101,1039,-149.21375,61.43003
139,32551 EKLUTNA LAKE RD,Anchorage,AK,99567,"32551 EKLUTNA LAKE RD, Anchorage, AK, 99567",Match,Non_Exact,"32551 EKLUTNA LAKE RD, CHUGIAK, AK, 99567",190820346,L,02,020,000101,1036,-149.28392,61.452503
140,30001 EKLUTNA LAKE RD,Anchorage,AK,99567,"30001 EKLUTNA LAKE RD, Anchorage, AK, 99567",No_Match,,,,,,,,,,
141,31085 EKLUTNA LAKE RD,Anchorage,AK,99567,"31085 EKLUTNA LAKE RD, Anchorage, AK, 99567",No_Match,,,,,,,,,,
142,25240 THUNDERBIRD DR,Anchorage,AK,99567,"25240 THUNDERBIRD DR, Anchorage, AK, 99567",Match,Non_Exact,"25240 THUNDERBIRD DR, CHUGIAK, AK, 99567",190807566,L,02,020,000101,1055,-149.37225,61.448207999999994
143,27339 GOLDEN EAGLE CT,Anchorage,AK,99567,"27339 GOLDEN EAGLE CT, Anchorage, AK, 99567",Match,Non_Exact,"27339 GOLDEN EAGLE CT, CHUGIAK, AK, 99567",190807567,L,02,020,000101,1053,-149.37198,61.447685
144,25210 THUNDERBIRD DR,Anchorage,AK,99567,"25210 THUNDERBIRD DR, Anchorage, AK, 99567",Match,Non_Exact,"25210 THUNDERBIRD DR, CHUGIAK, AK, 99567",190807566,L,02,020,000101,1055,-149.37223999999998,61.447894999999995
145,27211 FALCON DR,Anchorage,AK,99567,"27211 FALCON DR, Anchorage, AK, 99567",Match,Non_Exact,"27211 FALCON DR, CHUGIAK, AK, 99567",190810383,R,02,020,000101,1055,-149.37468,61.447131999999996
146,25016 THUNDERBIRD DR,Anchorage,AK,99567,"25016 THUNDERBIRD DR, Anchorage, AK, 99567",Match,Non_Exact,"25016 THUNDERBIRD DR, CHUGIAK, AK, 99567",190805414,L,02,020,000101,1055,-149.3738,61.446262
147,24946 THUNDERBIRD DR,Anchorage,AK,99567,"24946 THUNDERBIRD DR, Anchorage, AK, 99567",Match,Non_Exact,"24946 THUNDERBIRD DR, CHUGIAK, AK, 99567",190805414,L,02,020,000101,1055,-149.37415,61.44534
148,24853 TEAL LOOP,Anchorage,AK,99567,"24853 TEAL LOOP, Anchorage, AK, 99567",Match,Non_Exact,"24853 TEAL LOOP, CHUGIAK, AK, 99567",190814665,L,02,020,000101,1053,-149.36761,61.444359999999996
149,24837 TEAL LOOP,Anchorage,AK,99567,"24837 TEAL LOOP, Anchorage, AK, 99567",Match,Non_Exact,"24837 TEAL LOOP, CHUGIAK, AK, 99567",190814665,L,02,020,000101,1053,-149.36741999999998,61.44452
150,24823 TEAL LOOP,Anchorage,AK,99567,"24823 TEAL LOOP, Anchorage, AK, 99567",Match,Non_Exact,"24823 TEAL LOOP, CHUGIAK, AK, 99567",190814665,L,02,020,000101,1053,-149.36716,61.444614
151,24865 TEAL LOOP,Anchorage,AK,99567,"24865 TEAL LOOP, Anchorage, AK, 99567",Match,Non_Exact,"24865 TEAL LOOP, CHUGIAK, AK, 99567",190814665,L,02,020,000101,1053,-149.36775,61.44424
152,24839 THUNDERBIRD DR,Anchorage,AK,99567,"24839 THUNDERBIRD DR, Anchorage, AK, 99567",Match,Non_Exact,"24839 THUNDERBIRD DR, CHUGIAK, AK, 99567",190805408,R,02,020,000101,1053,-149.37157,61.444309999999994
153,24743 TEAL LOOP,Anchorage,AK,99567,"24743 TEAL LOOP, Anchorage, AK, 99567",Match,Non_Exact,"24743 TEAL LOOP, CHUGIAK, AK, 99567",190814665,L,02,020,000101,1053,-149.36552,61.44419
154,22600 INLET VISTA DR,Anchorage,AK,99567,"22600 INLET VISTA DR, Anchorage, AK, 99567",Match,Non_Exact,"22600 INLET VISTA DR, CHUGIAK, AK, 99567",190813789,R,02,020,000101,3004,-149.48181,61.4245
155,21239 ORIGINAL AVE,Anchorage,AK,99567,"21239 ORIGINAL AVE, Anchorage, AK, 99567",Match,Non_Exact,"21239 ORIGINAL AVE, CHUGIAK, AK, 99567",190809813,L,02,020,000101,3003,-149.48764,61.42439
156,21219 ORIGINAL AVE,Anchorage,AK,99567,"21219 ORIGINAL AVE, Anchorage, AK, 99567",Match,Non_Exact,"21219 ORIGINAL AVE, CHUGIAK, AK, 99567",190809813,L,02,020,000101,3003,-149.48772,61.42439
157,21725 KNIK VISTA CT,Anchorage,AK,99567,"21725 KNIK VISTA CT, Anchorage, AK, 99567",Match,Non_Exact,"21725 KNIK VISTA CT, CHUGIAK, AK, 99567",190813785,L,02,020,000101,3004,-149.4783,61.424656000000006
158,22544 ROBINSON RD,Anchorage,AK,99567,"22544 ROBINSON RD, Anchorage, AK, 99567",Match,Non_Exact,"22544 ROBINSON RD, CHUGIAK, AK, 99567",190793191,L,02,020,000101,3034,-149.43327,61.424393
159,22616 URSA MAJOR CIR,Anchorage,AK,99567,"22616 URSA MAJOR CIR, Anchorage, AK, 99567",Match,Non_Exact,"22616 URSA MAJOR CIR, CHUGIAK, AK, 99567",190809829,R,02,020,000101,3007,-149.47194,61.424890000000005
160,22536 MILLER RD,Anchorage,AK,99567,"22536 MILLER RD, Anchorage, AK, 99567",Match,Non_Exact,"22536 MILLER RD, CHUGIAK, AK, 99567",190793321,R,02,020,000101,3035,-149.42600000000002,61.424225
161,21730 KNIK VISTA CT,Anchorage,AK,99567,"21730 KNIK VISTA CT, Anchorage, AK, 99567",Match,Non_Exact,"21730 KNIK VISTA CT, CHUGIAK, AK, 99567",190813785,R,02,020,000101,3009,-149.47826,61.424618
162,22502 SAMBAR LOOP,Anchorage,AK,99567,"22502 SAMBAR LOOP, Anchorage, AK, 99567",Match,Non_Exact,"22502 SAMBAR LOOP, CHUGIAK, AK, 99567",605336183,L,02,020,000101,3004,-149.4612,61.424065
163,22541 WHISPERING BIRCH CIR,Anchorage,AK,99567,"22541 WHISPERING BIRCH CIR, Anchorage, AK, 99567",Match,Non_Exact,"22541 WHISPERING BIRCH CIR, CHUGIAK, AK, 99567",190807520,R,02,020,000101,3016,-149.44995,61.42378000000001
164,22560 WHISPERING BIRCH CIR,Anchorage,AK,99567,"22560 WHISPERING BIRCH CIR, Anchorage, AK, 99567",Match,Non_Exact,"22560 WHISPERING BIRCH CIR, CHUGIAK, AK, 99567",190807520,L,02,020,000101,3016,-149.45004,61.423823999999996
165,22538 OAK KNOLL DR,Anchorage,AK,99567,"22538 OAK KNOLL DR, Anchorage, AK, 99567",Match,Non_Exact,"22538 OAK KNOLL DR, CHUGIAK, AK, 99567",190809825,L,02,020,000101,3007,-149.46817,61.4241
166,24337 RAMBLER RD,Anchorage,AK,99567,"24337 RAMBLER RD, Anchorage, AK, 99567",Match,Non_Exact,"24337 RAMBLER RD, CHUGIAK, AK, 99567",190793192,R,02,020,000101,3034,-149.42906000000002,61.42394
167,22546 INLET VISTA DR,Anchorage,AK,99567,"22546 INLET VISTA DR, Anchorage, AK, 99567",Match,Non_Exact,"22546 INLET VISTA DR, CHUGIAK, AK, 99567",190813789,R,02,020,000101,3004,-149.48218,61.424217000000006
168,22351 JUDD DR,Anchorage,AK,99567,"22351 JUDD DR, Anchorage, AK, 99567",Match,Non_Exact,"22351 JUDD DR, CHUGIAK, AK, 99567",190813775,R,02,020,000101,3007,-149.4781,61.422497
169,24057 DELILAH CIR,Anchorage,AK,99567,"24057 DELILAH CIR, Anchorage, AK, 99567",Match,Non_Exact,"24057 DELILAH CIR, CHUGIAK, AK, 99567",190807678,L,02,020,000101,3015,-149.43391,61.422183999999994
170,22336 INLET VISTA CIR,Anchorage,AK,99567,"22336 INLET VISTA CIR, Anchorage, AK, 99567",Match,Non_Exact,"22336 INLET VISTA CIR, CHUGIAK, AK, 99567",190813790,R,02,020,000101,3004,-149.48363,61.42243199999999
171,22359 DEER PARK DR,Anchorage,AK,99567,"22359 DEER PARK DR, Anchorage, AK, 99567",Match,Non_Exact,"22359 DEER PARK DR, CHUGIAK, AK, 99567",190810414,R,02,020,000101,3018,-149.4696,61.422534999999996
172,22316 JUDD DR,Anchorage,AK,99567,"22316 JUDD DR, Anchorage, AK, 99567",Match,Non_Exact,"22316 JUDD DR, CHUGIAK, AK, 99567",190813775,L,02,020,000101,3009,-149.47981000000001,61.422173
173,22324 SHADOWY SPRUCE DR,Anchorage,AK,99567,"22324 SHADOWY SPRUCE DR, Anchorage, AK, 99567",Match,Non_Exact,"22324 SHADOWY SPRUCE DR, CHUGIAK, AK, 99567",626833944,L,02,020,000101,3004,-149.44644,61.422706999999996
174,22326 DEER PARK DR,Anchorage,AK,99567,"22326 DEER PARK DR, Anchorage, AK, 99567",Match,Non_Exact,"22326 DEER PARK DR, CHUGIAK, AK, 99567",190810414,L,02,020,000101,3007,-149.47066999999998,61.42215699999999
175,22319 DAVIDSON DR,Anchorage,AK,99567,"22319 DAVIDSON DR, Anchorage, AK, 99567",Match,Non_Exact,"22319 DAVIDSON DR, CHUGIAK, AK, 99567",639716533,R,02,020,000101,3003,-149.48793,61.421402
176,22316 WHISPERING BIRCH DR,Anchorage,AK,99567,"22316 WHISPERING BIRCH DR, Anchorage, AK, 99567",Match,Non_Exact,"22316 WHISPERING BIRCH DR, CHUGIAK, AK, 99567",190807518,L,02,020,000101,3016,-149.45168999999999,61.422054
177,22445 SHADOWY SPRUCE DR,Anchorage,AK,99567,"22445 SHADOWY SPRUCE DR, Anchorage, AK, 99567",Match,Non_Exact,"22445 SHADOWY SPRUCE DR, CHUGIAK, AK, 99567",626833866,R,02,020,000101,3004,-149.44395,61.422237
178,22314 INLET VISTA CIR,Anchorage,AK,99567,"22314 INLET VISTA CIR, Anchorage, AK, 99567",Match,Non_Exact,"22314 INLET VISTA CIR, CHUGIAK, AK, 99567",190813790,R,02,020,000101,3004,-149.48366000000001,61.422380000000004
179,21928 ARMAS DR,Anchorage,AK,99567,"21928 ARMAS DR, Anchorage, AK, 99567",Match,Non_Exact,"21928 ARMAS DR, CHUGIAK, AK, 99567",190809820,L,02,020,000101,3007,-149.47243,61.422626
180,22306 SHADOWY SPRUCE DR,Anchorage,AK,99567,"22306 SHADOWY SPRUCE DR, Anchorage, AK, 99567",Match,Non_Exact,"22306 SHADOWY SPRUCE DR, CHUGIAK, AK, 99567",626833944,L,02,020,000101,3004,-149.44693,61.42253
181,22324 DAVIDSON DR,Anchorage,AK,99567,"22324 DAVIDSON DR, Anchorage, AK, 99567",Match,Non_Exact,"22324 DAVIDSON DR, CHUGIAK, AK, 99567",639716533,L,02,020,000101,3003,-149.48795,61.421459999999996
182,22307 DAVIDSON DR,Anchorage,AK,99567,"22307 DAVIDSON DR, Anchorage, AK, 99567",Match,Non_Exact,"22307 DAVIDSON DR, CHUGIAK, AK, 99567",639716533,R,02,020,000101,3003,-149.48793,61.42129499999999
183,21666 TONY CIR,Anchorage,AK,99567,"21666 TONY CIR, Anchorage, AK, 99567",Match,Non_Exact,"21666 TONY CIR, CHUGIAK, AK, 99567",190807444,R,02,020,000101,2055,-149.41283,61.416343999999995
184,21528 TONY CIR,Anchorage,AK,99567,"21528 TONY CIR, Anchorage, AK, 99567",Match,Non_Exact,"21528 TONY CIR, CHUGIAK, AK, 99567",190807444,R,02,020,000101,2055,-149.41438,61.41534
185,25295 HOMESTEAD RD,Anchorage,AK,99567,"25295 HOMESTEAD RD, Anchorage, AK, 99567",Match,Non_Exact,"25295 HOMESTEAD RD, CHUGIAK, AK, 99567",190807442,R,02,020,000101,2055,-149.411,61.413883
186,25275 HOMESTEAD RD,Anchorage,AK,99567,"25275 HOMESTEAD RD, Anchorage, AK, 99567",Match,Non_Exact,"25275 HOMESTEAD RD, CHUGIAK, AK, 99567",190807442,R,02,020,000101,2055,-149.4113,61.4136
187,25255 HOMESTEAD RD,Anchorage,AK,99567,"25255 HOMESTEAD RD, Anchorage, AK, 99567",Match,Non_Exact,"25255 HOMESTEAD RD, CHUGIAK, AK, 99567",190807442,R,02,020,000101,2055,-149.41171,61.41335
188,25221 HOMESTEAD RD,Anchorage,AK,99567,"25221 HOMESTEAD RD, Anchorage, AK, 99567",Match,Non_Exact,"25221 HOMESTEAD RD, CHUGIAK, AK, 99567",190807442,R,02,020,000101,2055,-149.41243,61.41291999999999
189,24835 FASSLER CIR,Anchorage,AK,99567,"24835 FASSLER CIR, Anchorage, AK, 99567",Match,Non_Exact,"24835 FASSLER CIR, CHUGIAK, AK, 99567",190827385,R,02,020,000101,2055,-149.41971999999998,61.413074
190,24813 FASSLER CIR,Anchorage,AK,99567,"24813 FASSLER CIR, Anchorage, AK, 99567",Match,Non_Exact,"24813 FASSLER CIR, CHUGIAK, AK, 99567",190827385,R,02,020,000101,2055,-149.41988999999998,61.413074
191,24847 FASSLER CIR,Anchorage,AK,99567,"24847 FASSLER CIR, Anchorage, AK, 99567",Match,Non_Exact,"24847 FASSLER CIR, CHUGIAK, AK, 99567",190827385,R,02,020,000101,2055,-149.41963,61.41307
192,25033 HOMESTEAD RD,Anchorage,AK,99567,"25033 HOMESTEAD RD, Anchorage, AK, 99567",Match,Non_Exact,"25033 HOMESTEAD RD, CHUGIAK, AK, 99567",614874227,R,02,020,000101,2055,-149.41858,61.412193
193,25013 HOMESTEAD RD,Anchorage,AK,99567,"25013 HOMESTEAD RD, Anchorage, AK, 99567",No_Match,,,,,,,,,,
194,25045 HOMESTEAD RD,Anchorage,AK,99567,"25045 HOMESTEAD RD, Anchorage, AK, 99567",Match,Non_Exact,"25045 HOMESTEAD RD, CHUGIAK, AK, 99567",614874227,R,02,020,000101,2055,-149.41805,61.412409999999994
195,24959 HOMESTEAD RD,Anchorage,AK,99567,"24959 HOMESTEAD RD, Anchorage, AK, 99567",No_Match,,,,,,,,,,
196,25115 HOMESTEAD RD,Anchorage,AK,99567,"25115 HOMESTEAD RD, Anchorage, AK, 99567",No_Match,,,,,,,,,,
197,24945 HOMESTEAD RD,Anchorage,AK,99567,"24945 HOMESTEAD RD, Anchorage, AK, 99567",No_Match,,,,,,,,,,
198,21323 MONRON ST,Anchorage,AK,99567,"21323 MONRON ST, Anchorage, AK, 99567",Match,Non_Exact,"21323 MONRON ST, CHUGIAK, AK, 99567",190823145,R,02,020,000101,2055,-149.42003,61.41356700000001
199,24931 HOMESTEAD RD,Anchorage,AK,99567,"24931 HOMESTEAD RD, Anchorage, AK, 99567",No_Match,,,,,,,,,,
200,21254 MEADOW LAKE DR,Anchorage,AK,99567,"21254 MEADOW LAKE DR, Anchorage, AK, 99567",Match,Non_Exact,"21254 MEADOW LAKE DR, CHUGIAK, AK, 99567",190793411,L,02,020,000101,2051,-149.41423,61.41234
201,21240 MEADOW LAKE DR,Anchorage,AK,99567,"21240 MEADOW LAKE DR, Anchorage, AK, 99567",Match,Non_Exact,"21240 MEADOW LAKE DR, CHUGIAK, AK, 99567",190793411,L,02,020,000101,2051,-149.4143,61.41220500000001
202,21255 MONRON ST,Anchorage,AK,99567,"21255 MONRON ST, Anchorage, AK, 99567",Match,Non_Exact,"21255 MONRON ST, CHUGIAK, AK, 99567",637321385,R,02,020,000101,2055,-149.42003,61.412434
203,21226 MEADOW LAKE DR,Anchorage,AK,99567,"21226 MEADOW LAKE DR, Anchorage, AK, 99567",Match,Non_Exact,"21226 MEADOW LAKE DR, CHUGIAK, AK, 99567",190793411,L,02,020,000101,2051,-149.41438,61.41206999999999
204,21212 MEADOW LAKE DR,Anchorage,AK,99567,"21212 MEADOW LAKE DR, Anchorage, AK, 99567",Match,Non_Exact,"21212 MEADOW LAKE DR, CHUGIAK, AK, 99567",190793411,L,02,020,000101,2051,-149.41447,61.411938
205,25135 MEADOW RIDGE CT,Anchorage,AK,99567,"25135 MEADOW RIDGE CT, Anchorage, AK, 99567",Match,Non_Exact,"25135 MEADOW RIDGE CT, CHUGIAK, AK, 99567",190823147,L,02,020,000101,2050,-149.41338000000002,61.41174
206,25151 MEADOW RIDGE CT,Anchorage,AK,99567,"25151 MEADOW RIDGE CT, Anchorage, AK, 99567",Match,Non_Exact,"25151 MEADOW RIDGE CT, CHUGIAK, AK, 99567",190823147,L,02,020,000101,2050,-149.4132,61.41174
207,21132 MEADOW LAKE DR,Anchorage,AK,99567,"21132 MEADOW LAKE DR, Anchorage, AK, 99567",Match,Non_Exact,"21132 MEADOW LAKE DR, CHUGIAK, AK, 99567",190793412,L,02,020,000101,2051,-149.41541999999998,61.410847
208,21140 COUNTRY VIEW DR,Anchorage,AK,99567,"21140 COUNTRY VIEW DR, Anchorage, AK, 99567",Match,Non_Exact,"21140 COUNTRY VIEW DR, CHUGIAK, AK, 99567",190793413,R,02,020,000101,2059,-149.41443,61.410698
209,21112 MEADOW LAKE DR,Anchorage,AK,99567,"21112 MEADOW LAKE DR, Anchorage, AK, 99567",Match,Non_Exact,"21112 MEADOW LAKE DR, CHUGIAK, AK, 99567",190793412,L,02,020,000101,2051,-149.41558999999998,61.410675
210,21050 MEADOW LAKE DR,Anchorage,AK,99567,"21050 MEADOW LAKE DR, Anchorage, AK, 99567",Match,Non_Exact,"21050 MEADOW LAKE DR, CHUGIAK, AK, 99567",190793412,L,02,020,000101,2051,-149.41608,61.410140000000006
211,21030 MEADOW LAKE DR,Anchorage,AK,99567,"21030 MEADOW LAKE DR, Anchorage, AK, 99567",Match,Non_Exact,"21030 MEADOW LAKE DR, CHUGIAK, AK, 99567",190793412,L,02,020,000101,2051,-149.41624,61.409969999999994
212,22223 DAVIDSON DR,Anchorage,AK,99567,"22223 DAVIDSON DR, Anchorage, AK, 99567",Match,Non_Exact,"22223 DAVIDSON DR, CHUGIAK, AK, 99567",639716533,R,02,020,000101,3003,-149.48842,61.42075
213,22225 KNIK VISTA ST,Anchorage,AK,99567,"22225 KNIK VISTA ST, Anchorage, AK, 99567",Match,Non_Exact,"22225 KNIK VISTA ST, CHUGIAK, AK, 99567",626833886,R,02,020,000101,3007,-149.48012,61.42108
214,22224 OBERG RD,Anchorage,AK,99567,"22224 OBERG RD, Anchorage, AK, 99567",Match,Non_Exact,"22224 OBERG RD, CHUGIAK, AK, 99567",635209302,L,02,020,000101,3018,-149.4615,61.42143000000001
215,23351 NORTHWOODS CIR,Anchorage,AK,99567,"23351 NORTHWOODS CIR, Anchorage, AK, 99567",Match,Non_Exact,"23351 NORTHWODS CIR, CHUGIAK, AK, 99567",635158646,L,02,020,000101,3004,-149.44707,61.420906
216,23245 NORTHWOODS DR,Anchorage,AK,99567,"23245 NORTHWOODS DR, Anchorage, AK, 99567",Match,Non_Exact,"23245 NORTHWOODS DR, CHUGIAK, AK, 99567",190807517,L,02,020,000101,3004,-149.45023,61.420937
217,23215 NORTHWOODS DR,Anchorage,AK,99567,"23215 NORTHWOODS DR, Anchorage, AK, 99567",Match,Non_Exact,"23215 NORTHWOODS DR, CHUGIAK, AK, 99567",190807517,L,02,020,000101,3004,-149.45065,61.420937
218,23375 NORTHWOODS CIR,Anchorage,AK,99567,"23375 NORTHWOODS CIR, Anchorage, AK, 99567",Match,Non_Exact,"23375 NORTHWODS CIR, CHUGIAK, AK, 99567",635158646,L,02,020,000101,3004,-149.44682,61.42086
219,23019 NORTHWOODS DR,Anchorage,AK,99567,"23019 NORTHWOODS DR, Anchorage, AK, 99567",Match,Non_Exact,"23019 NORTHWOODS DR, CHUGIAK, AK, 99567",190807515,L,02,020,000101,3016,-149.45462,61.42049
220,23401 NORTHWOODS CIR,Anchorage,AK,99567,"23401 NORTHWOODS CIR, Anchorage, AK, 99567",Match,Non_Exact,"23401 NORTHWODS CIR, CHUGIAK, AK, 99567",635158646,L,02,020,000101,3004,-149.44658,61.420788
221,22207 DEER PARK DR,Anchorage,AK,99567,"22207 DEER PARK DR, Anchorage, AK, 99567",Match,Non_Exact,"22207 DEER PARK DR, CHUGIAK, AK, 99567",190807493,R,02,020,000101,3018,-149.47054,61.4208
222,23005 NORTHWOODS DR,Anchorage,AK,99567,"23005 NORTHWOODS DR, Anchorage, AK, 99567",Match,Non_Exact,"23005 NORTHWOODS DR, CHUGIAK, AK, 99567",190807515,L,02,020,000101,3016,-149.4548,61.420353000000006
223,22200 OBERG RD,Anchorage,AK,99567,"22200 OBERG RD, Anchorage, AK, 99567",Match,Non_Exact,"22200 OBERG RD, CHUGIAK, AK, 99567",635209302,L,02,020,000101,3018,-149.46178999999998,61.4212
224,22158 DAVIDSON DR,Anchorage,AK,99567,"22158 DAVIDSON DR, Anchorage, AK, 99567",Match,Non_Exact,"22158 DAVIDSON DR, CHUGIAK, AK, 99567",639716533,L,02,020,000101,3003,-149.48962,61.420759999999994
225,22230 BIRCH CREEK DR,Anchorage,AK,99567,"22230 BIRCH CREEK DR, Anchorage, AK, 99567",Match,Non_Exact,"22230 BIRCH CREEK DR, CHUGIAK, AK, 99567",614867239,L,02,020,000101,3004,-149.48169,61.42071
226,22021 FAWN LN,Anchorage,AK,99567,"22021 FAWN LN, Anchorage, AK, 99567",Match,Non_Exact,"22021 FAWN LN, CHUGIAK, AK, 99567",190826012,R,02,020,000101,3007,-149.47406,61.420765
227,21831 FAWN LN,Anchorage,AK,99567,"21831 FAWN LN, Anchorage, AK, 99567",Match,Non_Exact,"21831 FAWN LN, CHUGIAK, AK, 99567",190826012,R,02,020,000101,3007,-149.47595,61.420765
228,22150 SAMPSON DR,Anchorage,AK,99567,"22150 SAMPSON DR, Anchorage, AK, 99567",Match,Non_Exact,"22150 SAMPSON DR, CHUGIAK, AK, 99567",190807675,L,02,020,000101,3004,-149.43176,61.42077
229,22200 BIRCH CREEK DR,Anchorage,AK,99567,"22200 BIRCH CREEK DR, Anchorage, AK, 99567",Match,Non_Exact,"22200 BIRCH CREEK DR, CHUGIAK, AK, 99567",614867239,L,02,020,000101,3004,-149.48203,61.420628
230,22991 NORTHWOODS DR,Anchorage,AK,99567,"22991 NORTHWOODS DR, Anchorage, AK, 99567",Match,Non_Exact,"22991 NORTHWOODS DR, CHUGIAK, AK, 99567",190807515,L,02,020,000101,3016,-149.45494,61.4202
231,22231 BIRCH CREEK DR,Anchorage,AK,99567,"22231 BIRCH CREEK DR, Anchorage, AK, 99567",Match,Non_Exact,"22231 BIRCH CREEK DR, CHUGIAK, AK, 99567",614867239,R,02,020,000101,3004,-149.48305,61.42014
232,21846 FAWN LN,Anchorage,AK,99567,"21846 FAWN LN, Anchorage, AK, 99567",Match,Non_Exact,"21846 FAWN LN, CHUGIAK, AK, 99567",190826012,L,02,020,000101,3012,-149.47565,61.420753000000005
233,22121 DAVIDSON DR,Anchorage,AK,99567,"22121 DAVIDSON DR, Anchorage, AK, 99567",Match,Non_Exact,"22121 DAVIDSON DR, CHUGIAK, AK, 99567",639716533,R,02,020,000101,3003,-149.49036,61.42075
234,22127 DAVIDSON DR,Anchorage,AK,99567,"22127 DAVIDSON DR, Anchorage, AK, 99567",Match,Non_Exact,"22127 DAVIDSON DR, CHUGIAK, AK, 99567",639716533,R,02,020,000101,3003,-149.49023,61.42075
235,21970 SOUTHEAST APRON RD,Anchorage,AK,99567,"21970 SOUTHEAST APRON RD, Anchorage, AK, 99567",No_Match,,,,,,,,,,
236,20100 BIRCHWOOD SPUR RD,Anchorage,AK,99567,"20100 BIRCHWOOD SPUR RD, Anchorage, AK, 99567",No_Match,,,,,,,,,,
237,20748 BIRCHWOOD SPUR RD,Anchorage,AK,99567,"20748 BIRCHWOOD SPUR RD, Anchorage, AK, 99567",No_Match,,,,,,,,,,
238,21950 SOUTHEAST APRON RD,Anchorage,AK,99567,"21950 SOUTHEAST APRON RD, Anchorage, AK, 99567",No_Match,,,,,,,,,,
239,38395 ROCHELLE AVE,Anchorage,AK,99567,"38395 ROCHELLE AVE, Anchorage, AK, 99567",No_Match,,,,,,,,,,
240,38351 ROCHELLE AVE,Anchorage,AK,99567,"38351 ROCHELLE AVE, Anchorage, AK, 99567",No_Match,,,,,,,,,,
241,38399 ROCHELLE AVE,Anchorage,AK,99567,"38399 ROCHELLE AVE, Anchorage, AK, 99567",No_Match,,,,,,,,,,
242,38200 ROCHELLE AVE,Anchorage,AK,99567,"38200 ROCHELLE AVE, Anchorage, AK, 99567",No_Match,,,,,,,,,,
243,38150 ROCHELLE AVE,Anchorage,AK,99567,"38150 ROCHELLE AVE, Anchorage, AK, 99567",No_Match,,,,,,,,,,
244,38000 ROCHELLE AVE,Anchorage,AK,99567,"38000 ROCHELLE AVE, Anchorage, AK, 99567",No_Match,,,,,,,,,,
245,38397 RAYMOND AVE,Anchorage,AK,99567,"38397 RAYMOND AVE, Anchorage, AK, 99567",Match,Non_Exact,"38397 RAYMOND AVE, CHUGIAK, AK, 99567",190823031,R,02,020,000101,1047,-149.19627,61.41955
246,21588 CHEELY'S LN,Anchorage,AK,99567,"21588 CHEELY'S LN, Anchorage, AK, 99567",Match,Non_Exact,"21588 CHEELY'S LN, CHUGIAK, AK, 99567",624670752,L,02,020,000101,1047,-149.19618,61.419975
247,38355 RAYMOND AVE,Anchorage,AK,99567,"38355 RAYMOND AVE, Anchorage, AK, 99567",Match,Non_Exact,"38355 RAYMOND AVE, CHUGIAK, AK, 99567",190823031,R,02,020,000101,1047,-149.19662,61.41965
248,36982 EKLUTNA LAKE RD,Anchorage,AK,99567,"36982 EKLUTNA LAKE RD, Anchorage, AK, 99567",No_Match,,,,,,,,,,
249,37590 EKLUTNA LAKE RD,Anchorage,AK,99567,"37590 EKLUTNA LAKE RD, Anchorage, AK, 99567",Match,Non_Exact,"37590 EKLUTNA LAKE RD, CHUGIAK, AK, 99567",637327463,R,02,020,000101,1051,-149.1764,61.41426
250,37586 EKLUTNA LAKE RD,Anchorage,AK,99567,"37586 EKLUTNA LAKE RD, Anchorage, AK, 99567",Match,Non_Exact,"37586 EKLUTNA LAKE RD, CHUGIAK, AK, 99567",637327463,R,02,020,000101,1051,-149.17699,61.41433000000001
251,39375 EKLUTNA LAKE RD,Anchorage,AK,99567,"39375 EKLUTNA LAKE RD, Anchorage, AK, 99567",Match,Non_Exact,"39375 EKLUTNA LAKE RD, CHUGIAK, AK, 99567",190793748,L,02,020,000101,2078,-149.14473,61.41065
252,25165 PRINCE CIR,Anchorage,AK,99567,"25165 PRINCE CIR, Anchorage, AK, 99567",Match,Non_Exact,"25165 PRINCE CIR, CHUGIAK, AK, 99567",190807439,L,02,020,000101,2050,-149.4126,61.41805600000001
253,25145 PRINCE CIR,Anchorage,AK,99567,"25145 PRINCE CIR, Anchorage, AK, 99567",Match,Non_Exact,"25145 PRINCE CIR, CHUGIAK, AK, 99567",190807439,L,02,020,000101,2050,-149.41295,61.417984
254,25115 PRINCE CIR,Anchorage,AK,99567,"25115 PRINCE CIR, Anchorage, AK, 99567",Match,Non_Exact,"25115 PRINCE CIR, CHUGIAK, AK, 99567",190807439,L,02,020,000101,2050,-149.41347,61.417880000000004
255,25051 PRINCE CIR,Anchorage,AK,99567,"25051 PRINCE CIR, Anchorage, AK, 99567",Match,Non_Exact,"25051 PRINCE CIR, CHUGIAK, AK, 99567",190807439,L,02,020,000101,2050,-149.41457,61.41765600000001
256,25385 SCHAFF DR,Anchorage,AK,99567,"25385 SCHAFF DR, Anchorage, AK, 99567",Match,Non_Exact,"25385 SCHAFF DR, CHUGIAK, AK, 99567",190807443,L,02,020,000101,2050,-149.41087,61.41713299999999
257,25439 SCHAFF DR,Anchorage,AK,99567,"25439 SCHAFF DR, Anchorage, AK, 99567",Match,Non_Exact,"25439 SCHAFF DR, CHUGIAK, AK, 99567",190807443,L,02,020,000101,2050,-149.41054,61.417190000000005
258,24980 SCHAFF DR,Anchorage,AK,99567,"24980 SCHAFF DR, Anchorage, AK, 99567",Match,Non_Exact,"24980 SCHAFF DR, CHUGIAK, AK, 99567",190807440,L,02,020,000101,2060,-149.41652,61.41692
259,25249 SCHAFF DR,Anchorage,AK,99567,"25249 SCHAFF DR, Anchorage, AK, 99567",Match,Non_Exact,"25249 SCHAFF DR, CHUGIAK, AK, 99567",190807443,L,02,020,000101,2050,-149.41176000000002,61.41699200000001
260,24996 SCHAFF DR,Anchorage,AK,99567,"24996 SCHAFF DR, Anchorage, AK, 99567",Match,Non_Exact,"24996 SCHAFF DR, CHUGIAK, AK, 99567",190807440,L,02,020,000101,2060,-149.41638,61.41676
261,25221 SCHAFF DR,Anchorage,AK,99567,"25221 SCHAFF DR, Anchorage, AK, 99567",Match,Non_Exact,"25221 SCHAFF DR, CHUGIAK, AK, 99567",190807443,L,02,020,000101,2050,-149.41193,61.416959999999996
262,24997 SCHAFF DR,Anchorage,AK,99567,"24997 SCHAFF DR, Anchorage, AK, 99567",Match,Non_Exact,"24997 SCHAFF DR, CHUGIAK, AK, 99567",190807440,R,02,020,000101,2050,-149.41644,61.41685
263,25145 SCHAFF DR,Anchorage,AK,99567,"25145 SCHAFF DR, Anchorage, AK, 99567",Match,Non_Exact,"25145 SCHAFF DR, CHUGIAK, AK, 99567",190807443,L,02,020,000101,2050,-149.41241000000002,61.416880000000006
264,24937 JESSE LEE CT,Anchorage,AK,99567,"24937 JESSE LEE CT, Anchorage, AK, 99567",Match,Non_Exact,"24937 JESSE LEE CT, CHUGIAK, AK, 99567",190807437,L,02,020,000101,2060,-149.4174,61.416343999999995
265,24851 JESSE LEE CT,Anchorage,AK,99567,"24851 JESSE LEE CT, Anchorage, AK, 99567",Match,Non_Exact,"24851 JESSE LEE CT, CHUGIAK, AK, 99567",190807437,L,02,020,000101,2060,-149.41887,61.416336
266,24821 JESSE LEE CT,Anchorage,AK,99567,"24821 JESSE LEE CT, Anchorage, AK, 99567",Match,Non_Exact,"24821 JESSE LEE CT, CHUGIAK, AK, 99567",190807437,L,02,020,000101,2060,-149.41939,61.416336
267,21010 MEADOW LAKE DR,Anchorage,AK,99567,"21010 MEADOW LAKE DR, Anchorage, AK, 99567",Match,Non_Exact,"21010 MEADOW LAKE DR, CHUGIAK, AK, 99567",190793412,L,02,020,000101,2051,-149.4164,61.4098
268,21008 COUNTRY VIEW DR,Anchorage,AK,99567,"21008 COUNTRY VIEW DR, Anchorage, AK, 99567",Match,Non_Exact,"21008 COUNTRY VIEW DR, CHUGIAK, AK, 99567",190793413,R,02,020,000101,2059,-149.41571000000002,61.409380000000006
269,21025 FERNDALE ST,Anchorage,AK,99567,"21025 FERNDALE ST, Anchorage, AK, 99567",Match,Non_Exact,"21025 FERNDALE ST, CHUGIAK, AK, 99567",190813833,L,02,020,000101,2051,-149.42001000000002,61.409957999999996
270,20948 MEADOW LAKE DR,Anchorage,AK,99567,"20948 MEADOW LAKE DR, Anchorage, AK, 99567",Match,Non_Exact,"20948 MEADOW LAKE DR, CHUGIAK, AK, 99567",190793412,L,02,020,000101,2051,-149.41711,61.40934
271,20930 COUNTRY VIEW DR,Anchorage,AK,99567,"20930 COUNTRY VIEW DR, Anchorage, AK, 99567",Match,Non_Exact,"20930 COUNTRY VIEW DR, CHUGIAK, AK, 99567",190793413,R,02,020,000101,2059,-149.41675,61.408671999999996
272,20928 MEADOW LAKE DR,Anchorage,AK,99567,"20928 MEADOW LAKE DR, Anchorage, AK, 99567",Match,Non_Exact,"20928 MEADOW LAKE DR, CHUGIAK, AK, 99567",190793412,L,02,020,000101,2051,-149.4174,61.409214
273,20910 COUNTRY VIEW DR,Anchorage,AK,99567,"20910 COUNTRY VIEW DR, Anchorage, AK, 99567",Match,Non_Exact,"20910 COUNTRY VIEW DR, CHUGIAK, AK, 99567",190793413,R,02,020,000101,2059,-149.41705,61.408512
274,20908 MEADOW LAKE DR,Anchorage,AK,99567,"20908 MEADOW LAKE DR, Anchorage, AK, 99567",Match,Non_Exact,"20908 MEADOW LAKE DR, CHUGIAK, AK, 99567",190793412,L,02,020,000101,2051,-149.4177,61.409084
275,20850 MEADOW LAKE DR,Anchorage,AK,99567,"20850 MEADOW LAKE DR, Anchorage, AK, 99567",Match,Non_Exact,"20850 MEADOW LAKE DR, CHUGIAK, AK, 99567",190793412,L,02,020,000101,2051,-149.41856,61.408737
276,20850 COUNTRY VIEW DR,Anchorage,AK,99567,"20850 COUNTRY VIEW DR, Anchorage, AK, 99567",Match,Non_Exact,"20850 COUNTRY VIEW DR, CHUGIAK, AK, 99567",190793413,R,02,020,000101,2059,-149.41815,61.408203
277,20820 MEADOW LAKE DR,Anchorage,AK,99567,"20820 MEADOW LAKE DR, Anchorage, AK, 99567",Match,Non_Exact,"20820 MEADOW LAKE DR, CHUGIAK, AK, 99567",190793412,L,02,020,000101,2051,-149.41905,61.408590000000004
278,20820 COUNTRY VIEW DR,Anchorage,AK,99567,"20820 COUNTRY VIEW DR, Anchorage, AK, 99567",Match,Non_Exact,"20820 COUNTRY VIEW DR, CHUGIAK, AK, 99567",190793413,R,02,020,000101,2059,-149.41884,61.408207
279,25057 SIERRA MESA CIR,Anchorage,AK,99567,"25057 SIERRA MESA CIR, Anchorage, AK, 99567",Match,Non_Exact,"25057 SIERRA MESA CIR, CHUGIAK, AK, 99567",190807468,L,02,020,000101,2050,-149.41502,61.400105
280,25037 SIERRA MESA CIR,Anchorage,AK,99567,"25037 SIERRA MESA CIR, Anchorage, AK, 99567",Match,Non_Exact,"25037 SIERRA MESA CIR, CHUGIAK, AK, 99567",190807468,L,02,020,000101,2050,-149.41579,61.400135
281,25069 SIERRA MESA CIR,Anchorage,AK,99567,"25069 SIERRA MESA CIR, Anchorage, AK, 99567",Match,Non_Exact,"25069 SIERRA MESA CIR, CHUGIAK, AK, 99567",190807468,L,02,020,000101,2050,-149.41461,61.40000500000001
282,25013 SIERRA MESA CIR,Anchorage,AK,99567,"25013 SIERRA MESA CIR, Anchorage, AK, 99567",Match,Non_Exact,"25013 SIERRA MESA CIR, CHUGIAK, AK, 99567",190807468,L,02,020,000101,2050,-149.41658,61.399937
283,19891 THORNTON ST,Anchorage,AK,99567,"19891 THORNTON ST, Anchorage, AK, 99567",Match,Non_Exact,"19891 THORNTON ST, CHUGIAK, AK, 99567",190793407,L,02,020,000101,2050,-149.42001000000002,61.399826000000004
284,25081 SIERRA MESA CIR,Anchorage,AK,99567,"25081 SIERRA MESA CIR, Anchorage, AK, 99567",Match,Non_Exact,"25081 SIERRA MESA CIR, CHUGIAK, AK, 99567",190807468,L,02,020,000101,2050,-149.41429,61.399853
285,25005 SIERRA MESA CIR,Anchorage,AK,99567,"25005 SIERRA MESA CIR, Anchorage, AK, 99567",Match,Non_Exact,"25005 SIERRA MESA CIR, CHUGIAK, AK, 99567",190807468,L,02,020,000101,2050,-149.41678000000002,61.399826000000004
286,19801 THORNTON ST,Anchorage,AK,99567,"19801 THORNTON ST, Anchorage, AK, 99567",Match,Non_Exact,"19801 THORNTON ST, CHUGIAK, AK, 99567",190793407,L,02,020,000101,2050,-149.42001000000002,61.399174
287,25112 SIERRA MESA CIR,Anchorage,AK,99567,"25112 SIERRA MESA CIR, Anchorage, AK, 99567",Match,Non_Exact,"25112 SIERRA MESA CIR, CHUGIAK, AK, 99567",190807468,R,02,020,000101,2058,-149.41402,61.399296
288,24964 SIERRA MESA CIR,Anchorage,AK,99567,"24964 SIERRA MESA CIR, Anchorage, AK, 99567",Match,Non_Exact,"24964 SIERRA MESA CIR, CHUGIAK, AK, 99567",190807468,R,02,020,000101,2058,-149.41704,61.399119999999996
289,25141 SIERRA MESA CIR,Anchorage,AK,99567,"25141 SIERRA MESA CIR, Anchorage, AK, 99567",Match,Non_Exact,"25141 SIERRA MESA CIR, CHUGIAK, AK, 99567",190807468,L,02,020,000101,2050,-149.41398999999998,61.398790000000005
290,19767 THORNTON ST,Anchorage,AK,99567,"19767 THORNTON ST, Anchorage, AK, 99567",Match,Non_Exact,"19767 THORNTON ST, CHUGIAK, AK, 99567",190793407,L,02,020,000101,2050,-149.42001000000002,61.398926
291,25138 SIERRA MESA CIR,Anchorage,AK,99567,"25138 SIERRA MESA CIR, Anchorage, AK, 99567",Match,Non_Exact,"25138 SIERRA MESA CIR, CHUGIAK, AK, 99567",190807468,R,02,020,000101,2058,-149.41402,61.398823
292,24948 SIERRA MESA CIR,Anchorage,AK,99567,"24948 SIERRA MESA CIR, Anchorage, AK, 99567",Match,Non_Exact,"24948 SIERRA MESA CIR, CHUGIAK, AK, 99567",190807468,R,02,020,000101,2058,-149.41704,61.398830000000004
293,24949 SIERRA MESA CIR,Anchorage,AK,99567,"24949 SIERRA MESA CIR, Anchorage, AK, 99567",Match,Non_Exact,"24949 SIERRA MESA CIR, CHUGIAK, AK, 99567",190807468,L,02,020,000101,2050,-149.41705,61.398830000000004
294,19639 THORNTON ST,Anchorage,AK,99567,"19639 THORNTON ST, Anchorage, AK, 99567",Match,Non_Exact,"19639 THORNTON ST, CHUGIAK, AK, 99567",190793407,L,02,020,000101,2050,-149.42001000000002,61.397994999999995
295,25037 MALCOLM DR,Anchorage,AK,99567,"25037 MALCOLM DR, Anchorage, AK, 99567",Match,Non_Exact,"25037 MALCOLM DR, CHUGIAK, AK, 99567",190810522,L,02,020,000101,2058,-149.41429,61.397445999999995
296,25125 MALCOLM DR,Anchorage,AK,99567,"25125 MALCOLM DR, Anchorage, AK, 99567",No_Match,,,,,,,,,,
297,24947 MALCOLM DR,Anchorage,AK,99567,"24947 MALCOLM DR, Anchorage, AK, 99567",Match,Non_Exact,"24947 MALCOLM DR, CHUGIAK, AK, 99567",190810522,L,02,020,000101,2058,-149.41618,61.397445999999995
298,24901 MALCOLM DR,Anchorage,AK,99567,"24901 MALCOLM DR, Anchorage, AK, 99567",Match,Non_Exact,"24901 MALCOLM DR, CHUGIAK, AK, 99567",190793415,L,02,020,000101,2050,-149.41978,61.39745
299,19515 SULLINS DR,Anchorage,AK,99567,"19515 SULLINS DR, Anchorage, AK, 99567",Match,Non_Exact,"19515 SULLINS DR, CHUGIAK, AK, 99567",605186299,L,02,020,000101,2073,-149.42332,61.396193999999994
300,25124 KOLLANDER DR,Anchorage,AK,99567,"25124 KOLLANDER DR, Anchorage, AK, 99567",No_Match,,,,,,,,,,
301,19495 SULLINS DR,Anchorage,AK,99567,"19495 SULLINS DR, Anchorage, AK, 99567",Match,Non_Exact,"19495 SULLINS DR, CHUGIAK, AK, 99567",605186299,L,02,020,000101,2073,-149.42348,61.39605699999999
302,22155 DAVIDSON DR,Anchorage,AK,99567,"22155 DAVIDSON DR, Anchorage, AK, 99567",Match,Non_Exact,"22155 DAVIDSON DR, CHUGIAK, AK, 99567",639716533,R,02,020,000101,3003,-149.4897,61.42075
303,22144 BIRCH CREEK DR,Anchorage,AK,99567,"22144 BIRCH CREEK DR, Anchorage, AK, 99567",Match,Non_Exact,"22144 BIRCH CREEK DR, CHUGIAK, AK, 99567",614867239,L,02,020,000101,3004,-149.48256999999998,61.420418000000005
304,23501 NORTHWOODS CIR,Anchorage,AK,99567,"23501 NORTHWOODS CIR, Anchorage, AK, 99567",Match,Non_Exact,"23501 NORTHWODS CIR, CHUGIAK, AK, 99567",635158646,L,02,020,000101,3004,-149.44586,61.420418000000005
305,23254 NORTHWOODS DR,Anchorage,AK,99567,"23254 NORTHWOODS DR, Anchorage, AK, 99567",Match,Non_Exact,"23254 NORTHWOODS DR, CHUGIAK, AK, 99567",635158646,R,02,020,000101,3004,-149.44843,61.420930000000006
306,23525 NORTHWOODS CIR,Anchorage,AK,99567,"23525 NORTHWOODS CIR, Anchorage, AK, 99567",Match,Non_Exact,"23525 NORTHWODS CIR, CHUGIAK, AK, 99567",635158646,L,02,020,000101,3004,-149.44563,61.420359999999995
307,22175 KNIK VISTA ST,Anchorage,AK,99567,"22175 KNIK VISTA ST, Anchorage, AK, 99567",Match,Non_Exact,"22175 KNIK VISTA ST, CHUGIAK, AK, 99567",635209563,R,02,020,000101,3007,-149.48004,61.42049
308,22136 MAYTAG ST,Anchorage,AK,99567,"22136 MAYTAG ST, Anchorage, AK, 99567",Match,Non_Exact,"22136 MAYTAG ST, CHUGIAK, AK, 99567",190813767,L,02,020,000101,3007,-149.47664,61.419655000000006
309,23420 NORTHWOODS CIR,Anchorage,AK,99567,"23420 NORTHWOODS CIR, Anchorage, AK, 99567",No_Match,,,,,,,,,,
310,22149 DEER CIR,Anchorage,AK,99567,"22149 DEER CIR, Anchorage, AK, 99567",Match,Non_Exact,"22149 DEER CIR, CHUGIAK, AK, 99567",190807505,L,02,020,000101,3012,-149.4719,61.420216
311,23350 NORTHWOODS CIR,Anchorage,AK,99567,"23350 NORTHWOODS CIR, Anchorage, AK, 99567",No_Match,,,,,,,,,,
312,22145 BIRCH CREEK DR,Anchorage,AK,99567,"22145 BIRCH CREEK DR, Anchorage, AK, 99567",Match,Non_Exact,"22145 BIRCH CREEK DR, CHUGIAK, AK, 99567",614867239,R,02,020,000101,3004,-149.48357,61.41981
313,22114 OBERG RD,Anchorage,AK,99567,"22114 OBERG RD, Anchorage, AK, 99567",Match,Non_Exact,"22114 OBERG RD, CHUGIAK, AK, 99567",635209302,L,02,020,000101,3018,-149.46292,61.420418000000005
314,22143 DEER PARK DR,Anchorage,AK,99567,"22143 DEER PARK DR, Anchorage, AK, 99567",Match,Non_Exact,"22143 DEER PARK DR, CHUGIAK, AK, 99567",190807493,R,02,020,000101,3018,-149.47041000000002,61.420017
315,22973 NORTHWOODS DR,Anchorage,AK,99567,"22973 NORTHWOODS DR, Anchorage, AK, 99567",Match,Non_Exact,"22973 NORTHWOODS DR, CHUGIAK, AK, 99567",190807515,L,02,020,000101,3016,-149.45506,61.419993999999996
316,22120 SAMPSON DR,Anchorage,AK,99567,"22120 SAMPSON DR, Anchorage, AK, 99567",Match,Non_Exact,"22120 SAMPSON DR, CHUGIAK, AK, 99567",190807675,L,02,020,000101,3004,-149.43158,61.420525
317,22050 DEER PARK CIR,Anchorage,AK,99567,"22050 DEER PARK CIR, Anchorage, AK, 99567",Match,Non_Exact,"22050 DEER PARK CIR, CHUGIAK, AK, 99567",190807499,L,02,020,000101,3018,-149.46793,61.419617
318,22809 MC MANUS DR,Anchorage,AK,99567,"22809 MC MANUS DR, Anchorage, AK, 99567",Match,Non_Exact,"22809 MCMANUS DR, CHUGIAK, AK, 99567",190807516,L,02,020,000101,3016,-149.45918,61.419456000000004
319,22051 DEER PARK CIR,Anchorage,AK,99567,"22051 DEER PARK CIR, Anchorage, AK, 99567",Match,Non_Exact,"22051 DEER PARK CIR, CHUGIAK, AK, 99567",190807499,R,02,020,000101,3018,-149.4679,61.419613
320,22112 MAYTAG ST,Anchorage,AK,99567,"22112 MAYTAG ST, Anchorage, AK, 99567",Match,Non_Exact,"22112 MAYTAG ST, CHUGIAK, AK, 99567",190813767,L,02,020,000101,3007,-149.47664,61.41928000000001
321,22101 KNIK VISTA ST,Anchorage,AK,99567,"22101 KNIK VISTA ST, Anchorage, AK, 99567",Match,Non_Exact,"22101 KNIK VISTA ST, CHUGIAK, AK, 99567",635209563,R,02,020,000101,3007,-149.47998,61.41989
322,22110 BIRCH CREEK DR,Anchorage,AK,99567,"22110 BIRCH CREEK DR, Anchorage, AK, 99567",Match,Non_Exact,"22110 BIRCH CREEK DR, CHUGIAK, AK, 99567",614867239,L,02,020,000101,3004,-149.48285,61.420265
323,22127 DEER CIR,Anchorage,AK,99567,"22127 DEER CIR, Anchorage, AK, 99567",Match,Non_Exact,"22127 DEER CIR, CHUGIAK, AK, 99567",190807505,L,02,020,000101,3012,-149.4719,61.42001
324,22775 MC MANUS DR,Anchorage,AK,99567,"22775 MC MANUS DR, Anchorage, AK, 99567",Match,Non_Exact,"22775 MCMANUS DR, CHUGIAK, AK, 99567",190807516,L,02,020,000101,3016,-149.4591,61.41913
325,23925 CHANDELLE DR,Anchorage,AK,99567,"23925 CHANDELLE DR, Anchorage, AK, 99567",Match,Non_Exact,"23925 CHANDELLE DR, CHUGIAK, AK, 99567",190816198,L,02,020,000101,3004,-149.43758,61.419619999999995
326,22761 MC MANUS DR,Anchorage,AK,99567,"22761 MC MANUS DR, Anchorage, AK, 99567",Match,Non_Exact,"22761 MCMANUS DR, CHUGIAK, AK, 99567",190807516,L,02,020,000101,3016,-149.45906000000002,61.418994999999995
327,22053 DEER PARK DR,Anchorage,AK,99567,"22053 DEER PARK DR, Anchorage, AK, 99567",Match,Non_Exact,"22053 DEER PARK DR, CHUGIAK, AK, 99567",627034713,R,02,020,000101,3018,-149.46923999999999,61.419014000000004
328,22753 MC MANUS DR,Anchorage,AK,99567,"22753 MC MANUS DR, Anchorage, AK, 99567",Match,Non_Exact,"22753 MCMANUS DR, CHUGIAK, AK, 99567",190807516,L,02,020,000101,3016,-149.45905,61.41891999999999
329,22030 DEER PARK CIR,Anchorage,AK,99567,"22030 DEER PARK CIR, Anchorage, AK, 99567",Match,Non_Exact,"22030 DEER PARK CIR, CHUGIAK, AK, 99567",190807499,L,02,020,000101,3018,-149.46793,61.419476
330,22051 BIRCH CREEK DR,Anchorage,AK,99567,"22051 BIRCH CREEK DR, Anchorage, AK, 99567",Match,Non_Exact,"22051 BIRCH CREEK DR, CHUGIAK, AK, 99567",614867239,R,02,020,000101,3004,-149.48396,61.41940699999999
331,22043 STOLTZE DR,Anchorage,AK,99567,"22043 STOLTZE DR, Anchorage, AK, 99567",Match,Non_Exact,"22043 STOLTZE DR, CHUGIAK, AK, 99567",190792965,L,02,020,000101,3003,-149.49164,61.421271999999995
332,22097 MAYTAG ST,Anchorage,AK,99567,"22097 MAYTAG ST, Anchorage, AK, 99567",Match,Non_Exact,"22097 MAYTAG ST, CHUGIAK, AK, 99567",190813767,R,02,020,000101,3012,-149.47662,61.42058000000001
333,22111 DEER CIR,Anchorage,AK,99567,"22111 DEER CIR, Anchorage, AK, 99567",Match,Non_Exact,"22111 DEER CIR, CHUGIAK, AK, 99567",190807505,L,02,020,000101,3012,-149.4719,61.41986
334,22933 NORTHWOODS DR,Anchorage,AK,99567,"22933 NORTHWOODS DR, Anchorage, AK, 99567",Match,Non_Exact,"22933 NORTHWOODS DR, CHUGIAK, AK, 99567",190807515,L,02,020,000101,3016,-149.45532,61.419537
335,22074 KNIK VISTA ST,Anchorage,AK,99567,"22074 KNIK VISTA ST, Anchorage, AK, 99567",No_Match,,,,,,,,,,
336,21973 DEER PARK DR,Anchorage,AK,99567,"21973 DEER PARK DR, Anchorage, AK, 99567",Match,Non_Exact,"21973 DEER PARK DR, CHUGIAK, AK, 99567",605336112,R,02,020,000101,3018,-149.46704,61.419383999999994
337,21953 DEER PARK DR,Anchorage,AK,99567,"21953 DEER PARK DR, Anchorage, AK, 99567",Match,Non_Exact,"21953 DEER PARK DR, CHUGIAK, AK, 99567",605336112,R,02,020,000101,3018,-149.46663999999998,61.41945
338,22747 MC MANUS DR,Anchorage,AK,99567,"22747 MC MANUS DR, Anchorage, AK, 99567",Match,Non_Exact,"22747 MCMANUS DR, CHUGIAK, AK, 99567",190807516,L,02,020,000101,3016,-149.45905,61.418859999999995
339,21993 DEER PARK DR,Anchorage,AK,99567,"21993 DEER PARK DR, Anchorage, AK, 99567",Match,Non_Exact,"21993 DEER PARK DR, CHUGIAK, AK, 99567",605336112,R,02,020,000101,3018,-149.46742,61.419295999999996
340,22030 BIRCH CREEK DR,Anchorage,AK,99567,"22030 BIRCH CREEK DR, Anchorage, AK, 99567",Match,Non_Exact,"22030 BIRCH CREEK DR, CHUGIAK, AK, 99567",614867239,L,02,020,000101,3004,-149.48349,61.41989
341,22854 MC MANUS DR,Anchorage,AK,99567,"22854 MC MANUS DR, Anchorage, AK, 99567",Match,Non_Exact,"22854 MCMANUS DR, CHUGIAK, AK, 99567",190807516,R,02,020,000101,3022,-149.45868000000002,61.419804000000006
342,22063 DEER PARK DR,Anchorage,AK,99567,"22063 DEER PARK DR, Anchorage, AK, 99567",Match,Non_Exact,"22063 DEER PARK DR, CHUGIAK, AK, 99567",190807493,R,02,020,000101,3018,-149.4698,61.419093999999994
343,22043 DEER PARK DR,Anchorage,AK,99567,"22043 DEER PARK DR, Anchorage, AK, 99567",Match,Non_Exact,"22043 DEER PARK DR, CHUGIAK, AK, 99567",627034712,R,02,020,000101,3018,-149.4689,61.419033
344,22733 MC MANUS DR,Anchorage,AK,99567,"22733 MC MANUS DR, Anchorage, AK, 99567",Match,Non_Exact,"22733 MCMANUS DR, CHUGIAK, AK, 99567",190807516,L,02,020,000101,3016,-149.4591,61.418730000000004
345,22006 CLOVERLEAF RD,Anchorage,AK,99567,"22006 CLOVERLEAF RD, Anchorage, AK, 99567",Match,Non_Exact,"22006 CLOVERLEAF RD, CHUGIAK, AK, 99567",605186147,R,02,020,000101,3006,-149.43523000000002,61.418969999999995
346,22001 BIRCH CREEK DR,Anchorage,AK,99567,"22001 BIRCH CREEK DR, Anchorage, AK, 99567",Match,Non_Exact,"22001 BIRCH CREEK DR, CHUGIAK, AK, 99567",614867239,R,02,020,000101,3004,-149.4841,61.419178
347,22000 BIRCH CREEK DR,Anchorage,AK,99567,"22000 BIRCH CREEK DR, Anchorage, AK, 99567",Match,Non_Exact,"22000 BIRCH CREEK DR, CHUGIAK, AK, 99567",614867239,L,02,020,000101,3004,-149.48369,61.419740000000004
348,22008 VOYLES BLVD,Anchorage,AK,99567,"22008 VOYLES BLVD, Anchorage, AK, 99567",Match,Non_Exact,"22008 VOYLES BLVD, CHUGIAK, AK, 99567",190818901,L,02,020,000101,3004,-149.4503,61.41862
349,22905 NORTHWOODS DR,Anchorage,AK,99567,"22905 NORTHWOODS DR, Anchorage, AK, 99567",Match,Non_Exact,"22905 NORTHWOODS DR, CHUGIAK, AK, 99567",190807528,L,02,020,000101,3004,-149.45573000000002,61.418888
350,20430 BIRCHWOOD SPUR RD,Anchorage,AK,99567,"20430 BIRCHWOOD SPUR RD, Anchorage, AK, 99567",No_Match,,,,,,,,,,
351,20400 BIRCHWOOD SPUR RD,Anchorage,AK,99567,"20400 BIRCHWOOD SPUR RD, Anchorage, AK, 99567",No_Match,,,,,,,,,,
352,20388 BIRCHWOOD SPUR RD,Anchorage,AK,99567,"20388 BIRCHWOOD SPUR RD, Anchorage, AK, 99567",No_Match,,,,,,,,,,
353,20334 BIRCHWOOD SPUR RD,Anchorage,AK,99567,"20334 BIRCHWOOD SPUR RD, Anchorage, AK, 99567",No_Match,,,,,,,,,,
354,20651 BIRCHWOOD SPUR RD,Anchorage,AK,99567,"20651 BIRCHWOOD SPUR RD, Anchorage, AK, 99567",No_Match,,,,,,,,,,
355,20316 BIRCHWOOD SPUR RD,Anchorage,AK,99567,"20316 BIRCHWOOD SPUR RD, Anchorage, AK, 99567",No_Match,,,,,,,,,,
356,20240 BIRCHWOOD SPUR RD,Anchorage,AK,99567,"20240 BIRCHWOOD SPUR RD, Anchorage, AK, 99567",No_Match,,,,,,,,,,
357,20654 BIRCHWOOD SPUR RD,Anchorage,AK,99567,"20654 BIRCHWOOD SPUR RD, Anchorage, AK, 99567",No_Match,,,,,,,,,,
358,20220 BIRCHWOOD SPUR RD,Anchorage,AK,99567,"20220 BIRCHWOOD SPUR RD, Anchorage, AK, 99567",No_Match,,,,,,,,,,
359,20658 BIRCHWOOD SPUR RD,Anchorage,AK,99567,"20658 BIRCHWOOD SPUR RD, Anchorage, AK, 99567",No_Match,,,,,,,,,,
360,20210 BIRCHWOOD SPUR RD,Anchorage,AK,99567,"20210 BIRCHWOOD SPUR RD, Anchorage, AK, 99567",No_Match,,,,,,,,,,
361,20670 BIRCHWOOD SPUR RD,Anchorage,AK,99567,"20670 BIRCHWOOD SPUR RD, Anchorage, AK, 99567",No_Match,,,,,,,,,,
362,20682 BIRCHWOOD SPUR RD,Anchorage,AK,99567,"20682 BIRCHWOOD SPUR RD, Anchorage, AK, 99567",No_Match,,,,,,,,,,
363,20130 BIRCHWOOD SPUR RD,Anchorage,AK,99567,"20130 BIRCHWOOD SPUR RD, Anchorage, AK, 99567",No_Match,,,,,,,,,,
364,20694 BIRCHWOOD SPUR RD,Anchorage,AK,99567,"20694 BIRCHWOOD SPUR RD, Anchorage, AK, 99567",No_Match,,,,,,,,,,
365,20740 BIRCHWOOD SPUR RD,Anchorage,AK,99567,"20740 BIRCHWOOD SPUR RD, Anchorage, AK, 99567",No_Match,,,,,,,,,,
366,20108 BIRCHWOOD SPUR RD,Anchorage,AK,99567,"20108 BIRCHWOOD SPUR RD, Anchorage, AK, 99567",No_Match,,,,,,,,,,
367,20744 BIRCHWOOD SPUR RD,Anchorage,AK,99567,"20744 BIRCHWOOD SPUR RD, Anchorage, AK, 99567",No_Match,,,,,,,,,,
368,22444 SAMBAR LOOP,Anchorage,AK,99567,"22444 SAMBAR LOOP, Anchorage, AK, 99567",Match,Non_Exact,"22444 SAMBAR LOOP, CHUGIAK, AK, 99567",605336183,L,02,020,000101,3004,-149.46121000000002,61.42338
369,22511 SAMPSON DR,Anchorage,AK,99567,"22511 SAMPSON DR, Anchorage, AK, 99567",Match,Non_Exact,"22511 SAMPSON DR, CHUGIAK, AK, 99567",190807683,R,02,020,000101,3019,-149.43822,61.423515
370,22514 JUDD DR,Anchorage,AK,99567,"22514 JUDD DR, Anchorage, AK, 99567",Match,Non_Exact,"22514 JUDD DR, CHUGIAK, AK, 99567",190813783,L,02,020,000101,3009,-149.47768,61.423527
371,22508 OLD GLENN HWY,Anchorage,AK,99567,"22508 OLD GLENN HWY, Anchorage, AK, 99567",Match,Non_Exact,"22508 OLD GLENN HWY, CHUGIAK, AK, 99567",190826905,R,02,020,000101,3021,-149.42566000000002,61.423164
372,22535 MIRROR LAKE DR,Anchorage,AK,99567,"22535 MIRROR LAKE DR, Anchorage, AK, 99567",Match,Non_Exact,"22535 MIRROR LAKE DR, CHUGIAK, AK, 99567",190826407,L,02,020,000101,2050,-149.42209,61.42381700000001
373,22503 WHISPERING BIRCH CIR,Anchorage,AK,99567,"22503 WHISPERING BIRCH CIR, Anchorage, AK, 99567",Match,Non_Exact,"22503 WHISPERING BIRCH CIR, CHUGIAK, AK, 99567",190807520,R,02,020,000101,3016,-149.44978,61.423683
374,22515 DAVIDSON DR,Anchorage,AK,99567,"22515 DAVIDSON DR, Anchorage, AK, 99567",Match,Non_Exact,"22515 DAVIDSON DR, CHUGIAK, AK, 99567",639716533,R,02,020,000101,3003,-149.48793,61.423187
375,22508 KNIK VISTA ST,Anchorage,AK,99567,"22508 KNIK VISTA ST, Anchorage, AK, 99567",Match,Non_Exact,"22508 KNIK VISTA ST, CHUGIAK, AK, 99567",190813787,L,02,020,000101,3014,-149.48041,61.422897
376,22509 INLET VISTA DR,Anchorage,AK,99567,"22509 INLET VISTA DR, Anchorage, AK, 99567",Match,Non_Exact,"22509 INLET VISTA DR, CHUGIAK, AK, 99567",190813789,L,02,020,000101,3014,-149.4824,61.424015000000004
377,22440 OLD GLENN HWY,Anchorage,AK,99567,"22440 OLD GLENN HWY, Anchorage, AK, 99567",Match,Non_Exact,"22440 OLD GLENN HWY, CHUGIAK, AK, 99567",190826905,R,02,020,000101,3021,-149.42618000000002,61.422752
378,22481 MIRROR LAKE DR,Anchorage,AK,99567,"22481 MIRROR LAKE DR, Anchorage, AK, 99567",Match,Non_Exact,"22481 MIRROR LAKE DR, CHUGIAK, AK, 99567",190826407,L,02,020,000101,2050,-149.4217,61.422830000000005
379,22430 PHARAOH CIR,Anchorage,AK,99567,"22430 PHARAOH CIR, Anchorage, AK, 99567",Match,Non_Exact,"22430 PHARAOH CIR, CHUGIAK, AK, 99567",190807686,R,02,020,000101,3004,-149.4407,61.423405
380,22437 OAK KNOLL DR,Anchorage,AK,99567,"22437 OAK KNOLL DR, Anchorage, AK, 99567",Match,Non_Exact,"22437 OAK KNOLL DR, CHUGIAK, AK, 99567",190809825,R,02,020,000101,3004,-149.46896,61.423462
381,22435 SAMPSON DR,Anchorage,AK,99567,"22435 SAMPSON DR, Anchorage, AK, 99567",Match,Non_Exact,"22435 SAMPSON DR, CHUGIAK, AK, 99567",190807689,R,02,020,000101,3019,-149.4371,61.42315
382,22422 SAMBAR LOOP,Anchorage,AK,99567,"22422 SAMBAR LOOP, Anchorage, AK, 99567",Match,Non_Exact,"22422 SAMBAR LOOP, CHUGIAK, AK, 99567",605336183,L,02,020,000101,3004,-149.46121000000002,61.423122
383,22444 DEER PARK DR,Anchorage,AK,99567,"22444 DEER PARK DR, Anchorage, AK, 99567",Match,Non_Exact,"22444 DEER PARK DR, CHUGIAK, AK, 99567",627035002,R,02,020,000101,3004,-149.46756000000002,61.42321
384,22460 DEER PARK DR,Anchorage,AK,99567,"22460 DEER PARK DR, Anchorage, AK, 99567",Match,Non_Exact,"22460 DEER PARK DR, CHUGIAK, AK, 99567",627035002,R,02,020,000101,3004,-149.46712,61.42319499999999
385,22474 DEER PARK DR,Anchorage,AK,99567,"22474 DEER PARK DR, Anchorage, AK, 99567",Match,Non_Exact,"22474 DEER PARK DR, CHUGIAK, AK, 99567",627035001,R,02,020,000101,3004,-149.4664,61.423164
386,22390 SHADOWY SPRUCE DR,Anchorage,AK,99567,"22390 SHADOWY SPRUCE DR, Anchorage, AK, 99567",Match,Non_Exact,"22390 SHADOWY SPRUCE DR, CHUGIAK, AK, 99567",626833866,L,02,020,000101,3004,-149.44391000000002,61.422740000000005
387,24251 SUNNYSIDE DR,Anchorage,AK,99567,"24251 SUNNYSIDE DR, Anchorage, AK, 99567",Match,Non_Exact,"24251 SUNNYSIDE DR, CHUGIAK, AK, 99567",636131938,R,02,020,000101,3019,-149.43126999999998,61.423035
388,24235 SUNNYSIDE DR,Anchorage,AK,99567,"24235 SUNNYSIDE DR, Anchorage, AK, 99567",Match,Non_Exact,"24235 SUNNYSIDE DR, CHUGIAK, AK, 99567",636131938,R,02,020,000101,3019,-149.4316,61.423035
389,22382 SHADOWY SPRUCE DR,Anchorage,AK,99567,"22382 SHADOWY SPRUCE DR, Anchorage, AK, 99567",Match,Non_Exact,"22382 SHADOWY SPRUCE DR, CHUGIAK, AK, 99567",626833944,L,02,020,000101,3004,-149.4446,61.423
390,22436 WHISPERING BIRCH DR,Anchorage,AK,99567,"22436 WHISPERING BIRCH DR, Anchorage, AK, 99567",Match,Non_Exact,"22436 WHISPERING BIRCH DR, CHUGIAK, AK, 99567",190807518,L,02,020,000101,3016,-149.45055,61.4229
391,22433 INLET VISTA DR,Anchorage,AK,99567,"22433 INLET VISTA DR, Anchorage, AK, 99567",Match,Non_Exact,"22433 INLET VISTA DR, CHUGIAK, AK, 99567",190813789,L,02,020,000101,3014,-149.4829,61.42361999999999
392,22424 SAMPSON DR,Anchorage,AK,99567,"22424 SAMPSON DR, Anchorage, AK, 99567",Match,Non_Exact,"22424 SAMPSON DR, CHUGIAK, AK, 99567",190807677,L,02,020,000101,3004,-149.43646,61.42231999999999
393,21841 REBECCA CIR,Anchorage,AK,99567,"21841 REBECCA CIR, Anchorage, AK, 99567",Match,Non_Exact,"21841 REBECCA CIR, CHUGIAK, AK, 99567",190827389,L,02,020,000101,3007,-149.47711,61.422847999999995
394,22415 MILLER RD,Anchorage,AK,99567,"22415 MILLER RD, Anchorage, AK, 99567",Match,Non_Exact,"22415 MILLER RD, CHUGIAK, AK, 99567",190793321,L,02,020,000101,3021,-149.42726000000002,61.42320600000001
395,22435 DAVIDSON DR,Anchorage,AK,99567,"22435 DAVIDSON DR, Anchorage, AK, 99567",Match,Non_Exact,"22435 DAVIDSON DR, CHUGIAK, AK, 99567",639716533,R,02,020,000101,3003,-149.48793,61.42246
396,22410 OLD GLENN HWY,Anchorage,AK,99567,"22410 OLD GLENN HWY, Anchorage, AK, 99567",Match,Non_Exact,"22410 OLD GLENN HWY, CHUGIAK, AK, 99567",190826905,R,02,020,000101,3021,-149.4264,61.422573
397,22416 WHISPERING BIRCH DR,Anchorage,AK,99567,"22416 WHISPERING BIRCH DR, Anchorage, AK, 99567",Match,Non_Exact,"22416 WHISPERING BIRCH DR, CHUGIAK, AK, 99567",190807518,L,02,020,000101,3016,-149.45076,61.422768000000005
398,22422 INLET VISTA DR,Anchorage,AK,99567,"22422 INLET VISTA DR, Anchorage, AK, 99567",Match,Non_Exact,"22422 INLET VISTA DR, CHUGIAK, AK, 99567",190813789,R,02,020,000101,3004,-149.48297,61.42357
399,23711 GOLIATH DR,Anchorage,AK,99567,"23711 GOLIATH DR, Anchorage, AK, 99567",Match,Non_Exact,"23711 GOLIATH DR, CHUGIAK, AK, 99567",190823225,R,02,020,000101,3004,-149.44391000000002,61.421425
400,22457 SHADOWY SPRUCE DR,Anchorage,AK,99567,"22457 SHADOWY SPRUCE DR, Anchorage, AK, 99567",Match,Non_Exact,"22457 SHADOWY SPRUCE DR, CHUGIAK, AK, 99567",626833866,R,02,020,000101,3004,-149.44397,61.422084999999996
401,22246 WHISPERING BIRCH DR,Anchorage,AK,99567,"22246 WHISPERING BIRCH DR, Anchorage, AK, 99567",Match,Non_Exact,"22246 WHISPERING BIRCH DR, CHUGIAK, AK, 99567",190807518,L,02,020,000101,3016,-149.45233000000002,61.42155
402,22329 DEER PARK DR,Anchorage,AK,99567,"22329 DEER PARK DR, Anchorage, AK, 99567",Match,Non_Exact,"22329 DEER PARK DR, CHUGIAK, AK, 99567",190810414,R,02,020,000101,3018,-149.47018,61.422325
403,23613 GOLIATH DR,Anchorage,AK,99567,"23613 GOLIATH DR, Anchorage, AK, 99567",Match,Non_Exact,"23613 GOLIATH DR, CHUGIAK, AK, 99567",190823225,R,02,020,000101,3004,-149.4439,61.421425
404,23633 GOLIATH DR,Anchorage,AK,99567,"23633 GOLIATH DR, Anchorage, AK, 99567",Match,Non_Exact,"23633 GOLIATH DR, CHUGIAK, AK, 99567",190823225,R,02,020,000101,3004,-149.4439,61.421425
405,22238 SHADOWY SPRUCE DR,Anchorage,AK,99567,"22238 SHADOWY SPRUCE DR, Anchorage, AK, 99567",Match,Non_Exact,"22238 SHADOWY SPRUCE DR, CHUGIAK, AK, 99567",626833944,L,02,020,000101,3004,-149.44876000000002,61.42185
406,22232 INLET VISTA CIR,Anchorage,AK,99567,"22232 INLET VISTA CIR, Anchorage, AK, 99567",Match,Non_Exact,"22232 INLET VISTA CIR, CHUGIAK, AK, 99567",190813790,R,02,020,000101,3004,-149.48376000000002,61.422176
407,22244 SAMPSON DR,Anchorage,AK,99567,"22244 SAMPSON DR, Anchorage, AK, 99567",Match,Non_Exact,"22244 SAMPSON DR, CHUGIAK, AK, 99567",190807675,L,02,020,000101,3004,-149.43317,61.421234
408,22471 SHADOWY SPRUCE DR,Anchorage,AK,99567,"22471 SHADOWY SPRUCE DR, Anchorage, AK, 99567",Match,Non_Exact,"22471 SHADOWY SPRUCE DR, CHUGIAK, AK, 99567",626833866,R,02,020,000101,3004,-149.44397,61.4219
409,22243 DAVIDSON DR,Anchorage,AK,99567,"22243 DAVIDSON DR, Anchorage, AK, 99567",Match,Non_Exact,"22243 DAVIDSON DR, CHUGIAK, AK, 99567",639716533,R,02,020,000101,3003,-149.48803999999998,61.420753000000005
410,22226 WHISPERING BIRCH DR,Anchorage,AK,99567,"22226 WHISPERING BIRCH DR, Anchorage, AK, 99567",Match,Non_Exact,"22226 WHISPERING BIRCH DR, CHUGIAK, AK, 99567",190807518,L,02,020,000101,3016,-149.45244,61.42139
411,22227 DEER PARK DR,Anchorage,AK,99567,"22227 DEER PARK DR, Anchorage, AK, 99567",Match,Non_Exact,"22227 DEER PARK DR, CHUGIAK, AK, 99567",190810414,R,02,020,000101,3018,-149.47089,61.421333
412,22071 STOLTZE DR,Anchorage,AK,99567,"22071 STOLTZE DR, Anchorage, AK, 99567",Match,Non_Exact,"22071 STOLTZE DR, CHUGIAK, AK, 99567",190792965,L,02,020,000101,3003,-149.49164,61.421555000000005
413,22411 INLET VISTA DR,Anchorage,AK,99567,"22411 INLET VISTA DR, Anchorage, AK, 99567",Match,Non_Exact,"22411 INLET VISTA DR, CHUGIAK, AK, 99567",190813789,L,02,020,000101,3014,-149.483,61.42349599999999
414,22375 DEER PARK DR,Anchorage,AK,99567,"22375 DEER PARK DR, Anchorage, AK, 99567",Match,Non_Exact,"22375 DEER PARK DR, CHUGIAK, AK, 99567",190809822,R,02,020,000101,3018,-149.4691,61.422737
415,22433 MARGARET MIELKE ST,Anchorage,AK,99567,"22433 MARGARET MIELKE ST, Anchorage, AK, 99567",Match,Non_Exact,"22433 MARGARET MIELKE ST, CHUGIAK, AK, 99567",190819901,R,02,020,000101,3003,-149.49167,61.423030000000004
416,22449 DEER PARK DR,Anchorage,AK,99567,"22449 DEER PARK DR, Anchorage, AK, 99567",Match,Non_Exact,"22449 DEER PARK DR, CHUGIAK, AK, 99567",627035002,L,02,020,000101,3018,-149.46733,61.423190000000005
417,22406 JUDD DR,Anchorage,AK,99567,"22406 JUDD DR, Anchorage, AK, 99567",Match,Non_Exact,"22406 JUDD DR, CHUGIAK, AK, 99567",190813775,L,02,020,000101,3009,-149.47815,61.42246
418,22131 ARMAS DR,Anchorage,AK,99567,"22131 ARMAS DR, Anchorage, AK, 99567",Match,Non_Exact,"22131 ARMAS DR, CHUGIAK, AK, 99567",190809820,R,02,020,000101,3007,-149.4703,61.42264
419,22600 DEER PARK DR,Anchorage,AK,99567,"22600 DEER PARK DR, Anchorage, AK, 99567",Match,Non_Exact,"22600 DEER PARK DR, CHUGIAK, AK, 99567",605336536,L,02,020,000101,3004,-149.46385,61.422886
420,22111 ARMAS DR,Anchorage,AK,99567,"22111 ARMAS DR, Anchorage, AK, 99567",Match,Non_Exact,"22111 ARMAS DR, CHUGIAK, AK, 99567",190809820,R,02,020,000101,3007,-149.4705,61.42264
421,22035 ARMAS DR,Anchorage,AK,99567,"22035 ARMAS DR, Anchorage, AK, 99567",Match,Non_Exact,"22035 ARMAS DR, CHUGIAK, AK, 99567",190809820,R,02,020,000101,3007,-149.47125,61.42264
422,21975 ARMAS DR,Anchorage,AK,99567,"21975 ARMAS DR, Anchorage, AK, 99567",Match,Non_Exact,"21975 ARMAS DR, CHUGIAK, AK, 99567",190809820,R,02,020,000101,3007,-149.47185,61.422638
423,22356 WHISPERING BIRCH DR,Anchorage,AK,99567,"22356 WHISPERING BIRCH DR, Anchorage, AK, 99567",Match,Non_Exact,"22356 WHISPERING BIRCH DR, CHUGIAK, AK, 99567",190807518,L,02,020,000101,3016,-149.45131999999998,61.422340000000005
424,21925 ARMAS DR,Anchorage,AK,99567,"21925 ARMAS DR, Anchorage, AK, 99567",Match,Non_Exact,"21925 ARMAS DR, CHUGIAK, AK, 99567",190809820,R,02,020,000101,3007,-149.47235,61.422638
425,22400 INLET VISTA DR,Anchorage,AK,99567,"22400 INLET VISTA DR, Anchorage, AK, 99567",Match,Non_Exact,"22400 INLET VISTA DR, CHUGIAK, AK, 99567",190813789,R,02,020,000101,3004,-149.48306000000002,61.423443000000006
426,22469 DEER PARK DR,Anchorage,AK,99567,"22469 DEER PARK DR, Anchorage, AK, 99567",Match,Non_Exact,"22469 DEER PARK DR, CHUGIAK, AK, 99567",627035001,L,02,020,000101,3018,-149.4664,61.423153000000006
427,22459 DEER PARK DR,Anchorage,AK,99567,"22459 DEER PARK DR, Anchorage, AK, 99567",Match,Non_Exact,"22459 DEER PARK DR, CHUGIAK, AK, 99567",627035002,L,02,020,000101,3018,-149.46704,61.42318
428,22407 KNIK VISTA ST,Anchorage,AK,99567,"22407 KNIK VISTA ST, Anchorage, AK, 99567",Match,Non_Exact,"22407 KNIK VISTA ST, CHUGIAK, AK, 99567",190813786,R,02,020,000101,3009,-149.48038,61.42246
429,22348 SHADOWY SPRUCE DR,Anchorage,AK,99567,"22348 SHADOWY SPRUCE DR, Anchorage, AK, 99567",Match,Non_Exact,"22348 SHADOWY SPRUCE DR, CHUGIAK, AK, 99567",626833944,L,02,020,000101,3004,-149.44574,61.422909999999995
430,22433 SHADOWY SPRUCE DR,Anchorage,AK,99567,"22433 SHADOWY SPRUCE DR, Anchorage, AK, 99567",Match,Non_Exact,"22433 SHADOWY SPRUCE DR, CHUGIAK, AK, 99567",626833866,R,02,020,000101,3004,-149.44395,61.422394
431,22336 WHISPERING BIRCH DR,Anchorage,AK,99567,"22336 WHISPERING BIRCH DR, Anchorage, AK, 99567",Match,Non_Exact,"22336 WHISPERING BIRCH DR, CHUGIAK, AK, 99567",190807518,L,02,020,000101,3016,-149.4515,61.4222
432,22331 DAVIDSON DR,Anchorage,AK,99567,"22331 DAVIDSON DR, Anchorage, AK, 99567",Match,Non_Exact,"22331 DAVIDSON DR, CHUGIAK, AK, 99567",639716533,R,02,020,000101,3003,-149.48793,61.421513
433,22335 MARGARET MIELKE ST,Anchorage,AK,99567,"22335 MARGARET MIELKE ST, Anchorage, AK, 99567",Match,Non_Exact,"22335 MARGARET MIELKE ST, CHUGIAK, AK, 99567",190819901,R,02,020,000101,3003,-149.49165,61.42236
434,22618 NORTHWOODS DR,Anchorage,AK,99567,"22618 NORTHWOODS DR, Anchorage, AK, 99567",Match,Non_Exact,"22618 NORTHWOODS DR, CHUGIAK, AK, 99567",190807513,R,02,020,000101,3028,-149.45987,61.41615
435,22508 NORTHWOODS DR,Anchorage,AK,99567,"22508 NORTHWOODS DR, Anchorage, AK, 99567",Match,Non_Exact,"22508 NORTHWOODS DR, CHUGIAK, AK, 99567",190807513,R,02,020,000101,3028,-149.46208000000001,61.415962
436,22909 GREEN GARDEN DR,Anchorage,AK,99567,"22909 GREEN GARDEN DR, Anchorage, AK, 99567",Match,Non_Exact,"22909 GREEN GARDEN DR, CHUGIAK, AK, 99567",190827348,R,02,020,000101,3028,-149.45564,61.41571999999999
437,22524 NORTHWOODS DR,Anchorage,AK,99567,"22524 NORTHWOODS DR, Anchorage, AK, 99567",Match,Non_Exact,"22524 NORTHWOODS DR, CHUGIAK, AK, 99567",190807513,R,02,020,000101,3028,-149.46175,61.415962
438,22444 NORTHWOODS DR,Anchorage,AK,99567,"22444 NORTHWOODS DR, Anchorage, AK, 99567",Match,Non_Exact,"22444 NORTHWOODS DR, CHUGIAK, AK, 99567",190807513,R,02,020,000101,3028,-149.46341,61.41596
439,21622 PEG ST,Anchorage,AK,99567,"21622 PEG ST, Anchorage, AK, 99567",Match,Non_Exact,"21622 PEG ST, CHUGIAK, AK, 99567",190819625,L,02,020,000101,3012,-149.47287,61.415490000000005
440,21624 OBERG RD,Anchorage,AK,99567,"21624 OBERG RD, Anchorage, AK, 99567",Match,Non_Exact,"21624 OBERG RD, CHUGIAK, AK, 99567",190793044,L,02,020,000101,3032,-149.46533,61.415572999999995
441,21616 SETTLERS DR,Anchorage,AK,99567,"21616 SETTLERS DR, Anchorage, AK, 99567",Match,Non_Exact,"21616 SETTLERS DR, CHUGIAK, AK, 99567",605186140,R,02,020,000101,2052,-149.42763,61.415867000000006
442,21616 WOODCLIFF DR,Anchorage,AK,99567,"21616 WOODCLIFF DR, Anchorage, AK, 99567",Match,Non_Exact,"21616 WOODCLIFF DR, CHUGIAK, AK, 99567",190807494,L,02,020,000101,3012,-149.47083,61.41573
443,21600 CHANDELLE CIR,Anchorage,AK,99567,"21600 CHANDELLE CIR, Anchorage, AK, 99567",Match,Non_Exact,"21600 CHANDELLE CIR, CHUGIAK, AK, 99567",190816196,L,02,020,000101,3004,-149.44443,61.415381999999994
444,22849 GREEN GARDEN DR,Anchorage,AK,99567,"22849 GREEN GARDEN DR, Anchorage, AK, 99567",Match,Non_Exact,"22849 GREEN GARDEN DR, CHUGIAK, AK, 99567",190827348,R,02,020,000101,3028,-149.45592,61.414875
445,21636 OLD GLENN HWY,Anchorage,AK,99567,"21636 OLD GLENN HWY, Anchorage, AK, 99567",Match,Non_Exact,"21636 OLD GLENN HWY, CHUGIAK, AK, 99567",190807653,R,02,020,000101,3006,-149.43729,61.41565
446,24507 CHUGIAK DR,Anchorage,AK,99567,"24507 CHUGIAK DR, Anchorage, AK, 99567",Match,Non_Exact,"24507 CHUGIAK DR, CHUGIAK, AK, 99567",190793346,L,02,020,000101,2056,-149.42546000000002,61.41535
447,23627 DOLLY AVE,Anchorage,AK,99567,"23627 DOLLY AVE, Anchorage, AK, 99567",Match,Non_Exact,"23627 DOLLY AVE, CHUGIAK, AK, 99567",190793183,R,02,020,000101,3006,-149.4422,61.415348
448,22839 GREEN GARDEN DR,Anchorage,AK,99567,"22839 GREEN GARDEN DR, Anchorage, AK, 99567",Match,Non_Exact,"22839 GREEN GARDEN DR, CHUGIAK, AK, 99567",190827348,R,02,020,000101,3028,-149.45592,61.414719999999996
449,22241 GLACIER VISTA RD,Anchorage,AK,99567,"22241 GLACIER VISTA RD, Anchorage, AK, 99567",No_Match,,,,,,,,,,
450,22219 GLACIER VISTA RD,Anchorage,AK,99567,"22219 GLACIER VISTA RD, Anchorage, AK, 99567",No_Match,,,,,,,,,,
451,21625 SCENIC DR,Anchorage,AK,99567,"21625 SCENIC DR, Anchorage, AK, 99567",Match,Non_Exact,"21625 SCENIC DR, CHUGIAK, AK, 99567",190819897,R,02,020,000102,2001,-149.48788000000002,61.415172999999996
452,21917 GLACIER VISTA RD,Anchorage,AK,99567,"21917 GLACIER VISTA RD, Anchorage, AK, 99567",Match,Non_Exact,"21917 GLACIER VISTA RD, CHUGIAK, AK, 99567",190826876,R,02,020,000101,3012,-149.47345,61.41534
453,21917 GLACIER VISTA RD,Anchorage,AK,99567,"21917 GLACIER VISTA RD, Anchorage, AK, 99567",Match,Non_Exact,"21917 GLACIER VISTA RD, CHUGIAK, AK, 99567",190826876,R,02,020,000101,3012,-149.47345,61.41534
454,21025 ALLUVIAL ST,Anchorage,AK,99567,"21025 ALLUVIAL ST, Anchorage, AK, 99567",Match,Non_Exact,"21025 ALLUVIAL ST, CHUGIAK, AK, 99567",190823634,L,02,020,000102,2001,-149.4915,61.41536
455,21851 GLACIER VISTA RD,Anchorage,AK,99567,"21851 GLACIER VISTA RD, Anchorage, AK, 99567",Match,Non_Exact,"21851 GLACIER VISTA RD, CHUGIAK, AK, 99567",190826876,R,02,020,000101,3012,-149.47539,61.41534
456,21123 ALLUVIAL ST,Anchorage,AK,99567,"21123 ALLUVIAL ST, Anchorage, AK, 99567",Match,Non_Exact,"21123 ALLUVIAL ST, CHUGIAK, AK, 99567",190823634,L,02,020,000102,2001,-149.49141,61.415356
457,21039 ALLUVIAL ST,Anchorage,AK,99567,"21039 ALLUVIAL ST, Anchorage, AK, 99567",Match,Non_Exact,"21039 ALLUVIAL ST, CHUGIAK, AK, 99567",190823634,L,02,020,000102,2001,-149.49149,61.415356
458,20909 ALLUVIAL ST,Anchorage,AK,99567,"20909 ALLUVIAL ST, Anchorage, AK, 99567",Match,Non_Exact,"20909 ALLUVIAL ST, CHUGIAK, AK, 99567",190792972,L,02,020,000102,2001,-149.49348,61.41536
459,22236 GLACIER VISTA RD,Anchorage,AK,99567,"22236 GLACIER VISTA RD, Anchorage, AK, 99567",No_Match,,,,,,,,,,
460,22831 GREEN GARDEN DR,Anchorage,AK,99567,"22831 GREEN GARDEN DR, Anchorage, AK, 99567",Match,Non_Exact,"22831 GREEN GARDEN DR, CHUGIAK, AK, 99567",190827348,R,02,020,000101,3028,-149.45592,61.414593
461,22034 GLACIER VISTA RD,Anchorage,AK,99567,"22034 GLACIER VISTA RD, Anchorage, AK, 99567",No_Match,,,,,,,,,,
462,21020 ALLUVIAL ST,Anchorage,AK,99567,"21020 ALLUVIAL ST, Anchorage, AK, 99567",Match,Non_Exact,"21020 ALLUVIAL ST, CHUGIAK, AK, 99567",190823634,R,02,020,000102,2001,-149.4912,61.415344
463,20830 ALLUVIAL ST,Anchorage,AK,99567,"20830 ALLUVIAL ST, Anchorage, AK, 99567",Match,Non_Exact,"20830 ALLUVIAL ST, CHUGIAK, AK, 99567",190792972,R,02,020,000102,2001,-149.49478,61.415348
464,21520 GLACIER VISTA RD,Anchorage,AK,99567,"21520 GLACIER VISTA RD, Anchorage, AK, 99567",No_Match,,,,,,,,,,
465,21536 TINA ST,Anchorage,AK,99567,"21536 TINA ST, Anchorage, AK, 99567",Match,Non_Exact,"21536 TINA ST, CHUGIAK, AK, 99567",190793341,R,02,020,000101,2064,-149.42883,61.41437
466,21536 TINA ST,Anchorage,AK,99567,"21536 TINA ST, Anchorage, AK, 99567",Match,Non_Exact,"21536 TINA ST, CHUGIAK, AK, 99567",190793341,R,02,020,000101,2064,-149.42883,61.41437
467,21528 SONGBIRD DR,Anchorage,AK,99567,"21528 SONGBIRD DR, Anchorage, AK, 99567",Match,Non_Exact,"21528 SONGBIRD DR, CHUGIAK, AK, 99567",190807667,L,02,020,000101,3025,-149.43246000000002,61.414024
468,21528 SONGBIRD DR,Anchorage,AK,99567,"21528 SONGBIRD DR, Anchorage, AK, 99567",Match,Non_Exact,"21528 SONGBIRD DR, CHUGIAK, AK, 99567",190807667,L,02,020,000101,3025,-149.43246000000002,61.414024
469,21537 TINA ST,Anchorage,AK,99567,"21537 TINA ST, Anchorage, AK, 99567",Match,Non_Exact,"21537 TINA ST, CHUGIAK, AK, 99567",190793341,L,02,020,000101,2064,-149.42882,61.414368
470,21516 ROCK PTARMIGAN ST,Anchorage,AK,99567,"21516 ROCK PTARMIGAN ST, Anchorage, AK, 99567",Match,Non_Exact,"21516 ROCK PTARMIGAN ST, CHUGIAK, AK, 99567",190793344,R,02,020,000101,2065,-149.4257,61.412319999999994
471,21534 PEG ST,Anchorage,AK,99567,"21534 PEG ST, Anchorage, AK, 99567",Match,Non_Exact,"21534 PEG ST, CHUGIAK, AK, 99567",190807491,R,02,020,000101,3047,-149.47285,61.415119999999995
472,21524 SNOWFLOWER LOOP,Anchorage,AK,99567,"21524 SNOWFLOWER LOOP, Anchorage, AK, 99567",Match,Non_Exact,"21524 SNOWFLOWER LOOP, CHUGIAK, AK, 99567",190816211,L,02,020,000101,3004,-149.44863999999998,61.4147
473,22545 LAMPERT CIR,Anchorage,AK,99567,"22545 LAMPERT CIR, Anchorage, AK, 99567",Match,Non_Exact,"22545 LAMPERT CIR, CHUGIAK, AK, 99567",190793048,L,02,020,000101,3028,-149.46255,61.414673
474,22555 LAMPERT CIR,Anchorage,AK,99567,"22555 LAMPERT CIR, Anchorage, AK, 99567",Match,Non_Exact,"22555 LAMPERT CIR, CHUGIAK, AK, 99567",190793048,L,02,020,000101,3028,-149.46239,61.414673
475,21610 SNOWFLOWER LOOP,Anchorage,AK,99567,"21610 SNOWFLOWER LOOP, Anchorage, AK, 99567",Match,Non_Exact,"21610 SNOWFLOWER LOOP, CHUGIAK, AK, 99567",190816211,L,02,020,000101,3004,-149.44666999999998,61.4147
476,21509 SETTLERS DR,Anchorage,AK,99567,"21509 SETTLERS DR, Anchorage, AK, 99567",Match,Non_Exact,"21509 SETTLERS DR, CHUGIAK, AK, 99567",190825926,L,02,020,000101,2065,-149.42758,61.414467
477,21558 SNOWFLOWER LOOP,Anchorage,AK,99567,"21558 SNOWFLOWER LOOP, Anchorage, AK, 99567",Match,Non_Exact,"21558 SNOWFLOWER LOOP, CHUGIAK, AK, 99567",190816211,L,02,020,000101,3004,-149.44786000000002,61.4147
478,21546 SNOWFLOWER LOOP,Anchorage,AK,99567,"21546 SNOWFLOWER LOOP, Anchorage, AK, 99567",Match,Non_Exact,"21546 SNOWFLOWER LOOP, CHUGIAK, AK, 99567",190816211,L,02,020,000101,3004,-149.44814,61.4147
479,21516 SNOWFLOWER LOOP,Anchorage,AK,99567,"21516 SNOWFLOWER LOOP, Anchorage, AK, 99567",Match,Non_Exact,"21516 SNOWFLOWER LOOP, CHUGIAK, AK, 99567",190816211,L,02,020,000101,3004,-149.44881999999998,61.4147
480,22535 LAMPERT CIR,Anchorage,AK,99567,"22535 LAMPERT CIR, Anchorage, AK, 99567",Match,Non_Exact,"22535 LAMPERT CIR, CHUGIAK, AK, 99567",190793048,L,02,020,000101,3028,-149.46272,61.414673
481,22507 LAMPERT CIR,Anchorage,AK,99567,"22507 LAMPERT CIR, Anchorage, AK, 99567",Match,Non_Exact,"22507 LAMPERT CIR, CHUGIAK, AK, 99567",190793048,L,02,020,000101,3028,-149.4632,61.414673
482,22427 LAMPERT CIR,Anchorage,AK,99567,"22427 LAMPERT CIR, Anchorage, AK, 99567",Match,Non_Exact,"22427 LAMPERT CIR, CHUGIAK, AK, 99567",190793048,L,02,020,000101,3028,-149.46455,61.414673
483,22521 LAMPERT CIR,Anchorage,AK,99567,"22521 LAMPERT CIR, Anchorage, AK, 99567",Match,Non_Exact,"22521 LAMPERT CIR, CHUGIAK, AK, 99567",190793048,L,02,020,000101,3028,-149.46296999999998,61.414673
484,22453 LAMPERT CIR,Anchorage,AK,99567,"22453 LAMPERT CIR, Anchorage, AK, 99567",Match,Non_Exact,"22453 LAMPERT CIR, CHUGIAK, AK, 99567",190793048,L,02,020,000101,3028,-149.46411,61.414673
485,22441 LAMPERT CIR,Anchorage,AK,99567,"22441 LAMPERT CIR, Anchorage, AK, 99567",Match,Non_Exact,"22441 LAMPERT CIR, CHUGIAK, AK, 99567",190793048,L,02,020,000101,3028,-149.46431,61.414673
486,22441 LAMPERT CIR,Anchorage,AK,99567,"22441 LAMPERT CIR, Anchorage, AK, 99567",Match,Non_Exact,"22441 LAMPERT CIR, CHUGIAK, AK, 99567",190793048,L,02,020,000101,3028,-149.46431,61.414673
487,21440 LINDA JO CIR,Anchorage,AK,99567,"21440 LINDA JO CIR, Anchorage, AK, 99567",Match,Non_Exact,"21440 LINDA JO CIR, CHUGIAK, AK, 99567",190827387,L,02,020,000101,3011,-149.4522,61.414196
488,21501 MORNING CIR,Anchorage,AK,99567,"21501 MORNING CIR, Anchorage, AK, 99567",Match,Non_Exact,"21501 MORNING CIR, CHUGIAK, AK, 99567",190824101,R,02,020,000101,2055,-149.42192,61.414715
489,21500 MORNING CIR,Anchorage,AK,99567,"21500 MORNING CIR, Anchorage, AK, 99567",Match,Non_Exact,"21500 MORNING CIR, CHUGIAK, AK, 99567",190824101,L,02,020,000101,2055,-149.42193999999998,61.414719999999996
490,21420 LINDA JO CIR,Anchorage,AK,99567,"21420 LINDA JO CIR, Anchorage, AK, 99567",Match,Non_Exact,"21420 LINDA JO CIR, CHUGIAK, AK, 99567",190827387,L,02,020,000101,3011,-149.45218,61.414085
491,21506 TINA ST,Anchorage,AK,99567,"21506 TINA ST, Anchorage, AK, 99567",Match,Non_Exact,"21506 TINA ST, CHUGIAK, AK, 99567",190793341,R,02,020,000101,2064,-149.42893999999998,61.414227000000004
492,21528 SCENIC DR,Anchorage,AK,99567,"21528 SCENIC DR, Anchorage, AK, 99567",Match,Non_Exact,"21528 SCENIC DR, CHUGIAK, AK, 99567",190819897,L,02,020,000102,2001,-149.48792,61.415046999999994
493,21435 GINGER LEE DR,Anchorage,AK,99567,"21435 GINGER LEE DR, Anchorage, AK, 99567",Match,Non_Exact,"21435 GINGER LEE DR, CHUGIAK, AK, 99567",190793187,L,02,020,000101,3025,-149.43672,61.41431
494,21510 JILL ST,Anchorage,AK,99567,"21510 JILL ST, Anchorage, AK, 99567",Match,Non_Exact,"21510 JILL ST, CHUGIAK, AK, 99567",627793536,L,02,020,000101,3047,-149.46909,61.414047
495,21412 SETTLERS DR,Anchorage,AK,99567,"21412 SETTLERS DR, Anchorage, AK, 99567",Match,Non_Exact,"21412 SETTLERS DR, CHUGIAK, AK, 99567",190825926,R,02,020,000101,2064,-149.4276,61.413692000000005
496,21338 OLD GLENN HWY,Anchorage,AK,99567,"21338 OLD GLENN HWY, Anchorage, AK, 99567",Match,Non_Exact,"21338 OLD GLENN HWY, CHUGIAK, AK, 99567",190793256,L,02,020,000101,3038,-149.44048999999998,61.412975
497,21412 BOWERY LN,Anchorage,AK,99567,"21412 BOWERY LN, Anchorage, AK, 99567",Match,Non_Exact,"21412 BOWERY LN, CHUGIAK, AK, 99567",190825476,L,02,020,000102,2001,-149.4804,61.413169999999994
498,21339 POLLY CIR,Anchorage,AK,99567,"21339 POLLY CIR, Anchorage, AK, 99567",Match,Non_Exact,"21339 POLLY CIR, CHUGIAK, AK, 99567",190827388,R,02,020,000101,3028,-149.45592,61.413540000000005
499,21350 OLD GLENN HWY,Anchorage,AK,99567,"21350 OLD GLENN HWY, Anchorage, AK, 99567",Match,Non_Exact,"21350 OLD GLENN HWY, CHUGIAK, AK, 99567",190793256,L,02,020,000101,3038,-149.44012,61.4133
500,21407 BOWERY LN,Anchorage,AK,99567,"21407 BOWERY LN, Anchorage, AK, 99567",Match,Non_Exact,"21407 BOWERY LN, CHUGIAK, AK, 99567",190825476,R,02,020,000102,2004,-149.48038,61.41313
501,21344 ROCK PTARMIGAN ST,Anchorage,AK,99567,"21344 ROCK PTARMIGAN ST, Anchorage, AK, 99567",Match,Non_Exact,"21344 ROCK PTARMIGAN ST, CHUGIAK, AK, 99567",190793344,R,02,020,000101,2065,-149.4257,61.412163
502,21031 OLD PIONEER DR,Anchorage,AK,99567,"21031 OLD PIONEER DR, Anchorage, AK, 99567",No_Match,,,,,,,,,,
503,20933 OLD PIONEER DR,Anchorage,AK,99567,"20933 OLD PIONEER DR, Anchorage, AK, 99567",Match,Non_Exact,"20933 OLD PIONEER DR, CHUGIAK, AK, 99567",614864781,R,02,020,000102,2001,-149.486,61.414097
504,20835 OLD PIONEER DR,Anchorage,AK,99567,"20835 OLD PIONEER DR, Anchorage, AK, 99567",No_Match,,,,,,,,,,
505,21344 MONRON ST,Anchorage,AK,99567,"21344 MONRON ST, Anchorage, AK, 99567",Match,Non_Exact,"21344 MONRON ST, CHUGIAK, AK, 99567",190823145,L,02,020,000101,2055,-149.42006,61.413222999999995
506,21020 OLD PIONEER DR,Anchorage,AK,99567,"21020 OLD PIONEER DR, Anchorage, AK, 99567",No_Match,,,,,,,,,,
507,22485 CENTURION DR,Anchorage,AK,99567,"22485 CENTURION DR, Anchorage, AK, 99567",Match,Non_Exact,"22485 CENTURION DR, CHUGIAK, AK, 99567",605186165,L,02,020,000101,3028,-149.4632,61.413357
508,21332 ROCK PTARMIGAN ST,Anchorage,AK,99567,"21332 ROCK PTARMIGAN ST, Anchorage, AK, 99567",Match,Non_Exact,"21332 ROCK PTARMIGAN ST, CHUGIAK, AK, 99567",190793344,R,02,020,000101,2065,-149.4257,61.41215
509,21332 ROCK PTARMIGAN ST,Anchorage,AK,99567,"21332 ROCK PTARMIGAN ST, Anchorage, AK, 99567",Match,Non_Exact,"21332 ROCK PTARMIGAN ST, CHUGIAK, AK, 99567",190793344,R,02,020,000101,2065,-149.4257,61.41215
510,22228 YARNOT AVE,Anchorage,AK,99567,"22228 YARNOT AVE, Anchorage, AK, 99567",Match,Non_Exact,"22228 YARNOT AVE, CHUGIAK, AK, 99567",635209677,L,02,020,000101,3047,-149.46832,61.41364300000001
511,21332 SETTLERS DR,Anchorage,AK,99567,"21332 SETTLERS DR, Anchorage, AK, 99567",Match,Non_Exact,"21332 SETTLERS DR, CHUGIAK, AK, 99567",190793382,R,02,020,000101,2064,-149.4276,61.41283000000001
512,21332 SETTLERS DR,Anchorage,AK,99567,"21332 SETTLERS DR, Anchorage, AK, 99567",Match,Non_Exact,"21332 SETTLERS DR, CHUGIAK, AK, 99567",190793382,R,02,020,000101,2064,-149.4276,61.41283000000001
513,22493 CENTURION DR,Anchorage,AK,99567,"22493 CENTURION DR, Anchorage, AK, 99567",Match,Non_Exact,"22493 CENTURION DR, CHUGIAK, AK, 99567",605186165,L,02,020,000101,3028,-149.4631,61.413357
514,21311 GINGER LEE DR,Anchorage,AK,99567,"21311 GINGER LEE DR, Anchorage, AK, 99567",Match,Non_Exact,"21311 GINGER LEE DR, CHUGIAK, AK, 99567",190793187,L,02,020,000101,3025,-149.43626,61.413128
515,21324 MONRON ST,Anchorage,AK,99567,"21324 MONRON ST, Anchorage, AK, 99567",Match,Non_Exact,"21324 MONRON ST, CHUGIAK, AK, 99567",637321385,L,02,020,000101,2055,-149.42004,61.412815
516,21324 GORSUCH ST,Anchorage,AK,99567,"21324 GORSUCH ST, Anchorage, AK, 99567",Match,Non_Exact,"21324 GORSUCH ST, CHUGIAK, AK, 99567",190807446,L,02,020,000101,2055,-149.42381,61.4122
517,21323 GORSUCH ST,Anchorage,AK,99567,"21323 GORSUCH ST, Anchorage, AK, 99567",Match,Non_Exact,"21323 GORSUCH ST, CHUGIAK, AK, 99567",190807446,R,02,020,000101,2055,-149.4238,61.412815
518,21322 SONGBIRD DR,Anchorage,AK,99567,"21322 SONGBIRD DR, Anchorage, AK, 99567",Match,Non_Exact,"21322 SONGBIRD DR, CHUGIAK, AK, 99567",190807666,L,02,020,000101,3025,-149.43367,61.41311999999999
519,21322 SONGBIRD DR,Anchorage,AK,99567,"21322 SONGBIRD DR, Anchorage, AK, 99567",Match,Non_Exact,"21322 SONGBIRD DR, CHUGIAK, AK, 99567",190807666,L,02,020,000101,3025,-149.43367,61.41311999999999
520,21340 GINGER LEE DR,Anchorage,AK,99567,"21340 GINGER LEE DR, Anchorage, AK, 99567",Match,Non_Exact,"21340 GINGER LEE DR, CHUGIAK, AK, 99567",190793187,R,02,020,000101,3037,-149.4363,61.413430000000005
521,22507 CENTURION DR,Anchorage,AK,99567,"22507 CENTURION DR, Anchorage, AK, 99567",Match,Non_Exact,"22507 CENTURION DR, CHUGIAK, AK, 99567",605186166,L,02,020,000101,3028,-149.46303,61.413143000000005
522,21325 BOWERY LN,Anchorage,AK,99567,"21325 BOWERY LN, Anchorage, AK, 99567",Match,Non_Exact,"21325 BOWERY LN, CHUGIAK, AK, 99567",190825476,R,02,020,000102,2004,-149.48036000000002,61.412643
523,21330 BOWERY LN,Anchorage,AK,99567,"21330 BOWERY LN, Anchorage, AK, 99567",Match,Non_Exact,"21330 BOWERY LN, CHUGIAK, AK, 99567",190825476,L,02,020,000102,2001,-149.4804,61.412678
524,21312 SETTLERS DR,Anchorage,AK,99567,"21312 SETTLERS DR, Anchorage, AK, 99567",Match,Non_Exact,"21312 SETTLERS DR, CHUGIAK, AK, 99567",190793382,R,02,020,000101,2064,-149.4276,61.412684999999996
525,21312 SETTLERS DR,Anchorage,AK,99567,"21312 SETTLERS DR, Anchorage, AK, 99567",Match,Non_Exact,"21312 SETTLERS DR, CHUGIAK, AK, 99567",190793382,R,02,020,000101,2064,-149.4276,61.412684999999996
526,21308 SONGBIRD DR,Anchorage,AK,99567,"21308 SONGBIRD DR, Anchorage, AK, 99567",Match,Non_Exact,"21308 SONGBIRD DR, CHUGIAK, AK, 99567",190807666,L,02,020,000101,3025,-149.43385,61.413002
527,21308 SONGBIRD DR,Anchorage,AK,99567,"21308 SONGBIRD DR, Anchorage, AK, 99567",Match,Non_Exact,"21308 SONGBIRD DR, CHUGIAK, AK, 99567",190807666,L,02,020,000101,3025,-149.43385,61.413002
528,24335 HOMESTEAD RD,Anchorage,AK,99567,"24335 HOMESTEAD RD, Anchorage, AK, 99567",Match,Non_Exact,"24335 HOMESTEAD RD, CHUGIAK, AK, 99567",190825927,R,02,020,000101,2064,-149.43079,61.411983
529,21206 OLD GLENN HWY,Anchorage,AK,99567,"21206 OLD GLENN HWY, Anchorage, AK, 99567",Match,Non_Exact,"21206 OLD GLENN HWY, CHUGIAK, AK, 99567",190793255,L,02,020,000101,3038,-149.44361999999998,61.411
530,21839 BLAIR AVE,Anchorage,AK,99567,"21839 BLAIR AVE, Anchorage, AK, 99567",Match,Non_Exact,"21839 BLAIR AVE, CHUGIAK, AK, 99567",190810364,L,02,020,000102,2004,-149.4757,61.411736
531,23905 HOMESTEAD RD,Anchorage,AK,99567,"23905 HOMESTEAD RD, Anchorage, AK, 99567",Match,Non_Exact,"23905 HOMESTEAD RD, CHUGIAK, AK, 99567",190793277,R,02,020,000101,3037,-149.43755,61.41174
532,23725 HOMESTEAD RD,Anchorage,AK,99567,"23725 HOMESTEAD RD, Anchorage, AK, 99567",Match,Non_Exact,"23725 HOMESTEAD RD, CHUGIAK, AK, 99567",190793277,R,02,020,000101,3037,-149.43944,61.41174
533,23827 HOMESTEAD RD,Anchorage,AK,99567,"23827 HOMESTEAD RD, Anchorage, AK, 99567",Match,Non_Exact,"23827 HOMESTEAD RD, CHUGIAK, AK, 99567",190793277,R,02,020,000101,3037,-149.43837,61.41174
534,23805 HOMESTEAD RD,Anchorage,AK,99567,"23805 HOMESTEAD RD, Anchorage, AK, 99567",Match,Non_Exact,"23805 HOMESTEAD RD, CHUGIAK, AK, 99567",190793277,R,02,020,000101,3037,-149.4386,61.41174
535,21950 BIRCH CREEK DR,Anchorage,AK,99567,"21950 BIRCH CREEK DR, Anchorage, AK, 99567",Match,Non_Exact,"21950 BIRCH CREEK DR, CHUGIAK, AK, 99567",614867239,L,02,020,000101,3004,-149.48395,61.419468
536,22707 MC MANUS DR,Anchorage,AK,99567,"22707 MC MANUS DR, Anchorage, AK, 99567",Match,Non_Exact,"22707 MCMANUS DR, CHUGIAK, AK, 99567",190807516,L,02,020,000101,3016,-149.45938,61.418519999999994
537,22000 BIRCH CREEK DR,Anchorage,AK,99567,"22000 BIRCH CREEK DR, Anchorage, AK, 99567",Match,Non_Exact,"22000 BIRCH CREEK DR, CHUGIAK, AK, 99567",614867239,L,02,020,000101,3004,-149.48369,61.419740000000004
538,21940 VOYLES BLVD,Anchorage,AK,99567,"21940 VOYLES BLVD, Anchorage, AK, 99567",Match,Non_Exact,"21940 VOYLES BLVD, CHUGIAK, AK, 99567",190818901,L,02,020,000101,3004,-149.4503,61.41842
539,22875 NORTHWOODS DR,Anchorage,AK,99567,"22875 NORTHWOODS DR, Anchorage, AK, 99567",Match,Non_Exact,"22875 NORTHWOODS DR, CHUGIAK, AK, 99567",190807513,L,02,020,000101,3022,-149.45673,61.4182
540,21936 WOODCLIFF DR,Anchorage,AK,99567,"21936 WOODCLIFF DR, Anchorage, AK, 99567",Match,Non_Exact,"21936 WOODCLIFF DR, CHUGIAK, AK, 99567",190807495,L,02,020,000101,3012,-149.46948,61.41851
541,22921 SHELTERING SPRUCE AVE,Anchorage,AK,99567,"22921 SHELTERING SPRUCE AVE, Anchorage, AK, 99567",Match,Non_Exact,"22921 SHELTERING SPRUCE AVE, CHUGIAK, AK, 99567",190810416,L,02,020,000101,3004,-149.45546000000002,61.41864399999999
542,22521 NORTON CT,Anchorage,AK,99567,"22521 NORTON CT, Anchorage, AK, 99567",Match,Non_Exact,"22521 NORTON CT, CHUGIAK, AK, 99567",190807501,L,02,020,000101,3016,-149.46365,61.418453
543,21919 KNIK VISTA ST,Anchorage,AK,99567,"21919 KNIK VISTA ST, Anchorage, AK, 99567",Match,Non_Exact,"21919 KNIK VISTA ST, CHUGIAK, AK, 99567",627034979,R,02,020,000101,3012,-149.48038,61.418209999999995
544,22431 NORTON CT,Anchorage,AK,99567,"22431 NORTON CT, Anchorage, AK, 99567",Match,Non_Exact,"22431 NORTON CT, CHUGIAK, AK, 99567",190807501,L,02,020,000101,3016,-149.46473999999998,61.418457
545,22505 NORTON CT,Anchorage,AK,99567,"22505 NORTON CT, Anchorage, AK, 99567",Match,Non_Exact,"22505 NORTON CT, CHUGIAK, AK, 99567",190807501,L,02,020,000101,3016,-149.46385,61.418453
546,22415 NORTON CT,Anchorage,AK,99567,"22415 NORTON CT, Anchorage, AK, 99567",Match,Non_Exact,"22415 NORTON CT, CHUGIAK, AK, 99567",190807501,L,02,020,000101,3016,-149.46493999999998,61.418457
547,22677 MC MANUS DR,Anchorage,AK,99567,"22677 MC MANUS DR, Anchorage, AK, 99567",Match,Non_Exact,"22677 MCMANUS DR, CHUGIAK, AK, 99567",190807516,L,02,020,000101,3016,-149.45973,61.418285
548,21901 SHELTERING SPRUCE LOOP,Anchorage,AK,99567,"21901 SHELTERING SPRUCE LOOP, Anchorage, AK, 99567",Match,Non_Exact,"21901 SHELTERING SPRUCE LOOP, CHUGIAK, AK, 99567",190807533,L,02,020,000101,3004,-149.44777,61.418082999999996
549,22853 NORTHWOODS DR,Anchorage,AK,99567,"22853 NORTHWOODS DR, Anchorage, AK, 99567",Match,Non_Exact,"22853 NORTHWOODS DR, CHUGIAK, AK, 99567",190807513,L,02,020,000101,3022,-149.45699,61.41802
550,21901 KNIK VISTA ST,Anchorage,AK,99567,"21901 KNIK VISTA ST, Anchorage, AK, 99567",Match,Non_Exact,"21901 KNIK VISTA ST, CHUGIAK, AK, 99567",627034979,R,02,020,000101,3012,-149.48038,61.41806
551,21905 KNIK VISTA ST,Anchorage,AK,99567,"21905 KNIK VISTA ST, Anchorage, AK, 99567",Match,Non_Exact,"21905 KNIK VISTA ST, CHUGIAK, AK, 99567",627034979,R,02,020,000101,3012,-149.48038,61.418094999999994
552,22743 NORTHWOODS DR,Anchorage,AK,99567,"22743 NORTHWOODS DR, Anchorage, AK, 99567",Match,Non_Exact,"22743 NORTHWOODS DR, CHUGIAK, AK, 99567",190807513,L,02,020,000101,3022,-149.4583,61.41712
553,23808 LENNIE CIR,Anchorage,AK,99567,"23808 LENNIE CIR, Anchorage, AK, 99567",Match,Non_Exact,"23808 LENNIE CIR, CHUGIAK, AK, 99567",190807654,L,02,020,000101,3006,-149.43613,61.416664000000004
554,23825 LENNIE CIR,Anchorage,AK,99567,"23825 LENNIE CIR, Anchorage, AK, 99567",Match,Non_Exact,"23825 LENNIE CIR, CHUGIAK, AK, 99567",190807654,R,02,020,000101,3006,-149.43743999999998,61.41668000000001
555,23120 GREEN GARDEN DR,Anchorage,AK,99567,"23120 GREEN GARDEN DR, Anchorage, AK, 99567",Match,Non_Exact,"23120 GREEN GARDEN DR, CHUGIAK, AK, 99567",190807535,L,02,020,000101,3031,-149.45242,61.416990000000006
556,23142 GREEN GARDEN DR,Anchorage,AK,99567,"23142 GREEN GARDEN DR, Anchorage, AK, 99567",Match,Non_Exact,"23142 GREEN GARDEN DR, CHUGIAK, AK, 99567",190807535,L,02,020,000101,3031,-149.45195,61.417033999999994
557,21738 OBERG RD,Anchorage,AK,99567,"21738 OBERG RD, Anchorage, AK, 99567",Match,Non_Exact,"21738 OBERG RD, CHUGIAK, AK, 99567",190813824,L,02,020,000101,3032,-149.46533,61.41666800000001
558,21532 TORKELSON CIR,Anchorage,AK,99567,"21532 TORKELSON CIR, Anchorage, AK, 99567",Match,Non_Exact,"21532 TORKELSON CIR, CHUGIAK, AK, 99567",190807486,L,02,020,000101,3004,-149.48145,61.417137
559,21724 CHANDELLE CIR,Anchorage,AK,99567,"21724 CHANDELLE CIR, Anchorage, AK, 99567",Match,Non_Exact,"21724 CHANDELLE CIR, CHUGIAK, AK, 99567",190816196,L,02,020,000101,3004,-149.44527,61.416546
560,23818 LENNIE CIR,Anchorage,AK,99567,"23818 LENNIE CIR, Anchorage, AK, 99567",Match,Non_Exact,"23818 LENNIE CIR, CHUGIAK, AK, 99567",190807654,L,02,020,000101,3006,-149.43633,61.416664000000004
561,22727 NORTHWOODS DR,Anchorage,AK,99567,"22727 NORTHWOODS DR, Anchorage, AK, 99567",Match,Non_Exact,"22727 NORTHWOODS DR, CHUGIAK, AK, 99567",190807513,L,02,020,000101,3022,-149.45848,61.41699200000001
562,21740 WOODCLIFF DR,Anchorage,AK,99567,"21740 WOODCLIFF DR, Anchorage, AK, 99567",Match,Non_Exact,"21740 WOODCLIFF DR, CHUGIAK, AK, 99567",190807494,L,02,020,000101,3012,-149.47146999999998,61.41679
563,22301 KIMPTON CIR,Anchorage,AK,99567,"22301 KIMPTON CIR, Anchorage, AK, 99567",Match,Non_Exact,"22301 KIMPTON CIR, CHUGIAK, AK, 99567",190813825,R,02,020,000101,3032,-149.46548,61.416626
564,22667 MC MANUS DR,Anchorage,AK,99567,"22667 MC MANUS DR, Anchorage, AK, 99567",Match,Non_Exact,"22667 MCMANUS DR, CHUGIAK, AK, 99567",190807516,L,02,020,000101,3016,-149.45985,61.418209999999995
565,24155 MIRROR DR,Anchorage,AK,99567,"24155 MIRROR DR, Anchorage, AK, 99567",Match,Non_Exact,"24155 MIRROR DR, CHUGIAK, AK, 99567",190819948,L,02,020,000101,3026,-149.43112,61.418037
566,24151 MIRROR DR,Anchorage,AK,99567,"24151 MIRROR DR, Anchorage, AK, 99567",No_Match,,,,,,,,,,
567,21904 OLD GLENN HWY,Anchorage,AK,99567,"21904 OLD GLENN HWY, Anchorage, AK, 99567",Match,Non_Exact,"21904 OLD GLENN HWY, CHUGIAK, AK, 99567",190807671,R,02,020,000101,3004,-149.43445,61.41758000000001
568,22839 NORTHWOODS DR,Anchorage,AK,99567,"22839 NORTHWOODS DR, Anchorage, AK, 99567",Match,Non_Exact,"22839 NORTHWOODS DR, CHUGIAK, AK, 99567",190807513,L,02,020,000101,3022,-149.45715,61.41790400000001
569,22339 WOODCLIFF CT,Anchorage,AK,99567,"22339 WOODCLIFF CT, Anchorage, AK, 99567",Match,Non_Exact,"22339 WOODCLIFF CT, CHUGIAK, AK, 99567",190807497,L,02,020,000101,3033,-149.46684,61.417930000000005
570,22211 WOODCLIFF CT,Anchorage,AK,99567,"22211 WOODCLIFF CT, Anchorage, AK, 99567",Match,Non_Exact,"22211 WOODCLIFF CT, CHUGIAK, AK, 99567",190807497,L,02,020,000101,3033,-149.4692,61.418094999999994
571,22319 WOODCLIFF CT,Anchorage,AK,99567,"22319 WOODCLIFF CT, Anchorage, AK, 99567",Match,Non_Exact,"22319 WOODCLIFF CT, CHUGIAK, AK, 99567",190807497,L,02,020,000101,3033,-149.46721000000002,61.417892
572,22649 MC MANUS DR,Anchorage,AK,99567,"22649 MC MANUS DR, Anchorage, AK, 99567",Match,Non_Exact,"22649 MCMANUS DR, CHUGIAK, AK, 99567",190807516,L,02,020,000101,3016,-149.46005,61.418064
573,21820 CHANDELLE CIR,Anchorage,AK,99567,"21820 CHANDELLE CIR, Anchorage, AK, 99567",Match,Non_Exact,"21820 CHANDELLE CIR, CHUGIAK, AK, 99567",190818893,L,02,020,000101,3004,-149.44525,61.417731999999994
574,22301 WOODCLIFF CT,Anchorage,AK,99567,"22301 WOODCLIFF CT, Anchorage, AK, 99567",Match,Non_Exact,"22301 WOODCLIFF CT, CHUGIAK, AK, 99567",190807497,L,02,020,000101,3033,-149.46756000000002,61.41786999999999
575,22235 WOODCLIFF CT,Anchorage,AK,99567,"22235 WOODCLIFF CT, Anchorage, AK, 99567",Match,Non_Exact,"22235 WOODCLIFF CT, CHUGIAK, AK, 99567",190807497,L,02,020,000101,3033,-149.46878,61.417995
576,22821 NORTHWOODS DR,Anchorage,AK,99567,"22821 NORTHWOODS DR, Anchorage, AK, 99567",Match,Non_Exact,"22821 NORTHWOODS DR, CHUGIAK, AK, 99567",190807513,L,02,020,000101,3022,-149.45737,61.417759999999994
577,21849 WOODCLIFF DR,Anchorage,AK,99567,"21849 WOODCLIFF DR, Anchorage, AK, 99567",Match,Non_Exact,"21849 WOODCLIFF DR, CHUGIAK, AK, 99567",190807494,R,02,020,000101,3032,-149.47054,61.41763
578,22635 MC MANUS DR,Anchorage,AK,99567,"22635 MC MANUS DR, Anchorage, AK, 99567",Match,Non_Exact,"22635 MCMANUS DR, CHUGIAK, AK, 99567",190807516,L,02,020,000101,3016,-149.46022,61.417953000000004
579,21818 CLOVERLEAF RD,Anchorage,AK,99567,"21818 CLOVERLEAF RD, Anchorage, AK, 99567",Match,Non_Exact,"21818 CLOVERLEAF RD, CHUGIAK, AK, 99567",190807651,R,02,020,000101,3006,-149.43521,61.41734
580,21827 KNIK VISTA ST,Anchorage,AK,99567,"21827 KNIK VISTA ST, Anchorage, AK, 99567",Match,Non_Exact,"21827 KNIK VISTA ST, CHUGIAK, AK, 99567",627034978,R,02,020,000101,3012,-149.48038,61.417396999999994
581,22807 NORTHWOODS DR,Anchorage,AK,99567,"22807 NORTHWOODS DR, Anchorage, AK, 99567",Match,Non_Exact,"22807 NORTHWOODS DR, CHUGIAK, AK, 99567",190807513,L,02,020,000101,3022,-149.45753,61.41764499999999
582,21801 KNIK VISTA ST,Anchorage,AK,99567,"21801 KNIK VISTA ST, Anchorage, AK, 99567",Match,Non_Exact,"21801 KNIK VISTA ST, CHUGIAK, AK, 99567",627034978,R,02,020,000101,3012,-149.48038,61.41721
583,22611 MC MANUS DR,Anchorage,AK,99567,"22611 MC MANUS DR, Anchorage, AK, 99567",Match,Non_Exact,"22611 MCMANUS DR, CHUGIAK, AK, 99567",190807516,L,02,020,000101,3016,-149.4605,61.417767000000005
584,21828 WOODCLIFF DR,Anchorage,AK,99567,"21828 WOODCLIFF DR, Anchorage, AK, 99567",Match,Non_Exact,"21828 WOODCLIFF DR, CHUGIAK, AK, 99567",190807494,L,02,020,000101,3012,-149.47078,61.417492
585,21766 CHANDELLE CIR,Anchorage,AK,99567,"21766 CHANDELLE CIR, Anchorage, AK, 99567",Match,Non_Exact,"21766 CHANDELLE CIR, CHUGIAK, AK, 99567",190816196,L,02,020,000101,3004,-149.44525,61.416996
586,22771 NORTHWOODS DR,Anchorage,AK,99567,"22771 NORTHWOODS DR, Anchorage, AK, 99567",Match,Non_Exact,"22771 NORTHWOODS DR, CHUGIAK, AK, 99567",190807513,L,02,020,000101,3022,-149.45796,61.41735
587,21810 SHELTERING SPRUCE LOOP,Anchorage,AK,99567,"21810 SHELTERING SPRUCE LOOP, Anchorage, AK, 99567",Match,Non_Exact,"21810 SHELTERING SPRUCE LOOP, CHUGIAK, AK, 99567",190807533,R,02,020,000101,3010,-149.44778,61.417182999999994
588,22541 MC MANUS DR,Anchorage,AK,99567,"22541 MC MANUS DR, Anchorage, AK, 99567",Match,Non_Exact,"22541 MCMANUS DR, CHUGIAK, AK, 99567",190807516,L,02,020,000101,3016,-149.46138,61.41725
589,22525 MC MANUS DR,Anchorage,AK,99567,"22525 MC MANUS DR, Anchorage, AK, 99567",Match,Non_Exact,"22525 MCMANUS DR, CHUGIAK, AK, 99567",190807516,L,02,020,000101,3016,-149.46169,61.417213000000004
590,22445 MC MANUS DR,Anchorage,AK,99567,"22445 MC MANUS DR, Anchorage, AK, 99567",Match,Non_Exact,"22445 MCMANUS DR, CHUGIAK, AK, 99567",190807516,L,02,020,000101,3016,-149.46329,61.417213000000004
591,22509 MC MANUS DR,Anchorage,AK,99567,"22509 MC MANUS DR, Anchorage, AK, 99567",Match,Non_Exact,"22509 MCMANUS DR, CHUGIAK, AK, 99567",190807516,L,02,020,000101,3016,-149.46200000000002,61.417213000000004
592,22415 MC MANUS DR,Anchorage,AK,99567,"22415 MC MANUS DR, Anchorage, AK, 99567",Match,Non_Exact,"22415 MCMANUS DR, CHUGIAK, AK, 99567",190807516,L,02,020,000101,3016,-149.4639,61.417213000000004
593,22433 MC MANUS DR,Anchorage,AK,99567,"22433 MC MANUS DR, Anchorage, AK, 99567",Match,Non_Exact,"22433 MCMANUS DR, CHUGIAK, AK, 99567",190807516,L,02,020,000101,3016,-149.46353,61.417213000000004
594,22755 NORTHWOODS DR,Anchorage,AK,99567,"22755 NORTHWOODS DR, Anchorage, AK, 99567",Match,Non_Exact,"22755 NORTHWOODS DR, CHUGIAK, AK, 99567",190807513,L,02,020,000101,3022,-149.45816000000002,61.41721999999999
595,21735 GORSUCH ST,Anchorage,AK,99567,"21735 GORSUCH ST, Anchorage, AK, 99567",Match,Non_Exact,"21735 GORSUCH ST, CHUGIAK, AK, 99567",190823557,R,02,020,000101,2056,-149.42383,61.417683
596,23233 GREEN GARDEN CIR,Anchorage,AK,99567,"23233 GREEN GARDEN CIR, Anchorage, AK, 99567",Match,Non_Exact,"23233 GREEN GARDEN CIR, CHUGIAK, AK, 99567",190818897,L,02,020,000101,3010,-149.45006999999998,61.417046
597,23137 GREEN GARDEN DR,Anchorage,AK,99567,"23137 GREEN GARDEN DR, Anchorage, AK, 99567",Match,Non_Exact,"23137 GREEN GARDEN DR, CHUGIAK, AK, 99567",190807535,R,02,020,000101,3028,-149.45172,61.417046
598,23121 GREEN GARDEN DR,Anchorage,AK,99567,"23121 GREEN GARDEN DR, Anchorage, AK, 99567",Match,Non_Exact,"23121 GREEN GARDEN DR, CHUGIAK, AK, 99567",190807535,R,02,020,000101,3028,-149.452,61.417046
599,21800 WOODCLIFF DR,Anchorage,AK,99567,"21800 WOODCLIFF DR, Anchorage, AK, 99567",Match,Non_Exact,"21800 WOODCLIFF DR, CHUGIAK, AK, 99567",190807494,L,02,020,000101,3012,-149.4711,61.41729399999999
600,21738 MORNING DR,Anchorage,AK,99567,"21738 MORNING DR, Anchorage, AK, 99567",Match,Non_Exact,"21738 MORNING DR, CHUGIAK, AK, 99567",190823559,L,02,020,000101,2056,-149.42168999999998,61.41655
601,21535 TORKELSON CIR,Anchorage,AK,99567,"21535 TORKELSON CIR, Anchorage, AK, 99567",Match,Non_Exact,"21535 TORKELSON CIR, CHUGIAK, AK, 99567",190807486,R,02,020,000101,3004,-149.4818,61.41715
602,21535 TORKELSON CIR,Anchorage,AK,99567,"21535 TORKELSON CIR, Anchorage, AK, 99567",Match,Non_Exact,"21535 TORKELSON CIR, CHUGIAK, AK, 99567",190807486,R,02,020,000101,3004,-149.4818,61.41715
603,23819 LENNIE CIR,Anchorage,AK,99567,"23819 LENNIE CIR, Anchorage, AK, 99567",Match,Non_Exact,"23819 LENNIE CIR, CHUGIAK, AK, 99567",190807654,R,02,020,000101,3006,-149.43755,61.41668000000001
604,23809 LENNIE CIR,Anchorage,AK,99567,"23809 LENNIE CIR, Anchorage, AK, 99567",Match,Non_Exact,"23809 LENNIE CIR, CHUGIAK, AK, 99567",190807654,R,02,020,000101,3006,-149.43771,61.416718
605,21508 SNOWFLOWER LOOP,Anchorage,AK,99567,"21508 SNOWFLOWER LOOP, Anchorage, AK, 99567",Match,Non_Exact,"21508 SNOWFLOWER LOOP, CHUGIAK, AK, 99567",190816211,L,02,020,000101,3004,-149.44891,61.41465
606,21514 PEG ST,Anchorage,AK,99567,"21514 PEG ST, Anchorage, AK, 99567",Match,Non_Exact,"21514 PEG ST, CHUGIAK, AK, 99567",190807491,R,02,020,000101,3004,-149.47285,61.415077000000004
607,21446 ROCK PTARMIGAN ST,Anchorage,AK,99567,"21446 ROCK PTARMIGAN ST, Anchorage, AK, 99567",Match,Non_Exact,"21446 ROCK PTARMIGAN ST, CHUGIAK, AK, 99567",190793344,R,02,020,000101,2065,-149.4257,61.412254000000004
608,20895 BIRCHWOOD SPUR RD,Anchorage,AK,99567,"20895 BIRCHWOOD SPUR RD, Anchorage, AK, 99567",Match,Non_Exact,"20895 BIRCHWOOD SPUR RD, CHUGIAK, AK, 99567",190792958,R,02,020,000102,2001,-149.4956,61.415222
609,21447 SNOWFLOWER LOOP,Anchorage,AK,99567,"21447 SNOWFLOWER LOOP, Anchorage, AK, 99567",Match,Non_Exact,"21447 SNOWFLOWER LOOP, CHUGIAK, AK, 99567",190816211,R,02,020,000101,3020,-149.44814,61.414116
610,21464 SNOWFLOWER LOOP,Anchorage,AK,99567,"21464 SNOWFLOWER LOOP, Anchorage, AK, 99567",Match,Non_Exact,"21464 SNOWFLOWER LOOP, CHUGIAK, AK, 99567",190816211,L,02,020,000101,3004,-149.44843999999998,61.41424
611,21401 LINDA JO CIR,Anchorage,AK,99567,"21401 LINDA JO CIR, Anchorage, AK, 99567",Match,Non_Exact,"21401 LINDA JO CIR, CHUGIAK, AK, 99567",190827387,R,02,020,000101,3011,-149.45215,61.413975
612,21418 GORSUCH ST,Anchorage,AK,99567,"21418 GORSUCH ST, Anchorage, AK, 99567",Match,Non_Exact,"21418 GORSUCH ST, CHUGIAK, AK, 99567",190807446,L,02,020,000101,2055,-149.42381,61.41321
613,21437 SETTLERS DR,Anchorage,AK,99567,"21437 SETTLERS DR, Anchorage, AK, 99567",Match,Non_Exact,"21437 SETTLERS DR, CHUGIAK, AK, 99567",190825926,L,02,020,000101,2065,-149.42758,61.413887
614,24043 PILLOW CIR,Anchorage,AK,99567,"24043 PILLOW CIR, Anchorage, AK, 99567",Match,Non_Exact,"24043 PILLOW CIR, CHUGIAK, AK, 99567",190807668,R,02,020,000101,3025,-149.43332,61.414066000000005
615,24043 PILLOW CIR,Anchorage,AK,99567,"24043 PILLOW CIR, Anchorage, AK, 99567",Match,Non_Exact,"24043 PILLOW CIR, CHUGIAK, AK, 99567",190807668,R,02,020,000101,3025,-149.43332,61.414066000000005
616,24043 PILLOW CIR,Anchorage,AK,99567,"24043 PILLOW CIR, Anchorage, AK, 99567",Match,Non_Exact,"24043 PILLOW CIR, CHUGIAK, AK, 99567",190807668,R,02,020,000101,3025,-149.43332,61.414066000000005
617,21434 TINA ST,Anchorage,AK,99567,"21434 TINA ST, Anchorage, AK, 99567",Match,Non_Exact,"21434 TINA ST, CHUGIAK, AK, 99567",190793341,R,02,020,000101,2064,-149.42923000000002,61.413880000000006
618,20915 BIRCHWOOD SPUR RD,Anchorage,AK,99567,"20915 BIRCHWOOD SPUR RD, Anchorage, AK, 99567",Match,Non_Exact,"20915 BIRCHWOOD SPUR RD, CHUGIAK, AK, 99567",190792958,R,02,020,000102,2001,-149.49563999999998,61.414925
619,21434 SETTLERS DR,Anchorage,AK,99567,"21434 SETTLERS DR, Anchorage, AK, 99567",Match,Non_Exact,"21434 SETTLERS DR, CHUGIAK, AK, 99567",190825926,R,02,020,000101,2064,-149.4276,61.41386800000001
620,21448 SNOWFLOWER LOOP,Anchorage,AK,99567,"21448 SNOWFLOWER LOOP, Anchorage, AK, 99567",Match,Non_Exact,"21448 SNOWFLOWER LOOP, CHUGIAK, AK, 99567",190816211,L,02,020,000101,3004,-149.44818,61.41412
621,21346 OLD GLENN HWY,Anchorage,AK,99567,"21346 OLD GLENN HWY, Anchorage, AK, 99567",Match,Non_Exact,"21346 OLD GLENN HWY, CHUGIAK, AK, 99567",190793256,L,02,020,000101,3038,-149.44025,61.41319
622,24020 PILLOW CIR,Anchorage,AK,99567,"24020 PILLOW CIR, Anchorage, AK, 99567",Match,Non_Exact,"24020 PILLOW CIR, CHUGIAK, AK, 99567",190807668,L,02,020,000101,3025,-149.43356,61.414116
623,21421 SCENIC DR,Anchorage,AK,99567,"21421 SCENIC DR, Anchorage, AK, 99567",Match,Non_Exact,"21421 SCENIC DR, CHUGIAK, AK, 99567",190819896,R,02,020,000102,2001,-149.48764,61.413776
624,21424 GINGER LEE DR,Anchorage,AK,99567,"21424 GINGER LEE DR, Anchorage, AK, 99567",Match,Non_Exact,"21424 GINGER LEE DR, CHUGIAK, AK, 99567",190793187,R,02,020,000101,3037,-149.43658,61.414238
625,22801 GREEN GARDEN DR,Anchorage,AK,99567,"22801 GREEN GARDEN DR, Anchorage, AK, 99567",Match,Non_Exact,"22801 GREEN GARDEN DR, CHUGIAK, AK, 99567",190827348,R,02,020,000101,3028,-149.45593,61.414127
626,21426 OLD GLENN HWY,Anchorage,AK,99567,"21426 OLD GLENN HWY, Anchorage, AK, 99567",Match,Non_Exact,"21426 OLD GLENN HWY, CHUGIAK, AK, 99567",190793188,R,02,020,000101,3038,-149.43822,61.41494
627,21440 PEG ST,Anchorage,AK,99567,"21440 PEG ST, Anchorage, AK, 99567",Match,Non_Exact,"21440 PEG ST, CHUGIAK, AK, 99567",190807491,R,02,020,000101,3004,-149.47285,61.414936
628,21313 OLD PIONEER DR,Anchorage,AK,99567,"21313 OLD PIONEER DR, Anchorage, AK, 99567",Match,Non_Exact,"21313 OLD PIONEER DR, CHUGIAK, AK, 99567",614864781,R,02,020,000102,2001,-149.48601000000002,61.413925
629,23135 ROSS VOYLES AVE,Anchorage,AK,99567,"23135 ROSS VOYLES AVE, Anchorage, AK, 99567",Match,Non_Exact,"23135 ROSS VOYLES AVE, CHUGIAK, AK, 99567",605288203,L,02,020,000101,3011,-149.45145,61.413925
630,21420 ROCK PTARMIGAN ST,Anchorage,AK,99567,"21420 ROCK PTARMIGAN ST, Anchorage, AK, 99567",Match,Non_Exact,"21420 ROCK PTARMIGAN ST, CHUGIAK, AK, 99567",190793344,R,02,020,000101,2065,-149.4257,61.41223000000001
631,21342 OLD GLENN HWY,Anchorage,AK,99567,"21342 OLD GLENN HWY, Anchorage, AK, 99567",Match,Non_Exact,"21342 OLD GLENN HWY, CHUGIAK, AK, 99567",190793256,L,02,020,000101,3038,-149.44037,61.413081999999996
632,21424 SCENIC DR,Anchorage,AK,99567,"21424 SCENIC DR, Anchorage, AK, 99567",Match,Non_Exact,"21424 SCENIC DR, CHUGIAK, AK, 99567",190819896,L,02,020,000102,2001,-149.4877,61.41393000000001
633,21416 MONRON ST,Anchorage,AK,99567,"21416 MONRON ST, Anchorage, AK, 99567",Match,Non_Exact,"21416 MONRON ST, CHUGIAK, AK, 99567",190823145,L,02,020,000101,2055,-149.41963,61.41381
634,21715 WOODCLIFF DR,Anchorage,AK,99567,"21715 WOODCLIFF DR, Anchorage, AK, 99567",Match,Non_Exact,"21715 WOODCLIFF DR, CHUGIAK, AK, 99567",190807494,R,02,020,000101,3032,-149.47142,61.416557
635,20837 BIRCHWOOD SPUR RD,Anchorage,AK,99567,"20837 BIRCHWOOD SPUR RD, Anchorage, AK, 99567",Match,Non_Exact,"20837 BIRCHWOOD SPUR RD, CHUGIAK, AK, 99567",627048962,L,02,020,000102,2001,-149.49557,61.41656999999999
636,21715 SONGBIRD DR,Anchorage,AK,99567,"21715 SONGBIRD DR, Anchorage, AK, 99567",Match,Non_Exact,"21715 SONGBIRD DR, CHUGIAK, AK, 99567",190819950,R,02,020,000101,3026,-149.43138000000002,61.416419999999995
637,21715 SONGBIRD DR,Anchorage,AK,99567,"21715 SONGBIRD DR, Anchorage, AK, 99567",Match,Non_Exact,"21715 SONGBIRD DR, CHUGIAK, AK, 99567",190819950,R,02,020,000101,3026,-149.43138000000002,61.416419999999995
638,21715 SONGBIRD DR,Anchorage,AK,99567,"21715 SONGBIRD DR, Anchorage, AK, 99567",Match,Non_Exact,"21715 SONGBIRD DR, CHUGIAK, AK, 99567",190819950,R,02,020,000101,3026,-149.43138000000002,61.416419999999995
639,21718 PEG ST,Anchorage,AK,99567,"21718 PEG ST, Anchorage, AK, 99567",Match,Non_Exact,"21718 PEG ST, CHUGIAK, AK, 99567",190819625,L,02,020,000101,3012,-149.47287,61.415859999999995
640,21650 GRAYBILL ST,Anchorage,AK,99567,"21650 GRAYBILL ST, Anchorage, AK, 99567",Match,Non_Exact,"21650 GRAYBILL ST, CHUGIAK, AK, 99567",190811402,L,02,020,000101,3006,-149.44267,61.415703
641,21650 GRAYBILL ST,Anchorage,AK,99567,"21650 GRAYBILL ST, Anchorage, AK, 99567",Match,Non_Exact,"21650 GRAYBILL ST, CHUGIAK, AK, 99567",190811402,L,02,020,000101,3006,-149.44267,61.415703
642,21650 GRAYBILL ST,Anchorage,AK,99567,"21650 GRAYBILL ST, Anchorage, AK, 99567",Match,Non_Exact,"21650 GRAYBILL ST, CHUGIAK, AK, 99567",190811402,L,02,020,000101,3006,-149.44267,61.415703
643,22709 NORTHWOODS DR,Anchorage,AK,99567,"22709 NORTHWOODS DR, Anchorage, AK, 99567",Match,Non_Exact,"22709 NORTHWOODS DR, CHUGIAK, AK, 99567",190807513,L,02,020,000101,3022,-149.4587,61.41684300000001
644,22300 KIMPTON CIR,Anchorage,AK,99567,"22300 KIMPTON CIR, Anchorage, AK, 99567",No_Match,,,,,,,,,,
645,21706 MORNING DR,Anchorage,AK,99567,"21706 MORNING DR, Anchorage, AK, 99567",Match,Non_Exact,"21706 MORNING DR, CHUGIAK, AK, 99567",190823559,L,02,020,000101,2056,-149.42168999999998,61.416306000000006
646,21706 MORNING DR,Anchorage,AK,99567,"21706 MORNING DR, Anchorage, AK, 99567",Match,Non_Exact,"21706 MORNING DR, CHUGIAK, AK, 99567",190823559,L,02,020,000101,2056,-149.42168999999998,61.416306000000006
647,21735 KNIK VISTA ST,Anchorage,AK,99567,"21735 KNIK VISTA ST, Anchorage, AK, 99567",Match,Non_Exact,"21735 KNIK VISTA ST, CHUGIAK, AK, 99567",190823718,R,02,020,000101,3012,-149.48038,61.416669999999996
648,21705 GORSUCH ST,Anchorage,AK,99567,"21705 GORSUCH ST, Anchorage, AK, 99567",Match,Non_Exact,"21705 GORSUCH ST, CHUGIAK, AK, 99567",190823557,R,02,020,000101,2056,-149.42383,61.417225
649,21708 OBERG RD,Anchorage,AK,99567,"21708 OBERG RD, Anchorage, AK, 99567",Match,Non_Exact,"21708 OBERG RD, CHUGIAK, AK, 99567",190813823,L,02,020,000101,3032,-149.46533,61.416140000000006
650,22645 NORTHWOODS DR,Anchorage,AK,99567,"22645 NORTHWOODS DR, Anchorage, AK, 99567",Match,Non_Exact,"22645 NORTHWOODS DR, CHUGIAK, AK, 99567",190807513,L,02,020,000101,3022,-149.45946999999998,61.41633
651,21636 SETTLERS DR,Anchorage,AK,99567,"21636 SETTLERS DR, Anchorage, AK, 99567",Match,Non_Exact,"21636 SETTLERS DR, CHUGIAK, AK, 99567",605186140,R,02,020,000101,2052,-149.42763,61.416138000000004
652,21645 WOODCLIFF DR,Anchorage,AK,99567,"21645 WOODCLIFF DR, Anchorage, AK, 99567",Match,Non_Exact,"21645 WOODCLIFF DR, CHUGIAK, AK, 99567",190807494,R,02,020,000101,3032,-149.47098,61.415969999999994
653,22621 NORTHWOODS DR,Anchorage,AK,99567,"22621 NORTHWOODS DR, Anchorage, AK, 99567",Match,Non_Exact,"22621 NORTHWOODS DR, CHUGIAK, AK, 99567",190807513,L,02,020,000101,3022,-149.45985,61.416169999999994
654,22607 NORTHWOODS DR,Anchorage,AK,99567,"22607 NORTHWOODS DR, Anchorage, AK, 99567",Match,Non_Exact,"22607 NORTHWOODS DR, CHUGIAK, AK, 99567",190807513,L,02,020,000101,3022,-149.4601,61.416095999999996
655,22525 NORTHWOODS DR,Anchorage,AK,99567,"22525 NORTHWOODS DR, Anchorage, AK, 99567",Match,Non_Exact,"22525 NORTHWOODS DR, CHUGIAK, AK, 99567",190807513,L,02,020,000101,3022,-149.46175,61.415974
656,22543 NORTHWOODS DR,Anchorage,AK,99567,"22543 NORTHWOODS DR, Anchorage, AK, 99567",Match,Non_Exact,"22543 NORTHWOODS DR, CHUGIAK, AK, 99567",190807513,L,02,020,000101,3022,-149.46138,61.415974
657,22509 NORTHWOODS DR,Anchorage,AK,99567,"22509 NORTHWOODS DR, Anchorage, AK, 99567",Match,Non_Exact,"22509 NORTHWOODS DR, CHUGIAK, AK, 99567",190807513,L,02,020,000101,3022,-149.46208000000001,61.415969999999994
658,22445 NORTHWOODS DR,Anchorage,AK,99567,"22445 NORTHWOODS DR, Anchorage, AK, 99567",Match,Non_Exact,"22445 NORTHWOODS DR, CHUGIAK, AK, 99567",190807513,L,02,020,000101,3022,-149.46341,61.415969999999994
659,22427 NORTHWOODS DR,Anchorage,AK,99567,"22427 NORTHWOODS DR, Anchorage, AK, 99567",Match,Non_Exact,"22427 NORTHWOODS DR, CHUGIAK, AK, 99567",190807513,L,02,020,000101,3022,-149.46379,61.415969999999994
660,21644 MADSEN'S PL,Anchorage,AK,99567,"21644 MADSEN'S PL, Anchorage, AK, 99567",Match,Non_Exact,"21644 MADSENS PL, CHUGIAK, AK, 99567",190793185,L,02,020,000101,3006,-149.44116,61.415905
661,21646 OLD GLENN HWY,Anchorage,AK,99567,"21646 OLD GLENN HWY, Anchorage, AK, 99567",Match,Non_Exact,"21646 OLD GLENN HWY, CHUGIAK, AK, 99567",190807653,R,02,020,000101,3006,-149.4372,61.415707
662,21644 WOODCLIFF DR,Anchorage,AK,99567,"21644 WOODCLIFF DR, Anchorage, AK, 99567",Match,Non_Exact,"21644 WOODCLIFF DR, CHUGIAK, AK, 99567",190807494,L,02,020,000101,3012,-149.47101,61.415966000000004
663,21705 SHELTERING SPRUCE LOOP,Anchorage,AK,99567,"21705 SHELTERING SPRUCE LOOP, Anchorage, AK, 99567",Match,Non_Exact,"21705 SHELTERING SPRUCE LOOP, CHUGIAK, AK, 99567",190807533,L,02,020,000101,3004,-149.44775,61.416121999999994
664,21620 GRAYBILL ST,Anchorage,AK,99567,"21620 GRAYBILL ST, Anchorage, AK, 99567",Match,Non_Exact,"21620 GRAYBILL ST, CHUGIAK, AK, 99567",190811402,L,02,020,000101,3006,-149.44267,61.415546
665,21618 KNIK VISTA ST,Anchorage,AK,99567,"21618 KNIK VISTA ST, Anchorage, AK, 99567",Match,Non_Exact,"21618 KNIK VISTA ST, CHUGIAK, AK, 99567",627034978,L,02,020,000101,3004,-149.4804,61.417297
666,21624 SEAN ST,Anchorage,AK,99567,"21624 SEAN ST, Anchorage, AK, 99567",Match,Non_Exact,"21624 SEAN ST, CHUGIAK, AK, 99567",190792971,L,02,020,000102,2001,-149.49168,61.415997
667,22542 NORTHWOODS DR,Anchorage,AK,99567,"22542 NORTHWOODS DR, Anchorage, AK, 99567",Match,Non_Exact,"22542 NORTHWOODS DR, CHUGIAK, AK, 99567",190807513,R,02,020,000101,3028,-149.46138,61.415962
668,22606 NORTHWOODS DR,Anchorage,AK,99567,"22606 NORTHWOODS DR, Anchorage, AK, 99567",Match,Non_Exact,"22606 NORTHWOODS DR, CHUGIAK, AK, 99567",190807513,R,02,020,000101,3028,-149.46008,61.416090000000004
669,20925 CRABTREE ST,Anchorage,AK,99567,"20925 CRABTREE ST, Anchorage, AK, 99567",Match,Non_Exact,"20925 CRABTREE ST, CHUGIAK, AK, 99567",637322999,L,02,020,000102,2011,-149.4914,61.409172
670,24550 PARK DR,Anchorage,AK,99567,"24550 PARK DR, Anchorage, AK, 99567",Match,Non_Exact,"24550 PARK DR, CHUGIAK, AK, 99567",190793390,R,02,020,000101,2050,-149.42433,61.409153
671,20906 CHICKADEE ST,Anchorage,AK,99567,"20906 CHICKADEE ST, Anchorage, AK, 99567",Match,Non_Exact,"20906 CHICKADEE ST, CHUGIAK, AK, 99567",190813863,R,02,020,000101,2063,-149.4367,61.409203000000005
672,20903 CHICKADEE ST,Anchorage,AK,99567,"20903 CHICKADEE ST, Anchorage, AK, 99567",Match,Non_Exact,"20903 CHICKADEE ST, CHUGIAK, AK, 99567",190813863,L,02,020,000101,2063,-149.43607,61.410435
673,24562 PARK DR,Anchorage,AK,99567,"24562 PARK DR, Anchorage, AK, 99567",Match,Non_Exact,"24562 PARK DR, CHUGIAK, AK, 99567",190793390,R,02,020,000101,2050,-149.42427,61.409065000000005
674,20836 FERNDALE ST,Anchorage,AK,99567,"20836 FERNDALE ST, Anchorage, AK, 99567",Match,Non_Exact,"20836 FERNDALE ST, CHUGIAK, AK, 99567",190813833,R,02,020,000101,2051,-149.42003,61.408722
675,20813 FROSTY DR,Anchorage,AK,99567,"20813 FROSTY DR, Anchorage, AK, 99567",Match,Non_Exact,"20813 FROSTY DR, CHUGIAK, AK, 99567",190813866,L,02,020,000101,2051,-149.42314,61.408463
676,24574 PARK DR,Anchorage,AK,99567,"24574 PARK DR, Anchorage, AK, 99567",Match,Non_Exact,"24574 PARK DR, CHUGIAK, AK, 99567",190793390,R,02,020,000101,2050,-149.42428999999998,61.408978000000005
677,20914 OBERG RD,Anchorage,AK,99567,"20914 OBERG RD, Anchorage, AK, 99567",Match,Non_Exact,"20914 OBERG RD, CHUGIAK, AK, 99567",636132147,L,02,020,000101,3047,-149.4616,61.40878299999999
678,20838 HELLUVA ST,Anchorage,AK,99567,"20838 HELLUVA ST, Anchorage, AK, 99567",Match,Non_Exact,"20838 HELLUVA ST, CHUGIAK, AK, 99567",190826265,L,02,020,000102,2006,-149.47661000000002,61.408978000000005
679,20838 SCENIC DR,Anchorage,AK,99567,"20838 SCENIC DR, Anchorage, AK, 99567",Match,Non_Exact,"20838 SCENIC DR, CHUGIAK, AK, 99567",605186197,R,02,020,000102,2011,-149.48778000000001,61.408615000000005
680,20840 CRABTREE ST,Anchorage,AK,99567,"20840 CRABTREE ST, Anchorage, AK, 99567",Match,Non_Exact,"20840 CRABTREE ST, CHUGIAK, AK, 99567",637322999,R,02,020,000102,2011,-149.49141,61.40915699999999
681,20843 SUNSET BLVD,Anchorage,AK,99567,"20843 SUNSET BLVD, Anchorage, AK, 99567",Match,Non_Exact,"20843 SUNSET BLVD, CHUGIAK, AK, 99567",190793029,R,02,020,000102,2002,-149.48408999999998,61.408863000000004
682,20871 OLD GLENN HWY,Anchorage,AK,99567,"20871 OLD GLENN HWY, Anchorage, AK, 99567",Match,Non_Exact,"20871 OLD GLENN HWY, CHUGIAK, AK, 99567",614833580,R,02,020,000101,2066,-149.44382,61.408609999999996
683,21957 AURORA BOREALIS RD,Anchorage,AK,99567,"21957 AURORA BOREALIS RD, Anchorage, AK, 99567",Match,Non_Exact,"21957 AURORA BOREALIS RD, CHUGIAK, AK, 99567",627034929,L,02,020,000102,2005,-149.4724,61.407623
684,20717 FROSTY DR,Anchorage,AK,99567,"20717 FROSTY DR, Anchorage, AK, 99567",Match,Non_Exact,"20717 FROSTY DR, CHUGIAK, AK, 99567",635725201,L,02,020,000101,2051,-149.42061999999999,61.408207
685,21951 AURORA BOREALIS RD,Anchorage,AK,99567,"21951 AURORA BOREALIS RD, Anchorage, AK, 99567",Match,Non_Exact,"21951 AURORA BOREALIS RD, CHUGIAK, AK, 99567",627034928,L,02,020,000102,2005,-149.47313,61.407630000000005
686,20743 FROSTY DR,Anchorage,AK,99567,"20743 FROSTY DR, Anchorage, AK, 99567",Match,Non_Exact,"20743 FROSTY DR, CHUGIAK, AK, 99567",190813866,L,02,020,000101,2051,-149.4223,61.408207
687,20805 S BIRCHWOOD LOOP RD,Anchorage,AK,99567,"20805 S BIRCHWOOD LOOP RD, Anchorage, AK, 99567",Tie,,,,,,,,,,
688,20805 S BIRCHWOOD LOOP RD,Anchorage,AK,99567,"20805 S BIRCHWOOD LOOP RD, Anchorage, AK, 99567",Tie,,,,,,,,,,
689,21963 AURORA BOREALIS RD,Anchorage,AK,99567,"21963 AURORA BOREALIS RD, Anchorage, AK, 99567",Match,Non_Exact,"21963 AURORA BOREALIS RD, CHUGIAK, AK, 99567",627034929,L,02,020,000102,2005,-149.47226,61.407627000000005
690,21138 LOOKOUT CIR,Anchorage,AK,99567,"21138 LOOKOUT CIR, Anchorage, AK, 99567",Match,Non_Exact,"21138 LOOKOUT CIR, CHUGIAK, AK, 99567",190793381,R,02,020,000101,2063,-149.42885,61.410763
691,20977 BIRCHWOOD LOOP RD,Anchorage,AK,99567,"20977 BIRCHWOOD LOOP RD, Anchorage, AK, 99567",Match,Non_Exact,"20977 BIRCHWOOD LOOP RD, CHUGIAK, AK, 99567",190793009,L,02,020,000102,2001,-149.4909,61.4107
692,21116 FROSTY DR,Anchorage,AK,99567,"21116 FROSTY DR, Anchorage, AK, 99567",Match,Non_Exact,"21116 FROSTY DR, CHUGIAK, AK, 99567",190813866,R,02,020,000101,2050,-149.42223,61.41073000000001
693,21109 FROSTY DR,Anchorage,AK,99567,"21109 FROSTY DR, Anchorage, AK, 99567",Match,Non_Exact,"21109 FROSTY DR, CHUGIAK, AK, 99567",190813866,L,02,020,000101,2051,-149.42218,61.41075
694,20976 BIRCHWOOD LOOP RD,Anchorage,AK,99567,"20976 BIRCHWOOD LOOP RD, Anchorage, AK, 99567",No_Match,,,,,,,,,,
695,21110 SCENIC DR,Anchorage,AK,99567,"21110 SCENIC DR, Anchorage, AK, 99567",Match,Non_Exact,"21110 SCENIC DR, CHUGIAK, AK, 99567",190819905,L,02,020,000102,2001,-149.48792,61.410945999999996
696,21126 SPIRE CIR,Anchorage,AK,99567,"21126 SPIRE CIR, Anchorage, AK, 99567",Match,Non_Exact,"21126 SPIRE CIR, CHUGIAK, AK, 99567",190793285,L,02,020,000101,2063,-149.43143999999998,61.41069399999999
697,20985 BIRCHWOOD LOOP RD,Anchorage,AK,99567,"20985 BIRCHWOOD LOOP RD, Anchorage, AK, 99567",Match,Non_Exact,"20985 BIRCHWOOD LOOP RD, CHUGIAK, AK, 99567",190793009,L,02,020,000102,2001,-149.49081,61.41065
698,21108 RAVEN ST,Anchorage,AK,99567,"21108 RAVEN ST, Anchorage, AK, 99567",No_Match,,,,,,,,,,
699,21111 HELLUVA ST,Anchorage,AK,99567,"21111 HELLUVA ST, Anchorage, AK, 99567",Match,Non_Exact,"21111 HELLUVA ST, CHUGIAK, AK, 99567",190793055,R,02,020,000102,2004,-149.47658,61.410872999999995
700,21138 HELLUVA ST,Anchorage,AK,99567,"21138 HELLUVA ST, Anchorage, AK, 99567",Match,Non_Exact,"21138 HELLUVA ST, CHUGIAK, AK, 99567",190793055,L,02,020,000102,2003,-149.47661000000002,61.41113000000001
701,24417 HEARTHSTONE DR,Anchorage,AK,99567,"24417 HEARTHSTONE DR, Anchorage, AK, 99567",Match,Non_Exact,"24417 HEARTHSTONE DR, CHUGIAK, AK, 99567",190793387,R,02,020,000101,2063,-149.42786,61.41049
702,21043 FROSTY DR,Anchorage,AK,99567,"21043 FROSTY DR, Anchorage, AK, 99567",Match,Non_Exact,"21043 FROSTY DR, CHUGIAK, AK, 99567",190813866,L,02,020,000101,2051,-149.42258999999999,61.41026
703,20993 BIRCHWOOD LOOP RD,Anchorage,AK,99567,"20993 BIRCHWOOD LOOP RD, Anchorage, AK, 99567",Match,Non_Exact,"20993 BIRCHWOOD LOOP RD, CHUGIAK, AK, 99567",190793009,L,02,020,000102,2001,-149.49071999999998,61.4106
704,24349 HEARTHSTONE DR,Anchorage,AK,99567,"24349 HEARTHSTONE DR, Anchorage, AK, 99567",Match,Non_Exact,"24349 HEARTHSTONE DR, CHUGIAK, AK, 99567",190793387,R,02,020,000101,2063,-149.4283,61.410477
705,24035 HEARTHSTONE DR,Anchorage,AK,99567,"24035 HEARTHSTONE DR, Anchorage, AK, 99567",Match,Non_Exact,"24035 HEARTHSTONE DR, CHUGIAK, AK, 99567",190793283,R,02,020,000101,2063,-149.43384,61.410484
706,24035 HEARTHSTONE DR,Anchorage,AK,99567,"24035 HEARTHSTONE DR, Anchorage, AK, 99567",Match,Non_Exact,"24035 HEARTHSTONE DR, CHUGIAK, AK, 99567",190793283,R,02,020,000101,2063,-149.43384,61.410484
707,21044 FOUR WHEEL DR,Anchorage,AK,99567,"21044 FOUR WHEEL DR, Anchorage, AK, 99567",Match,Non_Exact,"21044 FOUR WHEEL DR, CHUGIAK, AK, 99567",190793202,L,02,020,000101,3030,-149.45016,61.41061
708,24331 HEARTHSTONE DR,Anchorage,AK,99567,"24331 HEARTHSTONE DR, Anchorage, AK, 99567",Match,Non_Exact,"24331 HEARTHSTONE DR, CHUGIAK, AK, 99567",190793387,R,02,020,000101,2063,-149.42842,61.410477
709,24121 HEARTHSTONE DR,Anchorage,AK,99567,"24121 HEARTHSTONE DR, Anchorage, AK, 99567",Match,Non_Exact,"24121 HEARTHSTONE DR, CHUGIAK, AK, 99567",190793283,R,02,020,000101,2063,-149.43271000000001,61.410484
710,24131 HEARTHSTONE DR,Anchorage,AK,99567,"24131 HEARTHSTONE DR, Anchorage, AK, 99567",Match,Non_Exact,"24131 HEARTHSTONE DR, CHUGIAK, AK, 99567",190793283,R,02,020,000101,2063,-149.43257,61.41048000000001
711,21036 FROSTY DR,Anchorage,AK,99567,"21036 FROSTY DR, Anchorage, AK, 99567",Match,Non_Exact,"21036 FROSTY DR, CHUGIAK, AK, 99567",190813866,R,02,020,000101,2050,-149.4227,61.410022999999995
712,21036 HELLUVA ST,Anchorage,AK,99567,"21036 HELLUVA ST, Anchorage, AK, 99567",Match,Non_Exact,"21036 HELLUVA ST, CHUGIAK, AK, 99567",190793055,L,02,020,000102,2003,-149.47661000000002,61.41035
713,21030 SPARKLE DR,Anchorage,AK,99567,"21030 SPARKLE DR, Anchorage, AK, 99567",Match,Non_Exact,"21030 SPARKLE DR, CHUGIAK, AK, 99567",190793388,R,02,020,000101,2063,-149.42531,61.410506999999996
714,20895 S BIRCHWOOD LOOP RD,Anchorage,AK,99567,"20895 S BIRCHWOOD LOOP RD, Anchorage, AK, 99567",Tie,,,,,,,,,,
715,20895 S BIRCHWOOD LOOP RD,Anchorage,AK,99567,"20895 S BIRCHWOOD LOOP RD, Anchorage, AK, 99567",Tie,,,,,,,,,,
716,20895 S BIRCHWOOD LOOP RD,Anchorage,AK,99567,"20895 S BIRCHWOOD LOOP RD, Anchorage, AK, 99567",Tie,,,,,,,,,,
717,20895 S BIRCHWOOD LOOP RD,Anchorage,AK,99567,"20895 S BIRCHWOOD LOOP RD, Anchorage, AK, 99567",Tie,,,,,,,,,,
718,20895 S BIRCHWOOD LOOP RD,Anchorage,AK,99567,"20895 S BIRCHWOOD LOOP RD, Anchorage, AK, 99567",Tie,,,,,,,,,,
719,20895 S BIRCHWOOD LOOP RD,Anchorage,AK,99567,"20895 S BIRCHWOOD LOOP RD, Anchorage, AK, 99567",Tie,,,,,,,,,,
720,20895 S BIRCHWOOD LOOP RD,Anchorage,AK,99567,"20895 S BIRCHWOOD LOOP RD, Anchorage, AK, 99567",Tie,,,,,,,,,,
721,20895 S BIRCHWOOD LOOP RD,Anchorage,AK,99567,"20895 S BIRCHWOOD LOOP RD, Anchorage, AK, 99567",Tie,,,,,,,,,,
722,21040 SCENIC DR,Anchorage,AK,99567,"21040 SCENIC DR, Anchorage, AK, 99567",Match,Non_Exact,"21040 SCENIC DR, CHUGIAK, AK, 99567",190819904,L,02,020,000102,2001,-149.4879,61.41061
723,21036 OBERG RD,Anchorage,AK,99567,"21036 OBERG RD, Anchorage, AK, 99567",Match,Non_Exact,"21036 OBERG RD, CHUGIAK, AK, 99567",636132147,L,02,020,000101,3047,-149.4643,61.409447
724,21022 FERNDALE ST,Anchorage,AK,99567,"21022 FERNDALE ST, Anchorage, AK, 99567",Match,Non_Exact,"21022 FERNDALE ST, CHUGIAK, AK, 99567",190813833,R,02,020,000101,2051,-149.42004,61.409946
725,21019 SPARKLE DR,Anchorage,AK,99567,"21019 SPARKLE DR, Anchorage, AK, 99567",Match,Non_Exact,"21019 SPARKLE DR, CHUGIAK, AK, 99567",190793388,L,02,020,000101,2050,-149.42535,61.410427
726,21015 BOWERY LN,Anchorage,AK,99567,"21015 BOWERY LN, Anchorage, AK, 99567",Match,Non_Exact,"21015 BOWERY LN, CHUGIAK, AK, 99567",190793051,R,02,020,000102,2003,-149.48035,61.410182999999996
727,21027 SUNSET BLVD,Anchorage,AK,99567,"21027 SUNSET BLVD, Anchorage, AK, 99567",Match,Non_Exact,"21027 SUNSET BLVD, CHUGIAK, AK, 99567",190793029,R,02,020,000102,2002,-149.4841,61.409943000000005
728,21030 BOWERY LN,Anchorage,AK,99567,"21030 BOWERY LN, Anchorage, AK, 99567",Match,Non_Exact,"21030 BOWERY LN, CHUGIAK, AK, 99567",190793051,L,02,020,000102,2002,-149.48038,61.41030500000001
729,21021 OBERG RD,Anchorage,AK,99567,"21021 OBERG RD, Anchorage, AK, 99567",Match,Non_Exact,"21021 OBERG RD, CHUGIAK, AK, 99567",190807521,R,02,020,000101,3029,-149.46528999999998,61.41197
730,21024 CRABTREE ST,Anchorage,AK,99567,"21024 CRABTREE ST, Anchorage, AK, 99567",Match,Non_Exact,"21024 CRABTREE ST, CHUGIAK, AK, 99567",190823643,R,02,020,000102,2011,-149.4913,61.410683
731,21947 VALLEY AVE,Anchorage,AK,99567,"21947 VALLEY AVE, Anchorage, AK, 99567",Match,Non_Exact,"21947 VALLEY AVE, CHUGIAK, AK, 99567",641890220,L,02,020,000102,2004,-149.47406,61.40994
732,21016 FROSTY DR,Anchorage,AK,99567,"21016 FROSTY DR, Anchorage, AK, 99567",Match,Non_Exact,"21016 FROSTY DR, CHUGIAK, AK, 99567",190813866,R,02,020,000101,2050,-149.4227,61.40984
733,20885 S BIRCHWOOD LOOP RD,Anchorage,AK,99567,"20885 S BIRCHWOOD LOOP RD, Anchorage, AK, 99567",Tie,,,,,,,,,,
734,20885 S BIRCHWOOD LOOP RD,Anchorage,AK,99567,"20885 S BIRCHWOOD LOOP RD, Anchorage, AK, 99567",Tie,,,,,,,,,,
735,20885 S BIRCHWOOD LOOP RD,Anchorage,AK,99567,"20885 S BIRCHWOOD LOOP RD, Anchorage, AK, 99567",Tie,,,,,,,,,,
736,23809 SKI RD,Anchorage,AK,99567,"23809 SKI RD, Anchorage, AK, 99567",Match,Non_Exact,"23809 SKI RD, CHUGIAK, AK, 99567",190793287,R,02,020,000101,2063,-149.43655,61.40732
737,21428 BIRCHWOOD LOOP RD,Anchorage,AK,99567,"21428 BIRCHWOOD LOOP RD, Anchorage, AK, 99567",Match,Non_Exact,"21428 BIRCHWOOD LOOP RD, CHUGIAK, AK, 99567",190819908,R,02,020,000102,2008,-149.4825,61.408108
738,21923 AURORA BOREALIS RD,Anchorage,AK,99567,"21923 AURORA BOREALIS RD, Anchorage, AK, 99567",Match,Non_Exact,"21923 AURORA BOREALIS RD, CHUGIAK, AK, 99567",627034928,L,02,020,000102,2005,-149.47351,61.40766
739,24016 SKI RD,Anchorage,AK,99567,"24016 SKI RD, Anchorage, AK, 99567",Match,Non_Exact,"24016 SKI RD, CHUGIAK, AK, 99567",190793287,L,02,020,000101,2072,-149.43443,61.407837
740,21442 BIRCHWOOD LOOP RD,Anchorage,AK,99567,"21442 BIRCHWOOD LOOP RD, Anchorage, AK, 99567",Match,Non_Exact,"21442 BIRCHWOOD LOOP RD, CHUGIAK, AK, 99567",190819908,R,02,020,000102,2008,-149.48235,61.408077
741,23919 SKI RD,Anchorage,AK,99567,"23919 SKI RD, Anchorage, AK, 99567",Match,Non_Exact,"23919 SKI RD, CHUGIAK, AK, 99567",190793287,R,02,020,000101,2063,-149.43547,61.407630000000005
742,20735 CRABTREE ST,Anchorage,AK,99567,"20735 CRABTREE ST, Anchorage, AK, 99567",Match,Non_Exact,"20735 CRABTREE ST, CHUGIAK, AK, 99567",190827328,L,02,020,000102,2011,-149.49141,61.40749
743,23307 HILLTOP DR,Anchorage,AK,99567,"23307 HILLTOP DR, Anchorage, AK, 99567",Match,Non_Exact,"23307 HILLTOP DR, CHUGIAK, AK, 99567",190793212,L,02,020,000101,2068,-149.44887,61.40765
744,21516 BIRCHWOOD LOOP RD,Anchorage,AK,99567,"21516 BIRCHWOOD LOOP RD, Anchorage, AK, 99567",Match,Non_Exact,"21516 BIRCHWOOD LOOP RD, CHUGIAK, AK, 99567",190819908,R,02,020,000102,2008,-149.4815,61.40792
745,20734 CRABTREE ST,Anchorage,AK,99567,"20734 CRABTREE ST, Anchorage, AK, 99567",Match,Non_Exact,"20734 CRABTREE ST, CHUGIAK, AK, 99567",190827328,R,02,020,000102,2011,-149.49142,61.40749
746,22033 AURORA BOREALIS RD,Anchorage,AK,99567,"22033 AURORA BOREALIS RD, Anchorage, AK, 99567",Match,Non_Exact,"22033 AURORA BOREALIS RD, CHUGIAK, AK, 99567",627034929,L,02,020,000102,2005,-149.47104,61.407322
747,20710 BILL STEPHENS DR,Anchorage,AK,99567,"20710 BILL STEPHENS DR, Anchorage, AK, 99567",No_Match,,,,,,,,,,
748,22018 AURORA BOREALIS RD,Anchorage,AK,99567,"22018 AURORA BOREALIS RD, Anchorage, AK, 99567",Match,Non_Exact,"22018 AURORA BOREALIS RD, CHUGIAK, AK, 99567",627034929,R,02,020,000102,2007,-149.4715,61.407540000000004
749,23936 SKI RD,Anchorage,AK,99567,"23936 SKI RD, Anchorage, AK, 99567",Match,Non_Exact,"23936 SKI RD, CHUGIAK, AK, 99567",190793287,L,02,020,000101,2072,-149.43527,61.407672999999996
750,20727 OBERG RD,Anchorage,AK,99567,"20727 OBERG RD, Anchorage, AK, 99567",Match,Non_Exact,"20727 OBERG RD, CHUGIAK, AK, 99567",190826028,R,02,020,000101,3039,-149.45600000000002,61.40693
751,21929 BIRCHWOOD LOOP RD,Anchorage,AK,99567,"21929 BIRCHWOOD LOOP RD, Anchorage, AK, 99567",Match,Non_Exact,"21929 BIRCHWOOD LOOP RD, CHUGIAK, AK, 99567",190793066,L,02,020,000102,2007,-149.47423,61.40736
752,21626 BIRCHWOOD LOOP RD,Anchorage,AK,99567,"21626 BIRCHWOOD LOOP RD, Anchorage, AK, 99567",Match,Non_Exact,"21626 BIRCHWOOD LOOP RD, CHUGIAK, AK, 99567",190823636,R,02,020,000102,2008,-149.47945,61.407703000000005
753,20720 STARNER ST,Anchorage,AK,99567,"20720 STARNER ST, Anchorage, AK, 99567",Match,Non_Exact,"20720 STARNER ST, CHUGIAK, AK, 99567",190819822,L,02,020,000101,3047,-149.46524,61.40734499999999
754,20723 SCENIC DR,Anchorage,AK,99567,"20723 SCENIC DR, Anchorage, AK, 99567",Match,Non_Exact,"20723 SCENIC DR, CHUGIAK, AK, 99567",605186198,L,02,020,000102,2011,-149.4877,61.407402000000005
755,22015 AURORA BOREALIS RD,Anchorage,AK,99567,"22015 AURORA BOREALIS RD, Anchorage, AK, 99567",Match,Non_Exact,"22015 AURORA BOREALIS RD, CHUGIAK, AK, 99567",627034929,L,02,020,000102,2005,-149.4713,61.40746
756,20700 BILL STEPHENS DR,Anchorage,AK,99567,"20700 BILL STEPHENS DR, Anchorage, AK, 99567",No_Match,,,,,,,,,,
757,20739 OLD CRANBERRY DR,Anchorage,AK,99567,"20739 OLD CRANBERRY DR, Anchorage, AK, 99567",Match,Non_Exact,"20739 OLD CRANBERRY DR, CHUGIAK, AK, 99567",641432859,R,02,020,000102,2011,-149.49525,61.407230000000006
758,20739 OLD CRANBERRY DR,Anchorage,AK,99567,"20739 OLD CRANBERRY DR, Anchorage, AK, 99567",Match,Non_Exact,"20739 OLD CRANBERRY DR, CHUGIAK, AK, 99567",641432859,R,02,020,000102,2011,-149.49525,61.407230000000006
759,21646 BIRCHWOOD LOOP RD,Anchorage,AK,99567,"21646 BIRCHWOOD LOOP RD, Anchorage, AK, 99567",Match,Non_Exact,"21646 BIRCHWOOD LOOP RD, CHUGIAK, AK, 99567",190823637,R,02,020,000102,2008,-149.47859,61.40765
760,20726 SUNSET BLVD,Anchorage,AK,99567,"20726 SUNSET BLVD, Anchorage, AK, 99567",Match,Non_Exact,"20726 SUNSET BLVD, CHUGIAK, AK, 99567",190827394,R,02,020,000102,2011,-149.48404,61.407516
761,22025 AURORA BOREALIS RD,Anchorage,AK,99567,"22025 AURORA BOREALIS RD, Anchorage, AK, 99567",Match,Non_Exact,"22025 AURORA BOREALIS RD, CHUGIAK, AK, 99567",627034929,L,02,020,000102,2005,-149.47116,61.407382999999996
762,22135 AURORA BOREALIS RD,Anchorage,AK,99567,"22135 AURORA BOREALIS RD, Anchorage, AK, 99567",Match,Non_Exact,"22135 AURORA BOREALIS RD, CHUGIAK, AK, 99567",190818880,L,02,020,000102,2005,-149.4688,61.40659
763,20715 CRABTREE ST,Anchorage,AK,99567,"20715 CRABTREE ST, Anchorage, AK, 99567",Match,Non_Exact,"20715 CRABTREE ST, CHUGIAK, AK, 99567",190827328,L,02,020,000102,2011,-149.49141,61.407337
764,20647 EDWARD CIR,Anchorage,AK,99567,"20647 EDWARD CIR, Anchorage, AK, 99567",Match,Non_Exact,"20647 EDWARD CIR, CHUGIAK, AK, 99567",190813868,R,02,020,000101,2050,-149.42172,61.40779499999999
765,20710 UPPER BOWERY LN,Anchorage,AK,99567,"20710 UPPER BOWERY LN, Anchorage, AK, 99567",Match,Non_Exact,"20710 UPPER BOWERY LN, CHUGIAK, AK, 99567",190793060,R,02,020,000102,2008,-149.48038,61.40713
766,20707 UPPER BOWERY LN,Anchorage,AK,99567,"20707 UPPER BOWERY LN, Anchorage, AK, 99567",Match,Non_Exact,"20707 UPPER BOWERY LN, CHUGIAK, AK, 99567",190793060,L,02,020,000102,2008,-149.48035,61.407066
767,20714 CRABTREE ST,Anchorage,AK,99567,"20714 CRABTREE ST, Anchorage, AK, 99567",Match,Non_Exact,"20714 CRABTREE ST, CHUGIAK, AK, 99567",190827328,R,02,020,000102,2011,-149.49143999999998,61.407337
768,22115 AURORA BOREALIS RD,Anchorage,AK,99567,"22115 AURORA BOREALIS RD, Anchorage, AK, 99567",Match,Non_Exact,"22115 AURORA BOREALIS RD, CHUGIAK, AK, 99567",627034929,L,02,020,000102,2005,-149.46948,61.406963
769,23877 HILLTOP DR,Anchorage,AK,99567,"23877 HILLTOP DR, Anchorage, AK, 99567",Match,Non_Exact,"23877 HILLTOP DR, CHUGIAK, AK, 99567",645479565,R,02,020,000101,2066,-149.43695,61.406932999999995
770,24275 SKI RD,Anchorage,AK,99567,"24275 SKI RD, Anchorage, AK, 99567",Match,Non_Exact,"24275 SKI RD, CHUGIAK, AK, 99567",624670749,R,02,020,000101,2050,-149.4288,61.407031999999994
771,20644 JEHOVAHJIREH ST,Anchorage,AK,99567,"20644 JEHOVAHJIREH ST, Anchorage, AK, 99567",Match,Non_Exact,"20644 JEHOVAHIJREH ST, CHUGIAK, AK, 99567",190823633,R,02,020,000101,3046,-149.45748999999998,61.40698199999999
772,21928 BIRCHWOOD LOOP RD,Anchorage,AK,99567,"21928 BIRCHWOOD LOOP RD, Anchorage, AK, 99567",Match,Non_Exact,"21928 BIRCHWOOD LOOP RD, CHUGIAK, AK, 99567",190793066,R,02,020,000102,2008,-149.47423,61.40735
773,20628 EDWARD CIR,Anchorage,AK,99567,"20628 EDWARD CIR, Anchorage, AK, 99567",Match,Non_Exact,"20628 EDWARD CIR, CHUGIAK, AK, 99567",190813868,L,02,020,000101,2050,-149.42201,61.40695600000001
774,20646 JEHOVAHJIREH ST,Anchorage,AK,99567,"20646 JEHOVAHJIREH ST, Anchorage, AK, 99567",Match,Non_Exact,"20646 JEHOVAHIJREH ST, CHUGIAK, AK, 99567",190823633,R,02,020,000101,3046,-149.45748999999998,61.407
775,20639 SCENIC DR,Anchorage,AK,99567,"20639 SCENIC DR, Anchorage, AK, 99567",Match,Non_Exact,"20639 SCENIC DR, CHUGIAK, AK, 99567",605186198,L,02,020,000102,2011,-149.48769,61.40675400000001
776,20707 OBERG RD,Anchorage,AK,99567,"20707 OBERG RD, Anchorage, AK, 99567",Match,Non_Exact,"20707 OBERG RD, CHUGIAK, AK, 99567",190826028,R,02,020,000101,3039,-149.4556,61.406856999999995
777,20640 CHAPEL DR,Anchorage,AK,99567,"20640 CHAPEL DR, Anchorage, AK, 99567",Match,Non_Exact,"20640 CHAPEL DR, CHUGIAK, AK, 99567",190807462,R,02,020,000101,2073,-149.45016,61.4058
778,20507 STEPHEN CIR,Anchorage,AK,99567,"20507 STEPHEN CIR, Anchorage, AK, 99567",Match,Non_Exact,"20507 STEPHEN CIR, CHUGIAK, AK, 99567",190807459,L,02,020,000101,2072,-149.43335,61.40588399999999
779,20525 LEPRECHAN DR,Anchorage,AK,99567,"20525 LEPRECHAN DR, Anchorage, AK, 99567",Match,Non_Exact,"20525 LEPRECHAN DR, CHUGIAK, AK, 99567",605186244,L,02,020,000101,2072,-149.43628,61.405494999999995
780,22144 BIRCHWOOD LOOP RD,Anchorage,AK,99567,"22144 BIRCHWOOD LOOP RD, Anchorage, AK, 99567",Match,Non_Exact,"22144 BIRCHWOOD LOOP RD, CHUGIAK, AK, 99567",190825810,R,02,020,000102,2008,-149.46912,61.405632
781,20517 MARK CIR,Anchorage,AK,99567,"20517 MARK CIR, Anchorage, AK, 99567",Match,Non_Exact,"20517 MARK CIR, CHUGIAK, AK, 99567",645482478,R,02,020,000101,2050,-149.4264,61.405254000000006
782,20542 UPPER BOWERY LN,Anchorage,AK,99567,"20542 UPPER BOWERY LN, Anchorage, AK, 99567",Match,Non_Exact,"20542 UPPER BOWERY LN, CHUGIAK, AK, 99567",190793060,R,02,020,000102,2008,-149.48038,61.40648
783,20525 UPPER BOWERY LN,Anchorage,AK,99567,"20525 UPPER BOWERY LN, Anchorage, AK, 99567",Match,Non_Exact,"20525 UPPER BOWERY LN, CHUGIAK, AK, 99567",190793060,L,02,020,000102,2008,-149.48035,61.406257999999994
784,20516 WHITE BIRCH RD,Anchorage,AK,99567,"20516 WHITE BIRCH RD, Anchorage, AK, 99567",Match,Non_Exact,"20516 WHITE BIRCH RD, CHUGIAK, AK, 99567",614867277,R,02,020,000102,2008,-149.4766,61.405735
785,20508 MARK CIR,Anchorage,AK,99567,"20508 MARK CIR, Anchorage, AK, 99567",Match,Non_Exact,"20508 MARK CIR, CHUGIAK, AK, 99567",645482478,L,02,020,000101,2050,-149.42645,61.405113
786,20508 MARK CIR,Anchorage,AK,99567,"20508 MARK CIR, Anchorage, AK, 99567",Match,Non_Exact,"20508 MARK CIR, CHUGIAK, AK, 99567",645482478,L,02,020,000101,2050,-149.42645,61.405113
787,20511 SUNSET BLVD,Anchorage,AK,99567,"20511 SUNSET BLVD, Anchorage, AK, 99567",Match,Non_Exact,"20511 SUNSET BLVD, CHUGIAK, AK, 99567",190827394,L,02,020,000102,2008,-149.48402,61.40576
788,20524 SUNSET BLVD,Anchorage,AK,99567,"20524 SUNSET BLVD, Anchorage, AK, 99567",Match,Non_Exact,"20524 SUNSET BLVD, CHUGIAK, AK, 99567",190827394,R,02,020,000102,2011,-149.48405,61.405871999999995
789,23415 GLENN HILL CIR,Anchorage,AK,99567,"23415 GLENN HILL CIR, Anchorage, AK, 99567",Match,Non_Exact,"23415 GLENN HILL CIR, CHUGIAK, AK, 99567",190819887,R,02,020,000101,2072,-149.44658,61.406116000000004
790,20514 SCENIC DR,Anchorage,AK,99567,"20514 SCENIC DR, Anchorage, AK, 99567",Match,Non_Exact,"20514 SCENIC DR, CHUGIAK, AK, 99567",190827324,R,02,020,000102,2011,-149.4877,61.405944999999996
791,24376 SKI RD,Anchorage,AK,99567,"24376 SKI RD, Anchorage, AK, 99567",Match,Non_Exact,"24376 SKI RD, CHUGIAK, AK, 99567",190793288,L,02,020,000101,2072,-149.42926,61.405080000000005
792,20505 LEPRECHAN DR,Anchorage,AK,99567,"20505 LEPRECHAN DR, Anchorage, AK, 99567",Match,Non_Exact,"20505 LEPRECHAN DR, CHUGIAK, AK, 99567",605186244,L,02,020,000101,2072,-149.43657,61.405330000000006
793,24369 SKI RD,Anchorage,AK,99567,"24369 SKI RD, Anchorage, AK, 99567",Match,Non_Exact,"24369 SKI RD, CHUGIAK, AK, 99567",190793288,R,02,020,000101,2050,-149.42923000000002,61.40521999999999
794,20444 MARK CIR,Anchorage,AK,99567,"20444 MARK CIR, Anchorage, AK, 99567",Match,Non_Exact,"20444 MARK CIR, CHUGIAK, AK, 99567",645482478,L,02,020,000101,2050,-149.42639,61.405464
795,20513 SCENIC DR,Anchorage,AK,99567,"20513 SCENIC DR, Anchorage, AK, 99567",Match,Non_Exact,"20513 SCENIC DR, CHUGIAK, AK, 99567",190827324,L,02,020,000102,2011,-149.48769,61.405937
796,20517 WOODED HOLLOW CIR,Anchorage,AK,99567,"20517 WOODED HOLLOW CIR, Anchorage, AK, 99567",Match,Non_Exact,"20517 WOODED HOLLOW CIR, CHUGIAK, AK, 99567",614833617,L,02,020,000101,2072,-149.44263,61.405359999999995
797,20640 CHAPEL DR,Anchorage,AK,99567,"20640 CHAPEL DR, Anchorage, AK, 99567",Match,Non_Exact,"20640 CHAPEL DR, CHUGIAK, AK, 99567",190807462,R,02,020,000101,2073,-149.45016,61.4058
798,20640 CHAPEL DR,Anchorage,AK,99567,"20640 CHAPEL DR, Anchorage, AK, 99567",Match,Non_Exact,"20640 CHAPEL DR, CHUGIAK, AK, 99567",190807462,R,02,020,000101,2073,-149.45016,61.4058
799,20636 JEHOVAHJIREH ST,Anchorage,AK,99567,"20636 JEHOVAHJIREH ST, Anchorage, AK, 99567",Match,Non_Exact,"20636 JEHOVAHIJREH ST, CHUGIAK, AK, 99567",190823633,R,02,020,000101,3046,-149.45752,61.406914
800,23866 HILLTOP DR,Anchorage,AK,99567,"23866 HILLTOP DR, Anchorage, AK, 99567",Match,Non_Exact,"23866 HILLTOP DR, CHUGIAK, AK, 99567",645479565,L,02,020,000101,2072,-149.43712,61.406673
801,20627 EDWARD CIR,Anchorage,AK,99567,"20627 EDWARD CIR, Anchorage, AK, 99567",Match,Non_Exact,"20627 EDWARD CIR, CHUGIAK, AK, 99567",190813868,R,02,020,000101,2050,-149.42174,61.407757
802,23435 HILLTOP DR,Anchorage,AK,99567,"23435 HILLTOP DR, Anchorage, AK, 99567",Match,Non_Exact,"23435 HILLTOP DR, CHUGIAK, AK, 99567",614833615,R,02,020,000101,2066,-149.44681,61.407215
803,21013 HELLUVA ST,Anchorage,AK,99567,"21013 HELLUVA ST, Anchorage, AK, 99567",Match,Non_Exact,"21013 HELLUVA ST, CHUGIAK, AK, 99567",190793055,R,02,020,000102,2003,-149.4766,61.410076000000004
804,21005 FROSTY DR,Anchorage,AK,99567,"21005 FROSTY DR, Anchorage, AK, 99567",Match,Non_Exact,"21005 FROSTY DR, CHUGIAK, AK, 99567",190813866,L,02,020,000101,2051,-149.42268,61.409954000000006
805,21014 FOUR WHEEL DR,Anchorage,AK,99567,"21014 FOUR WHEEL DR, Anchorage, AK, 99567",Match,Non_Exact,"21014 FOUR WHEEL DR, CHUGIAK, AK, 99567",190793202,L,02,020,000101,3040,-149.45016,61.410484
806,21004 FROSTY DR,Anchorage,AK,99567,"21004 FROSTY DR, Anchorage, AK, 99567",Match,Non_Exact,"21004 FROSTY DR, CHUGIAK, AK, 99567",190813866,R,02,020,000101,2050,-149.42268,61.409725
807,21015 CRABTREE ST,Anchorage,AK,99567,"21015 CRABTREE ST, Anchorage, AK, 99567",Match,Non_Exact,"21015 CRABTREE ST, CHUGIAK, AK, 99567",637322999,L,02,020,000102,2011,-149.49138,61.40979399999999
808,21010 FERNDALE ST,Anchorage,AK,99567,"21010 FERNDALE ST, Anchorage, AK, 99567",Match,Non_Exact,"21010 FERNDALE ST, CHUGIAK, AK, 99567",190813833,R,02,020,000101,2051,-149.42004,61.409866
809,21024 SCENIC DR,Anchorage,AK,99567,"21024 SCENIC DR, Anchorage, AK, 99567",Match,Non_Exact,"21024 SCENIC DR, CHUGIAK, AK, 99567",190819904,L,02,020,000102,2001,-149.48787,61.410366
810,20875 S BIRCHWOOD LOOP RD,Anchorage,AK,99567,"20875 S BIRCHWOOD LOOP RD, Anchorage, AK, 99567",Tie,,,,,,,,,,
811,21845 VALLEY AVE,Anchorage,AK,99567,"21845 VALLEY AVE, Anchorage, AK, 99567",Match,Non_Exact,"21845 VALLEY AVE, CHUGIAK, AK, 99567",641890220,L,02,020,000102,2004,-149.47563,61.40994
812,22011 VALLEY AVE,Anchorage,AK,99567,"22011 VALLEY AVE, Anchorage, AK, 99567",Match,Non_Exact,"22011 VALLEY AVE, CHUGIAK, AK, 99567",641890221,L,02,020,000102,2004,-149.47292,61.40994
813,20946 SPARKLE DR,Anchorage,AK,99567,"20946 SPARKLE DR, Anchorage, AK, 99567",Match,Non_Exact,"20946 SPARKLE DR, CHUGIAK, AK, 99567",190793388,R,02,020,000101,2063,-149.42577,61.409969999999994
814,22917 DALLON CT,Anchorage,AK,99567,"22917 DALLON CT, Anchorage, AK, 99567",No_Match,,,,,,,,,,
815,21715 VALLEY AVE,Anchorage,AK,99567,"21715 VALLEY AVE, Anchorage, AK, 99567",Match,Non_Exact,"21715 VALLEY AVE, CHUGIAK, AK, 99567",190793056,L,02,020,000102,2003,-149.47961,61.409935
816,21735 VALLEY AVE,Anchorage,AK,99567,"21735 VALLEY AVE, Anchorage, AK, 99567",Match,Non_Exact,"21735 VALLEY AVE, CHUGIAK, AK, 99567",190793056,L,02,020,000102,2003,-149.47896,61.409935
817,21223 VALLEY AVE,Anchorage,AK,99567,"21223 VALLEY AVE, Anchorage, AK, 99567",Match,Non_Exact,"21223 VALLEY AVE, CHUGIAK, AK, 99567",190807591,L,02,020,000102,2002,-149.4875,61.40994
818,21243 VALLEY AVE,Anchorage,AK,99567,"21243 VALLEY AVE, Anchorage, AK, 99567",Match,Non_Exact,"21243 VALLEY AVE, CHUGIAK, AK, 99567",190807591,L,02,020,000102,2002,-149.48735,61.40994
819,20942 FERNDALE ST,Anchorage,AK,99567,"20942 FERNDALE ST, Anchorage, AK, 99567",Match,Non_Exact,"20942 FERNDALE ST, CHUGIAK, AK, 99567",190813833,R,02,020,000101,2051,-149.42003,61.40942
820,21233 VALLEY AVE,Anchorage,AK,99567,"21233 VALLEY AVE, Anchorage, AK, 99567",Match,Non_Exact,"21233 VALLEY AVE, CHUGIAK, AK, 99567",190807591,L,02,020,000102,2002,-149.48743000000002,61.40994
821,20950 CHICKADEE ST,Anchorage,AK,99567,"20950 CHICKADEE ST, Anchorage, AK, 99567",Match,Non_Exact,"20950 CHICKADEE ST, CHUGIAK, AK, 99567",190813863,R,02,020,000101,2063,-149.43655,61.409485
822,20937 FROSTY DR,Anchorage,AK,99567,"20937 FROSTY DR, Anchorage, AK, 99567",Match,Non_Exact,"20937 FROSTY DR, CHUGIAK, AK, 99567",190813866,L,02,020,000101,2051,-149.42256,61.40941
823,22916 DALLON CT,Anchorage,AK,99567,"22916 DALLON CT, Anchorage, AK, 99567",No_Match,,,,,,,,,,
824,20932 FROSTY DR,Anchorage,AK,99567,"20932 FROSTY DR, Anchorage, AK, 99567",Match,Non_Exact,"20932 FROSTY DR, CHUGIAK, AK, 99567",190813866,R,02,020,000101,2050,-149.42262,61.409065000000005
825,24409 PARK DR,Anchorage,AK,99567,"24409 PARK DR, Anchorage, AK, 99567",Match,Non_Exact,"24409 PARK DR, CHUGIAK, AK, 99567",190793389,L,02,020,000101,2063,-149.42786,61.409440000000004
826,22012 VALLEY AVE,Anchorage,AK,99567,"22012 VALLEY AVE, Anchorage, AK, 99567",Match,Non_Exact,"22012 VALLEY AVE, CHUGIAK, AK, 99567",641890221,R,02,020,000102,2005,-149.47292,61.409927
827,24521 PARK DR,Anchorage,AK,99567,"24521 PARK DR, Anchorage, AK, 99567",Match,Non_Exact,"24521 PARK DR, CHUGIAK, AK, 99567",190793390,L,02,020,000101,2050,-149.42517,61.409485
828,20926 FERNDALE ST,Anchorage,AK,99567,"20926 FERNDALE ST, Anchorage, AK, 99567",Match,Non_Exact,"20926 FERNDALE ST, CHUGIAK, AK, 99567",190813833,R,02,020,000101,2051,-149.42003,61.409313
829,24331 PARK DR,Anchorage,AK,99567,"24331 PARK DR, Anchorage, AK, 99567",Match,Non_Exact,"24331 PARK DR, CHUGIAK, AK, 99567",190793389,L,02,020,000101,2063,-149.42897,61.4092
830,20921 FROSTY DR,Anchorage,AK,99567,"20921 FROSTY DR, Anchorage, AK, 99567",Match,Non_Exact,"20921 FROSTY DR, CHUGIAK, AK, 99567",190813866,L,02,020,000101,2051,-149.42255,61.40928
831,20939 CRABTREE ST,Anchorage,AK,99567,"20939 CRABTREE ST, Anchorage, AK, 99567",Match,Non_Exact,"20939 CRABTREE ST, CHUGIAK, AK, 99567",637322999,L,02,020,000102,2011,-149.4914,61.40926999999999
832,24129 PARK DR,Anchorage,AK,99567,"24129 PARK DR, Anchorage, AK, 99567",Match,Non_Exact,"24129 PARK DR, CHUGIAK, AK, 99567",190793389,L,02,020,000101,2063,-149.43206999999998,61.409298
833,20927 CHICKADEE ST,Anchorage,AK,99567,"20927 CHICKADEE ST, Anchorage, AK, 99567",Match,Non_Exact,"20927 CHICKADEE ST, CHUGIAK, AK, 99567",190813863,L,02,020,000101,2063,-149.4361,61.410275
834,24450 PARK DR,Anchorage,AK,99567,"24450 PARK DR, Anchorage, AK, 99567",Match,Non_Exact,"24450 PARK DR, CHUGIAK, AK, 99567",190793390,R,02,020,000101,2050,-149.42564,61.409515
835,24043 PARK CIR,Anchorage,AK,99567,"24043 PARK CIR, Anchorage, AK, 99567",Match,Non_Exact,"24043 PARK CIR, CHUGIAK, AK, 99567",190793282,R,02,020,000101,2063,-149.43355,61.409286
836,21124 BIRCHWOOD LOOP RD,Anchorage,AK,99567,"21124 BIRCHWOOD LOOP RD, Anchorage, AK, 99567",Match,Non_Exact,"21124 BIRCHWOOD LOOP RD, CHUGIAK, AK, 99567",190793009,R,02,020,000102,2011,-149.48918,61.409884999999996
837,24111 PARK DR,Anchorage,AK,99567,"24111 PARK DR, Anchorage, AK, 99567",Match,Non_Exact,"24111 PARK DR, CHUGIAK, AK, 99567",190793389,L,02,020,000101,2063,-149.43236000000002,61.40931
838,20935 SUNSET BLVD,Anchorage,AK,99567,"20935 SUNSET BLVD, Anchorage, AK, 99567",Match,Non_Exact,"20935 SUNSET BLVD, CHUGIAK, AK, 99567",190793029,R,02,020,000102,2002,-149.4841,61.4094
839,24537 PARK DR,Anchorage,AK,99567,"24537 PARK DR, Anchorage, AK, 99567",Match,Non_Exact,"24537 PARK DR, CHUGIAK, AK, 99567",190793390,L,02,020,000101,2050,-149.42485,61.409386
840,24033 PARK CIR,Anchorage,AK,99567,"24033 PARK CIR, Anchorage, AK, 99567",Match,Non_Exact,"24033 PARK CIR, CHUGIAK, AK, 99567",190793282,R,02,020,000101,2063,-149.43364,61.409286
841,24145 PARK DR,Anchorage,AK,99567,"24145 PARK DR, Anchorage, AK, 99567",Match,Non_Exact,"24145 PARK DR, CHUGIAK, AK, 99567",190793389,L,02,020,000101,2063,-149.43182,61.409275
842,24309 PARK DR,Anchorage,AK,99567,"24309 PARK DR, Anchorage, AK, 99567",Match,Non_Exact,"24309 PARK DR, CHUGIAK, AK, 99567",190793389,L,02,020,000101,2063,-149.42928999999998,61.40914
843,24457 REBECCA HILL CIR,Anchorage,AK,99567,"24457 REBECCA HILL CIR, Anchorage, AK, 99567",Match,Non_Exact,"24457 REBECCA HILL CIR, CHUGIAK, AK, 99567",624670751,L,02,020,000101,2050,-149.4272,61.40805400000001
844,20814 SCENIC DR,Anchorage,AK,99567,"20814 SCENIC DR, Anchorage, AK, 99567",Match,Non_Exact,"20814 SCENIC DR, CHUGIAK, AK, 99567",605186197,R,02,020,000102,2011,-149.48776,61.408367000000005
845,20814 SCENIC DR,Anchorage,AK,99567,"20814 SCENIC DR, Anchorage, AK, 99567",Match,Non_Exact,"20814 SCENIC DR, CHUGIAK, AK, 99567",605186197,R,02,020,000102,2011,-149.48776,61.408367000000005
846,20814 SCENIC DR,Anchorage,AK,99567,"20814 SCENIC DR, Anchorage, AK, 99567",Match,Non_Exact,"20814 SCENIC DR, CHUGIAK, AK, 99567",605186197,R,02,020,000102,2011,-149.48776,61.408367000000005
847,20814 SCENIC DR,Anchorage,AK,99567,"20814 SCENIC DR, Anchorage, AK, 99567",Match,Non_Exact,"20814 SCENIC DR, CHUGIAK, AK, 99567",605186197,R,02,020,000102,2011,-149.48776,61.408367000000005
848,20814 SCENIC DR,Anchorage,AK,99567,"20814 SCENIC DR, Anchorage, AK, 99567",Match,Non_Exact,"20814 SCENIC DR, CHUGIAK, AK, 99567",605186197,R,02,020,000102,2011,-149.48776,61.408367000000005
849,20814 SCENIC DR,Anchorage,AK,99567,"20814 SCENIC DR, Anchorage, AK, 99567",Match,Non_Exact,"20814 SCENIC DR, CHUGIAK, AK, 99567",605186197,R,02,020,000102,2011,-149.48776,61.408367000000005
850,24425 REBECCA HILL CIR,Anchorage,AK,99567,"24425 REBECCA HILL CIR, Anchorage, AK, 99567",Match,Non_Exact,"24425 REBECCA HILL CIR, CHUGIAK, AK, 99567",624670751,L,02,020,000101,2050,-149.42767,61.408062
851,24371 REBECCA HILL CIR,Anchorage,AK,99567,"24371 REBECCA HILL CIR, Anchorage, AK, 99567",Match,Non_Exact,"24371 REBECCA HILL CIR, CHUGIAK, AK, 99567",624670751,L,02,020,000101,2050,-149.4285,61.40805400000001
852,24337 REBECCA HILL CIR,Anchorage,AK,99567,"24337 REBECCA HILL CIR, Anchorage, AK, 99567",Match,Non_Exact,"24337 REBECCA HILL CIR, CHUGIAK, AK, 99567",624670751,L,02,020,000101,2050,-149.42899,61.40798
853,20816 HELLUVA ST,Anchorage,AK,99567,"20816 HELLUVA ST, Anchorage, AK, 99567",Match,Non_Exact,"20816 HELLUVA ST, CHUGIAK, AK, 99567",190826265,L,02,020,000102,2006,-149.47661000000002,61.408863000000004
854,20814 CRABTREE ST,Anchorage,AK,99567,"20814 CRABTREE ST, Anchorage, AK, 99567",Match,Non_Exact,"20814 CRABTREE ST, CHUGIAK, AK, 99567",637322999,R,02,020,000102,2011,-149.49141,61.408609999999996
855,22303 BERNIE AVE,Anchorage,AK,99567,"22303 BERNIE AVE, Anchorage, AK, 99567",Match,Non_Exact,"22303 BERNIE AVE, CHUGIAK, AK, 99567",190813870,L,02,020,000101,3047,-149.46687,61.408156999999996
856,22333 BERNIE AVE,Anchorage,AK,99567,"22333 BERNIE AVE, Anchorage, AK, 99567",Match,Non_Exact,"22333 BERNIE AVE, CHUGIAK, AK, 99567",190813870,L,02,020,000101,3047,-149.46636999999998,61.408159999999995
857,24482 REBECCA HILL CIR,Anchorage,AK,99567,"24482 REBECCA HILL CIR, Anchorage, AK, 99567",Match,Non_Exact,"24482 REBECCA HILL CIR, CHUGIAK, AK, 99567",624670751,R,02,020,000101,2050,-149.4268,61.408035
858,22313 BERNIE AVE,Anchorage,AK,99567,"22313 BERNIE AVE, Anchorage, AK, 99567",Match,Non_Exact,"22313 BERNIE AVE, CHUGIAK, AK, 99567",190813870,L,02,020,000101,3047,-149.4667,61.408156999999996
859,24301 REBECCA HILL CIR,Anchorage,AK,99567,"24301 REBECCA HILL CIR, Anchorage, AK, 99567",Match,Non_Exact,"24301 REBECCA HILL CIR, CHUGIAK, AK, 99567",624670751,L,02,020,000101,2050,-149.42946,61.407844999999995
860,22717 FRIENDSHIP LN,Anchorage,AK,99567,"22717 FRIENDSHIP LN, Anchorage, AK, 99567",Match,Non_Exact,"22717 FRIENDSHIP LN, CHUGIAK, AK, 99567",190825482,R,02,020,000101,3047,-149.45859,61.408092
861,22733 FRIENDSHIP LN,Anchorage,AK,99567,"22733 FRIENDSHIP LN, Anchorage, AK, 99567",Match,Non_Exact,"22733 FRIENDSHIP LN, CHUGIAK, AK, 99567",190825482,R,02,020,000101,3047,-149.45853,61.408092
862,22705 FRIENDSHIP LN,Anchorage,AK,99567,"22705 FRIENDSHIP LN, Anchorage, AK, 99567",Match,Non_Exact,"22705 FRIENDSHIP LN, CHUGIAK, AK, 99567",190825482,R,02,020,000101,3047,-149.45862,61.408092
863,22647 FRIENDSHIP LN,Anchorage,AK,99567,"22647 FRIENDSHIP LN, Anchorage, AK, 99567",Match,Non_Exact,"22647 FRIENDSHIP LN, CHUGIAK, AK, 99567",190825482,R,02,020,000101,3047,-149.45882,61.40809599999999
864,23737 SKI RD,Anchorage,AK,99567,"23737 SKI RD, Anchorage, AK, 99567",No_Match,,,,,,,,,,
865,24400 REBECCA HILL CIR,Anchorage,AK,99567,"24400 REBECCA HILL CIR, Anchorage, AK, 99567",Match,Non_Exact,"24400 REBECCA HILL CIR, CHUGIAK, AK, 99567",624670751,R,02,020,000101,2050,-149.42803999999998,61.40805
866,21637 AURORA BOREALIS RD,Anchorage,AK,99567,"21637 AURORA BOREALIS RD, Anchorage, AK, 99567",Match,Non_Exact,"21637 AURORA BOREALIS RD, CHUGIAK, AK, 99567",190823638,R,02,020,000102,2006,-149.47827,61.40809
867,24334 REBECCA HILL CIR,Anchorage,AK,99567,"24334 REBECCA HILL CIR, Anchorage, AK, 99567",Match,Non_Exact,"24334 REBECCA HILL CIR, CHUGIAK, AK, 99567",624670751,R,02,020,000101,2050,-149.429,61.407963
868,24230 SKI RD,Anchorage,AK,99567,"24230 SKI RD, Anchorage, AK, 99567",Match,Non_Exact,"24230 SKI RD, CHUGIAK, AK, 99567",624670750,L,02,020,000101,2072,-149.43059,61.408237
869,20757 OBERG RD,Anchorage,AK,99567,"20757 OBERG RD, Anchorage, AK, 99567",Match,Non_Exact,"20757 OBERG RD, CHUGIAK, AK, 99567",190826028,R,02,020,000101,3039,-149.45647,61.40713
870,23650 SKI RD,Anchorage,AK,99567,"23650 SKI RD, Anchorage, AK, 99567",No_Match,,,,,,,,,,
871,21414 BIRCHWOOD LOOP RD,Anchorage,AK,99567,"21414 BIRCHWOOD LOOP RD, Anchorage, AK, 99567",Match,Non_Exact,"21414 BIRCHWOOD LOOP RD, CHUGIAK, AK, 99567",190819907,R,02,020,000102,2008,-149.4833,61.408264
872,21629 BLAIR AVE,Anchorage,AK,99567,"21629 BLAIR AVE, Anchorage, AK, 99567",No_Match,,,,,,,,,,
873,21423 BLAIR AVE,Anchorage,AK,99567,"21423 BLAIR AVE, Anchorage, AK, 99567",Match,Non_Exact,"21423 BLAIR AVE, CHUGIAK, AK, 99567",190793050,L,02,020,000102,2001,-149.48352,61.41174
874,21437 BLAIR AVE,Anchorage,AK,99567,"21437 BLAIR AVE, Anchorage, AK, 99567",Match,Non_Exact,"21437 BLAIR AVE, CHUGIAK, AK, 99567",190793050,L,02,020,000102,2001,-149.48332,61.41174
875,21431 BLAIR AVE,Anchorage,AK,99567,"21431 BLAIR AVE, Anchorage, AK, 99567",Match,Non_Exact,"21431 BLAIR AVE, CHUGIAK, AK, 99567",190793050,L,02,020,000102,2001,-149.48341000000002,61.41174
876,21515 BLAIR AVE,Anchorage,AK,99567,"21515 BLAIR AVE, Anchorage, AK, 99567",Match,Non_Exact,"21515 BLAIR AVE, CHUGIAK, AK, 99567",190793050,L,02,020,000102,2001,-149.48224,61.41174
877,21137 FROSTY DR,Anchorage,AK,99567,"21137 FROSTY DR, Anchorage, AK, 99567",Match,Non_Exact,"21137 FROSTY DR, CHUGIAK, AK, 99567",190813866,L,02,020,000101,2051,-149.42192,61.410942000000006
878,21840 BLAIR AVE,Anchorage,AK,99567,"21840 BLAIR AVE, Anchorage, AK, 99567",Match,Non_Exact,"21840 BLAIR AVE, CHUGIAK, AK, 99567",190810364,R,02,020,000102,2004,-149.47588000000002,61.411724
879,21149 SPIRE CIR,Anchorage,AK,99567,"21149 SPIRE CIR, Anchorage, AK, 99567",Match,Non_Exact,"21149 SPIRE CIR, CHUGIAK, AK, 99567",190793285,R,02,020,000101,2063,-149.43143,61.410828
880,21146 LOOKOUT CIR,Anchorage,AK,99567,"21146 LOOKOUT CIR, Anchorage, AK, 99567",Match,Non_Exact,"21146 LOOKOUT CIR, CHUGIAK, AK, 99567",190793381,R,02,020,000101,2063,-149.42885,61.410812
881,21119 FROSTY DR,Anchorage,AK,99567,"21119 FROSTY DR, Anchorage, AK, 99567",Match,Non_Exact,"21119 FROSTY DR, CHUGIAK, AK, 99567",190813866,L,02,020,000101,2051,-149.42209,61.410819999999994
882,21144 SPIRE CIR,Anchorage,AK,99567,"21144 SPIRE CIR, Anchorage, AK, 99567",Match,Non_Exact,"21144 SPIRE CIR, CHUGIAK, AK, 99567",190793285,L,02,020,000101,2063,-149.43143999999998,61.410805
883,24515 HEARTHSTONE DR,Anchorage,AK,99567,"24515 HEARTHSTONE DR, Anchorage, AK, 99567",Match,Non_Exact,"24515 HEARTHSTONE DR, CHUGIAK, AK, 99567",190793387,R,02,020,000101,2063,-149.42725,61.410576
884,21180 SCENIC DR,Anchorage,AK,99567,"21180 SCENIC DR, Anchorage, AK, 99567",Match,Non_Exact,"21180 SCENIC DR, CHUGIAK, AK, 99567",190819905,L,02,020,000102,2001,-149.4879,61.41166
885,21117 SPARKLE DR,Anchorage,AK,99567,"21117 SPARKLE DR, Anchorage, AK, 99567",Match,Non_Exact,"21117 SPARKLE DR, CHUGIAK, AK, 99567",190793385,L,02,020,000101,2050,-149.42468,61.4112
886,24445 HEARTHSTONE DR,Anchorage,AK,99567,"24445 HEARTHSTONE DR, Anchorage, AK, 99567",Match,Non_Exact,"24445 HEARTHSTONE DR, CHUGIAK, AK, 99567",190793387,R,02,020,000101,2063,-149.42767,61.4105
887,21308 SONGBIRD DR,Anchorage,AK,99567,"21308 SONGBIRD DR, Anchorage, AK, 99567",Match,Non_Exact,"21308 SONGBIRD DR, CHUGIAK, AK, 99567",190807666,L,02,020,000101,3025,-149.43385,61.413002
888,21308 SONGBIRD DR,Anchorage,AK,99567,"21308 SONGBIRD DR, Anchorage, AK, 99567",Match,Non_Exact,"21308 SONGBIRD DR, CHUGIAK, AK, 99567",190807666,L,02,020,000101,3025,-149.43385,61.413002
889,21314 SUNSET BLVD,Anchorage,AK,99567,"21314 SUNSET BLVD, Anchorage, AK, 99567",Match,Non_Exact,"21314 SUNSET BLVD, CHUGIAK, AK, 99567",190819894,L,02,020,000102,2001,-149.48415,61.41235
890,21308 OLD GLENN HWY,Anchorage,AK,99567,"21308 OLD GLENN HWY, Anchorage, AK, 99567",Match,Non_Exact,"21308 OLD GLENN HWY, CHUGIAK, AK, 99567",190793256,L,02,020,000101,3038,-149.44145,61.412169999999996
891,21315 HELLUVA ST,Anchorage,AK,99567,"21315 HELLUVA ST, Anchorage, AK, 99567",Match,Non_Exact,"21315 HELLUVA ST, CHUGIAK, AK, 99567",190793054,R,02,020,000102,2004,-149.4766,61.41219
892,21332 OBERG RD,Anchorage,AK,99567,"21332 OBERG RD, Anchorage, AK, 99567",Match,Non_Exact,"21332 OBERG RD, CHUGIAK, AK, 99567",190807521,L,02,020,000101,3047,-149.46532,61.412888
893,21308 MONRON ST,Anchorage,AK,99567,"21308 MONRON ST, Anchorage, AK, 99567",Match,Non_Exact,"21308 MONRON ST, CHUGIAK, AK, 99567",637321385,L,02,020,000101,2055,-149.42004,61.41268
894,21308 MONRON ST,Anchorage,AK,99567,"21308 MONRON ST, Anchorage, AK, 99567",Match,Non_Exact,"21308 MONRON ST, CHUGIAK, AK, 99567",637321385,L,02,020,000101,2055,-149.42004,61.41268
895,21315 SUNSET BLVD,Anchorage,AK,99567,"21315 SUNSET BLVD, Anchorage, AK, 99567",Match,Non_Exact,"21315 SUNSET BLVD, CHUGIAK, AK, 99567",190819895,R,02,020,000102,2001,-149.48412,61.413067000000005
896,21249 GORSUCH ST,Anchorage,AK,99567,"21249 GORSUCH ST, Anchorage, AK, 99567",Match,Non_Exact,"21249 GORSUCH ST, CHUGIAK, AK, 99567",190807446,R,02,020,000101,2055,-149.4238,61.412285
897,21249 GORSUCH ST,Anchorage,AK,99567,"21249 GORSUCH ST, Anchorage, AK, 99567",Match,Non_Exact,"21249 GORSUCH ST, CHUGIAK, AK, 99567",190807446,R,02,020,000101,2055,-149.4238,61.412285
898,21249 GORSUCH ST,Anchorage,AK,99567,"21249 GORSUCH ST, Anchorage, AK, 99567",Match,Non_Exact,"21249 GORSUCH ST, CHUGIAK, AK, 99567",190807446,R,02,020,000101,2055,-149.4238,61.412285
899,21249 GORSUCH ST,Anchorage,AK,99567,"21249 GORSUCH ST, Anchorage, AK, 99567",Match,Non_Exact,"21249 GORSUCH ST, CHUGIAK, AK, 99567",190807446,R,02,020,000101,2055,-149.4238,61.412285
900,22519 CENTURION DR,Anchorage,AK,99567,"22519 CENTURION DR, Anchorage, AK, 99567",Match,Non_Exact,"22519 CENTURION DR, CHUGIAK, AK, 99567",605186166,L,02,020,000101,3028,-149.4632,61.412980000000005
901,21315 SCENIC DR,Anchorage,AK,99567,"21315 SCENIC DR, Anchorage, AK, 99567",Match,Non_Exact,"21315 SCENIC DR, CHUGIAK, AK, 99567",190793011,R,02,020,000102,2001,-149.48772,61.412727000000004
902,21246 SETTLERS DR,Anchorage,AK,99567,"21246 SETTLERS DR, Anchorage, AK, 99567",Match,Non_Exact,"21246 SETTLERS DR, CHUGIAK, AK, 99567",190793382,R,02,020,000101,2064,-149.4276,61.412209999999995
903,21239 GORSUCH ST,Anchorage,AK,99567,"21239 GORSUCH ST, Anchorage, AK, 99567",Match,Non_Exact,"21239 GORSUCH ST, CHUGIAK, AK, 99567",190807446,R,02,020,000101,2055,-149.4238,61.412212
904,21248 GINGER LEE DR,Anchorage,AK,99567,"21248 GINGER LEE DR, Anchorage, AK, 99567",Match,Non_Exact,"21248 GINGER LEE DR, CHUGIAK, AK, 99567",190793187,R,02,020,000101,3037,-149.4363,61.412502
905,21234 MONRON ST,Anchorage,AK,99567,"21234 MONRON ST, Anchorage, AK, 99567",Match,Non_Exact,"21234 MONRON ST, CHUGIAK, AK, 99567",637321385,L,02,020,000101,2055,-149.42004,61.412064
906,21234 MONRON ST,Anchorage,AK,99567,"21234 MONRON ST, Anchorage, AK, 99567",Match,Non_Exact,"21234 MONRON ST, CHUGIAK, AK, 99567",637321385,L,02,020,000101,2055,-149.42004,61.412064
907,21228 TINA ST,Anchorage,AK,99567,"21228 TINA ST, Anchorage, AK, 99567",Match,Non_Exact,"21228 TINA ST, CHUGIAK, AK, 99567",190793379,R,02,020,000101,2064,-149.43077,61.412586
908,21241 SCENIC DR,Anchorage,AK,99567,"21241 SCENIC DR, Anchorage, AK, 99567",Match,Non_Exact,"21241 SCENIC DR, CHUGIAK, AK, 99567",190793011,R,02,020,000102,2001,-149.48781,61.412174
909,21221 BARON DR,Anchorage,AK,99567,"21221 BARON DR, Anchorage, AK, 99567",Match,Non_Exact,"21221 BARON DR, CHUGIAK, AK, 99567",190813820,R,02,020,000101,3028,-149.46124,61.41204499999999
910,21212 ROCK PTARMIGAN ST,Anchorage,AK,99567,"21212 ROCK PTARMIGAN ST, Anchorage, AK, 99567",Match,Non_Exact,"21212 ROCK PTARMIGAN ST, CHUGIAK, AK, 99567",190793344,R,02,020,000101,2065,-149.4257,61.412040000000005
911,21301 VOYLES BLVD,Anchorage,AK,99567,"21301 VOYLES BLVD, Anchorage, AK, 99567",No_Match,,,,,,,,,,
912,21229 GORSUCH ST,Anchorage,AK,99567,"21229 GORSUCH ST, Anchorage, AK, 99567",Match,Non_Exact,"21229 GORSUCH ST, CHUGIAK, AK, 99567",190807446,R,02,020,000101,2055,-149.4238,61.412144
913,21236 SUNSET BLVD,Anchorage,AK,99567,"21236 SUNSET BLVD, Anchorage, AK, 99567",Match,Non_Exact,"21236 SUNSET BLVD, CHUGIAK, AK, 99567",190819894,L,02,020,000102,2001,-149.48415,61.41199
914,21220 MONRON ST,Anchorage,AK,99567,"21220 MONRON ST, Anchorage, AK, 99567",Match,Non_Exact,"21220 MONRON ST, CHUGIAK, AK, 99567",637321385,L,02,020,000101,2055,-149.42004,61.41195
915,21231 SCENIC DR,Anchorage,AK,99567,"21231 SCENIC DR, Anchorage, AK, 99567",Match,Non_Exact,"21231 SCENIC DR, CHUGIAK, AK, 99567",190793011,R,02,020,000102,2001,-149.48781,61.412098
916,24313 HOMESTEAD RD,Anchorage,AK,99567,"24313 HOMESTEAD RD, Anchorage, AK, 99567",Match,Non_Exact,"24313 HOMESTEAD RD, CHUGIAK, AK, 99567",190825927,R,02,020,000101,2064,-149.43176,61.411919999999995
917,22568 CENTURION DR,Anchorage,AK,99567,"22568 CENTURION DR, Anchorage, AK, 99567",Match,Non_Exact,"22568 CENTURION DR, CHUGIAK, AK, 99567",605186166,R,02,020,000101,3029,-149.4639,61.412307999999996
918,21218 BARON DR,Anchorage,AK,99567,"21218 BARON DR, Anchorage, AK, 99567",Match,Non_Exact,"21218 BARON DR, CHUGIAK, AK, 99567",190813820,L,02,020,000101,3028,-149.46133,61.411995
919,22569 CENTURION DR,Anchorage,AK,99567,"22569 CENTURION DR, Anchorage, AK, 99567",Match,Non_Exact,"22569 CENTURION DR, CHUGIAK, AK, 99567",605186166,L,02,020,000101,3028,-149.46388000000002,61.4123
920,24713 HOMESTEAD RD,Anchorage,AK,99567,"24713 HOMESTEAD RD, Anchorage, AK, 99567",Match,Non_Exact,"24713 HOMESTEAD RD, CHUGIAK, AK, 99567",637356430,R,02,020,000101,2055,-149.4217,61.411736
921,24425 HOMESTEAD RD,Anchorage,AK,99567,"24425 HOMESTEAD RD, Anchorage, AK, 99567",Match,Non_Exact,"24425 HOMESTEAD RD, CHUGIAK, AK, 99567",190793383,R,02,020,000101,2065,-149.42703,61.41174300000001
922,24531 HOMESTEAD RD,Anchorage,AK,99567,"24531 HOMESTEAD RD, Anchorage, AK, 99567",Match,Non_Exact,"24531 HOMESTEAD RD, CHUGIAK, AK, 99567",190807445,R,02,020,000101,2055,-149.42427,61.41174300000001
923,24628 HOMESTEAD RD,Anchorage,AK,99567,"24628 HOMESTEAD RD, Anchorage, AK, 99567",No_Match,,,,,,,,,,
924,24335 HOMESTEAD RD,Anchorage,AK,99567,"24335 HOMESTEAD RD, Anchorage, AK, 99567",Match,Non_Exact,"24335 HOMESTEAD RD, CHUGIAK, AK, 99567",190825927,R,02,020,000101,2064,-149.43079,61.411983
925,20920 CHICKADEE ST,Anchorage,AK,99567,"20920 CHICKADEE ST, Anchorage, AK, 99567",Match,Non_Exact,"20920 CHICKADEE ST, CHUGIAK, AK, 99567",190813863,R,02,020,000101,2063,-149.43666000000002,61.409290000000006
926,20921 CHICKADEE ST,Anchorage,AK,99567,"20921 CHICKADEE ST, Anchorage, AK, 99567",Match,Non_Exact,"20921 CHICKADEE ST, CHUGIAK, AK, 99567",190813863,L,02,020,000101,2063,-149.43608,61.410313
927,24213 PARK DR,Anchorage,AK,99567,"24213 PARK DR, Anchorage, AK, 99567",Match,Non_Exact,"24213 PARK DR, CHUGIAK, AK, 99567",190793389,L,02,020,000101,2063,-149.43077,61.409187
928,24213 PARK DR,Anchorage,AK,99567,"24213 PARK DR, Anchorage, AK, 99567",Match,Non_Exact,"24213 PARK DR, CHUGIAK, AK, 99567",190793389,L,02,020,000101,2063,-149.43077,61.409187
929,20859 S BIRCHWOOD LOOP RD,Anchorage,AK,99567,"20859 S BIRCHWOOD LOOP RD, Anchorage, AK, 99567",Tie,,,,,,,,,,
930,24023 PARK CIR,Anchorage,AK,99567,"24023 PARK CIR, Anchorage, AK, 99567",Match,Non_Exact,"24023 PARK CIR, CHUGIAK, AK, 99567",190793282,R,02,020,000101,2063,-149.43373,61.40928
931,24233 PARK DR,Anchorage,AK,99567,"24233 PARK DR, Anchorage, AK, 99567",Match,Non_Exact,"24233 PARK DR, CHUGIAK, AK, 99567",190793389,L,02,020,000101,2063,-149.43046999999999,61.40916
932,24239 PARK DR,Anchorage,AK,99567,"24239 PARK DR, Anchorage, AK, 99567",Match,Non_Exact,"24239 PARK DR, CHUGIAK, AK, 99567",190793389,L,02,020,000101,2063,-149.43036999999998,61.409153
933,20935 EASTSIDE DR,Anchorage,AK,99567,"20935 EASTSIDE DR, Anchorage, AK, 99567",Match,Non_Exact,"20935 EASTSIDE DR, CHUGIAK, AK, 99567",190813862,L,02,020,000101,2063,-149.4401,61.40915
934,20915 CHICKADEE ST,Anchorage,AK,99567,"20915 CHICKADEE ST, Anchorage, AK, 99567",Match,Non_Exact,"20915 CHICKADEE ST, CHUGIAK, AK, 99567",190813863,L,02,020,000101,2063,-149.43607,61.410355
935,20918 FERNDALE ST,Anchorage,AK,99567,"20918 FERNDALE ST, Anchorage, AK, 99567",Match,Non_Exact,"20918 FERNDALE ST, CHUGIAK, AK, 99567",190813833,R,02,020,000101,2051,-149.42003,61.409259999999996
936,20912 FOUR WHEEL DR,Anchorage,AK,99567,"20912 FOUR WHEEL DR, Anchorage, AK, 99567",Match,Non_Exact,"20912 FOUR WHEEL DR, CHUGIAK, AK, 99567",190826887,L,02,020,000101,3039,-149.4502,61.40956
937,20994 OBERG RD,Anchorage,AK,99567,"20994 OBERG RD, Anchorage, AK, 99567",Match,Non_Exact,"20994 OBERG RD, CHUGIAK, AK, 99567",636132147,L,02,020,000101,3047,-149.46341,61.409164000000004
938,20909 CHICKADEE ST,Anchorage,AK,99567,"20909 CHICKADEE ST, Anchorage, AK, 99567",Match,Non_Exact,"20909 CHICKADEE ST, CHUGIAK, AK, 99567",190813863,L,02,020,000101,2063,-149.43607,61.410393000000006
939,20908 BILL STEPHENS DR,Anchorage,AK,99567,"20908 BILL STEPHENS DR, Anchorage, AK, 99567",Match,Non_Exact,"20908 BILL STEPHENS DR, CHUGIAK, AK, 99567",190827383,L,02,020,000101,3040,-149.44893000000002,61.408843999999995
940,20911 SUNSET BLVD,Anchorage,AK,99567,"20911 SUNSET BLVD, Anchorage, AK, 99567",Match,Non_Exact,"20911 SUNSET BLVD, CHUGIAK, AK, 99567",190793029,R,02,020,000102,2002,-149.48408999999998,61.409259999999996
941,20314 CHUGACH PARK DR,Anchorage,AK,99567,"20314 CHUGACH PARK DR, Anchorage, AK, 99567",Match,Non_Exact,"20314 CHUGACH PARK DR, CHUGIAK, AK, 99567",190793292,R,02,020,000101,2072,-149.43211000000002,61.403366000000005
942,20334 STEFFES ST,Anchorage,AK,99567,"20334 STEFFES ST, Anchorage, AK, 99567",Match,Non_Exact,"20334 STEFFES ST, CHUGIAK, AK, 99567",190823237,R,02,020,000102,2008,-149.47281,61.40586
943,23627 GREATLAND DR,Anchorage,AK,99567,"23627 GREATLAND DR, Anchorage, AK, 99567",Match,Non_Exact,"23627 GREATLAND DR, CHUGIAK, AK, 99567",190793220,L,02,020,000101,2072,-149.44244,61.403690000000005
944,23525 GREATLAND DR,Anchorage,AK,99567,"23525 GREATLAND DR, Anchorage, AK, 99567",Match,Non_Exact,"23525 GREATLAND DR, CHUGIAK, AK, 99567",190793220,L,02,020,000101,2072,-149.44409,61.403693999999994
945,23327 GREATLAND DR,Anchorage,AK,99567,"23327 GREATLAND DR, Anchorage, AK, 99567",Match,Non_Exact,"23327 GREATLAND DR, CHUGIAK, AK, 99567",190793220,L,02,020,000101,2072,-149.44727,61.403693999999994
946,23435 GREATLAND DR,Anchorage,AK,99567,"23435 GREATLAND DR, Anchorage, AK, 99567",Match,Non_Exact,"23435 GREATLAND DR, CHUGIAK, AK, 99567",190793220,L,02,020,000101,2072,-149.44553,61.403693999999994
947,23219 GREATLAND DR,Anchorage,AK,99567,"23219 GREATLAND DR, Anchorage, AK, 99567",Match,Non_Exact,"23219 GREATLAND DR, CHUGIAK, AK, 99567",190793220,L,02,020,000101,2072,-149.44899999999998,61.403693999999994
948,20331 OLD CRANBERRY DR,Anchorage,AK,99567,"20331 OLD CRANBERRY DR, Anchorage, AK, 99567",Match,Non_Exact,"20331 OLD CRANBERRY DR, CHUGIAK, AK, 99567",641432859,R,02,020,000102,2011,-149.49528999999998,61.40411999999999
949,22208 BIRCHWOOD LOOP RD,Anchorage,AK,99567,"22208 BIRCHWOOD LOOP RD, Anchorage, AK, 99567",Match,Non_Exact,"22208 BIRCHWOOD LOOP RD, CHUGIAK, AK, 99567",190825477,R,02,020,000102,2008,-149.4689,61.404430000000005
950,20325 SUNSET BLVD,Anchorage,AK,99567,"20325 SUNSET BLVD, Anchorage, AK, 99567",Match,Non_Exact,"20325 SUNSET BLVD, CHUGIAK, AK, 99567",190825479,L,02,020,000102,2008,-149.48402,61.403828000000004
951,20325 UPPER BOWERY LN,Anchorage,AK,99567,"20325 UPPER BOWERY LN, Anchorage, AK, 99567",Match,Non_Exact,"20325 UPPER BOWERY LN, CHUGIAK, AK, 99567",190793060,L,02,020,000102,2008,-149.48035,61.40537
952,20320 SCENIC DR,Anchorage,AK,99567,"20320 SCENIC DR, Anchorage, AK, 99567",Match,Non_Exact,"20320 SCENIC DR, CHUGIAK, AK, 99567",190824133,R,02,020,000102,2012,-149.48773,61.403973
953,20332 UPPER BOWERY LN,Anchorage,AK,99567,"20332 UPPER BOWERY LN, Anchorage, AK, 99567",Match,Non_Exact,"20332 UPPER BOWERY LN, CHUGIAK, AK, 99567",190793060,R,02,020,000102,2008,-149.48038,61.405663
954,20328 CRABTREE ST,Anchorage,AK,99567,"20328 CRABTREE ST, Anchorage, AK, 99567",Match,Non_Exact,"20328 CRABTREE ST, CHUGIAK, AK, 99567",190793018,R,02,020,000102,2011,-149.4914,61.40388000000001
955,20320 WHITE BIRCH RD,Anchorage,AK,99567,"20320 WHITE BIRCH RD, Anchorage, AK, 99567",Match,Non_Exact,"20320 WHITE BIRCH RD, CHUGIAK, AK, 99567",614867278,R,02,020,000102,2008,-149.47687,61.404068
956,19746 TULWAR DR,Anchorage,AK,99567,"19746 TULWAR DR, Anchorage, AK, 99567",Match,Non_Exact,"19746 TULWAR DR, CHUGIAK, AK, 99567",190807474,R,02,020,000101,2057,-149.42932,61.402264
957,19743 TULWAR DR,Anchorage,AK,99567,"19743 TULWAR DR, Anchorage, AK, 99567",Match,Non_Exact,"19743 TULWAR DR, CHUGIAK, AK, 99567",190807474,L,02,020,000101,2050,-149.42678999999998,61.403180000000006
958,20310 SUNSET BLVD,Anchorage,AK,99567,"20310 SUNSET BLVD, Anchorage, AK, 99567",Match,Non_Exact,"20310 SUNSET BLVD, CHUGIAK, AK, 99567",190825479,R,02,020,000102,2011,-149.48405,61.40300799999999
959,20313 SCENIC DR,Anchorage,AK,99567,"20313 SCENIC DR, Anchorage, AK, 99567",Match,Non_Exact,"20313 SCENIC DR, CHUGIAK, AK, 99567",190824133,L,02,020,000102,2011,-149.48772,61.40393
960,23921 GREATLAND DR,Anchorage,AK,99567,"23921 GREATLAND DR, Anchorage, AK, 99567",Match,Non_Exact,"23921 GREATLAND DR, CHUGIAK, AK, 99567",190793272,L,02,020,000101,2072,-149.43791000000002,61.40354
961,20249 CHUGACH PARK DR,Anchorage,AK,99567,"20249 CHUGACH PARK DR, Anchorage, AK, 99567",Match,Non_Exact,"20249 CHUGACH PARK DR, CHUGIAK, AK, 99567",190793292,L,02,020,000101,2050,-149.43323999999998,61.40279399999999
962,20236 CHUGACH PARK DR,Anchorage,AK,99567,"20236 CHUGACH PARK DR, Anchorage, AK, 99567",Match,Non_Exact,"20236 CHUGACH PARK DR, CHUGIAK, AK, 99567",190793292,R,02,020,000101,2072,-149.43323,61.40282
963,20236 STEFFES ST,Anchorage,AK,99567,"20236 STEFFES ST, Anchorage, AK, 99567",Match,Non_Exact,"20236 STEFFES ST, CHUGIAK, AK, 99567",190823237,R,02,020,000102,2008,-149.47281999999998,61.406364
964,20209 CHAPEL DR,Anchorage,AK,99567,"20209 CHAPEL DR, Anchorage, AK, 99567",Match,Non_Exact,"20209 CHAPEL DR, CHUGIAK, AK, 99567",190793219,L,02,020,000101,2073,-149.4502,61.403206000000004
965,22029 NEWTON CT,Anchorage,AK,99567,"22029 NEWTON CT, Anchorage, AK, 99567",Match,Non_Exact,"22029 NEWTON CT, CHUGIAK, AK, 99567",190819928,L,02,020,000102,2008,-149.4722,61.403225
966,20235 CHUGACH PARK DR,Anchorage,AK,99567,"20235 CHUGACH PARK DR, Anchorage, AK, 99567",Match,Non_Exact,"20235 CHUGACH PARK DR, CHUGIAK, AK, 99567",190793292,L,02,020,000101,2050,-149.43346,61.402680000000004
967,20225 SUNSET BLVD,Anchorage,AK,99567,"20225 SUNSET BLVD, Anchorage, AK, 99567",Match,Non_Exact,"20225 SUNSET BLVD, CHUGIAK, AK, 99567",190825479,L,02,020,000102,2008,-149.48402,61.403038
968,20326 TULWAR DR,Anchorage,AK,99567,"20326 TULWAR DR, Anchorage, AK, 99567",Match,Non_Exact,"20326 TULWAR DR, CHUGIAK, AK, 99567",190793395,R,02,020,000101,2057,-149.42603,61.402287
969,20212 CHUGACH PARK DR,Anchorage,AK,99567,"20212 CHUGACH PARK DR, Anchorage, AK, 99567",Match,Non_Exact,"20212 CHUGACH PARK DR, CHUGIAK, AK, 99567",190793292,R,02,020,000101,2072,-149.43353000000002,61.402637
970,20350 OLD GLENN HWY,Anchorage,AK,99567,"20350 OLD GLENN HWY, Anchorage, AK, 99567",No_Match,,,,,,,,,,
971,20228 CRABTREE ST,Anchorage,AK,99567,"20228 CRABTREE ST, Anchorage, AK, 99567",Match,Non_Exact,"20228 CRABTREE ST, CHUGIAK, AK, 99567",190793018,R,02,020,000102,2011,-149.4915,61.403076
972,20214 STEFFES ST,Anchorage,AK,99567,"20214 STEFFES ST, Anchorage, AK, 99567",Match,Non_Exact,"20214 STEFFES ST, CHUGIAK, AK, 99567",190823237,R,02,020,000102,2008,-149.47281999999998,61.406475
973,20149 CHUGACH PARK DR,Anchorage,AK,99567,"20149 CHUGACH PARK DR, Anchorage, AK, 99567",Match,Non_Exact,"20149 CHUGACH PARK DR, CHUGIAK, AK, 99567",190793292,L,02,020,000101,2050,-149.43372,61.40178
974,19767 TULWAR DR,Anchorage,AK,99567,"19767 TULWAR DR, Anchorage, AK, 99567",Match,Non_Exact,"19767 TULWAR DR, CHUGIAK, AK, 99567",190807474,L,02,020,000101,2050,-149.42737,61.402855
975,20200 CHUGACH PARK DR,Anchorage,AK,99567,"20200 CHUGACH PARK DR, Anchorage, AK, 99567",Match,Non_Exact,"20200 CHUGACH PARK DR, CHUGIAK, AK, 99567",190793292,R,02,020,000101,2072,-149.43361000000002,61.402527
976,20211 UPPER GREATLAND DR,Anchorage,AK,99567,"20211 UPPER GREATLAND DR, Anchorage, AK, 99567",Match,Non_Exact,"20211 UPPER GREATLAND DR, CHUGIAK, AK, 99567",190793274,L,02,020,000101,2072,-149.43669,61.402737
977,22043 KAREN AVE,Anchorage,AK,99567,"22043 KAREN AVE, Anchorage, AK, 99567",Match,Non_Exact,"22043 KAREN AVE, CHUGIAK, AK, 99567",190819921,L,02,020,000102,2008,-149.47118999999998,61.402719999999995
978,22015 KAREN AVE,Anchorage,AK,99567,"22015 KAREN AVE, Anchorage, AK, 99567",Match,Non_Exact,"22015 KAREN AVE, CHUGIAK, AK, 99567",190819921,L,02,020,000102,2008,-149.47208,61.402714
979,19782 TULWAR DR,Anchorage,AK,99567,"19782 TULWAR DR, Anchorage, AK, 99567",Match,Non_Exact,"19782 TULWAR DR, CHUGIAK, AK, 99567",190807474,R,02,020,000101,2057,-149.43025,61.40192
980,21313 JAYHAWK DR,Anchorage,AK,99567,"21313 JAYHAWK DR, Anchorage, AK, 99567",Match,Non_Exact,"21313 JAYHAWK DR, CHUGIAK, AK, 99567",190793027,L,02,020,000102,2011,-149.4857,61.40270600000001
981,21333 JAYHAWK DR,Anchorage,AK,99567,"21333 JAYHAWK DR, Anchorage, AK, 99567",Match,Non_Exact,"21333 JAYHAWK DR, CHUGIAK, AK, 99567",190793027,L,02,020,000102,2011,-149.48538,61.402702000000005
982,21223 JAYHAWK DR,Anchorage,AK,99567,"21223 JAYHAWK DR, Anchorage, AK, 99567",Match,Non_Exact,"21223 JAYHAWK DR, CHUGIAK, AK, 99567",190793027,L,02,020,000102,2011,-149.48713999999998,61.40270600000001
983,21113 JAYHAWK DR,Anchorage,AK,99567,"21113 JAYHAWK DR, Anchorage, AK, 99567",Match,Non_Exact,"21113 JAYHAWK DR, CHUGIAK, AK, 99567",190793025,L,02,020,000102,2012,-149.48946,61.402702000000005
984,21133 JAYHAWK DR,Anchorage,AK,99567,"21133 JAYHAWK DR, Anchorage, AK, 99567",Match,Non_Exact,"21133 JAYHAWK DR, CHUGIAK, AK, 99567",190793025,L,02,020,000102,2012,-149.48915,61.402702000000005
985,20905 JAYHAWK DR,Anchorage,AK,99567,"20905 JAYHAWK DR, Anchorage, AK, 99567",Match,Non_Exact,"20905 JAYHAWK DR, CHUGIAK, AK, 99567",190793021,L,02,020,000102,2011,-149.4934,61.402702000000005
986,19801 TULWAR DR,Anchorage,AK,99567,"19801 TULWAR DR, Anchorage, AK, 99567",Match,Non_Exact,"19801 TULWAR DR, CHUGIAK, AK, 99567",190807474,L,02,020,000101,2050,-149.42844,61.402519999999996
987,20214 UPPER GREATLAND DR,Anchorage,AK,99567,"20214 UPPER GREATLAND DR, Anchorage, AK, 99567",Match,Non_Exact,"20214 UPPER GREATLAND DR, CHUGIAK, AK, 99567",190793274,R,02,020,000101,2074,-149.43672,61.40276
988,20262 TULWAR DR,Anchorage,AK,99567,"20262 TULWAR DR, Anchorage, AK, 99567",Match,Non_Exact,"20262 TULWAR DR, CHUGIAK, AK, 99567",190793395,R,02,020,000101,2057,-149.42723,61.40156999999999
989,20128 CHUGACH PARK DR,Anchorage,AK,99567,"20128 CHUGACH PARK DR, Anchorage, AK, 99567",Match,Non_Exact,"20128 CHUGACH PARK DR, CHUGIAK, AK, 99567",190793292,R,02,020,000101,2072,-149.4337,61.401830000000004
990,19823 TULWAR DR,Anchorage,AK,99567,"19823 TULWAR DR, Anchorage, AK, 99567",Match,Non_Exact,"19823 TULWAR DR, CHUGIAK, AK, 99567",190807474,L,02,020,000101,2050,-149.42915,61.402317000000004
991,21734 KAREN AVE,Anchorage,AK,99567,"21734 KAREN AVE, Anchorage, AK, 99567",Match,Non_Exact,"21734 KAREN AVE, CHUGIAK, AK, 99567",190819922,R,02,020,000102,2010,-149.47888,61.40266
992,21060 JAYHAWK DR,Anchorage,AK,99567,"21060 JAYHAWK DR, Anchorage, AK, 99567",Match,Non_Exact,"21060 JAYHAWK DR, CHUGIAK, AK, 99567",190793025,R,02,020,000102,2014,-149.4903,61.40269
993,21322 JAYHAWK DR,Anchorage,AK,99567,"21322 JAYHAWK DR, Anchorage, AK, 99567",Match,Non_Exact,"21322 JAYHAWK DR, CHUGIAK, AK, 99567",190793027,R,02,020,000102,2014,-149.48555,61.402694999999994
994,21234 JAYHAWK DR,Anchorage,AK,99567,"21234 JAYHAWK DR, Anchorage, AK, 99567",Match,Non_Exact,"21234 JAYHAWK DR, CHUGIAK, AK, 99567",190793027,R,02,020,000102,2014,-149.48695,61.402694999999994
995,21234 JAYHAWK DR,Anchorage,AK,99567,"21234 JAYHAWK DR, Anchorage, AK, 99567",Match,Non_Exact,"21234 JAYHAWK DR, CHUGIAK, AK, 99567",190793027,R,02,020,000102,2014,-149.48695,61.402694999999994
996,21136 JAYHAWK DR,Anchorage,AK,99567,"21136 JAYHAWK DR, Anchorage, AK, 99567",Match,Non_Exact,"21136 JAYHAWK DR, CHUGIAK, AK, 99567",190793025,R,02,020,000102,2014,-149.48907,61.40269
997,20137 CRABTREE ST,Anchorage,AK,99567,"20137 CRABTREE ST, Anchorage, AK, 99567",Match,Non_Exact,"20137 CRABTREE ST, CHUGIAK, AK, 99567",190810508,L,02,020,000102,2014,-149.49156000000002,61.402077
998,20136 STEFFES ST,Anchorage,AK,99567,"20136 STEFFES ST, Anchorage, AK, 99567",Match,Non_Exact,"20136 STEFFES ST, CHUGIAK, AK, 99567",190823237,R,02,020,000102,2008,-149.47281999999998,61.406876000000004
999,20125 CHUGACH PARK DR,Anchorage,AK,99567,"20125 CHUGACH PARK DR, Anchorage, AK, 99567",Match,Non_Exact,"20125 CHUGACH PARK DR, CHUGIAK, AK, 99567",190793292,L,02,020,000101,2050,-149.43391,61.401543000000004
