id,address_x,city,state_x,postcode,address_y,result,match_type,address_match,tiger,side,state_y,county,tract,block,lat,long
7000,160 OKLAHOMA ST,Anchorage,AK,99504,"160 OKLAHOMA ST, Anchorage, AK, 99504",Match,Exact,"160 OKLAHOMA ST, ANCHORAGE, AK, 99504",190802853,R,02,020,000702,1005,-149.74478,61.222919999999995
7001,160 OKLAHOMA ST,Anchorage,AK,99504,"160 OKLAHOMA ST, Anchorage, AK, 99504",Match,Exact,"160 OKLAHOMA ST, ANCHORAGE, AK, 99504",190802853,R,02,020,000702,1005,-149.74478,61.222919999999995
7002,160 OKLAHOMA ST,Anchorage,AK,99504,"160 OKLAHOMA ST, Anchorage, AK, 99504",Match,Exact,"160 OKLAHOMA ST, ANCHORAGE, AK, 99504",190802853,R,02,020,000702,1005,-149.74478,61.222919999999995
7003,160 OKLAHOMA ST,Anchorage,AK,99504,"160 OKLAHOMA ST, Anchorage, AK, 99504",Match,Exact,"160 OKLAHOMA ST, ANCHORAGE, AK, 99504",190802853,R,02,020,000702,1005,-149.74478,61.222919999999995
7004,160 OKLAHOMA ST,Anchorage,AK,99504,"160 OKLAHOMA ST, Anchorage, AK, 99504",Match,Exact,"160 OKLAHOMA ST, ANCHORAGE, AK, 99504",190802853,R,02,020,000702,1005,-149.74478,61.222919999999995
7005,5209 CARIBOU AVE,Anchorage,AK,99508,"5209 CARIBOU AVE, Anchorage, AK, 99508",Match,Exact,"5209 CARIBOU AVE, ANCHORAGE, AK, 99508",190801938,L,02,020,000801,3005,-149.78423,61.222393000000004
7006,5209 CARIBOU AVE,Anchorage,AK,99508,"5209 CARIBOU AVE, Anchorage, AK, 99508",Match,Exact,"5209 CARIBOU AVE, ANCHORAGE, AK, 99508",190801938,L,02,020,000801,3005,-149.78423,61.222393000000004
7007,5209 CARIBOU AVE,Anchorage,AK,99508,"5209 CARIBOU AVE, Anchorage, AK, 99508",Match,Exact,"5209 CARIBOU AVE, ANCHORAGE, AK, 99508",190801938,L,02,020,000801,3005,-149.78423,61.222393000000004
7008,5205 CARIBOU AVE,Anchorage,AK,99508,"5205 CARIBOU AVE, Anchorage, AK, 99508",Match,Exact,"5205 CARIBOU AVE, ANCHORAGE, AK, 99508",190801938,L,02,020,000801,3005,-149.78429,61.222393000000004
7009,5171 CARIBOU AVE,Anchorage,AK,99508,"5171 CARIBOU AVE, Anchorage, AK, 99508",Match,Exact,"5171 CARIBOU AVE, ANCHORAGE, AK, 99508",190801938,L,02,020,000801,3005,-149.78477,61.222393000000004
7010,5109 CARIBOU AVE,Anchorage,AK,99508,"5109 CARIBOU AVE, Anchorage, AK, 99508",Match,Exact,"5109 CARIBOU AVE, ANCHORAGE, AK, 99508",190801938,L,02,020,000801,3005,-149.78569,61.222390000000004
7011,5105 CARIBOU AVE,Anchorage,AK,99508,"5105 CARIBOU AVE, Anchorage, AK, 99508",Match,Exact,"5105 CARIBOU AVE, ANCHORAGE, AK, 99508",190801938,L,02,020,000801,3005,-149.78575,61.222390000000004
7012,202 BUNNELL ST,Anchorage,AK,99508,"202 BUNNELL ST, Anchorage, AK, 99508",Match,Exact,"202 BUNNELL ST, ANCHORAGE, AK, 99508",190801681,R,02,020,000801,2005,-149.78973,61.222702000000005
7013,203 BUNNELL ST,Anchorage,AK,99508,"203 BUNNELL ST, Anchorage, AK, 99508",Match,Exact,"203 BUNNELL ST, ANCHORAGE, AK, 99508",190801681,L,02,020,000801,2004,-149.7897,61.222702000000005
7014,5401 CARIBOU AVE,Anchorage,AK,99508,"5401 CARIBOU AVE, Anchorage, AK, 99508",Match,Exact,"5401 CARIBOU AVE, ANCHORAGE, AK, 99508",190820388,L,02,020,000801,3006,-149.78088,61.222393000000004
7015,5391 CARIBOU AVE,Anchorage,AK,99508,"5391 CARIBOU AVE, Anchorage, AK, 99508",Match,Exact,"5391 CARIBOU AVE, ANCHORAGE, AK, 99508",190820388,L,02,020,000801,3006,-149.78101999999998,61.222393000000004
7016,5313 CARIBOU AVE,Anchorage,AK,99508,"5313 CARIBOU AVE, Anchorage, AK, 99508",Match,Exact,"5313 CARIBOU AVE, ANCHORAGE, AK, 99508",190820388,L,02,020,000801,3006,-149.78217,61.222393000000004
7017,5307 CARIBOU AVE,Anchorage,AK,99508,"5307 CARIBOU AVE, Anchorage, AK, 99508",Match,Exact,"5307 CARIBOU AVE, ANCHORAGE, AK, 99508",190820388,L,02,020,000801,3006,-149.78226,61.222393000000004
7018,6830 GOLD KINGS CIR,Anchorage,AK,99504,"6830 GOLD KINGS CIR, Anchorage, AK, 99504",Match,Exact,"6830 GOLD KINGS CIR, ANCHORAGE, AK, 99504",190820029,L,02,020,000702,3002,-149.75371,61.22361
7019,6820 GOLD KINGS CIR,Anchorage,AK,99504,"6820 GOLD KINGS CIR, Anchorage, AK, 99504",Match,Exact,"6820 GOLD KINGS CIR, ANCHORAGE, AK, 99504",190820029,L,02,020,000702,3002,-149.75383,61.223614000000005
7020,147 GRAND LARRY ST,Anchorage,AK,99504,"147 GRAND LARRY ST, Anchorage, AK, 99504",Match,Exact,"147 GRAND LARRY ST, ANCHORAGE, AK, 99504",625718476,L,02,020,000703,2000,-149.72975,61.223231999999996
7021,120 OKLAHOMA ST,Anchorage,AK,99504,"120 OKLAHOMA ST, Anchorage, AK, 99504",Match,Exact,"120 OKLAHOMA ST, ANCHORAGE, AK, 99504",190802852,R,02,020,000702,1005,-149.7448,61.223682
7022,120 OKLAHOMA ST,Anchorage,AK,99504,"120 OKLAHOMA ST, Anchorage, AK, 99504",Match,Exact,"120 OKLAHOMA ST, ANCHORAGE, AK, 99504",190802852,R,02,020,000702,1005,-149.7448,61.223682
7023,120 OKLAHOMA ST,Anchorage,AK,99504,"120 OKLAHOMA ST, Anchorage, AK, 99504",Match,Exact,"120 OKLAHOMA ST, ANCHORAGE, AK, 99504",190802852,R,02,020,000702,1005,-149.7448,61.223682
7024,120 OKLAHOMA ST,Anchorage,AK,99504,"120 OKLAHOMA ST, Anchorage, AK, 99504",Match,Exact,"120 OKLAHOMA ST, ANCHORAGE, AK, 99504",190802852,R,02,020,000702,1005,-149.7448,61.223682
7025,120 OKLAHOMA ST,Anchorage,AK,99504,"120 OKLAHOMA ST, Anchorage, AK, 99504",Match,Exact,"120 OKLAHOMA ST, ANCHORAGE, AK, 99504",190802852,R,02,020,000702,1005,-149.7448,61.223682
7026,120 OKLAHOMA ST,Anchorage,AK,99504,"120 OKLAHOMA ST, Anchorage, AK, 99504",Match,Exact,"120 OKLAHOMA ST, ANCHORAGE, AK, 99504",190802852,R,02,020,000702,1005,-149.7448,61.223682
7027,120 OKLAHOMA ST,Anchorage,AK,99504,"120 OKLAHOMA ST, Anchorage, AK, 99504",Match,Exact,"120 OKLAHOMA ST, ANCHORAGE, AK, 99504",190802852,R,02,020,000702,1005,-149.7448,61.223682
7028,5005 CHENA AVE,Anchorage,AK,99508,"5005 CHENA AVE, Anchorage, AK, 99508",Match,Exact,"5005 CHENA AVE, ANCHORAGE, AK, 99508",190801688,L,02,020,000801,2002,-149.78769,61.222840000000005
7029,5005 CHENA AVE,Anchorage,AK,99508,"5005 CHENA AVE, Anchorage, AK, 99508",Match,Exact,"5005 CHENA AVE, ANCHORAGE, AK, 99508",190801688,L,02,020,000801,2002,-149.78769,61.222840000000005
7030,5005 CHENA AVE,Anchorage,AK,99508,"5005 CHENA AVE, Anchorage, AK, 99508",Match,Exact,"5005 CHENA AVE, ANCHORAGE, AK, 99508",190801688,L,02,020,000801,2002,-149.78769,61.222840000000005
7031,5001 CHENA AVE,Anchorage,AK,99508,"5001 CHENA AVE, Anchorage, AK, 99508",Match,Exact,"5001 CHENA AVE, ANCHORAGE, AK, 99508",190801688,L,02,020,000801,2002,-149.78775,61.222840000000005
7032,5001 CHENA AVE,Anchorage,AK,99508,"5001 CHENA AVE, Anchorage, AK, 99508",Match,Exact,"5001 CHENA AVE, ANCHORAGE, AK, 99508",190801688,L,02,020,000801,2002,-149.78775,61.222840000000005
7033,5001 CHENA AVE,Anchorage,AK,99508,"5001 CHENA AVE, Anchorage, AK, 99508",Match,Exact,"5001 CHENA AVE, ANCHORAGE, AK, 99508",190801688,L,02,020,000801,2002,-149.78775,61.222840000000005
7034,4901 CHENA AVE,Anchorage,AK,99508,"4901 CHENA AVE, Anchorage, AK, 99508",Match,Exact,"4901 CHENA AVE, ANCHORAGE, AK, 99508",190801686,L,02,020,000801,2001,-149.78958,61.222836
7035,8101 PECK AVE,Anchorage,AK,99504,"8101 PECK AVE, Anchorage, AK, 99504",Match,Exact,"8101 PECK AVE, ANCHORAGE, AK, 99504",190803203,L,02,020,000703,2000,-149.72781,61.222378000000006
7036,8101 PECK AVE,Anchorage,AK,99504,"8101 PECK AVE, Anchorage, AK, 99504",Match,Exact,"8101 PECK AVE, ANCHORAGE, AK, 99504",190803203,L,02,020,000703,2000,-149.72781,61.222378000000006
7037,8101 PECK AVE,Anchorage,AK,99504,"8101 PECK AVE, Anchorage, AK, 99504",Match,Exact,"8101 PECK AVE, ANCHORAGE, AK, 99504",190803203,L,02,020,000703,2000,-149.72781,61.222378000000006
7038,8101 PECK AVE,Anchorage,AK,99504,"8101 PECK AVE, Anchorage, AK, 99504",Match,Exact,"8101 PECK AVE, ANCHORAGE, AK, 99504",190803203,L,02,020,000703,2000,-149.72781,61.222378000000006
7039,8101 PECK AVE,Anchorage,AK,99504,"8101 PECK AVE, Anchorage, AK, 99504",Match,Exact,"8101 PECK AVE, ANCHORAGE, AK, 99504",190803203,L,02,020,000703,2000,-149.72781,61.222378000000006
7040,8101 PECK AVE,Anchorage,AK,99504,"8101 PECK AVE, Anchorage, AK, 99504",Match,Exact,"8101 PECK AVE, ANCHORAGE, AK, 99504",190803203,L,02,020,000703,2000,-149.72781,61.222378000000006
7041,8101 PECK AVE,Anchorage,AK,99504,"8101 PECK AVE, Anchorage, AK, 99504",Match,Exact,"8101 PECK AVE, ANCHORAGE, AK, 99504",190803203,L,02,020,000703,2000,-149.72781,61.222378000000006
7042,8101 PECK AVE,Anchorage,AK,99504,"8101 PECK AVE, Anchorage, AK, 99504",Match,Exact,"8101 PECK AVE, ANCHORAGE, AK, 99504",190803203,L,02,020,000703,2000,-149.72781,61.222378000000006
7043,8101 PECK AVE,Anchorage,AK,99504,"8101 PECK AVE, Anchorage, AK, 99504",Match,Exact,"8101 PECK AVE, ANCHORAGE, AK, 99504",190803203,L,02,020,000703,2000,-149.72781,61.222378000000006
7044,8101 PECK AVE,Anchorage,AK,99504,"8101 PECK AVE, Anchorage, AK, 99504",Match,Exact,"8101 PECK AVE, ANCHORAGE, AK, 99504",190803203,L,02,020,000703,2000,-149.72781,61.222378000000006
7045,8101 PECK AVE,Anchorage,AK,99504,"8101 PECK AVE, Anchorage, AK, 99504",Match,Exact,"8101 PECK AVE, ANCHORAGE, AK, 99504",190803203,L,02,020,000703,2000,-149.72781,61.222378000000006
7046,8101 PECK AVE,Anchorage,AK,99504,"8101 PECK AVE, Anchorage, AK, 99504",Match,Exact,"8101 PECK AVE, ANCHORAGE, AK, 99504",190803203,L,02,020,000703,2000,-149.72781,61.222378000000006
7047,7801 PECK AVE,Anchorage,AK,99504,"7801 PECK AVE, Anchorage, AK, 99504",Match,Exact,"7801 PECK AVE, ANCHORAGE, AK, 99504",190816652,L,02,020,000702,2000,-149.7353,61.222363
7048,227 NEWELL ST,Anchorage,AK,99504,"227 NEWELL ST, Anchorage, AK, 99504",Match,Exact,"227 NEWELL ST, ANCHORAGE, AK, 99504",605167293,R,02,020,000701,1000,-149.77095,61.222637
7049,171 PLACE ST,Anchorage,AK,99504,"171 PLACE ST, Anchorage, AK, 99504",Match,Exact,"171 PLACE ST, ANCHORAGE, AK, 99504",190803301,L,02,020,000703,1012,-149.72319,61.22265600000001
7050,161 JELINEK PL,Anchorage,AK,99504,"161 JELINEK PL, Anchorage, AK, 99504",Match,Exact,"161 JELINEK PL, ANCHORAGE, AK, 99504",190803206,L,02,020,000703,1011,-149.72507,61.223094999999994
7051,7770 BOUNDARY AVE,Anchorage,AK,99504,"7770 BOUNDARY AVE, Anchorage, AK, 99504",Match,Exact,"7770 BOUNDARY AVE, ANCHORAGE, AK, 99504",605167189,R,02,020,000702,2000,-149.73622,61.224169999999994
7052,7610 BOUNDARY AVE,Anchorage,AK,99504,"7610 BOUNDARY AVE, Anchorage, AK, 99504",Match,Exact,"7610 BOUNDARY AVE, ANCHORAGE, AK, 99504",605167217,R,02,020,000702,2000,-149.73923,61.224169999999994
7053,7612 BOUNDARY AVE,Anchorage,AK,99504,"7612 BOUNDARY AVE, Anchorage, AK, 99504",Match,Exact,"7612 BOUNDARY AVE, ANCHORAGE, AK, 99504",605167217,R,02,020,000702,2000,-149.7392,61.224169999999994
7054,7614 BOUNDARY AVE,Anchorage,AK,99504,"7614 BOUNDARY AVE, Anchorage, AK, 99504",Match,Exact,"7614 BOUNDARY AVE, ANCHORAGE, AK, 99504",605167217,R,02,020,000702,2000,-149.73917,61.224169999999994
7055,7616 BOUNDARY AVE,Anchorage,AK,99504,"7616 BOUNDARY AVE, Anchorage, AK, 99504",Match,Exact,"7616 BOUNDARY AVE, ANCHORAGE, AK, 99504",605167217,R,02,020,000702,2000,-149.73911999999999,61.224169999999994
7056,7676 BOUNDARY AVE,Anchorage,AK,99504,"7676 BOUNDARY AVE, Anchorage, AK, 99504",Match,Exact,"7676 BOUNDARY AVE, ANCHORAGE, AK, 99504",605167202,R,02,020,000702,2000,-149.73744,61.224169999999994
7057,7672 BOUNDARY AVE,Anchorage,AK,99504,"7672 BOUNDARY AVE, Anchorage, AK, 99504",Match,Exact,"7672 BOUNDARY AVE, ANCHORAGE, AK, 99504",605167202,R,02,020,000702,2000,-149.73761000000002,61.224169999999994
7058,7674 BOUNDARY AVE,Anchorage,AK,99504,"7674 BOUNDARY AVE, Anchorage, AK, 99504",Match,Exact,"7674 BOUNDARY AVE, ANCHORAGE, AK, 99504",605167202,R,02,020,000702,2000,-149.73752,61.224169999999994
7059,7670 BOUNDARY AVE,Anchorage,AK,99504,"7670 BOUNDARY AVE, Anchorage, AK, 99504",Match,Exact,"7670 BOUNDARY AVE, ANCHORAGE, AK, 99504",605167202,R,02,020,000702,2000,-149.73769,61.224169999999994
7060,100 AGATE CIR,Anchorage,AK,99504,"100 AGATE CIR, Anchorage, AK, 99504",Match,Exact,"100 AGATE CIR, ANCHORAGE, AK, 99504",190823753,L,02,020,000703,1011,-149.7232,61.224109999999996
7061,100 AGATE CIR,Anchorage,AK,99504,"100 AGATE CIR, Anchorage, AK, 99504",Match,Exact,"100 AGATE CIR, ANCHORAGE, AK, 99504",190823753,L,02,020,000703,1011,-149.7232,61.224109999999996
7062,101 AGATE CIR,Anchorage,AK,99504,"101 AGATE CIR, Anchorage, AK, 99504",Match,Exact,"101 AGATE CIR, ANCHORAGE, AK, 99504",190823753,R,02,020,000703,1011,-149.72319,61.224109999999996
7063,8949 EAGLE PLACE LOOP,Anchorage,AK,99577,"8949 EAGLE PLACE LOOP, Anchorage, AK, 99577",No_Match,,,,,,,,,,
7064,8944 BIRCH PARK CIR,Anchorage,AK,99577,"8944 BIRCH PARK CIR, Anchorage, AK, 99577",Match,Non_Exact,"8944 BIRCH PARK CIR, EAGLE RIVER, AK, 99577",190827414,L,02,020,000203,3022,-149.51202,61.300959999999996
7065,18524 JUDE ISLAND CIR,Anchorage,AK,99577,"18524 JUDE ISLAND CIR, Anchorage, AK, 99577",Match,Non_Exact,"18524 JUDE ISLAND CIR, EAGLE RIVER, AK, 99577",190805567,L,02,020,000203,3014,-149.53716,61.301476
7066,18630 KINGS POINT CIR,Anchorage,AK,99577,"18630 KINGS POINT CIR, Anchorage, AK, 99577",Match,Non_Exact,"18630 KINGS POINT CIR, EAGLE RIVER, AK, 99577",190805569,R,02,020,000203,3014,-149.53467,61.301444999999994
7067,8950 MEADOW PARK CIR,Anchorage,AK,99577,"8950 MEADOW PARK CIR, Anchorage, AK, 99577",Match,Non_Exact,"8950 MEADOW PARK CIR, EAGLE RIVER, AK, 99577",605288530,L,02,020,000203,3022,-149.51038,61.30093000000001
7068,18594 JUDE ISLAND CIR,Anchorage,AK,99577,"18594 JUDE ISLAND CIR, Anchorage, AK, 99577",Match,Non_Exact,"18594 JUDE ISLAND CIR, EAGLE RIVER, AK, 99577",190805567,L,02,020,000203,3014,-149.53653,61.301487
7069,8934 NORTHWOOD PARK CIR,Anchorage,AK,99577,"8934 NORTHWOOD PARK CIR, Anchorage, AK, 99577",Match,Non_Exact,"8934 NORTHWOOD PARK CIR, EAGLE RIVER, AK, 99577",190819645,L,02,020,000203,3022,-149.51762,61.30113000000001
7070,8953 MEADOW PARK CIR,Anchorage,AK,99577,"8953 MEADOW PARK CIR, Anchorage, AK, 99577",Match,Non_Exact,"8953 MEADOW PARK CIR, EAGLE RIVER, AK, 99577",605288530,R,02,020,000203,3022,-149.51035,61.300915
7071,8963 W PARKVIEW TERRACE LOOP,Anchorage,AK,99577,"8963 W PARKVIEW TERRACE LOOP, Anchorage, AK, 99577",Match,Non_Exact,"8963 W PARKVIEW TER LP, EAGLE RIVER, AK, 99577",190805555,R,02,020,000203,5004,-149.54175,61.30223
7072,8953 EAGLE PLACE LOOP,Anchorage,AK,99577,"8953 EAGLE PLACE LOOP, Anchorage, AK, 99577",No_Match,,,,,,,,,,
7073,19437 HIGHLAND RIDGE DR,Anchorage,AK,99577,"19437 HIGHLAND RIDGE DR, Anchorage, AK, 99577",Match,Non_Exact,"19437 HIGHLAND RIDGE DR, EAGLE RIVER, AK, 99577",190819652,L,02,020,000203,3015,-149.51921000000002,61.301308
7074,18691 KINGS POINT CIR,Anchorage,AK,99577,"18691 KINGS POINT CIR, Anchorage, AK, 99577",Match,Non_Exact,"18691 KINGS POINT CIR, EAGLE RIVER, AK, 99577",190805569,L,02,020,000203,3014,-149.53455,61.301605
7075,8941 BIRCH PARK CIR,Anchorage,AK,99577,"8941 BIRCH PARK CIR, Anchorage, AK, 99577",Match,Non_Exact,"8941 BIRCH PARK CIR, EAGLE RIVER, AK, 99577",190827414,R,02,020,000203,3022,-149.51198,61.300926000000004
7076,18534 JUDE ISLAND CIR,Anchorage,AK,99577,"18534 JUDE ISLAND CIR, Anchorage, AK, 99577",Match,Non_Exact,"18534 JUDE ISLAND CIR, EAGLE RIVER, AK, 99577",190805567,L,02,020,000203,3014,-149.53706,61.301464
7077,9001 ANDY CIR,Anchorage,AK,99577,"9001 ANDY CIR, Anchorage, AK, 99577",Match,Non_Exact,"9001 ANDY CIR, EAGLE RIVER, AK, 99577",190818610,R,02,020,000203,3021,-149.52989,61.30124300000001
7078,19436 HIGHLAND RIDGE DR,Anchorage,AK,99577,"19436 HIGHLAND RIDGE DR, Anchorage, AK, 99577",Match,Non_Exact,"19436 HIGHLAND RIDGE DR, EAGLE RIVER, AK, 99577",190819652,R,02,020,000203,3022,-149.51918,61.30141
7079,8955 EAGLE PLACE LOOP,Anchorage,AK,99577,"8955 EAGLE PLACE LOOP, Anchorage, AK, 99577",No_Match,,,,,,,,,,
7080,8930 NORTHWOOD PARK CIR,Anchorage,AK,99577,"8930 NORTHWOOD PARK CIR, Anchorage, AK, 99577",Match,Non_Exact,"8930 NORTHWOOD PARK CIR, EAGLE RIVER, AK, 99577",190819645,L,02,020,000203,3022,-149.51762,61.301086
7081,18623 LITTLE CAPE CIR,Anchorage,AK,99577,"18623 LITTLE CAPE CIR, Anchorage, AK, 99577",Match,Non_Exact,"18623 LITTLE CAPE CIR, EAGLE RIVER, AK, 99577",190805581,L,02,020,000203,3011,-149.53569,61.299873
7082,20129 RIVERSIDE DR,Anchorage,AK,99577,"20129 RIVERSIDE DR, Anchorage, AK, 99577",Match,Non_Exact,"20129 RIVERSIDE DR, EAGLE RIVER, AK, 99577",605336335,L,02,020,000203,3000,-149.50773999999998,61.299576
7083,6622 WHISPERING LOOP,Anchorage,AK,99504,"6622 WHISPERING LOOP, Anchorage, AK, 99504",Match,Exact,"6622 WHISPERING LOOP, ANCHORAGE, AK, 99504",624788736,L,02,020,000701,1000,-149.7576,61.221012
7084,268 CREEKSIDE ST,Anchorage,AK,99504,"268 CREEKSIDE ST, Anchorage, AK, 99504",Match,Exact,"268 CREEKSIDE ST, ANCHORAGE, AK, 99504",190816630,L,02,020,000702,2001,-149.74101000000002,61.220863
7085,149 BURTON ST,Anchorage,AK,99504,"149 BURTON ST, Anchorage, AK, 99504",Match,Exact,"149 BURTON ST, ANCHORAGE, AK, 99504",190802857,L,02,020,000702,2000,-149.74194,61.222823999999996
7086,149 BURTON ST,Anchorage,AK,99504,"149 BURTON ST, Anchorage, AK, 99504",Match,Exact,"149 BURTON ST, ANCHORAGE, AK, 99504",190802857,L,02,020,000702,2000,-149.74194,61.222823999999996
7087,149 BURTON ST,Anchorage,AK,99504,"149 BURTON ST, Anchorage, AK, 99504",Match,Exact,"149 BURTON ST, ANCHORAGE, AK, 99504",190802857,L,02,020,000702,2000,-149.74194,61.222823999999996
7088,141 JELINEK PL,Anchorage,AK,99504,"141 JELINEK PL, Anchorage, AK, 99504",Match,Exact,"141 JELINEK PL, ANCHORAGE, AK, 99504",190803206,L,02,020,000703,1011,-149.72507,61.223395999999994
7089,149 DEAN PL,Anchorage,AK,99504,"149 DEAN PL, Anchorage, AK, 99504",Match,Exact,"149 DEAN PL, ANCHORAGE, AK, 99504",190802859,L,02,020,000702,2000,-149.74007,61.223034
7090,148 MICHEAL CT,Anchorage,AK,99504,"148 MICHEAL CT, Anchorage, AK, 99504",Match,Non_Exact,"148 MICHAEL CT, ANCHORAGE, AK, 99504",190812116,L,02,020,000702,2000,-149.7382,61.222823999999996
7091,148 MICHEAL CT,Anchorage,AK,99504,"148 MICHEAL CT, Anchorage, AK, 99504",Match,Non_Exact,"148 MICHAEL CT, ANCHORAGE, AK, 99504",190812116,L,02,020,000702,2000,-149.7382,61.222823999999996
7092,148 MICHEAL CT,Anchorage,AK,99504,"148 MICHEAL CT, Anchorage, AK, 99504",Match,Non_Exact,"148 MICHAEL CT, ANCHORAGE, AK, 99504",190812116,L,02,020,000702,2000,-149.7382,61.222823999999996
7093,148 MICHEAL CT,Anchorage,AK,99504,"148 MICHEAL CT, Anchorage, AK, 99504",Match,Non_Exact,"148 MICHAEL CT, ANCHORAGE, AK, 99504",190812116,L,02,020,000702,2000,-149.7382,61.222823999999996
7094,148 DEAN PL,Anchorage,AK,99504,"148 DEAN PL, Anchorage, AK, 99504",Match,Exact,"148 DEAN PL, ANCHORAGE, AK, 99504",190802859,R,02,020,000702,2000,-149.7401,61.223034
7095,148 DEAN PL,Anchorage,AK,99504,"148 DEAN PL, Anchorage, AK, 99504",Match,Exact,"148 DEAN PL, ANCHORAGE, AK, 99504",190802859,R,02,020,000702,2000,-149.7401,61.223034
7096,148 DEAN PL,Anchorage,AK,99504,"148 DEAN PL, Anchorage, AK, 99504",Match,Exact,"148 DEAN PL, ANCHORAGE, AK, 99504",190802859,R,02,020,000702,2000,-149.7401,61.223034
7097,148 DEAN PL,Anchorage,AK,99504,"148 DEAN PL, Anchorage, AK, 99504",Match,Exact,"148 DEAN PL, ANCHORAGE, AK, 99504",190802859,R,02,020,000702,2000,-149.7401,61.223034
7098,148 KREINHEDER PL,Anchorage,AK,99504,"148 KREINHEDER PL, Anchorage, AK, 99504",No_Match,,,,,,,,,,
7099,7330 MARGE CT,Anchorage,AK,99504,"7330 MARGE CT, Anchorage, AK, 99504",Match,Exact,"7330 MARGE CT, ANCHORAGE, AK, 99504",190802856,R,02,020,000702,1006,-149.74382,61.223263
7100,7330 MARGE CT,Anchorage,AK,99504,"7330 MARGE CT, Anchorage, AK, 99504",Match,Exact,"7330 MARGE CT, ANCHORAGE, AK, 99504",190802856,R,02,020,000702,1006,-149.74382,61.223263
7101,7320 MARGE CT,Anchorage,AK,99504,"7320 MARGE CT, Anchorage, AK, 99504",Match,Exact,"7320 MARGE CT, ANCHORAGE, AK, 99504",190802856,R,02,020,000702,1006,-149.74406000000002,61.223263
7102,7320 MARGE CT,Anchorage,AK,99504,"7320 MARGE CT, Anchorage, AK, 99504",Match,Exact,"7320 MARGE CT, ANCHORAGE, AK, 99504",190802856,R,02,020,000702,1006,-149.74406000000002,61.223263
7103,7320 MARGE CT,Anchorage,AK,99504,"7320 MARGE CT, Anchorage, AK, 99504",Match,Exact,"7320 MARGE CT, ANCHORAGE, AK, 99504",190802856,R,02,020,000702,1006,-149.74406000000002,61.223263
7104,149 MICHEAL CT,Anchorage,AK,99504,"149 MICHEAL CT, Anchorage, AK, 99504",Match,Non_Exact,"149 MICHAEL CT, ANCHORAGE, AK, 99504",190812116,R,02,020,000702,2000,-149.73819,61.222823999999996
7105,149 MICHEAL CT,Anchorage,AK,99504,"149 MICHEAL CT, Anchorage, AK, 99504",Match,Non_Exact,"149 MICHAEL CT, ANCHORAGE, AK, 99504",190812116,R,02,020,000702,2000,-149.73819,61.222823999999996
7106,149 MICHEAL CT,Anchorage,AK,99504,"149 MICHEAL CT, Anchorage, AK, 99504",Match,Non_Exact,"149 MICHAEL CT, ANCHORAGE, AK, 99504",190812116,R,02,020,000702,2000,-149.73819,61.222823999999996
7107,149 MICHEAL CT,Anchorage,AK,99504,"149 MICHEAL CT, Anchorage, AK, 99504",Match,Non_Exact,"149 MICHAEL CT, ANCHORAGE, AK, 99504",190812116,R,02,020,000702,2000,-149.73819,61.222823999999996
7108,7310 MARGE CT,Anchorage,AK,99504,"7310 MARGE CT, Anchorage, AK, 99504",Match,Exact,"7310 MARGE CT, ANCHORAGE, AK, 99504",190802856,R,02,020,000702,1006,-149.74431,61.223263
7109,7310 MARGE CT,Anchorage,AK,99504,"7310 MARGE CT, Anchorage, AK, 99504",Match,Exact,"7310 MARGE CT, ANCHORAGE, AK, 99504",190802856,R,02,020,000702,1006,-149.74431,61.223263
7110,7310 MARGE CT,Anchorage,AK,99504,"7310 MARGE CT, Anchorage, AK, 99504",Match,Exact,"7310 MARGE CT, ANCHORAGE, AK, 99504",190802856,R,02,020,000702,1006,-149.74431,61.223263
7111,140 JELINEK PL,Anchorage,AK,99504,"140 JELINEK PL, Anchorage, AK, 99504",Match,Exact,"140 JELINEK PL, ANCHORAGE, AK, 99504",190803206,R,02,020,000703,2000,-149.72508,61.223395999999994
7112,6820 ALL STAR CIR,Anchorage,AK,99504,"6820 ALL STAR CIR, Anchorage, AK, 99504",Match,Exact,"6820 ALL STAR CIR, ANCHORAGE, AK, 99504",190819820,L,02,020,000702,3002,-149.75406999999998,61.222846999999994
7113,8611 PECK AVE,Anchorage,AK,99504,"8611 PECK AVE, Anchorage, AK, 99504",Match,Exact,"8611 PECK AVE, ANCHORAGE, AK, 99504",190803308,L,02,020,000703,1011,-149.72002,61.222384999999996
7114,8611 PECK AVE,Anchorage,AK,99504,"8611 PECK AVE, Anchorage, AK, 99504",Match,Exact,"8611 PECK AVE, ANCHORAGE, AK, 99504",190803308,L,02,020,000703,1011,-149.72002,61.222384999999996
7115,8611 PECK AVE,Anchorage,AK,99504,"8611 PECK AVE, Anchorage, AK, 99504",Match,Exact,"8611 PECK AVE, ANCHORAGE, AK, 99504",190803308,L,02,020,000703,1011,-149.72002,61.222384999999996
7116,8611 PECK AVE,Anchorage,AK,99504,"8611 PECK AVE, Anchorage, AK, 99504",Match,Exact,"8611 PECK AVE, ANCHORAGE, AK, 99504",190803308,L,02,020,000703,1011,-149.72002,61.222384999999996
7117,8611 PECK AVE,Anchorage,AK,99504,"8611 PECK AVE, Anchorage, AK, 99504",Match,Exact,"8611 PECK AVE, ANCHORAGE, AK, 99504",190803308,L,02,020,000703,1011,-149.72002,61.222384999999996
7118,5305 CARIBOU AVE,Anchorage,AK,99508,"5305 CARIBOU AVE, Anchorage, AK, 99508",Match,Exact,"5305 CARIBOU AVE, ANCHORAGE, AK, 99508",190820388,L,02,020,000801,3006,-149.78229,61.222393000000004
7119,202 STEWART ST,Anchorage,AK,99508,"202 STEWART ST, Anchorage, AK, 99508",Match,Exact,"202 STEWART ST, ANCHORAGE, AK, 99508",190801687,R,02,020,000801,2004,-149.78791999999999,61.222706
7120,200 DAVIS ST,Anchorage,AK,99508,"200 DAVIS ST, Anchorage, AK, 99508",No_Match,,,,,,,,,,
7121,6860 PECK AVE,Anchorage,AK,99504,"6860 PECK AVE, Anchorage, AK, 99504",Match,Exact,"6860 PECK AVE, ANCHORAGE, AK, 99504",190820031,L,02,020,000702,3002,-149.75232,61.222404000000004
7122,203 STEWART ST,Anchorage,AK,99508,"203 STEWART ST, Anchorage, AK, 99508",Match,Exact,"203 STEWART ST, ANCHORAGE, AK, 99508",190801687,L,02,020,000801,2003,-149.78789,61.222706
7123,255 BONIFACE PKWY,Anchorage,AK,99504,"255 BONIFACE PKWY, Anchorage, AK, 99504",Match,Exact,"255 BONIFACE PKWY, ANCHORAGE, AK, 99504",190812090,L,02,020,000701,1000,-149.7784,61.220467000000006
7124,227 NEWELL ST,Anchorage,AK,99504,"227 NEWELL ST, Anchorage, AK, 99504",Match,Exact,"227 NEWELL ST, ANCHORAGE, AK, 99504",605167293,R,02,020,000701,1000,-149.77095,61.222637
7125,227 NEWELL ST,Anchorage,AK,99504,"227 NEWELL ST, Anchorage, AK, 99504",Match,Exact,"227 NEWELL ST, ANCHORAGE, AK, 99504",605167293,R,02,020,000701,1000,-149.77095,61.222637
7126,8420 PECK AVE,Anchorage,AK,99504,"8420 PECK AVE, Anchorage, AK, 99504",Match,Exact,"8420 PECK AVE, ANCHORAGE, AK, 99504",190812130,R,02,020,000703,1013,-149.72388999999998,61.22237
7127,8238 PECK AVE,Anchorage,AK,99504,"8238 PECK AVE, Anchorage, AK, 99504",Match,Exact,"8238 PECK AVE, ANCHORAGE, AK, 99504",190803203,R,02,020,000703,2003,-149.72717,61.22237
7128,8238 PECK AVE,Anchorage,AK,99504,"8238 PECK AVE, Anchorage, AK, 99504",Match,Exact,"8238 PECK AVE, ANCHORAGE, AK, 99504",190803203,R,02,020,000703,2003,-149.72717,61.22237
7129,8300 PECK AVE,Anchorage,AK,99504,"8300 PECK AVE, Anchorage, AK, 99504",Match,Exact,"8300 PECK AVE, ANCHORAGE, AK, 99504",190803208,R,02,020,000703,1013,-149.72593999999998,61.22237
7130,8300 PECK AVE,Anchorage,AK,99504,"8300 PECK AVE, Anchorage, AK, 99504",Match,Exact,"8300 PECK AVE, ANCHORAGE, AK, 99504",190803208,R,02,020,000703,1013,-149.72593999999998,61.22237
7131,8310 PECK AVE,Anchorage,AK,99504,"8310 PECK AVE, Anchorage, AK, 99504",Match,Exact,"8310 PECK AVE, ANCHORAGE, AK, 99504",190803208,R,02,020,000703,1013,-149.72551,61.22237
7132,8310 PECK AVE,Anchorage,AK,99504,"8310 PECK AVE, Anchorage, AK, 99504",Match,Exact,"8310 PECK AVE, ANCHORAGE, AK, 99504",190803208,R,02,020,000703,1013,-149.72551,61.22237
7133,8320 PECK AVE,Anchorage,AK,99504,"8320 PECK AVE, Anchorage, AK, 99504",Match,Exact,"8320 PECK AVE, ANCHORAGE, AK, 99504",190812129,R,02,020,000703,1013,-149.725,61.22237
7134,8320 PECK AVE,Anchorage,AK,99504,"8320 PECK AVE, Anchorage, AK, 99504",Match,Exact,"8320 PECK AVE, ANCHORAGE, AK, 99504",190812129,R,02,020,000703,1013,-149.725,61.22237
7135,248 ZAPPA PL,Anchorage,AK,99504,"248 ZAPPA PL, Anchorage, AK, 99504",Match,Exact,"248 ZAPPA PL, ANCHORAGE, AK, 99504",190803204,R,02,020,000703,2003,-149.72601,61.221509999999995
7136,248 ZAPPA PL,Anchorage,AK,99504,"248 ZAPPA PL, Anchorage, AK, 99504",Match,Exact,"248 ZAPPA PL, ANCHORAGE, AK, 99504",190803204,R,02,020,000703,2003,-149.72601,61.221509999999995
7137,240 CREEKSIDE ST,Anchorage,AK,99504,"240 CREEKSIDE ST, Anchorage, AK, 99504",Match,Exact,"240 CREEKSIDE ST, ANCHORAGE, AK, 99504",190816630,L,02,020,000702,2001,-149.74101000000002,61.221077
7138,249 FRIENDLY ST,Anchorage,AK,99504,"249 FRIENDLY ST, Anchorage, AK, 99504",Match,Exact,"249 FRIENDLY ST, ANCHORAGE, AK, 99504",190823630,L,02,020,000703,2003,-149.72794,61.220863
7139,303 DAVIS ST,Anchorage,AK,99508,"303 DAVIS ST, Anchorage, AK, 99508",Match,Exact,"303 DAVIS ST, ANCHORAGE, AK, 99508",190801967,L,02,020,000801,3009,-149.78607,61.22144300000001
7140,251 KESTER CIR,Anchorage,AK,99504,"251 KESTER CIR, Anchorage, AK, 99504",Match,Exact,"251 KESTER CIR, ANCHORAGE, AK, 99504",190803210,R,02,020,000702,2000,-149.73619,61.220936
7141,251 KESTER CIR,Anchorage,AK,99504,"251 KESTER CIR, Anchorage, AK, 99504",Match,Exact,"251 KESTER CIR, ANCHORAGE, AK, 99504",190803210,R,02,020,000702,2000,-149.73619,61.220936
7142,241 CREEKSIDE ST,Anchorage,AK,99504,"241 CREEKSIDE ST, Anchorage, AK, 99504",Match,Exact,"241 CREEKSIDE ST, ANCHORAGE, AK, 99504",190816630,R,02,020,000702,2001,-149.741,61.221077
7143,6357 WHISPERING LOOP,Anchorage,AK,99504,"6357 WHISPERING LOOP, Anchorage, AK, 99504",Match,Exact,"6357 WHISPERING LOOP, ANCHORAGE, AK, 99504",624788733,L,02,020,000701,1013,-149.76262,61.221534999999996
7144,6357 WHISPERING LOOP,Anchorage,AK,99504,"6357 WHISPERING LOOP, Anchorage, AK, 99504",Match,Exact,"6357 WHISPERING LOOP, ANCHORAGE, AK, 99504",624788733,L,02,020,000701,1013,-149.76262,61.221534999999996
7145,314 LIONHEART CT,Anchorage,AK,99508,"314 LIONHEART CT, Anchorage, AK, 99508",Match,Exact,"314 LIONHEART CT, ANCHORAGE, AK, 99508",190812092,L,02,020,000801,3008,-149.78188,61.221332999999994
7146,247 GRAND LARRY ST,Anchorage,AK,99504,"247 GRAND LARRY ST, Anchorage, AK, 99504",Match,Exact,"247 GRAND LARRY ST, ANCHORAGE, AK, 99504",190803200,L,02,020,000703,2003,-149.72975,61.221534999999996
7147,246 OKLAHOMA ST,Anchorage,AK,99504,"246 OKLAHOMA ST, Anchorage, AK, 99504",Match,Exact,"246 OKLAHOMA ST, ANCHORAGE, AK, 99504",190802855,R,02,020,000702,2008,-149.74477,61.22150799999999
7148,246 OKLAHOMA ST,Anchorage,AK,99504,"246 OKLAHOMA ST, Anchorage, AK, 99504",Match,Exact,"246 OKLAHOMA ST, ANCHORAGE, AK, 99504",190802855,R,02,020,000702,2008,-149.74477,61.22150799999999
7149,255 MULDOON RD,Anchorage,AK,99504,"255 MULDOON RD, Anchorage, AK, 99504",Match,Exact,"255 MULDOON RD, ANCHORAGE, AK, 99504",190803191,L,02,020,000703,2002,-149.73349,61.22139
7150,8399 DUBEN AVE,Anchorage,AK,99504,"8399 DUBEN AVE, Anchorage, AK, 99504",Match,Exact,"8399 DUBEN AVE, ANCHORAGE, AK, 99504",605183644,L,02,020,000703,1013,-149.72368,61.22062
7151,249 ZAPPA PL,Anchorage,AK,99504,"249 ZAPPA PL, Anchorage, AK, 99504",Match,Exact,"249 ZAPPA PL, ANCHORAGE, AK, 99504",190803204,L,02,020,000703,1013,-149.726,61.221509999999995
7152,249 ZAPPA PL,Anchorage,AK,99504,"249 ZAPPA PL, Anchorage, AK, 99504",Match,Exact,"249 ZAPPA PL, ANCHORAGE, AK, 99504",190803204,L,02,020,000703,1013,-149.726,61.221509999999995
7153,16715 RIDDELL CIR,Anchorage,AK,99577,"16715 RIDDELL CIR, Anchorage, AK, 99577",Match,Non_Exact,"16715 RIDDELL CIR, EAGLE RIVER, AK, 99577",190793184,R,02,020,000201,1016,-149.57016000000002,61.338283999999994
7154,16637 RIDDELL CIR,Anchorage,AK,99577,"16637 RIDDELL CIR, Anchorage, AK, 99577",Match,Non_Exact,"16637 RIDDELL CIR, EAGLE RIVER, AK, 99577",190793184,R,02,020,000201,1016,-149.57103999999998,61.33826
7155,16705 RIDDELL CIR,Anchorage,AK,99577,"16705 RIDDELL CIR, Anchorage, AK, 99577",Match,Non_Exact,"16705 RIDDELL CIR, EAGLE RIVER, AK, 99577",190793184,R,02,020,000201,1016,-149.57028,61.338280000000005
7156,16643 RIDDELL CIR,Anchorage,AK,99577,"16643 RIDDELL CIR, Anchorage, AK, 99577",Match,Non_Exact,"16643 RIDDELL CIR, EAGLE RIVER, AK, 99577",190793184,R,02,020,000201,1016,-149.57098,61.33826
7157,16622 RIDDELL CIR,Anchorage,AK,99577,"16622 RIDDELL CIR, Anchorage, AK, 99577",Match,Non_Exact,"16622 RIDDELL CIR, EAGLE RIVER, AK, 99577",190793184,L,02,020,000201,1016,-149.5712,61.33824499999999
7158,16624 RIDDELL CIR,Anchorage,AK,99577,"16624 RIDDELL CIR, Anchorage, AK, 99577",Match,Non_Exact,"16624 RIDDELL CIR, EAGLE RIVER, AK, 99577",190793184,L,02,020,000201,1016,-149.57118,61.33824499999999
7159,16626 RIDDELL CIR,Anchorage,AK,99577,"16626 RIDDELL CIR, Anchorage, AK, 99577",Match,Non_Exact,"16626 RIDDELL CIR, EAGLE RIVER, AK, 99577",190793184,L,02,020,000201,1016,-149.57115,61.33824499999999
7160,12940 IRIS WAY,Anchorage,AK,99577,"12940 IRIS WAY, Anchorage, AK, 99577",Match,Non_Exact,"12940 IRIS WAY, EAGLE RIVER, AK, 99577",190793470,L,02,020,000201,1016,-149.56902,61.3377
7161,16723 MERCY DR,Anchorage,AK,99577,"16723 MERCY DR, Anchorage, AK, 99577",Match,Non_Exact,"16723 MERCY DR, EAGLE RIVER, AK, 99577",190793158,R,02,020,000201,1016,-149.57062,61.3374
7162,16617 MERCY DR,Anchorage,AK,99577,"16617 MERCY DR, Anchorage, AK, 99577",Match,Non_Exact,"16617 MERCY DR, EAGLE RIVER, AK, 99577",190793158,R,02,020,000201,1016,-149.57227,61.337394999999994
7163,16617 MERCY DR,Anchorage,AK,99577,"16617 MERCY DR, Anchorage, AK, 99577",Match,Non_Exact,"16617 MERCY DR, EAGLE RIVER, AK, 99577",190793158,R,02,020,000201,1016,-149.57227,61.337394999999994
7164,16607 MERCY DR,Anchorage,AK,99577,"16607 MERCY DR, Anchorage, AK, 99577",Match,Non_Exact,"16607 MERCY DR, EAGLE RIVER, AK, 99577",190793158,R,02,020,000201,1016,-149.57242,61.337394999999994
7165,16633 MERCY DR,Anchorage,AK,99577,"16633 MERCY DR, Anchorage, AK, 99577",Match,Non_Exact,"16633 MERCY DR, EAGLE RIVER, AK, 99577",190793158,R,02,020,000201,1016,-149.572,61.337394999999994
7166,16549 MERCY DR,Anchorage,AK,99577,"16549 MERCY DR, Anchorage, AK, 99577",Match,Non_Exact,"16549 MERCY DR, EAGLE RIVER, AK, 99577",190793158,R,02,020,000201,1016,-149.57332,61.33739
7167,16519 MERCY DR,Anchorage,AK,99577,"16519 MERCY DR, Anchorage, AK, 99577",Match,Non_Exact,"16519 MERCY DR, EAGLE RIVER, AK, 99577",190793158,R,02,020,000201,1016,-149.57378,61.33739
7168,16527 MERCY DR,Anchorage,AK,99577,"16527 MERCY DR, Anchorage, AK, 99577",Match,Non_Exact,"16527 MERCY DR, EAGLE RIVER, AK, 99577",190793158,R,02,020,000201,1016,-149.57365,61.33739
7169,11471 BUSINESS BLVD,Anchorage,AK,99577,"11471 BUSINESS BLVD, Anchorage, AK, 99577",Match,Non_Exact,"11471 BUSINESS BLVD, EAGLE RIVER, AK, 99577",190814051,L,02,020,000201,2010,-149.57593,61.3239
7170,16331 HERITAGE PL,Anchorage,AK,99577,"16331 HERITAGE PL, Anchorage, AK, 99577",Match,Non_Exact,"16331 HERITAGE PL, EAGLE RIVER, AK, 99577",190814052,R,02,020,000201,2002,-149.57676999999998,61.324272
7171,16331 HERITAGE PL,Anchorage,AK,99577,"16331 HERITAGE PL, Anchorage, AK, 99577",Match,Non_Exact,"16331 HERITAGE PL, EAGLE RIVER, AK, 99577",190814052,R,02,020,000201,2002,-149.57676999999998,61.324272
7172,11438 TARGHEE LOOP,Anchorage,AK,99577,"11438 TARGHEE LOOP, Anchorage, AK, 99577",Match,Non_Exact,"11438 TARGHEE LOOP, EAGLE RIVER, AK, 99577",190815462,R,02,020,000201,2014,-149.58313,61.3242
7173,11428 TARGHEE LOOP,Anchorage,AK,99577,"11428 TARGHEE LOOP, Anchorage, AK, 99577",Match,Non_Exact,"11428 TARGHEE LOOP, EAGLE RIVER, AK, 99577",190815462,R,02,020,000201,2014,-149.58328,61.32419599999999
7174,11424 TARGHEE LOOP,Anchorage,AK,99577,"11424 TARGHEE LOOP, Anchorage, AK, 99577",Match,Non_Exact,"11424 TARGHEE LOOP, EAGLE RIVER, AK, 99577",190815462,R,02,020,000201,2014,-149.58334,61.32419599999999
7175,16411 HERITAGE PL,Anchorage,AK,99577,"16411 HERITAGE PL, Anchorage, AK, 99577",Match,Non_Exact,"16411 HERITAGE PL, EAGLE RIVER, AK, 99577",190814052,R,02,020,000201,2002,-149.5773,61.324169999999995
7176,16411 HERITAGE PL,Anchorage,AK,99577,"16411 HERITAGE PL, Anchorage, AK, 99577",Match,Non_Exact,"16411 HERITAGE PL, EAGLE RIVER, AK, 99577",190814052,R,02,020,000201,2002,-149.5773,61.324169999999995
7177,16411 HERITAGE PL,Anchorage,AK,99577,"16411 HERITAGE PL, Anchorage, AK, 99577",Match,Non_Exact,"16411 HERITAGE PL, EAGLE RIVER, AK, 99577",190814052,R,02,020,000201,2002,-149.5773,61.324169999999995
7178,16411 HERITAGE PL,Anchorage,AK,99577,"16411 HERITAGE PL, Anchorage, AK, 99577",Match,Non_Exact,"16411 HERITAGE PL, EAGLE RIVER, AK, 99577",190814052,R,02,020,000201,2002,-149.5773,61.324169999999995
7179,16411 HERITAGE PL,Anchorage,AK,99577,"16411 HERITAGE PL, Anchorage, AK, 99577",Match,Non_Exact,"16411 HERITAGE PL, EAGLE RIVER, AK, 99577",190814052,R,02,020,000201,2002,-149.5773,61.324169999999995
7180,16411 HERITAGE PL,Anchorage,AK,99577,"16411 HERITAGE PL, Anchorage, AK, 99577",Match,Non_Exact,"16411 HERITAGE PL, EAGLE RIVER, AK, 99577",190814052,R,02,020,000201,2002,-149.5773,61.324169999999995
7181,16631 RIVER'S EDGE LN,Anchorage,AK,99577,"16631 RIVER'S EDGE LN, Anchorage, AK, 99577",Match,Non_Exact,"16631 RIVERS EDGE LN, EAGLE RIVER, AK, 99577",605288487,L,02,020,000203,5009,-149.57199,61.31111
7182,16613 RIVER'S EDGE LN,Anchorage,AK,99577,"16613 RIVER'S EDGE LN, Anchorage, AK, 99577",Match,Non_Exact,"16613 RIVERS EDGE LN, EAGLE RIVER, AK, 99577",605288487,L,02,020,000203,5009,-149.57227,61.31111
7183,16633 RIVER'S EDGE LN,Anchorage,AK,99577,"16633 RIVER'S EDGE LN, Anchorage, AK, 99577",Match,Non_Exact,"16633 RIVERS EDGE LN, EAGLE RIVER, AK, 99577",605288487,L,02,020,000203,5009,-149.57196000000002,61.31111
7184,16621 RIVER'S EDGE LN,Anchorage,AK,99577,"16621 RIVER'S EDGE LN, Anchorage, AK, 99577",Match,Non_Exact,"16621 RIVERS EDGE LN, EAGLE RIVER, AK, 99577",605288487,L,02,020,000203,5009,-149.57214,61.31111
7185,16603 RIVER'S EDGE LN,Anchorage,AK,99577,"16603 RIVER'S EDGE LN, Anchorage, AK, 99577",Match,Non_Exact,"16603 RIVERS EDGE LN, EAGLE RIVER, AK, 99577",605288487,L,02,020,000203,5009,-149.57243,61.31111
7186,20131 RIVERSIDE DR,Anchorage,AK,99577,"20131 RIVERSIDE DR, Anchorage, AK, 99577",Match,Non_Exact,"20131 RIVERSIDE DR, EAGLE RIVER, AK, 99577",605336335,L,02,020,000203,3000,-149.5077,61.299572
7187,18901 MOUNTAIN POINT DR,Anchorage,AK,99577,"18901 MOUNTAIN POINT DR, Anchorage, AK, 99577",Match,Non_Exact,"18901 MOUNTAIN POINT DR, EAGLE RIVER, AK, 99577",190816261,L,02,020,000203,3012,-149.53038,61.2995
7188,8747 INYO CIR,Anchorage,AK,99577,"8747 INYO CIR, Anchorage, AK, 99577",Match,Non_Exact,"8747 INYO CIR, EAGLE RIVER, AK, 99577",190822981,L,02,020,000204,2038,-149.56642,61.299507
7189,20377 RIVERSIDE DR,Anchorage,AK,99577,"20377 RIVERSIDE DR, Anchorage, AK, 99577",Match,Non_Exact,"20377 RIVERSIDE DR, EAGLE RIVER, AK, 99577",605336335,L,02,020,000203,3000,-149.50307,61.299133
7190,20143 RIVERSIDE DR,Anchorage,AK,99577,"20143 RIVERSIDE DR, Anchorage, AK, 99577",Match,Non_Exact,"20143 RIVERSIDE DR, EAGLE RIVER, AK, 99577",605336335,L,02,020,000203,3000,-149.50746,61.29956
7191,18907 MOUNTAIN POINT DR,Anchorage,AK,99577,"18907 MOUNTAIN POINT DR, Anchorage, AK, 99577",Match,Non_Exact,"18907 MOUNTAIN POINT DR, EAGLE RIVER, AK, 99577",190816261,L,02,020,000203,3012,-149.53033,61.299490000000006
7192,18783 MILLS BAY DR,Anchorage,AK,99577,"18783 MILLS BAY DR, Anchorage, AK, 99577",Match,Non_Exact,"18783 MILLS BAY DR, EAGLE RIVER, AK, 99577",190805564,L,02,020,000203,3011,-149.53264,61.299213
7193,8719 ACADIA DR,Anchorage,AK,99577,"8719 ACADIA DR, Anchorage, AK, 99577",Match,Non_Exact,"8719 ACADIA DR, EAGLE RIVER, AK, 99577",605336267,R,02,020,000204,2038,-149.56813,61.299335
7194,18724 MILLS BAY DR,Anchorage,AK,99577,"18724 MILLS BAY DR, Anchorage, AK, 99577",Match,Non_Exact,"18724 MILLS BAY DR, EAGLE RIVER, AK, 99577",190805576,R,02,020,000203,3011,-149.53326,61.29971
7195,20145 RIVERSIDE DR,Anchorage,AK,99577,"20145 RIVERSIDE DR, Anchorage, AK, 99577",Match,Non_Exact,"20145 RIVERSIDE DR, EAGLE RIVER, AK, 99577",605336335,L,02,020,000203,3000,-149.50743,61.29955699999999
7196,18622 LITTLE CAPE CIR,Anchorage,AK,99577,"18622 LITTLE CAPE CIR, Anchorage, AK, 99577",Match,Non_Exact,"18622 LITTLE CAPE CIR, EAGLE RIVER, AK, 99577",190805581,R,02,020,000203,3011,-149.5357,61.29987
7197,20375 RIVERSIDE DR,Anchorage,AK,99577,"20375 RIVERSIDE DR, Anchorage, AK, 99577",Match,Non_Exact,"20375 RIVERSIDE DR, EAGLE RIVER, AK, 99577",605336335,L,02,020,000203,3000,-149.5031,61.299130000000005
7198,4635 BIRDSONG DR,Anchorage,AK,99577,"4635 BIRDSONG DR, Anchorage, AK, 99577",Match,Non_Exact,"4635 BIRDSONG DR, EAGLE RIVER, AK, 99577",190826804,L,02,020,000204,2012,-149.47413999999998,61.262314
7199,4640 BIRDSONG DR,Anchorage,AK,99577,"4640 BIRDSONG DR, Anchorage, AK, 99577",Match,Non_Exact,"4640 BIRDSONG DR, EAGLE RIVER, AK, 99577",190826804,R,02,020,000204,2059,-149.47418000000002,61.262363
7200,4680 HILAND RD,Anchorage,AK,99577,"4680 HILAND RD, Anchorage, AK, 99577",Match,Non_Exact,"4680 HILAND RD, EAGLE RIVER, AK, 99577",190815030,R,02,020,000204,2013,-149.47682,61.26333
7201,4619 BIRDSONG DR,Anchorage,AK,99577,"4619 BIRDSONG DR, Anchorage, AK, 99577",Match,Non_Exact,"4619 BIRDSONG DR, EAGLE RIVER, AK, 99577",190826804,L,02,020,000204,2012,-149.47408000000001,61.262184
7202,4512 HILAND RD,Anchorage,AK,99577,"4512 HILAND RD, Anchorage, AK, 99577",Match,Non_Exact,"4512 HILAND RD, EAGLE RIVER, AK, 99577",190815030,R,02,020,000204,2013,-149.47693999999998,61.26218000000001
7203,4453 BIRDSONG DR,Anchorage,AK,99577,"4453 BIRDSONG DR, Anchorage, AK, 99577",Match,Non_Exact,"4453 BIRDSONG DR, EAGLE RIVER, AK, 99577",190826804,L,02,020,000204,2012,-149.47361999999998,61.26081
7204,4405 JOHNNY DR,Anchorage,AK,99577,"4405 JOHNNY DR, Anchorage, AK, 99577",Match,Non_Exact,"4405 JOHNNY DR, EAGLE RIVER, AK, 99577",190826099,L,02,020,000204,2013,-149.47714,61.259583
7205,4430 HILAND RD,Anchorage,AK,99577,"4430 HILAND RD, Anchorage, AK, 99577",Match,Non_Exact,"4430 HILAND RD, EAGLE RIVER, AK, 99577",190827468,L,02,020,000204,2013,-149.47502,61.260383999999995
7206,4339 ELKHORN DR,Anchorage,AK,99577,"4339 ELKHORN DR, Anchorage, AK, 99577",Match,Non_Exact,"4339 ELKHORN DR, EAGLE RIVER, AK, 99577",190815047,R,02,020,000204,2004,-149.46681,61.259636
7207,4323 JOHNNY DR,Anchorage,AK,99577,"4323 JOHNNY DR, Anchorage, AK, 99577",Match,Non_Exact,"4323 JOHNNY DR, EAGLE RIVER, AK, 99577",190826099,L,02,020,000204,2013,-149.47714,61.258976000000004
7208,4330 JOHNNY DR,Anchorage,AK,99577,"4330 JOHNNY DR, Anchorage, AK, 99577",Match,Non_Exact,"4330 JOHNNY DR, EAGLE RIVER, AK, 99577",190826099,R,02,020,000204,2013,-149.47717,61.259032999999995
7209,4315 ELKHORN DR,Anchorage,AK,99577,"4315 ELKHORN DR, Anchorage, AK, 99577",Match,Non_Exact,"4315 ELKHORN DR, EAGLE RIVER, AK, 99577",190815047,R,02,020,000204,2004,-149.46681,61.25949
7210,4225 JOHNNY DR,Anchorage,AK,99577,"4225 JOHNNY DR, Anchorage, AK, 99577",Match,Non_Exact,"4225 JOHNNY DR, EAGLE RIVER, AK, 99577",190826099,L,02,020,000204,2013,-149.47716,61.258247
7211,4241 ELKHORN DR,Anchorage,AK,99577,"4241 ELKHORN DR, Anchorage, AK, 99577",Match,Non_Exact,"4241 ELKHORN DR, EAGLE RIVER, AK, 99577",190815047,R,02,020,000204,2004,-149.46688999999998,61.25904
7212,4240 JOHNNY DR,Anchorage,AK,99577,"4240 JOHNNY DR, Anchorage, AK, 99577",Match,Non_Exact,"4240 JOHNNY DR, EAGLE RIVER, AK, 99577",190826099,R,02,020,000204,2013,-149.47717,61.258366
7213,4320 COTTON GRASS DR,Anchorage,AK,99577,"4320 COTTON GRASS DR, Anchorage, AK, 99577",Match,Non_Exact,"4320 COTTON GRASS DR, EAGLE RIVER, AK, 99577",190827692,L,02,020,000204,2004,-149.46266,61.258804000000005
7214,4216 BIRDSONG DR,Anchorage,AK,99577,"4216 BIRDSONG DR, Anchorage, AK, 99577",Match,Non_Exact,"4216 BIRDSONG DR, EAGLE RIVER, AK, 99577",190827241,R,02,020,000204,2013,-149.47365,61.25853299999999
7215,100 JELINEK PL,Anchorage,AK,99504,"100 JELINEK PL, Anchorage, AK, 99504",Match,Exact,"100 JELINEK PL, ANCHORAGE, AK, 99504",190803206,R,02,020,000703,2000,-149.72508,61.224003
7216,101 JELINEK PL,Anchorage,AK,99504,"101 JELINEK PL, Anchorage, AK, 99504",Match,Exact,"101 JELINEK PL, ANCHORAGE, AK, 99504",190803206,L,02,020,000703,1011,-149.72505,61.224003
7217,100 MULDOON RD,Anchorage,AK,99504,"100 MULDOON RD, Anchorage, AK, 99504",Match,Exact,"100 MULDOON RD, ANCHORAGE, AK, 99504",638990398,R,02,020,000702,2000,-149.73353999999998,61.224030000000006
7218,5000 TAKU DR,Anchorage,AK,99508,"5000 TAKU DR, Anchorage, AK, 99508",Match,Exact,"5000 TAKU DR, ANCHORAGE, AK, 99508",190801933,R,02,020,000801,2002,-149.78777,61.224163
7219,8611 PECK AVE,Anchorage,AK,99504,"8611 PECK AVE, Anchorage, AK, 99504",Match,Exact,"8611 PECK AVE, ANCHORAGE, AK, 99504",190803308,L,02,020,000703,1011,-149.72002,61.222384999999996
7220,8611 PECK AVE,Anchorage,AK,99504,"8611 PECK AVE, Anchorage, AK, 99504",Match,Exact,"8611 PECK AVE, ANCHORAGE, AK, 99504",190803308,L,02,020,000703,1011,-149.72002,61.222384999999996
7221,8611 PECK AVE,Anchorage,AK,99504,"8611 PECK AVE, Anchorage, AK, 99504",Match,Exact,"8611 PECK AVE, ANCHORAGE, AK, 99504",190803308,L,02,020,000703,1011,-149.72002,61.222384999999996
7222,8611 PECK AVE,Anchorage,AK,99504,"8611 PECK AVE, Anchorage, AK, 99504",Match,Exact,"8611 PECK AVE, ANCHORAGE, AK, 99504",190803308,L,02,020,000703,1011,-149.72002,61.222384999999996
7223,8611 PECK AVE,Anchorage,AK,99504,"8611 PECK AVE, Anchorage, AK, 99504",Match,Exact,"8611 PECK AVE, ANCHORAGE, AK, 99504",190803308,L,02,020,000703,1011,-149.72002,61.222384999999996
7224,8611 PECK AVE,Anchorage,AK,99504,"8611 PECK AVE, Anchorage, AK, 99504",Match,Exact,"8611 PECK AVE, ANCHORAGE, AK, 99504",190803308,L,02,020,000703,1011,-149.72002,61.222384999999996
7225,8611 PECK AVE,Anchorage,AK,99504,"8611 PECK AVE, Anchorage, AK, 99504",Match,Exact,"8611 PECK AVE, ANCHORAGE, AK, 99504",190803308,L,02,020,000703,1011,-149.72002,61.222384999999996
7226,174 FIREOVED DR,Anchorage,AK,99508,"174 FIREOVED DR, Anchorage, AK, 99508",Match,Exact,"174 FIREOVED DR, ANCHORAGE, AK, 99508",190801944,R,02,020,000801,3005,-149.78264,61.222694
7227,8621 PECK AVE,Anchorage,AK,99504,"8621 PECK AVE, Anchorage, AK, 99504",Match,Exact,"8621 PECK AVE, ANCHORAGE, AK, 99504",190803308,L,02,020,000703,1011,-149.71973,61.222384999999996
7228,8621 PECK AVE,Anchorage,AK,99504,"8621 PECK AVE, Anchorage, AK, 99504",Match,Exact,"8621 PECK AVE, ANCHORAGE, AK, 99504",190803308,L,02,020,000703,1011,-149.71973,61.222384999999996
7229,8621 PECK AVE,Anchorage,AK,99504,"8621 PECK AVE, Anchorage, AK, 99504",Match,Exact,"8621 PECK AVE, ANCHORAGE, AK, 99504",190803308,L,02,020,000703,1011,-149.71973,61.222384999999996
7230,8621 PECK AVE,Anchorage,AK,99504,"8621 PECK AVE, Anchorage, AK, 99504",Match,Exact,"8621 PECK AVE, ANCHORAGE, AK, 99504",190803308,L,02,020,000703,1011,-149.71973,61.222384999999996
7231,8621 PECK AVE,Anchorage,AK,99504,"8621 PECK AVE, Anchorage, AK, 99504",Match,Exact,"8621 PECK AVE, ANCHORAGE, AK, 99504",190803308,L,02,020,000703,1011,-149.71973,61.222384999999996
7232,8621 PECK AVE,Anchorage,AK,99504,"8621 PECK AVE, Anchorage, AK, 99504",Match,Exact,"8621 PECK AVE, ANCHORAGE, AK, 99504",190803308,L,02,020,000703,1011,-149.71973,61.222384999999996
7233,8621 PECK AVE,Anchorage,AK,99504,"8621 PECK AVE, Anchorage, AK, 99504",Match,Exact,"8621 PECK AVE, ANCHORAGE, AK, 99504",190803308,L,02,020,000703,1011,-149.71973,61.222384999999996
7234,8621 PECK AVE,Anchorage,AK,99504,"8621 PECK AVE, Anchorage, AK, 99504",Match,Exact,"8621 PECK AVE, ANCHORAGE, AK, 99504",190803308,L,02,020,000703,1011,-149.71973,61.222384999999996
7235,8621 PECK AVE,Anchorage,AK,99504,"8621 PECK AVE, Anchorage, AK, 99504",Match,Exact,"8621 PECK AVE, ANCHORAGE, AK, 99504",190803308,L,02,020,000703,1011,-149.71973,61.222384999999996
7236,6831 DICKERSON DR,Anchorage,AK,99504,"6831 DICKERSON DR, Anchorage, AK, 99504",Match,Exact,"6831 DICKERSON DR, ANCHORAGE, AK, 99504",190802757,L,02,020,000702,3002,-149.75366,61.22186
7237,227 NEWELL ST,Anchorage,AK,99504,"227 NEWELL ST, Anchorage, AK, 99504",Match,Exact,"227 NEWELL ST, ANCHORAGE, AK, 99504",605167293,R,02,020,000701,1000,-149.77095,61.222637
7238,227 NEWELL ST,Anchorage,AK,99504,"227 NEWELL ST, Anchorage, AK, 99504",Match,Exact,"227 NEWELL ST, ANCHORAGE, AK, 99504",605167293,R,02,020,000701,1000,-149.77095,61.222637
7239,240 FIREOVED DR,Anchorage,AK,99508,"240 FIREOVED DR, Anchorage, AK, 99508",Match,Exact,"240 FIREOVED DR, ANCHORAGE, AK, 99508",643733471,R,02,020,000801,3009,-149.78291000000002,61.221880000000006
7240,240 FIREOVED DR,Anchorage,AK,99508,"240 FIREOVED DR, Anchorage, AK, 99508",Match,Exact,"240 FIREOVED DR, ANCHORAGE, AK, 99508",643733471,R,02,020,000801,3009,-149.78291000000002,61.221880000000006
7241,240 FIREOVED DR,Anchorage,AK,99508,"240 FIREOVED DR, Anchorage, AK, 99508",Match,Exact,"240 FIREOVED DR, ANCHORAGE, AK, 99508",643733471,R,02,020,000801,3009,-149.78291000000002,61.221880000000006
7242,240 FIREOVED DR,Anchorage,AK,99508,"240 FIREOVED DR, Anchorage, AK, 99508",Match,Exact,"240 FIREOVED DR, ANCHORAGE, AK, 99508",643733471,R,02,020,000801,3009,-149.78291000000002,61.221880000000006
7243,240 FIREOVED DR,Anchorage,AK,99508,"240 FIREOVED DR, Anchorage, AK, 99508",Match,Exact,"240 FIREOVED DR, ANCHORAGE, AK, 99508",643733471,R,02,020,000801,3009,-149.78291000000002,61.221880000000006
7244,240 FIREOVED DR,Anchorage,AK,99508,"240 FIREOVED DR, Anchorage, AK, 99508",Match,Exact,"240 FIREOVED DR, ANCHORAGE, AK, 99508",643733471,R,02,020,000801,3009,-149.78291000000002,61.221880000000006
7245,221 CREEKSIDE ST,Anchorage,AK,99504,"221 CREEKSIDE ST, Anchorage, AK, 99504",Match,Exact,"221 CREEKSIDE ST, ANCHORAGE, AK, 99504",190816630,R,02,020,000702,2001,-149.741,61.221233
7246,221 CREEKSIDE ST,Anchorage,AK,99504,"221 CREEKSIDE ST, Anchorage, AK, 99504",Match,Exact,"221 CREEKSIDE ST, ANCHORAGE, AK, 99504",190816630,R,02,020,000702,2001,-149.741,61.221233
7247,227 NEWELL ST,Anchorage,AK,99504,"227 NEWELL ST, Anchorage, AK, 99504",Match,Exact,"227 NEWELL ST, ANCHORAGE, AK, 99504",605167293,R,02,020,000701,1000,-149.77095,61.222637
7248,227 NEWELL ST,Anchorage,AK,99504,"227 NEWELL ST, Anchorage, AK, 99504",Match,Exact,"227 NEWELL ST, ANCHORAGE, AK, 99504",605167293,R,02,020,000701,1000,-149.77095,61.222637
7249,227 NEWELL ST,Anchorage,AK,99504,"227 NEWELL ST, Anchorage, AK, 99504",Match,Exact,"227 NEWELL ST, ANCHORAGE, AK, 99504",605167293,R,02,020,000701,1000,-149.77095,61.222637
7250,227 NEWELL ST,Anchorage,AK,99504,"227 NEWELL ST, Anchorage, AK, 99504",Match,Exact,"227 NEWELL ST, ANCHORAGE, AK, 99504",605167293,R,02,020,000701,1000,-149.77095,61.222637
7251,227 NEWELL ST,Anchorage,AK,99504,"227 NEWELL ST, Anchorage, AK, 99504",Match,Exact,"227 NEWELL ST, ANCHORAGE, AK, 99504",605167293,R,02,020,000701,1000,-149.77095,61.222637
7252,227 NEWELL ST,Anchorage,AK,99504,"227 NEWELL ST, Anchorage, AK, 99504",Match,Exact,"227 NEWELL ST, ANCHORAGE, AK, 99504",605167293,R,02,020,000701,1000,-149.77095,61.222637
7253,8125 DUBEN AVE,Anchorage,AK,99504,"8125 DUBEN AVE, Anchorage, AK, 99504",Match,Exact,"8125 DUBEN AVE, ANCHORAGE, AK, 99504",190803250,L,02,020,000703,2003,-149.72925,61.220615
7254,8115 DUBEN AVE,Anchorage,AK,99504,"8115 DUBEN AVE, Anchorage, AK, 99504",Match,Exact,"8115 DUBEN AVE, ANCHORAGE, AK, 99504",190803250,L,02,020,000703,2003,-149.7294,61.220615
7255,8113 DUBEN AVE,Anchorage,AK,99504,"8113 DUBEN AVE, Anchorage, AK, 99504",Match,Exact,"8113 DUBEN AVE, ANCHORAGE, AK, 99504",190803250,L,02,020,000703,2003,-149.72943,61.220615
7256,8101 DUBEN AVE,Anchorage,AK,99504,"8101 DUBEN AVE, Anchorage, AK, 99504",Match,Exact,"8101 DUBEN AVE, ANCHORAGE, AK, 99504",190803250,L,02,020,000703,2003,-149.72963000000001,61.220615
7257,307 STEWART ST,Anchorage,AK,99508,"307 STEWART ST, Anchorage, AK, 99508",Match,Exact,"307 STEWART ST, ANCHORAGE, AK, 99508",190801748,L,02,020,000801,2009,-149.78789,61.22136
7258,6910 DICKERSON DR,Anchorage,AK,99504,"6910 DICKERSON DR, Anchorage, AK, 99504",Match,Exact,"6910 DICKERSON DR, ANCHORAGE, AK, 99504",190802810,R,02,020,000702,3004,-149.75249,61.220837
7259,8047 DUBEN AVE,Anchorage,AK,99504,"8047 DUBEN AVE, Anchorage, AK, 99504",Match,Exact,"8047 DUBEN AVE, ANCHORAGE, AK, 99504",190803249,L,02,020,000703,2002,-149.73058999999998,61.22061
7260,306 STEWART ST,Anchorage,AK,99508,"306 STEWART ST, Anchorage, AK, 99508",Match,Exact,"306 STEWART ST, ANCHORAGE, AK, 99508",190801748,R,02,020,000801,2008,-149.7879,61.22136
7261,8001 DUBEN AVE,Anchorage,AK,99504,"8001 DUBEN AVE, Anchorage, AK, 99504",Match,Exact,"8001 DUBEN AVE, ANCHORAGE, AK, 99504",190803249,L,02,020,000703,2002,-149.7312,61.22061
7262,8001 DUBEN AVE,Anchorage,AK,99504,"8001 DUBEN AVE, Anchorage, AK, 99504",Match,Exact,"8001 DUBEN AVE, ANCHORAGE, AK, 99504",190803249,L,02,020,000703,2002,-149.7312,61.22061
7263,8001 DUBEN AVE,Anchorage,AK,99504,"8001 DUBEN AVE, Anchorage, AK, 99504",Match,Exact,"8001 DUBEN AVE, ANCHORAGE, AK, 99504",190803249,L,02,020,000703,2002,-149.7312,61.22061
7264,8001 DUBEN AVE,Anchorage,AK,99504,"8001 DUBEN AVE, Anchorage, AK, 99504",Match,Exact,"8001 DUBEN AVE, ANCHORAGE, AK, 99504",190803249,L,02,020,000703,2002,-149.7312,61.22061
7265,8001 DUBEN AVE,Anchorage,AK,99504,"8001 DUBEN AVE, Anchorage, AK, 99504",Match,Exact,"8001 DUBEN AVE, ANCHORAGE, AK, 99504",190803249,L,02,020,000703,2002,-149.7312,61.22061
7266,8001 DUBEN AVE,Anchorage,AK,99504,"8001 DUBEN AVE, Anchorage, AK, 99504",Match,Exact,"8001 DUBEN AVE, ANCHORAGE, AK, 99504",190803249,L,02,020,000703,2002,-149.7312,61.22061
7267,8001 DUBEN AVE,Anchorage,AK,99504,"8001 DUBEN AVE, Anchorage, AK, 99504",Match,Exact,"8001 DUBEN AVE, ANCHORAGE, AK, 99504",190803249,L,02,020,000703,2002,-149.7312,61.22061
7268,8001 DUBEN AVE,Anchorage,AK,99504,"8001 DUBEN AVE, Anchorage, AK, 99504",Match,Exact,"8001 DUBEN AVE, ANCHORAGE, AK, 99504",190803249,L,02,020,000703,2002,-149.7312,61.22061
7269,8001 DUBEN AVE,Anchorage,AK,99504,"8001 DUBEN AVE, Anchorage, AK, 99504",Match,Exact,"8001 DUBEN AVE, ANCHORAGE, AK, 99504",190803249,L,02,020,000703,2002,-149.7312,61.22061
7270,8001 DUBEN AVE,Anchorage,AK,99504,"8001 DUBEN AVE, Anchorage, AK, 99504",Match,Exact,"8001 DUBEN AVE, ANCHORAGE, AK, 99504",190803249,L,02,020,000703,2002,-149.7312,61.22061
7271,8001 DUBEN AVE,Anchorage,AK,99504,"8001 DUBEN AVE, Anchorage, AK, 99504",Match,Exact,"8001 DUBEN AVE, ANCHORAGE, AK, 99504",190803249,L,02,020,000703,2002,-149.7312,61.22061
7272,8001 DUBEN AVE,Anchorage,AK,99504,"8001 DUBEN AVE, Anchorage, AK, 99504",Match,Exact,"8001 DUBEN AVE, ANCHORAGE, AK, 99504",190803249,L,02,020,000703,2002,-149.7312,61.22061
7273,8001 DUBEN AVE,Anchorage,AK,99504,"8001 DUBEN AVE, Anchorage, AK, 99504",Match,Exact,"8001 DUBEN AVE, ANCHORAGE, AK, 99504",190803249,L,02,020,000703,2002,-149.7312,61.22061
7274,8001 DUBEN AVE,Anchorage,AK,99504,"8001 DUBEN AVE, Anchorage, AK, 99504",Match,Exact,"8001 DUBEN AVE, ANCHORAGE, AK, 99504",190803249,L,02,020,000703,2002,-149.7312,61.22061
7275,8001 DUBEN AVE,Anchorage,AK,99504,"8001 DUBEN AVE, Anchorage, AK, 99504",Match,Exact,"8001 DUBEN AVE, ANCHORAGE, AK, 99504",190803249,L,02,020,000703,2002,-149.7312,61.22061
7276,8001 DUBEN AVE,Anchorage,AK,99504,"8001 DUBEN AVE, Anchorage, AK, 99504",Match,Exact,"8001 DUBEN AVE, ANCHORAGE, AK, 99504",190803249,L,02,020,000703,2002,-149.7312,61.22061
7277,8001 DUBEN AVE,Anchorage,AK,99504,"8001 DUBEN AVE, Anchorage, AK, 99504",Match,Exact,"8001 DUBEN AVE, ANCHORAGE, AK, 99504",190803249,L,02,020,000703,2002,-149.7312,61.22061
7278,8001 DUBEN AVE,Anchorage,AK,99504,"8001 DUBEN AVE, Anchorage, AK, 99504",Match,Exact,"8001 DUBEN AVE, ANCHORAGE, AK, 99504",190803249,L,02,020,000703,2002,-149.7312,61.22061
7279,7711 DUBEN AVE,Anchorage,AK,99504,"7711 DUBEN AVE, Anchorage, AK, 99504",Match,Exact,"7711 DUBEN AVE, ANCHORAGE, AK, 99504",190816132,L,02,020,000702,2000,-149.73662,61.220566000000005
7280,7711 DUBEN AVE,Anchorage,AK,99504,"7711 DUBEN AVE, Anchorage, AK, 99504",Match,Exact,"7711 DUBEN AVE, ANCHORAGE, AK, 99504",190816132,L,02,020,000702,2000,-149.73662,61.220566000000005
7281,7703 DUBEN AVE,Anchorage,AK,99504,"7703 DUBEN AVE, Anchorage, AK, 99504",Match,Exact,"7703 DUBEN AVE, ANCHORAGE, AK, 99504",190816132,L,02,020,000702,2000,-149.73698000000002,61.220566000000005
7282,7707 DUBEN AVE,Anchorage,AK,99504,"7707 DUBEN AVE, Anchorage, AK, 99504",Match,Exact,"7707 DUBEN AVE, ANCHORAGE, AK, 99504",190816132,L,02,020,000702,2000,-149.7368,61.220566000000005
7283,7743 DUBEN AVE,Anchorage,AK,99504,"7743 DUBEN AVE, Anchorage, AK, 99504",Match,Exact,"7743 DUBEN AVE, ANCHORAGE, AK, 99504",190803212,L,02,020,000702,2000,-149.73568999999998,61.220562
7284,160 OKLAHOMA ST,Anchorage,AK,99504,"160 OKLAHOMA ST, Anchorage, AK, 99504",Match,Exact,"160 OKLAHOMA ST, ANCHORAGE, AK, 99504",190802853,R,02,020,000702,1005,-149.74478,61.222919999999995
7285,160 OKLAHOMA ST,Anchorage,AK,99504,"160 OKLAHOMA ST, Anchorage, AK, 99504",Match,Exact,"160 OKLAHOMA ST, ANCHORAGE, AK, 99504",190802853,R,02,020,000702,1005,-149.74478,61.222919999999995
7286,160 OKLAHOMA ST,Anchorage,AK,99504,"160 OKLAHOMA ST, Anchorage, AK, 99504",Match,Exact,"160 OKLAHOMA ST, ANCHORAGE, AK, 99504",190802853,R,02,020,000702,1005,-149.74478,61.222919999999995
7287,160 OKLAHOMA ST,Anchorage,AK,99504,"160 OKLAHOMA ST, Anchorage, AK, 99504",Match,Exact,"160 OKLAHOMA ST, ANCHORAGE, AK, 99504",190802853,R,02,020,000702,1005,-149.74478,61.222919999999995
7288,7505 BOUNDARY AVE,Anchorage,AK,99504,"7505 BOUNDARY AVE, Anchorage, AK, 99504",Match,Exact,"7505 BOUNDARY AVE, ANCHORAGE, AK, 99504",605167228,L,02,020,000702,1001,-149.74295,61.224180000000004
7289,7505 BOUNDARY AVE,Anchorage,AK,99504,"7505 BOUNDARY AVE, Anchorage, AK, 99504",Match,Exact,"7505 BOUNDARY AVE, ANCHORAGE, AK, 99504",605167228,L,02,020,000702,1001,-149.74295,61.224180000000004
7290,7505 BOUNDARY AVE,Anchorage,AK,99504,"7505 BOUNDARY AVE, Anchorage, AK, 99504",Match,Exact,"7505 BOUNDARY AVE, ANCHORAGE, AK, 99504",605167228,L,02,020,000702,1001,-149.74295,61.224180000000004
7291,7505 BOUNDARY AVE,Anchorage,AK,99504,"7505 BOUNDARY AVE, Anchorage, AK, 99504",Match,Exact,"7505 BOUNDARY AVE, ANCHORAGE, AK, 99504",605167228,L,02,020,000702,1001,-149.74295,61.224180000000004
7292,7505 BOUNDARY AVE,Anchorage,AK,99504,"7505 BOUNDARY AVE, Anchorage, AK, 99504",Match,Exact,"7505 BOUNDARY AVE, ANCHORAGE, AK, 99504",605167228,L,02,020,000702,1001,-149.74295,61.224180000000004
7293,7505 BOUNDARY AVE,Anchorage,AK,99504,"7505 BOUNDARY AVE, Anchorage, AK, 99504",Match,Exact,"7505 BOUNDARY AVE, ANCHORAGE, AK, 99504",605167228,L,02,020,000702,1001,-149.74295,61.224180000000004
7294,7505 BOUNDARY AVE,Anchorage,AK,99504,"7505 BOUNDARY AVE, Anchorage, AK, 99504",Match,Exact,"7505 BOUNDARY AVE, ANCHORAGE, AK, 99504",605167228,L,02,020,000702,1001,-149.74295,61.224180000000004
7295,7505 BOUNDARY AVE,Anchorage,AK,99504,"7505 BOUNDARY AVE, Anchorage, AK, 99504",Match,Exact,"7505 BOUNDARY AVE, ANCHORAGE, AK, 99504",605167228,L,02,020,000702,1001,-149.74295,61.224180000000004
7296,7505 BOUNDARY AVE,Anchorage,AK,99504,"7505 BOUNDARY AVE, Anchorage, AK, 99504",Match,Exact,"7505 BOUNDARY AVE, ANCHORAGE, AK, 99504",605167228,L,02,020,000702,1001,-149.74295,61.224180000000004
7297,7505 BOUNDARY AVE,Anchorage,AK,99504,"7505 BOUNDARY AVE, Anchorage, AK, 99504",Match,Exact,"7505 BOUNDARY AVE, ANCHORAGE, AK, 99504",605167228,L,02,020,000702,1001,-149.74295,61.224180000000004
7298,7505 BOUNDARY AVE,Anchorage,AK,99504,"7505 BOUNDARY AVE, Anchorage, AK, 99504",Match,Exact,"7505 BOUNDARY AVE, ANCHORAGE, AK, 99504",605167228,L,02,020,000702,1001,-149.74295,61.224180000000004
7299,7505 BOUNDARY AVE,Anchorage,AK,99504,"7505 BOUNDARY AVE, Anchorage, AK, 99504",Match,Exact,"7505 BOUNDARY AVE, ANCHORAGE, AK, 99504",605167228,L,02,020,000702,1001,-149.74295,61.224180000000004
7300,7505 BOUNDARY AVE,Anchorage,AK,99504,"7505 BOUNDARY AVE, Anchorage, AK, 99504",Match,Exact,"7505 BOUNDARY AVE, ANCHORAGE, AK, 99504",605167228,L,02,020,000702,1001,-149.74295,61.224180000000004
7301,7505 BOUNDARY AVE,Anchorage,AK,99504,"7505 BOUNDARY AVE, Anchorage, AK, 99504",Match,Exact,"7505 BOUNDARY AVE, ANCHORAGE, AK, 99504",605167228,L,02,020,000702,1001,-149.74295,61.224180000000004
7302,7505 BOUNDARY AVE,Anchorage,AK,99504,"7505 BOUNDARY AVE, Anchorage, AK, 99504",Match,Exact,"7505 BOUNDARY AVE, ANCHORAGE, AK, 99504",605167228,L,02,020,000702,1001,-149.74295,61.224180000000004
7303,7505 BOUNDARY AVE,Anchorage,AK,99504,"7505 BOUNDARY AVE, Anchorage, AK, 99504",Match,Exact,"7505 BOUNDARY AVE, ANCHORAGE, AK, 99504",605167228,L,02,020,000702,1001,-149.74295,61.224180000000004
7304,7505 BOUNDARY AVE,Anchorage,AK,99504,"7505 BOUNDARY AVE, Anchorage, AK, 99504",Match,Exact,"7505 BOUNDARY AVE, ANCHORAGE, AK, 99504",605167228,L,02,020,000702,1001,-149.74295,61.224180000000004
7305,7505 BOUNDARY AVE,Anchorage,AK,99504,"7505 BOUNDARY AVE, Anchorage, AK, 99504",Match,Exact,"7505 BOUNDARY AVE, ANCHORAGE, AK, 99504",605167228,L,02,020,000702,1001,-149.74295,61.224180000000004
7306,7505 BOUNDARY AVE,Anchorage,AK,99504,"7505 BOUNDARY AVE, Anchorage, AK, 99504",Match,Exact,"7505 BOUNDARY AVE, ANCHORAGE, AK, 99504",605167228,L,02,020,000702,1001,-149.74295,61.224180000000004
7307,7505 BOUNDARY AVE,Anchorage,AK,99504,"7505 BOUNDARY AVE, Anchorage, AK, 99504",Match,Exact,"7505 BOUNDARY AVE, ANCHORAGE, AK, 99504",605167228,L,02,020,000702,1001,-149.74295,61.224180000000004
7308,7505 BOUNDARY AVE,Anchorage,AK,99504,"7505 BOUNDARY AVE, Anchorage, AK, 99504",Match,Exact,"7505 BOUNDARY AVE, ANCHORAGE, AK, 99504",605167228,L,02,020,000702,1001,-149.74295,61.224180000000004
7309,7505 BOUNDARY AVE,Anchorage,AK,99504,"7505 BOUNDARY AVE, Anchorage, AK, 99504",Match,Exact,"7505 BOUNDARY AVE, ANCHORAGE, AK, 99504",605167228,L,02,020,000702,1001,-149.74295,61.224180000000004
7310,7505 BOUNDARY AVE,Anchorage,AK,99504,"7505 BOUNDARY AVE, Anchorage, AK, 99504",Match,Exact,"7505 BOUNDARY AVE, ANCHORAGE, AK, 99504",605167228,L,02,020,000702,1001,-149.74295,61.224180000000004
7311,7505 BOUNDARY AVE,Anchorage,AK,99504,"7505 BOUNDARY AVE, Anchorage, AK, 99504",Match,Exact,"7505 BOUNDARY AVE, ANCHORAGE, AK, 99504",605167228,L,02,020,000702,1001,-149.74295,61.224180000000004
7312,7505 BOUNDARY AVE,Anchorage,AK,99504,"7505 BOUNDARY AVE, Anchorage, AK, 99504",Match,Exact,"7505 BOUNDARY AVE, ANCHORAGE, AK, 99504",605167228,L,02,020,000702,1001,-149.74295,61.224180000000004
7313,100 BUNNELL ST,Anchorage,AK,99508,"100 BUNNELL ST, Anchorage, AK, 99508",Match,Exact,"100 BUNNELL ST, ANCHORAGE, AK, 99508",190801680,R,02,020,000801,2000,-149.78975,61.224037
7314,100 BUNNELL ST,Anchorage,AK,99508,"100 BUNNELL ST, Anchorage, AK, 99508",Match,Exact,"100 BUNNELL ST, ANCHORAGE, AK, 99508",190801680,R,02,020,000801,2000,-149.78975,61.224037
7315,100 BUNNELL ST,Anchorage,AK,99508,"100 BUNNELL ST, Anchorage, AK, 99508",Match,Exact,"100 BUNNELL ST, ANCHORAGE, AK, 99508",190801680,R,02,020,000801,2000,-149.78975,61.224037
7316,106 RUSTY ALLEN PL,Anchorage,AK,99504,"106 RUSTY ALLEN PL, Anchorage, AK, 99504",Match,Exact,"106 RUSTY ALLEN PL, ANCHORAGE, AK, 99504",605185494,R,02,020,000701,1000,-149.7607,61.223442000000006
7317,104 RUSTY ALLEN PL,Anchorage,AK,99504,"104 RUSTY ALLEN PL, Anchorage, AK, 99504",Match,Exact,"104 RUSTY ALLEN PL, ANCHORAGE, AK, 99504",605185494,R,02,020,000701,1000,-149.7607,61.223459999999996
7318,110 JELINEK PL,Anchorage,AK,99504,"110 JELINEK PL, Anchorage, AK, 99504",Match,Exact,"110 JELINEK PL, ANCHORAGE, AK, 99504",190803206,R,02,020,000703,2000,-149.72508,61.22385
7319,109 DEAN PL,Anchorage,AK,99504,"109 DEAN PL, Anchorage, AK, 99504",Match,Exact,"109 DEAN PL, ANCHORAGE, AK, 99504",190802859,L,02,020,000702,2000,-149.74008,61.223484
7320,108 DEAN PL,Anchorage,AK,99504,"108 DEAN PL, Anchorage, AK, 99504",Match,Exact,"108 DEAN PL, ANCHORAGE, AK, 99504",190802859,R,02,020,000702,2000,-149.7401,61.223484
7321,4950 TAKU DR,Anchorage,AK,99508,"4950 TAKU DR, Anchorage, AK, 99508",Match,Exact,"4950 TAKU DR, ANCHORAGE, AK, 99508",190801682,R,02,020,000801,2001,-149.7888,61.224163
7322,5800 BOUNDARY AVE,Anchorage,AK,99504,"5800 BOUNDARY AVE, Anchorage, AK, 99504",Match,Exact,"5800 BOUNDARY AVE, ANCHORAGE, AK, 99504",614864902,R,02,020,000701,1000,-149.7759,61.224155
7323,5800 BOUNDARY AVE,Anchorage,AK,99504,"5800 BOUNDARY AVE, Anchorage, AK, 99504",Match,Exact,"5800 BOUNDARY AVE, ANCHORAGE, AK, 99504",614864902,R,02,020,000701,1000,-149.7759,61.224155
7324,5800 BOUNDARY AVE,Anchorage,AK,99504,"5800 BOUNDARY AVE, Anchorage, AK, 99504",Match,Exact,"5800 BOUNDARY AVE, ANCHORAGE, AK, 99504",614864902,R,02,020,000701,1000,-149.7759,61.224155
7325,5800 BOUNDARY AVE,Anchorage,AK,99504,"5800 BOUNDARY AVE, Anchorage, AK, 99504",Match,Exact,"5800 BOUNDARY AVE, ANCHORAGE, AK, 99504",614864902,R,02,020,000701,1000,-149.7759,61.224155
7326,5800 BOUNDARY AVE,Anchorage,AK,99504,"5800 BOUNDARY AVE, Anchorage, AK, 99504",Match,Exact,"5800 BOUNDARY AVE, ANCHORAGE, AK, 99504",614864902,R,02,020,000701,1000,-149.7759,61.224155
7327,5800 BOUNDARY AVE,Anchorage,AK,99504,"5800 BOUNDARY AVE, Anchorage, AK, 99504",Match,Exact,"5800 BOUNDARY AVE, ANCHORAGE, AK, 99504",614864902,R,02,020,000701,1000,-149.7759,61.224155
7328,5800 BOUNDARY AVE,Anchorage,AK,99504,"5800 BOUNDARY AVE, Anchorage, AK, 99504",Match,Exact,"5800 BOUNDARY AVE, ANCHORAGE, AK, 99504",614864902,R,02,020,000701,1000,-149.7759,61.224155
7329,5800 BOUNDARY AVE,Anchorage,AK,99504,"5800 BOUNDARY AVE, Anchorage, AK, 99504",Match,Exact,"5800 BOUNDARY AVE, ANCHORAGE, AK, 99504",614864902,R,02,020,000701,1000,-149.7759,61.224155
7330,5800 BOUNDARY AVE,Anchorage,AK,99504,"5800 BOUNDARY AVE, Anchorage, AK, 99504",Match,Exact,"5800 BOUNDARY AVE, ANCHORAGE, AK, 99504",614864902,R,02,020,000701,1000,-149.7759,61.224155
7331,5800 BOUNDARY AVE,Anchorage,AK,99504,"5800 BOUNDARY AVE, Anchorage, AK, 99504",Match,Exact,"5800 BOUNDARY AVE, ANCHORAGE, AK, 99504",614864902,R,02,020,000701,1000,-149.7759,61.224155
7332,5800 BOUNDARY AVE,Anchorage,AK,99504,"5800 BOUNDARY AVE, Anchorage, AK, 99504",Match,Exact,"5800 BOUNDARY AVE, ANCHORAGE, AK, 99504",614864902,R,02,020,000701,1000,-149.7759,61.224155
7333,5800 BOUNDARY AVE,Anchorage,AK,99504,"5800 BOUNDARY AVE, Anchorage, AK, 99504",Match,Exact,"5800 BOUNDARY AVE, ANCHORAGE, AK, 99504",614864902,R,02,020,000701,1000,-149.7759,61.224155
7334,5800 BOUNDARY AVE,Anchorage,AK,99504,"5800 BOUNDARY AVE, Anchorage, AK, 99504",Match,Exact,"5800 BOUNDARY AVE, ANCHORAGE, AK, 99504",614864902,R,02,020,000701,1000,-149.7759,61.224155
7335,5800 BOUNDARY AVE,Anchorage,AK,99504,"5800 BOUNDARY AVE, Anchorage, AK, 99504",Match,Exact,"5800 BOUNDARY AVE, ANCHORAGE, AK, 99504",614864902,R,02,020,000701,1000,-149.7759,61.224155
7336,5800 BOUNDARY AVE,Anchorage,AK,99504,"5800 BOUNDARY AVE, Anchorage, AK, 99504",Match,Exact,"5800 BOUNDARY AVE, ANCHORAGE, AK, 99504",614864902,R,02,020,000701,1000,-149.7759,61.224155
7337,5800 BOUNDARY AVE,Anchorage,AK,99504,"5800 BOUNDARY AVE, Anchorage, AK, 99504",Match,Exact,"5800 BOUNDARY AVE, ANCHORAGE, AK, 99504",614864902,R,02,020,000701,1000,-149.7759,61.224155
7338,5800 BOUNDARY AVE,Anchorage,AK,99504,"5800 BOUNDARY AVE, Anchorage, AK, 99504",Match,Exact,"5800 BOUNDARY AVE, ANCHORAGE, AK, 99504",614864902,R,02,020,000701,1000,-149.7759,61.224155
7339,5800 BOUNDARY AVE,Anchorage,AK,99504,"5800 BOUNDARY AVE, Anchorage, AK, 99504",Match,Exact,"5800 BOUNDARY AVE, ANCHORAGE, AK, 99504",614864902,R,02,020,000701,1000,-149.7759,61.224155
7340,5800 BOUNDARY AVE,Anchorage,AK,99504,"5800 BOUNDARY AVE, Anchorage, AK, 99504",Match,Exact,"5800 BOUNDARY AVE, ANCHORAGE, AK, 99504",614864902,R,02,020,000701,1000,-149.7759,61.224155
7341,5800 BOUNDARY AVE,Anchorage,AK,99504,"5800 BOUNDARY AVE, Anchorage, AK, 99504",Match,Exact,"5800 BOUNDARY AVE, ANCHORAGE, AK, 99504",614864902,R,02,020,000701,1000,-149.7759,61.224155
7342,5800 BOUNDARY AVE,Anchorage,AK,99504,"5800 BOUNDARY AVE, Anchorage, AK, 99504",Match,Exact,"5800 BOUNDARY AVE, ANCHORAGE, AK, 99504",614864902,R,02,020,000701,1000,-149.7759,61.224155
7343,5800 BOUNDARY AVE,Anchorage,AK,99504,"5800 BOUNDARY AVE, Anchorage, AK, 99504",Match,Exact,"5800 BOUNDARY AVE, ANCHORAGE, AK, 99504",614864902,R,02,020,000701,1000,-149.7759,61.224155
7344,5800 BOUNDARY AVE,Anchorage,AK,99504,"5800 BOUNDARY AVE, Anchorage, AK, 99504",Match,Exact,"5800 BOUNDARY AVE, ANCHORAGE, AK, 99504",614864902,R,02,020,000701,1000,-149.7759,61.224155
7345,5800 BOUNDARY AVE,Anchorage,AK,99504,"5800 BOUNDARY AVE, Anchorage, AK, 99504",Match,Exact,"5800 BOUNDARY AVE, ANCHORAGE, AK, 99504",614864902,R,02,020,000701,1000,-149.7759,61.224155
7346,18550 JUDE ISLAND CIR,Anchorage,AK,99577,"18550 JUDE ISLAND CIR, Anchorage, AK, 99577",Match,Non_Exact,"18550 JUDE ISLAND CIR, EAGLE RIVER, AK, 99577",190805567,L,02,020,000203,3014,-149.53693,61.301453
7347,8949 MEADOW PARK CIR,Anchorage,AK,99577,"8949 MEADOW PARK CIR, Anchorage, AK, 99577",Match,Non_Exact,"8949 MEADOW PARK CIR, EAGLE RIVER, AK, 99577",605288530,R,02,020,000203,3022,-149.51035,61.300883999999996
7348,8946 MEADOW PARK CIR,Anchorage,AK,99577,"8946 MEADOW PARK CIR, Anchorage, AK, 99577",Match,Non_Exact,"8946 MEADOW PARK CIR, EAGLE RIVER, AK, 99577",605288530,L,02,020,000203,3022,-149.51036000000002,61.300903000000005
7349,8925 EAGLE PLACE LOOP,Anchorage,AK,99577,"8925 EAGLE PLACE LOOP, Anchorage, AK, 99577",No_Match,,,,,,,,,,
7350,18566 JUDE ISLAND CIR,Anchorage,AK,99577,"18566 JUDE ISLAND CIR, Anchorage, AK, 99577",Match,Non_Exact,"18566 JUDE ISLAND CIR, EAGLE RIVER, AK, 99577",190805567,L,02,020,000203,3014,-149.53677,61.30145600000001
7351,8962 W PARKVIEW TERRACE LOOP,Anchorage,AK,99577,"8962 W PARKVIEW TERRACE LOOP, Anchorage, AK, 99577",Match,Non_Exact,"8962 W PARKVIEW TER LP, EAGLE RIVER, AK, 99577",190805555,L,02,020,000203,5000,-149.54176,61.302227
7352,19431 HIGHLAND RIDGE DR,Anchorage,AK,99577,"19431 HIGHLAND RIDGE DR, Anchorage, AK, 99577",Match,Non_Exact,"19431 HIGHLAND RIDGE DR, EAGLE RIVER, AK, 99577",190819652,L,02,020,000203,3015,-149.51921000000002,61.301269999999995
7353,227 NEWELL ST,Anchorage,AK,99504,"227 NEWELL ST, Anchorage, AK, 99504",Match,Exact,"227 NEWELL ST, ANCHORAGE, AK, 99504",605167293,R,02,020,000701,1000,-149.77095,61.222637
7354,227 NEWELL ST,Anchorage,AK,99504,"227 NEWELL ST, Anchorage, AK, 99504",Match,Exact,"227 NEWELL ST, ANCHORAGE, AK, 99504",605167293,R,02,020,000701,1000,-149.77095,61.222637
7355,227 NEWELL ST,Anchorage,AK,99504,"227 NEWELL ST, Anchorage, AK, 99504",Match,Exact,"227 NEWELL ST, ANCHORAGE, AK, 99504",605167293,R,02,020,000701,1000,-149.77095,61.222637
7356,228 ALASKA PL,Anchorage,AK,99504,"228 ALASKA PL, Anchorage, AK, 99504",Match,Exact,"228 ALASKA PL, ANCHORAGE, AK, 99504",190810872,R,02,020,000702,2007,-149.74663999999999,61.221786
7357,230 MULDOON RD,Anchorage,AK,99504,"230 MULDOON RD, Anchorage, AK, 99504",Match,Exact,"230 MULDOON RD, ANCHORAGE, AK, 99504",190803191,R,02,020,000702,2000,-149.73352,61.221759999999996
7358,227 NEWELL ST,Anchorage,AK,99504,"227 NEWELL ST, Anchorage, AK, 99504",Match,Exact,"227 NEWELL ST, ANCHORAGE, AK, 99504",605167293,R,02,020,000701,1000,-149.77095,61.222637
7359,332 FIREOVED DR,Anchorage,AK,99508,"332 FIREOVED DR, Anchorage, AK, 99508",Match,Exact,"332 FIREOVED DR, ANCHORAGE, AK, 99508",643733471,R,02,020,000801,3009,-149.7843,61.221367
7360,280 ZAPPA PL,Anchorage,AK,99504,"280 ZAPPA PL, Anchorage, AK, 99504",Match,Exact,"280 ZAPPA PL, ANCHORAGE, AK, 99504",190803204,R,02,020,000703,2003,-149.72601,61.221027
7361,270 FERN LN,Anchorage,AK,99504,"270 FERN LN, Anchorage, AK, 99504",Match,Exact,"270 FERN LN, ANCHORAGE, AK, 99504",190802801,R,02,020,000702,3005,-149.75429,61.22068
7362,305 STEWART ST,Anchorage,AK,99508,"305 STEWART ST, Anchorage, AK, 99508",Match,Exact,"305 STEWART ST, ANCHORAGE, AK, 99508",190801748,L,02,020,000801,2009,-149.78789,61.221382
7363,331 FIREOVED DR,Anchorage,AK,99508,"331 FIREOVED DR, Anchorage, AK, 99508",Match,Exact,"331 FIREOVED DR, ANCHORAGE, AK, 99508",643733471,L,02,020,000801,3008,-149.78427,61.221382
7364,304 DAVIS ST,Anchorage,AK,99508,"304 DAVIS ST, Anchorage, AK, 99508",Match,Exact,"304 DAVIS ST, ANCHORAGE, AK, 99508",190801967,R,02,020,000801,2010,-149.78609,61.221424
7365,275 TURPIN ST,Anchorage,AK,99504,"275 TURPIN ST, Anchorage, AK, 99504",Match,Exact,"275 TURPIN ST, ANCHORAGE, AK, 99504",190802739,L,02,020,000702,3005,-149.75597,61.220909999999996
7366,275 TURPIN ST,Anchorage,AK,99504,"275 TURPIN ST, Anchorage, AK, 99504",Match,Exact,"275 TURPIN ST, ANCHORAGE, AK, 99504",190802739,L,02,020,000702,3005,-149.75597,61.220909999999996
7367,275 TURPIN ST,Anchorage,AK,99504,"275 TURPIN ST, Anchorage, AK, 99504",Match,Exact,"275 TURPIN ST, ANCHORAGE, AK, 99504",190802739,L,02,020,000702,3005,-149.75597,61.220909999999996
7368,275 TURPIN ST,Anchorage,AK,99504,"275 TURPIN ST, Anchorage, AK, 99504",Match,Exact,"275 TURPIN ST, ANCHORAGE, AK, 99504",190802739,L,02,020,000702,3005,-149.75597,61.220909999999996
7369,271 SKYHAVEN CIR,Anchorage,AK,99504,"271 SKYHAVEN CIR, Anchorage, AK, 99504",Match,Exact,"271 SKYHAVEN CIR, ANCHORAGE, AK, 99504",190816627,R,02,020,000702,2001,-149.74284,61.22071999999999
7370,305 BUNNELL ST,Anchorage,AK,99508,"305 BUNNELL ST, Anchorage, AK, 99508",Match,Exact,"305 BUNNELL ST, ANCHORAGE, AK, 99508",624266934,L,02,020,000801,2008,-149.7897,61.220932
7371,8385 DUBEN AVE,Anchorage,AK,99504,"8385 DUBEN AVE, Anchorage, AK, 99504",Match,Exact,"8385 DUBEN AVE, ANCHORAGE, AK, 99504",605183644,L,02,020,000703,1013,-149.7241,61.22062
7372,333 DAVIS ST,Anchorage,AK,99508,"333 DAVIS ST, Anchorage, AK, 99508",Match,Exact,"333 DAVIS ST, ANCHORAGE, AK, 99508",190801967,L,02,020,000801,3009,-149.78607,61.221194999999994
7373,6800 ELMRICH CT,Anchorage,AK,99504,"6800 ELMRICH CT, Anchorage, AK, 99504",Match,Exact,"6800 ELMRICH CT, ANCHORAGE, AK, 99504",190802809,R,02,020,000702,3004,-149.75413999999998,61.220978
7374,6830 ELMRICH CT,Anchorage,AK,99504,"6830 ELMRICH CT, Anchorage, AK, 99504",Match,Exact,"6830 ELMRICH CT, ANCHORAGE, AK, 99504",190802809,R,02,020,000702,3004,-149.7537,61.220978
7375,285 MULDOON RD,Anchorage,AK,99504,"285 MULDOON RD, Anchorage, AK, 99504",Match,Exact,"285 MULDOON RD, ANCHORAGE, AK, 99504",190803191,L,02,020,000703,2002,-149.73349,61.220924
7376,272 CREEKSIDE ST,Anchorage,AK,99504,"272 CREEKSIDE ST, Anchorage, AK, 99504",Match,Exact,"272 CREEKSIDE ST, ANCHORAGE, AK, 99504",190816630,L,02,020,000702,2001,-149.74101000000002,61.220833
7377,304 STEWART ST,Anchorage,AK,99508,"304 STEWART ST, Anchorage, AK, 99508",Match,Exact,"304 STEWART ST, ANCHORAGE, AK, 99508",190801748,R,02,020,000801,2008,-149.7879,61.221382
7378,270 SKYHAVEN CIR,Anchorage,AK,99504,"270 SKYHAVEN CIR, Anchorage, AK, 99504",Match,Exact,"270 SKYHAVEN CIR, ANCHORAGE, AK, 99504",190816627,L,02,020,000702,2001,-149.74286999999998,61.22071999999999
7379,277 PATTERSON ST,Anchorage,AK,99504,"277 PATTERSON ST, Anchorage, AK, 99504",Match,Exact,"277 PATTERSON ST, ANCHORAGE, AK, 99504",190802866,L,02,020,000702,2007,-149.7485,61.220955000000004
7380,277 PATTERSON ST,Anchorage,AK,99504,"277 PATTERSON ST, Anchorage, AK, 99504",Match,Exact,"277 PATTERSON ST, ANCHORAGE, AK, 99504",190802866,L,02,020,000702,2007,-149.7485,61.220955000000004
7381,6608 WHISPERING LOOP,Anchorage,AK,99504,"6608 WHISPERING LOOP, Anchorage, AK, 99504",Match,Exact,"6608 WHISPERING LOOP, ANCHORAGE, AK, 99504",624788736,L,02,020,000701,1000,-149.75791999999998,61.22099
7382,6608 WHISPERING LOOP,Anchorage,AK,99504,"6608 WHISPERING LOOP, Anchorage, AK, 99504",Match,Exact,"6608 WHISPERING LOOP, ANCHORAGE, AK, 99504",624788736,L,02,020,000701,1000,-149.75791999999998,61.22099
7383,8419 DUBEN AVE,Anchorage,AK,99504,"8419 DUBEN AVE, Anchorage, AK, 99504",Match,Exact,"8419 DUBEN AVE, ANCHORAGE, AK, 99504",605183645,L,02,020,000703,1013,-149.72308,61.22062
7384,6412 WHISPERING LOOP,Anchorage,AK,99504,"6412 WHISPERING LOOP, Anchorage, AK, 99504",Match,Exact,"6412 WHISPERING LOOP, ANCHORAGE, AK, 99504",624788733,R,02,020,000701,1000,-149.76263,61.221104000000004
7385,6412 WHISPERING LOOP,Anchorage,AK,99504,"6412 WHISPERING LOOP, Anchorage, AK, 99504",Match,Exact,"6412 WHISPERING LOOP, ANCHORAGE, AK, 99504",624788733,R,02,020,000701,1000,-149.76263,61.221104000000004
7386,356 LIONHEART CT,Anchorage,AK,99508,"356 LIONHEART CT, Anchorage, AK, 99508",Match,Exact,"356 LIONHEART CT, ANCHORAGE, AK, 99508",190812092,L,02,020,000801,3008,-149.78261,61.221095999999996
7387,273 YELLOW LEAF CIR,Anchorage,AK,99504,"273 YELLOW LEAF CIR, Anchorage, AK, 99504",Match,Exact,"273 YELLOW LEAF CIR, ANCHORAGE, AK, 99504",190803334,L,02,020,000703,1013,-149.7194,61.220726
7388,160 OKLAHOMA ST,Anchorage,AK,99504,"160 OKLAHOMA ST, Anchorage, AK, 99504",Match,Exact,"160 OKLAHOMA ST, ANCHORAGE, AK, 99504",190802853,R,02,020,000702,1005,-149.74478,61.222919999999995
7389,160 OKLAHOMA ST,Anchorage,AK,99504,"160 OKLAHOMA ST, Anchorage, AK, 99504",Match,Exact,"160 OKLAHOMA ST, ANCHORAGE, AK, 99504",190802853,R,02,020,000702,1005,-149.74478,61.222919999999995
7390,159 BURTON ST,Anchorage,AK,99504,"159 BURTON ST, Anchorage, AK, 99504",Match,Exact,"159 BURTON ST, ANCHORAGE, AK, 99504",190802857,L,02,020,000702,2000,-149.74194,61.222747999999996
7391,159 BURTON ST,Anchorage,AK,99504,"159 BURTON ST, Anchorage, AK, 99504",Match,Exact,"159 BURTON ST, ANCHORAGE, AK, 99504",190802857,L,02,020,000702,2000,-149.74194,61.222747999999996
7392,159 BURTON ST,Anchorage,AK,99504,"159 BURTON ST, Anchorage, AK, 99504",Match,Exact,"159 BURTON ST, ANCHORAGE, AK, 99504",190802857,L,02,020,000702,2000,-149.74194,61.222747999999996
7393,159 BURTON ST,Anchorage,AK,99504,"159 BURTON ST, Anchorage, AK, 99504",Match,Exact,"159 BURTON ST, ANCHORAGE, AK, 99504",190802857,L,02,020,000702,2000,-149.74194,61.222747999999996
7394,166 MC CARREY ST,Anchorage,AK,99508,"166 MC CARREY ST, Anchorage, AK, 99508",Match,Exact,"166 MC CARREY ST, ANCHORAGE, AK, 99508",624266929,R,02,020,000801,1000,-149.7919,61.222595
7395,164 MC CARREY ST,Anchorage,AK,99508,"164 MC CARREY ST, Anchorage, AK, 99508",Match,Exact,"164 MC CARREY ST, ANCHORAGE, AK, 99508",624266929,R,02,020,000801,1000,-149.7919,61.222609999999996
7396,168 MC CARREY ST,Anchorage,AK,99508,"168 MC CARREY ST, Anchorage, AK, 99508",Match,Exact,"168 MC CARREY ST, ANCHORAGE, AK, 99508",624266929,R,02,020,000801,1000,-149.79192,61.22258000000001
7397,150 JELINEK PL,Anchorage,AK,99504,"150 JELINEK PL, Anchorage, AK, 99504",Match,Exact,"150 JELINEK PL, ANCHORAGE, AK, 99504",190803206,R,02,020,000703,2000,-149.72508,61.223243999999994
7398,150 MC CARREY ST,Anchorage,AK,99508,"150 MC CARREY ST, Anchorage, AK, 99508",Match,Exact,"150 MC CARREY ST, ANCHORAGE, AK, 99508",605167268,R,02,020,000801,1000,-149.79181,61.222923
7399,152 MC CARREY ST,Anchorage,AK,99508,"152 MC CARREY ST, Anchorage, AK, 99508",Match,Exact,"152 MC CARREY ST, ANCHORAGE, AK, 99508",605167268,R,02,020,000801,1000,-149.79181,61.222908
7400,156 MC CARREY ST,Anchorage,AK,99508,"156 MC CARREY ST, Anchorage, AK, 99508",Match,Exact,"156 MC CARREY ST, ANCHORAGE, AK, 99508",605167268,R,02,020,000801,1000,-149.79181,61.22288
7401,158 MC CARREY ST,Anchorage,AK,99508,"158 MC CARREY ST, Anchorage, AK, 99508",Match,Exact,"158 MC CARREY ST, ANCHORAGE, AK, 99508",605167268,R,02,020,000801,1000,-149.79181,61.222866
7402,160 MC CARREY ST,Anchorage,AK,99508,"160 MC CARREY ST, Anchorage, AK, 99508",Match,Exact,"160 MC CARREY ST, ANCHORAGE, AK, 99508",624266929,R,02,020,000801,1000,-149.79189,61.22264499999999
7403,164 PLACE ST,Anchorage,AK,99504,"164 PLACE ST, Anchorage, AK, 99504",Match,Exact,"164 PLACE ST, ANCHORAGE, AK, 99504",190803301,R,02,020,000703,1011,-149.7232,61.222702000000005
7404,140 HOMECREST PL,Anchorage,AK,99504,"140 HOMECREST PL, Anchorage, AK, 99504",Match,Exact,"140 HOMECREST PL, ANCHORAGE, AK, 99504",190812132,L,02,020,000703,1012,-149.72038,61.222747999999996
7405,151 JELINEK PL,Anchorage,AK,99504,"151 JELINEK PL, Anchorage, AK, 99504",Match,Exact,"151 JELINEK PL, ANCHORAGE, AK, 99504",190803206,L,02,020,000703,1011,-149.72507,61.223243999999994
7406,227 NEWELL ST,Anchorage,AK,99504,"227 NEWELL ST, Anchorage, AK, 99504",Match,Exact,"227 NEWELL ST, ANCHORAGE, AK, 99504",605167293,R,02,020,000701,1000,-149.77095,61.222637
7407,6827 PECK AVE,Anchorage,AK,99504,"6827 PECK AVE, Anchorage, AK, 99504",Match,Exact,"6827 PECK AVE, ANCHORAGE, AK, 99504",190820026,R,02,020,000702,3003,-149.7527,61.223094999999994
7408,8340 PECK AVE,Anchorage,AK,99504,"8340 PECK AVE, Anchorage, AK, 99504",Match,Exact,"8340 PECK AVE, ANCHORAGE, AK, 99504",190812129,R,02,020,000703,1013,-149.72481000000002,61.22237
7409,8500 PECK AVE,Anchorage,AK,99504,"8500 PECK AVE, Anchorage, AK, 99504",Match,Exact,"8500 PECK AVE, ANCHORAGE, AK, 99504",190803305,R,02,020,000703,1013,-149.72305,61.222374
7410,8500 PECK AVE,Anchorage,AK,99504,"8500 PECK AVE, Anchorage, AK, 99504",Match,Exact,"8500 PECK AVE, ANCHORAGE, AK, 99504",190803305,R,02,020,000703,1013,-149.72305,61.222374
7411,8500 PECK AVE,Anchorage,AK,99504,"8500 PECK AVE, Anchorage, AK, 99504",Match,Exact,"8500 PECK AVE, ANCHORAGE, AK, 99504",190803305,R,02,020,000703,1013,-149.72305,61.222374
7412,8500 PECK AVE,Anchorage,AK,99504,"8500 PECK AVE, Anchorage, AK, 99504",Match,Exact,"8500 PECK AVE, ANCHORAGE, AK, 99504",190803305,R,02,020,000703,1013,-149.72305,61.222374
7413,8208 PECK AVE,Anchorage,AK,99504,"8208 PECK AVE, Anchorage, AK, 99504",Match,Exact,"8208 PECK AVE, ANCHORAGE, AK, 99504",190803203,R,02,020,000703,2003,-149.72768,61.22237
7414,8502 PECK AVE,Anchorage,AK,99504,"8502 PECK AVE, Anchorage, AK, 99504",Match,Exact,"8502 PECK AVE, ANCHORAGE, AK, 99504",190803305,R,02,020,000703,1013,-149.72299999999998,61.222374
7415,8502 PECK AVE,Anchorage,AK,99504,"8502 PECK AVE, Anchorage, AK, 99504",Match,Exact,"8502 PECK AVE, ANCHORAGE, AK, 99504",190803305,R,02,020,000703,1013,-149.72299999999998,61.222374
7416,227 NEWELL ST,Anchorage,AK,99504,"227 NEWELL ST, Anchorage, AK, 99504",Match,Exact,"227 NEWELL ST, ANCHORAGE, AK, 99504",605167293,R,02,020,000701,1000,-149.77095,61.222637
7417,8120 PECK AVE,Anchorage,AK,99504,"8120 PECK AVE, Anchorage, AK, 99504",Match,Exact,"8120 PECK AVE, ANCHORAGE, AK, 99504",625718404,R,02,020,000703,2003,-149.72906,61.222366
7418,8138 PECK AVE,Anchorage,AK,99504,"8138 PECK AVE, Anchorage, AK, 99504",Match,Exact,"8138 PECK AVE, ANCHORAGE, AK, 99504",625718405,R,02,020,000703,2003,-149.72843999999998,61.222366
7419,8130 PECK AVE,Anchorage,AK,99504,"8130 PECK AVE, Anchorage, AK, 99504",Match,Exact,"8130 PECK AVE, ANCHORAGE, AK, 99504",625718404,R,02,020,000703,2003,-149.72876000000002,61.222366
7420,8138 PECK AVE,Anchorage,AK,99504,"8138 PECK AVE, Anchorage, AK, 99504",Match,Exact,"8138 PECK AVE, ANCHORAGE, AK, 99504",625718405,R,02,020,000703,2003,-149.72843999999998,61.222366
7421,8100 PECK AVE,Anchorage,AK,99504,"8100 PECK AVE, Anchorage, AK, 99504",Match,Exact,"8100 PECK AVE, ANCHORAGE, AK, 99504",625718404,R,02,020,000703,2003,-149.72966,61.222366
7422,8042 PECK AVE,Anchorage,AK,99504,"8042 PECK AVE, Anchorage, AK, 99504",Match,Exact,"8042 PECK AVE, ANCHORAGE, AK, 99504",190803199,R,02,020,000703,2002,-149.73096,61.222366
7423,16825 YELLOWSTONE DR,Anchorage,AK,99577,"16825 YELLOWSTONE DR, Anchorage, AK, 99577",Match,Non_Exact,"16825 YELLOWSTONE DR, EAGLE RIVER, AK, 99577",605336263,L,02,020,000204,2036,-149.56792,61.300625
7424,20674 DRIFTWOOD BAY DR,Anchorage,AK,99577,"20674 DRIFTWOOD BAY DR, Anchorage, AK, 99577",Match,Non_Exact,"20674 DRIFTWOOD BAY DR, EAGLE RIVER, AK, 99577",625727882,L,02,020,000203,3000,-149.49605,61.300552
7425,8809 DOME CIR,Anchorage,AK,99577,"8809 DOME CIR, Anchorage, AK, 99577",Match,Non_Exact,"8809 DOME CIR, EAGLE RIVER, AK, 99577",190805577,R,02,020,000203,3014,-149.53493,61.300224
7426,8858 KAK ISLAND ST,Anchorage,AK,99577,"8858 KAK ISLAND ST, Anchorage, AK, 99577",Match,Non_Exact,"8858 KAK ISLAND ST, EAGLE RIVER, AK, 99577",190818618,R,02,020,000203,3014,-149.53065,61.300404
7427,19542 TRAIL BAY DR,Anchorage,AK,99577,"19542 TRAIL BAY DR, Anchorage, AK, 99577",Match,Non_Exact,"19542 TRAIL BAY DR, EAGLE RIVER, AK, 99577",190827417,R,02,020,000203,3011,-149.51825,61.299973
7428,20232 GLACIER PARK CIR,Anchorage,AK,99577,"20232 GLACIER PARK CIR, Anchorage, AK, 99577",Match,Non_Exact,"20232 GLACIER PARK CIR, EAGLE RIVER, AK, 99577",605336517,R,02,020,000203,3002,-149.50511,61.300373
7429,8847 KAK ISLAND ST,Anchorage,AK,99577,"8847 KAK ISLAND ST, Anchorage, AK, 99577",Match,Non_Exact,"8847 KAK ISLAND ST, EAGLE RIVER, AK, 99577",190818618,L,02,020,000203,3023,-149.53063999999998,61.300385
7430,20656 DRIFTWOOD BAY DR,Anchorage,AK,99577,"20656 DRIFTWOOD BAY DR, Anchorage, AK, 99577",Match,Non_Exact,"20656 DRIFTWOOD BAY DR, EAGLE RIVER, AK, 99577",625727882,L,02,020,000203,3000,-149.49643999999998,61.300518000000004
7431,20236 GLACIER PARK CIR,Anchorage,AK,99577,"20236 GLACIER PARK CIR, Anchorage, AK, 99577",Match,Non_Exact,"20236 GLACIER PARK CIR, EAGLE RIVER, AK, 99577",605336517,R,02,020,000203,3002,-149.50503999999998,61.300354000000006
7432,20638 DRIFTWOOD BAY DR,Anchorage,AK,99577,"20638 DRIFTWOOD BAY DR, Anchorage, AK, 99577",Match,Non_Exact,"20638 DRIFTWOOD BAY DR, EAGLE RIVER, AK, 99577",625727882,L,02,020,000203,3000,-149.49684,61.30048000000001
7433,20240 GLACIER PARK CIR,Anchorage,AK,99577,"20240 GLACIER PARK CIR, Anchorage, AK, 99577",Match,Non_Exact,"20240 GLACIER PARK CIR, EAGLE RIVER, AK, 99577",605336517,R,02,020,000203,3002,-149.50494,61.300335
7434,20620 DRIFTWOOD BAY DR,Anchorage,AK,99577,"20620 DRIFTWOOD BAY DR, Anchorage, AK, 99577",Match,Non_Exact,"20620 DRIFTWOOD BAY DR, EAGLE RIVER, AK, 99577",625727882,L,02,020,000203,3000,-149.49723999999998,61.300445999999994
7435,20310 GLACIER PARK CIR,Anchorage,AK,99577,"20310 GLACIER PARK CIR, Anchorage, AK, 99577",Match,Non_Exact,"20310 GLACIER PARK CIR, EAGLE RIVER, AK, 99577",605336517,R,02,020,000203,3002,-149.50345,61.300293
7436,20566 DRIFTWOOD BAY DR,Anchorage,AK,99577,"20566 DRIFTWOOD BAY DR, Anchorage, AK, 99577",Match,Non_Exact,"20566 DRIFTWOOD BAY DR, EAGLE RIVER, AK, 99577",625727882,L,02,020,000203,3000,-149.49844,61.300340000000006
7437,20588 DRIFTWOOD BAY DR,Anchorage,AK,99577,"20588 DRIFTWOOD BAY DR, Anchorage, AK, 99577",Match,Non_Exact,"20588 DRIFTWOOD BAY DR, EAGLE RIVER, AK, 99577",625727882,L,02,020,000203,3000,-149.49796,61.300380000000004
7438,4101 ZULEIKA RD,Anchorage,AK,99577,"4101 ZULEIKA RD, Anchorage, AK, 99577",Match,Non_Exact,"4101 ZULEIKA RD, EAGLE RIVER, AK, 99577",635209283,R,02,020,000204,1006,-149.28406999999999,61.258556000000006
7439,4143 HARCA ST,Anchorage,AK,99577,"4143 HARCA ST, Anchorage, AK, 99577",Match,Non_Exact,"4143 HARCA ST, EAGLE RIVER, AK, 99577",190825526,R,02,020,000204,1032,-149.30246,61.25824
7440,29965 EAGLE RIVER RD,Anchorage,AK,99577,"29965 EAGLE RIVER RD, Anchorage, AK, 99577",Match,Non_Exact,"29965 EAGLE RIVER RD, EAGLE RIVER, AK, 99577",190818635,L,02,020,000204,1005,-149.32484,61.258095
7441,30100 EKLUND AVE,Anchorage,AK,99577,"30100 EKLUND AVE, Anchorage, AK, 99577",Match,Non_Exact,"30100 EKLUND AVE, EAGLE RIVER, AK, 99577",190827244,L,02,020,000204,1029,-149.322,61.256980000000006
7442,7505 BOUNDARY AVE,Anchorage,AK,99504,"7505 BOUNDARY AVE, Anchorage, AK, 99504",Match,Exact,"7505 BOUNDARY AVE, ANCHORAGE, AK, 99504",605167228,L,02,020,000702,1001,-149.74295,61.224180000000004
7443,7505 BOUNDARY AVE,Anchorage,AK,99504,"7505 BOUNDARY AVE, Anchorage, AK, 99504",Match,Exact,"7505 BOUNDARY AVE, ANCHORAGE, AK, 99504",605167228,L,02,020,000702,1001,-149.74295,61.224180000000004
7444,7505 BOUNDARY AVE,Anchorage,AK,99504,"7505 BOUNDARY AVE, Anchorage, AK, 99504",Match,Exact,"7505 BOUNDARY AVE, ANCHORAGE, AK, 99504",605167228,L,02,020,000702,1001,-149.74295,61.224180000000004
7445,7505 BOUNDARY AVE,Anchorage,AK,99504,"7505 BOUNDARY AVE, Anchorage, AK, 99504",Match,Exact,"7505 BOUNDARY AVE, ANCHORAGE, AK, 99504",605167228,L,02,020,000702,1001,-149.74295,61.224180000000004
7446,7505 BOUNDARY AVE,Anchorage,AK,99504,"7505 BOUNDARY AVE, Anchorage, AK, 99504",Match,Exact,"7505 BOUNDARY AVE, ANCHORAGE, AK, 99504",605167228,L,02,020,000702,1001,-149.74295,61.224180000000004
7447,7505 BOUNDARY AVE,Anchorage,AK,99504,"7505 BOUNDARY AVE, Anchorage, AK, 99504",Match,Exact,"7505 BOUNDARY AVE, ANCHORAGE, AK, 99504",605167228,L,02,020,000702,1001,-149.74295,61.224180000000004
7448,7505 BOUNDARY AVE,Anchorage,AK,99504,"7505 BOUNDARY AVE, Anchorage, AK, 99504",Match,Exact,"7505 BOUNDARY AVE, ANCHORAGE, AK, 99504",605167228,L,02,020,000702,1001,-149.74295,61.224180000000004
7449,7505 BOUNDARY AVE,Anchorage,AK,99504,"7505 BOUNDARY AVE, Anchorage, AK, 99504",Match,Exact,"7505 BOUNDARY AVE, ANCHORAGE, AK, 99504",605167228,L,02,020,000702,1001,-149.74295,61.224180000000004
7450,7505 BOUNDARY AVE,Anchorage,AK,99504,"7505 BOUNDARY AVE, Anchorage, AK, 99504",Match,Exact,"7505 BOUNDARY AVE, ANCHORAGE, AK, 99504",605167228,L,02,020,000702,1001,-149.74295,61.224180000000004
7451,7505 BOUNDARY AVE,Anchorage,AK,99504,"7505 BOUNDARY AVE, Anchorage, AK, 99504",Match,Exact,"7505 BOUNDARY AVE, ANCHORAGE, AK, 99504",605167228,L,02,020,000702,1001,-149.74295,61.224180000000004
7452,7505 BOUNDARY AVE,Anchorage,AK,99504,"7505 BOUNDARY AVE, Anchorage, AK, 99504",Match,Exact,"7505 BOUNDARY AVE, ANCHORAGE, AK, 99504",605167228,L,02,020,000702,1001,-149.74295,61.224180000000004
7453,7505 BOUNDARY AVE,Anchorage,AK,99504,"7505 BOUNDARY AVE, Anchorage, AK, 99504",Match,Exact,"7505 BOUNDARY AVE, ANCHORAGE, AK, 99504",605167228,L,02,020,000702,1001,-149.74295,61.224180000000004
7454,7505 BOUNDARY AVE,Anchorage,AK,99504,"7505 BOUNDARY AVE, Anchorage, AK, 99504",Match,Exact,"7505 BOUNDARY AVE, ANCHORAGE, AK, 99504",605167228,L,02,020,000702,1001,-149.74295,61.224180000000004
7455,8923 EAGLE PLACE LOOP,Anchorage,AK,99577,"8923 EAGLE PLACE LOOP, Anchorage, AK, 99577",No_Match,,,,,,,,,,
7456,8924 NORTHWOOD PARK CIR,Anchorage,AK,99577,"8924 NORTHWOOD PARK CIR, Anchorage, AK, 99577",Match,Non_Exact,"8924 NORTHWOOD PARK CIR, EAGLE RIVER, AK, 99577",190819645,L,02,020,000203,3022,-149.51762,61.301019999999994
7457,8959 EAGLE PLACE LOOP,Anchorage,AK,99577,"8959 EAGLE PLACE LOOP, Anchorage, AK, 99577",No_Match,,,,,,,,,,
7458,19430 HIGHLAND RIDGE DR,Anchorage,AK,99577,"19430 HIGHLAND RIDGE DR, Anchorage, AK, 99577",Match,Non_Exact,"19430 HIGHLAND RIDGE DR, EAGLE RIVER, AK, 99577",190819652,R,02,020,000203,3022,-149.5192,61.301356999999996
7459,8943 MEADOW PARK CIR,Anchorage,AK,99577,"8943 MEADOW PARK CIR, Anchorage, AK, 99577",Match,Non_Exact,"8943 MEADOW PARK CIR, EAGLE RIVER, AK, 99577",605288530,R,02,020,000203,3022,-149.51033,61.30084
7460,8940 MEADOW PARK CIR,Anchorage,AK,99577,"8940 MEADOW PARK CIR, Anchorage, AK, 99577",Match,Non_Exact,"8940 MEADOW PARK CIR, EAGLE RIVER, AK, 99577",605288530,L,02,020,000203,3022,-149.51036000000002,61.30086
7461,8922 EAGLE PLACE LOOP,Anchorage,AK,99577,"8922 EAGLE PLACE LOOP, Anchorage, AK, 99577",No_Match,,,,,,,,,,
7462,20157 RIVERSIDE DR,Anchorage,AK,99577,"20157 RIVERSIDE DR, Anchorage, AK, 99577",Match,Non_Exact,"20157 RIVERSIDE DR, EAGLE RIVER, AK, 99577",605336335,L,02,020,000203,3000,-149.5072,61.299526
7463,20159 RIVERSIDE DR,Anchorage,AK,99577,"20159 RIVERSIDE DR, Anchorage, AK, 99577",Match,Non_Exact,"20159 RIVERSIDE DR, EAGLE RIVER, AK, 99577",605336335,L,02,020,000203,3000,-149.50716,61.299519999999994
7464,18913 MOUNTAIN POINT DR,Anchorage,AK,99577,"18913 MOUNTAIN POINT DR, Anchorage, AK, 99577",Match,Non_Exact,"18913 MOUNTAIN POINT DR, EAGLE RIVER, AK, 99577",190816261,L,02,020,000203,3012,-149.53028999999998,61.299484
7465,20203 RIVERSIDE DR,Anchorage,AK,99577,"20203 RIVERSIDE DR, Anchorage, AK, 99577",Match,Non_Exact,"20203 RIVERSIDE DR, EAGLE RIVER, AK, 99577",605336335,L,02,020,000203,3000,-149.5064,61.299335
7466,8737 INYO CIR,Anchorage,AK,99577,"8737 INYO CIR, Anchorage, AK, 99577",Match,Non_Exact,"8737 INYO CIR, EAGLE RIVER, AK, 99577",190822981,L,02,020,000204,2038,-149.56642,61.299434999999995
7467,18793 MILLS BAY DR,Anchorage,AK,99577,"18793 MILLS BAY DR, Anchorage, AK, 99577",Match,Non_Exact,"18793 MILLS BAY DR, EAGLE RIVER, AK, 99577",190805564,L,02,020,000203,3011,-149.53256000000002,61.299175
7468,20205 RIVERSIDE DR,Anchorage,AK,99577,"20205 RIVERSIDE DR, Anchorage, AK, 99577",Match,Non_Exact,"20205 RIVERSIDE DR, EAGLE RIVER, AK, 99577",605336335,L,02,020,000203,3000,-149.50636,61.299328
7469,20369 RIVERSIDE DR,Anchorage,AK,99577,"20369 RIVERSIDE DR, Anchorage, AK, 99577",Match,Non_Exact,"20369 RIVERSIDE DR, EAGLE RIVER, AK, 99577",605336335,L,02,020,000203,3000,-149.50322,61.299119999999995
7470,20217 RIVERSIDE DR,Anchorage,AK,99577,"20217 RIVERSIDE DR, Anchorage, AK, 99577",Match,Non_Exact,"20217 RIVERSIDE DR, EAGLE RIVER, AK, 99577",605336335,L,02,020,000203,3000,-149.50613,61.299296999999996
7471,19031 TRAIL BAY DR,Anchorage,AK,99577,"19031 TRAIL BAY DR, Anchorage, AK, 99577",Match,Non_Exact,"19031 TRAIL BAY DR, EAGLE RIVER, AK, 99577",190818858,L,02,020,000203,3012,-149.52829,61.29917
7472,20363 RIVERSIDE DR,Anchorage,AK,99577,"20363 RIVERSIDE DR, Anchorage, AK, 99577",Match,Non_Exact,"20363 RIVERSIDE DR, EAGLE RIVER, AK, 99577",605336335,L,02,020,000203,3000,-149.50333999999998,61.299114
7473,20219 RIVERSIDE DR,Anchorage,AK,99577,"20219 RIVERSIDE DR, Anchorage, AK, 99577",Match,Non_Exact,"20219 RIVERSIDE DR, EAGLE RIVER, AK, 99577",605336335,L,02,020,000203,3000,-149.50609,61.299293999999996
7474,20361 RIVERSIDE DR,Anchorage,AK,99577,"20361 RIVERSIDE DR, Anchorage, AK, 99577",Match,Non_Exact,"20361 RIVERSIDE DR, EAGLE RIVER, AK, 99577",605336335,L,02,020,000203,3000,-149.50337,61.29911
7475,18730 MILLS BAY DR,Anchorage,AK,99577,"18730 MILLS BAY DR, Anchorage, AK, 99577",Match,Non_Exact,"18730 MILLS BAY DR, EAGLE RIVER, AK, 99577",190805564,R,02,020,000203,3011,-149.53311000000002,61.29955699999999
7476,18544 MILLS BAY DR,Anchorage,AK,99577,"18544 MILLS BAY DR, Anchorage, AK, 99577",Match,Non_Exact,"18544 MILLS BAY DR, EAGLE RIVER, AK, 99577",190805578,R,02,020,000203,3011,-149.53687,61.299953
7477,19023 TRAIL BAY DR,Anchorage,AK,99577,"19023 TRAIL BAY DR, Anchorage, AK, 99577",Match,Non_Exact,"19023 TRAIL BAY DR, EAGLE RIVER, AK, 99577",190818858,L,02,020,000203,3012,-149.52847,61.299144999999996
7478,20349 RIVERSIDE DR,Anchorage,AK,99577,"20349 RIVERSIDE DR, Anchorage, AK, 99577",Match,Non_Exact,"20349 RIVERSIDE DR, EAGLE RIVER, AK, 99577",605336335,L,02,020,000203,3000,-149.5036,61.2991
7479,22222 ELKHORN CIR,Anchorage,AK,99577,"22222 ELKHORN CIR, Anchorage, AK, 99577",Match,Non_Exact,"22222 ELKHORN CIR, EAGLE RIVER, AK, 99577",190815048,R,02,020,000204,2004,-149.46683000000002,61.258506999999994
7480,4150 ELKHORN DR,Anchorage,AK,99577,"4150 ELKHORN DR, Anchorage, AK, 99577",Match,Non_Exact,"4150 ELKHORN DR, EAGLE RIVER, AK, 99577",190827250,L,02,020,000204,2004,-149.46782,61.257515000000005
7481,4200 JOHNNY DR,Anchorage,AK,99577,"4200 JOHNNY DR, Anchorage, AK, 99577",Match,Non_Exact,"4200 JOHNNY DR, EAGLE RIVER, AK, 99577",190826099,R,02,020,000204,2013,-149.47717,61.25806800000001
7482,4151 COTTON GRASS DR,Anchorage,AK,99577,"4151 COTTON GRASS DR, Anchorage, AK, 99577",Match,Non_Exact,"4151 COTTON GRASS DR, EAGLE RIVER, AK, 99577",190827692,R,02,020,000204,2004,-149.46255,61.25899999999999
7483,22253 ELKHORN CIR,Anchorage,AK,99577,"22253 ELKHORN CIR, Anchorage, AK, 99577",Match,Non_Exact,"22253 ELKHORN CIR, EAGLE RIVER, AK, 99577",190815048,L,02,020,000204,2004,-149.46584,61.257740000000005
7484,4131 BIRDSONG DR,Anchorage,AK,99577,"4131 BIRDSONG DR, Anchorage, AK, 99577",Match,Non_Exact,"4131 BIRDSONG DR, EAGLE RIVER, AK, 99577",190827241,L,02,020,000204,2013,-149.47363,61.257690000000004
7485,4118 BIRDSONG DR,Anchorage,AK,99577,"4118 BIRDSONG DR, Anchorage, AK, 99577",Match,Non_Exact,"4118 BIRDSONG DR, EAGLE RIVER, AK, 99577",190827241,R,02,020,000204,2013,-149.47365,61.257571999999996
7486,272 YELLOW LEAF CIR,Anchorage,AK,99504,"272 YELLOW LEAF CIR, Anchorage, AK, 99504",Match,Exact,"272 YELLOW LEAF CIR, ANCHORAGE, AK, 99504",190803334,R,02,020,000703,1013,-149.71944,61.220726
7487,272 FALL LEAF CIR,Anchorage,AK,99504,"272 FALL LEAF CIR, Anchorage, AK, 99504",Match,Exact,"272 FALL LEAF CIR, ANCHORAGE, AK, 99504",190803320,R,02,020,000703,1013,-149.72131000000002,61.220721999999995
7488,6594 WHISPERING LOOP,Anchorage,AK,99504,"6594 WHISPERING LOOP, Anchorage, AK, 99504",Match,Exact,"6594 WHISPERING LOOP, ANCHORAGE, AK, 99504",624788736,L,02,020,000701,1000,-149.75822,61.220978
7489,150 OKLAHOMA ST,Anchorage,AK,99504,"150 OKLAHOMA ST, Anchorage, AK, 99504",Match,Exact,"150 OKLAHOMA ST, ANCHORAGE, AK, 99504",190802853,R,02,020,000702,1005,-149.74478,61.22304499999999
7490,150 OKLAHOMA ST,Anchorage,AK,99504,"150 OKLAHOMA ST, Anchorage, AK, 99504",Match,Exact,"150 OKLAHOMA ST, ANCHORAGE, AK, 99504",190802853,R,02,020,000702,1005,-149.74478,61.22304499999999
7491,150 OKLAHOMA ST,Anchorage,AK,99504,"150 OKLAHOMA ST, Anchorage, AK, 99504",Match,Exact,"150 OKLAHOMA ST, ANCHORAGE, AK, 99504",190802853,R,02,020,000702,1005,-149.74478,61.22304499999999
7492,150 OKLAHOMA ST,Anchorage,AK,99504,"150 OKLAHOMA ST, Anchorage, AK, 99504",Match,Exact,"150 OKLAHOMA ST, ANCHORAGE, AK, 99504",190802853,R,02,020,000702,1005,-149.74478,61.22304499999999
7493,150 OKLAHOMA ST,Anchorage,AK,99504,"150 OKLAHOMA ST, Anchorage, AK, 99504",Match,Exact,"150 OKLAHOMA ST, ANCHORAGE, AK, 99504",190802853,R,02,020,000702,1005,-149.74478,61.22304499999999
7494,150 OKLAHOMA ST,Anchorage,AK,99504,"150 OKLAHOMA ST, Anchorage, AK, 99504",Match,Exact,"150 OKLAHOMA ST, ANCHORAGE, AK, 99504",190802853,R,02,020,000702,1005,-149.74478,61.22304499999999
7495,150 OKLAHOMA ST,Anchorage,AK,99504,"150 OKLAHOMA ST, Anchorage, AK, 99504",Match,Exact,"150 OKLAHOMA ST, ANCHORAGE, AK, 99504",190802853,R,02,020,000702,1005,-149.74478,61.22304499999999
7496,150 OKLAHOMA ST,Anchorage,AK,99504,"150 OKLAHOMA ST, Anchorage, AK, 99504",Match,Exact,"150 OKLAHOMA ST, ANCHORAGE, AK, 99504",190802853,R,02,020,000702,1005,-149.74478,61.22304499999999
7497,150 OKLAHOMA ST,Anchorage,AK,99504,"150 OKLAHOMA ST, Anchorage, AK, 99504",Match,Exact,"150 OKLAHOMA ST, ANCHORAGE, AK, 99504",190802853,R,02,020,000702,1005,-149.74478,61.22304499999999
7498,150 OKLAHOMA ST,Anchorage,AK,99504,"150 OKLAHOMA ST, Anchorage, AK, 99504",Match,Exact,"150 OKLAHOMA ST, ANCHORAGE, AK, 99504",190802853,R,02,020,000702,1005,-149.74478,61.22304499999999
7499,150 OKLAHOMA ST,Anchorage,AK,99504,"150 OKLAHOMA ST, Anchorage, AK, 99504",Match,Exact,"150 OKLAHOMA ST, ANCHORAGE, AK, 99504",190802853,R,02,020,000702,1005,-149.74478,61.22304499999999
7500,150 OKLAHOMA ST,Anchorage,AK,99504,"150 OKLAHOMA ST, Anchorage, AK, 99504",Match,Exact,"150 OKLAHOMA ST, ANCHORAGE, AK, 99504",190802853,R,02,020,000702,1005,-149.74478,61.22304499999999
7501,227 NEWELL ST,Anchorage,AK,99504,"227 NEWELL ST, Anchorage, AK, 99504",Match,Exact,"227 NEWELL ST, ANCHORAGE, AK, 99504",605167293,R,02,020,000701,1000,-149.77095,61.222637
7502,108 DAVIS ST,Anchorage,AK,99508,"108 DAVIS ST, Anchorage, AK, 99508",Match,Exact,"108 DAVIS ST, ANCHORAGE, AK, 99508",190801934,R,02,020,000801,2002,-149.7861,61.224033
7503,108 STEWART ST,Anchorage,AK,99508,"108 STEWART ST, Anchorage, AK, 99508",Match,Exact,"108 STEWART ST, ANCHORAGE, AK, 99508",190801683,R,02,020,000801,2001,-149.78791999999999,61.223971999999996
7504,5402 CHENA AVE,Anchorage,AK,99508,"5402 CHENA AVE, Anchorage, AK, 99508",Match,Exact,"5402 CHENA AVE, ANCHORAGE, AK, 99508",190801958,R,02,020,000801,3006,-149.78075,61.223240000000004
7505,5400 CHENA AVE,Anchorage,AK,99508,"5400 CHENA AVE, Anchorage, AK, 99508",Match,Exact,"5400 CHENA AVE, ANCHORAGE, AK, 99508",190801958,R,02,020,000801,3006,-149.78078,61.223240000000004
7506,5312 CHENA AVE,Anchorage,AK,99508,"5312 CHENA AVE, Anchorage, AK, 99508",Match,Exact,"5312 CHENA AVE, ANCHORAGE, AK, 99508",190801958,R,02,020,000801,3006,-149.78215,61.223240000000004
7507,5306 CHENA AVE,Anchorage,AK,99508,"5306 CHENA AVE, Anchorage, AK, 99508",Match,Exact,"5306 CHENA AVE, ANCHORAGE, AK, 99508",190801958,R,02,020,000801,3006,-149.78224,61.223240000000004
7508,5304 CHENA AVE,Anchorage,AK,99508,"5304 CHENA AVE, Anchorage, AK, 99508",Match,Exact,"5304 CHENA AVE, ANCHORAGE, AK, 99508",190801958,R,02,020,000801,3006,-149.78226999999998,61.223240000000004
7509,5300 CHENA AVE,Anchorage,AK,99508,"5300 CHENA AVE, Anchorage, AK, 99508",Match,Exact,"5300 CHENA AVE, ANCHORAGE, AK, 99508",190801958,R,02,020,000801,3006,-149.78233,61.223240000000004
7510,109 BUNNELL ST,Anchorage,AK,99508,"109 BUNNELL ST, Anchorage, AK, 99508",Match,Exact,"109 BUNNELL ST, ANCHORAGE, AK, 99508",190801680,L,02,020,000801,2001,-149.78972,61.22395
7511,5260 CHENA AVE,Anchorage,AK,99508,"5260 CHENA AVE, Anchorage, AK, 99508",Match,Exact,"5260 CHENA AVE, ANCHORAGE, AK, 99508",190801943,R,02,020,000801,3005,-149.78346000000002,61.223240000000004
7512,6815 PECK AVE,Anchorage,AK,99504,"6815 PECK AVE, Anchorage, AK, 99504",Match,Exact,"6815 PECK AVE, ANCHORAGE, AK, 99504",190820026,R,02,020,000702,3003,-149.7527,61.22331
7513,5210 CHENA AVE,Anchorage,AK,99508,"5210 CHENA AVE, Anchorage, AK, 99508",Match,Exact,"5210 CHENA AVE, ANCHORAGE, AK, 99508",190801943,R,02,020,000801,3005,-149.7842,61.223240000000004
7514,5210 CHENA AVE,Anchorage,AK,99508,"5210 CHENA AVE, Anchorage, AK, 99508",Match,Exact,"5210 CHENA AVE, ANCHORAGE, AK, 99508",190801943,R,02,020,000801,3005,-149.7842,61.223240000000004
7515,140 ACES CIR,Anchorage,AK,99504,"140 ACES CIR, Anchorage, AK, 99504",Match,Exact,"140 ACES CIR, ANCHORAGE, AK, 99504",190820032,L,02,020,000702,3003,-149.75117,61.222606999999996
7516,8433 PECK AVE,Anchorage,AK,99504,"8433 PECK AVE, Anchorage, AK, 99504",Match,Exact,"8433 PECK AVE, ANCHORAGE, AK, 99504",190803305,L,02,020,000703,1012,-149.72305,61.222384999999996
7517,8441 PECK AVE,Anchorage,AK,99504,"8441 PECK AVE, Anchorage, AK, 99504",Match,Exact,"8441 PECK AVE, ANCHORAGE, AK, 99504",190803305,L,02,020,000703,1012,-149.7229,61.222384999999996
7518,8543 PECK AVE,Anchorage,AK,99504,"8543 PECK AVE, Anchorage, AK, 99504",Match,Exact,"8543 PECK AVE, ANCHORAGE, AK, 99504",190803307,L,02,020,000703,1012,-149.72101,61.222384999999996
7519,8531 PECK AVE,Anchorage,AK,99504,"8531 PECK AVE, Anchorage, AK, 99504",Match,Exact,"8531 PECK AVE, ANCHORAGE, AK, 99504",190803307,L,02,020,000703,1012,-149.72113000000002,61.222384999999996
7520,8519 PECK AVE,Anchorage,AK,99504,"8519 PECK AVE, Anchorage, AK, 99504",Match,Exact,"8519 PECK AVE, ANCHORAGE, AK, 99504",190803305,L,02,020,000703,1012,-149.72146999999998,61.222384999999996
7521,8040 PECK AVE,Anchorage,AK,99504,"8040 PECK AVE, Anchorage, AK, 99504",Match,Exact,"8040 PECK AVE, ANCHORAGE, AK, 99504",190803199,R,02,020,000703,2002,-149.73099,61.222366
7522,8036 PECK AVE,Anchorage,AK,99504,"8036 PECK AVE, Anchorage, AK, 99504",Match,Exact,"8036 PECK AVE, ANCHORAGE, AK, 99504",190803199,R,02,020,000703,2002,-149.73105,61.222366
7523,8026 PECK AVE,Anchorage,AK,99504,"8026 PECK AVE, Anchorage, AK, 99504",Match,Exact,"8026 PECK AVE, ANCHORAGE, AK, 99504",190803199,R,02,020,000703,2002,-149.7312,61.222366
7524,227 NEWELL ST,Anchorage,AK,99504,"227 NEWELL ST, Anchorage, AK, 99504",Match,Exact,"227 NEWELL ST, ANCHORAGE, AK, 99504",605167293,R,02,020,000701,1000,-149.77095,61.222637
7525,8008 PECK AVE,Anchorage,AK,99504,"8008 PECK AVE, Anchorage, AK, 99504",Match,Exact,"8008 PECK AVE, ANCHORAGE, AK, 99504",190803199,R,02,020,000703,2002,-149.73148999999998,61.222366
7526,8012 PECK AVE,Anchorage,AK,99504,"8012 PECK AVE, Anchorage, AK, 99504",Match,Exact,"8012 PECK AVE, ANCHORAGE, AK, 99504",190803199,R,02,020,000703,2002,-149.73143000000002,61.222366
7527,227 NEWELL ST,Anchorage,AK,99504,"227 NEWELL ST, Anchorage, AK, 99504",Match,Exact,"227 NEWELL ST, ANCHORAGE, AK, 99504",605167293,R,02,020,000701,1000,-149.77095,61.222637
7528,201 RED LEAF CIR,Anchorage,AK,99504,"201 RED LEAF CIR, Anchorage, AK, 99504",Match,Exact,"201 RED LEAF CIR, ANCHORAGE, AK, 99504",190803306,R,02,020,000703,1013,-149.7213,61.22234
7529,200 RED LEAF CIR,Anchorage,AK,99504,"200 RED LEAF CIR, Anchorage, AK, 99504",Match,Exact,"200 RED LEAF CIR, ANCHORAGE, AK, 99504",190803306,L,02,020,000703,1013,-149.72131000000002,61.22234
7530,200 ORANGE LEAF CIR,Anchorage,AK,99504,"200 ORANGE LEAF CIR, Anchorage, AK, 99504",Match,Exact,"200 ORANGE LEAF CIR, ANCHORAGE, AK, 99504",190803309,L,02,020,000703,1013,-149.71944,61.22234
7531,201 ORANGE LEAF CIR,Anchorage,AK,99504,"201 ORANGE LEAF CIR, Anchorage, AK, 99504",Match,Exact,"201 ORANGE LEAF CIR, ANCHORAGE, AK, 99504",190803309,R,02,020,000703,1013,-149.71941999999999,61.22234
7532,7630 PECK AVE,Anchorage,AK,99504,"7630 PECK AVE, Anchorage, AK, 99504",Match,Exact,"7630 PECK AVE, ANCHORAGE, AK, 99504",190812119,R,02,020,000702,2001,-149.73802,61.222359999999995
7533,7630 PECK AVE,Anchorage,AK,99504,"7630 PECK AVE, Anchorage, AK, 99504",Match,Exact,"7630 PECK AVE, ANCHORAGE, AK, 99504",190812119,R,02,020,000702,2001,-149.73802,61.222359999999995
7534,7620 PECK AVE,Anchorage,AK,99504,"7620 PECK AVE, Anchorage, AK, 99504",Match,Exact,"7620 PECK AVE, ANCHORAGE, AK, 99504",190812119,R,02,020,000702,2001,-149.73813,61.222359999999995
7535,7610 PECK AVE,Anchorage,AK,99504,"7610 PECK AVE, Anchorage, AK, 99504",Match,Exact,"7610 PECK AVE, ANCHORAGE, AK, 99504",190812117,R,02,020,000702,2001,-149.73848,61.222359999999995
7536,7600 PECK AVE,Anchorage,AK,99504,"7600 PECK AVE, Anchorage, AK, 99504",Match,Exact,"7600 PECK AVE, ANCHORAGE, AK, 99504",190812117,R,02,020,000702,2001,-149.73863,61.222359999999995
7537,7530 PECK AVE,Anchorage,AK,99504,"7530 PECK AVE, Anchorage, AK, 99504",Match,Exact,"7530 PECK AVE, ANCHORAGE, AK, 99504",190812117,R,02,020,000702,2001,-149.73976000000002,61.222359999999995
7538,7530 PECK AVE,Anchorage,AK,99504,"7530 PECK AVE, Anchorage, AK, 99504",Match,Exact,"7530 PECK AVE, ANCHORAGE, AK, 99504",190812117,R,02,020,000702,2001,-149.73976000000002,61.222359999999995
7539,7530 PECK AVE,Anchorage,AK,99504,"7530 PECK AVE, Anchorage, AK, 99504",Match,Exact,"7530 PECK AVE, ANCHORAGE, AK, 99504",190812117,R,02,020,000702,2001,-149.73976000000002,61.222359999999995
7540,249 ZAPPA PL,Anchorage,AK,99504,"249 ZAPPA PL, Anchorage, AK, 99504",Match,Exact,"249 ZAPPA PL, ANCHORAGE, AK, 99504",190803204,L,02,020,000703,1013,-149.726,61.221509999999995
7541,249 ZAPPA PL,Anchorage,AK,99504,"249 ZAPPA PL, Anchorage, AK, 99504",Match,Exact,"249 ZAPPA PL, ANCHORAGE, AK, 99504",190803204,L,02,020,000703,1013,-149.726,61.221509999999995
7542,4906 KOBUK AVE,Anchorage,AK,99508,"4906 KOBUK AVE, Anchorage, AK, 99508",Match,Exact,"4906 KOBUK AVE, ANCHORAGE, AK, 99508",190801747,R,02,020,000801,2008,-149.78947,61.221523
7543,6671 WHISPERING LOOP,Anchorage,AK,99504,"6671 WHISPERING LOOP, Anchorage, AK, 99504",Match,Exact,"6671 WHISPERING LOOP, ANCHORAGE, AK, 99504",624788736,R,02,020,000701,1013,-149.75708,61.221428
7544,6671 WHISPERING LOOP,Anchorage,AK,99504,"6671 WHISPERING LOOP, Anchorage, AK, 99504",Match,Exact,"6671 WHISPERING LOOP, ANCHORAGE, AK, 99504",624788736,R,02,020,000701,1013,-149.75708,61.221428
7545,302 FIREOVED DR,Anchorage,AK,99508,"302 FIREOVED DR, Anchorage, AK, 99508",Match,Exact,"302 FIREOVED DR, ANCHORAGE, AK, 99508",643733471,R,02,020,000801,3009,-149.78395,61.22159
7546,4904 KOBUK AVE,Anchorage,AK,99508,"4904 KOBUK AVE, Anchorage, AK, 99508",Match,Exact,"4904 KOBUK AVE, ANCHORAGE, AK, 99508",190801747,R,02,020,000801,2008,-149.7895,61.221523
7547,4902 KOBUK AVE,Anchorage,AK,99508,"4902 KOBUK AVE, Anchorage, AK, 99508",Match,Exact,"4902 KOBUK AVE, ANCHORAGE, AK, 99508",190801747,R,02,020,000801,2008,-149.78954,61.221523
7548,7030 TRAFFORD DR,Anchorage,AK,99504,"7030 TRAFFORD DR, Anchorage, AK, 99504",Match,Exact,"7030 TRAFFORD DR, ANCHORAGE, AK, 99504",638994280,L,02,020,000702,3004,-149.75008,61.221462
7549,241 ALASKA PL,Anchorage,AK,99504,"241 ALASKA PL, Anchorage, AK, 99504",Match,Exact,"241 ALASKA PL, ANCHORAGE, AK, 99504",190810872,L,02,020,000702,2008,-149.74663,61.2216
7550,241 ALASKA PL,Anchorage,AK,99504,"241 ALASKA PL, Anchorage, AK, 99504",Match,Exact,"241 ALASKA PL, ANCHORAGE, AK, 99504",190810872,L,02,020,000702,2008,-149.74663,61.2216
7551,7020 TRAFFORD DR,Anchorage,AK,99504,"7020 TRAFFORD DR, Anchorage, AK, 99504",Match,Exact,"7020 TRAFFORD DR, ANCHORAGE, AK, 99504",638994280,L,02,020,000702,3004,-149.75024,61.221462
7552,7010 TRAFFORD DR,Anchorage,AK,99504,"7010 TRAFFORD DR, Anchorage, AK, 99504",Match,Exact,"7010 TRAFFORD DR, ANCHORAGE, AK, 99504",638994280,L,02,020,000702,3004,-149.75043,61.22146
7553,7000 TRAFFORD DR,Anchorage,AK,99504,"7000 TRAFFORD DR, Anchorage, AK, 99504",Match,Exact,"7000 TRAFFORD DR, ANCHORAGE, AK, 99504",638994280,L,02,020,000702,3004,-149.75061000000002,61.22146
7554,6940 TRAFFORD DR,Anchorage,AK,99504,"6940 TRAFFORD DR, Anchorage, AK, 99504",Match,Exact,"6940 TRAFFORD DR, ANCHORAGE, AK, 99504",638994280,L,02,020,000702,3004,-149.75168,61.22146
7555,6930 TRAFFORD DR,Anchorage,AK,99504,"6930 TRAFFORD DR, Anchorage, AK, 99504",Match,Exact,"6930 TRAFFORD DR, ANCHORAGE, AK, 99504",638994280,L,02,020,000702,3004,-149.75186000000002,61.22146
7556,110 OKLAHOMA ST,Anchorage,AK,99504,"110 OKLAHOMA ST, Anchorage, AK, 99504",Match,Exact,"110 OKLAHOMA ST, ANCHORAGE, AK, 99504",190802852,R,02,020,000702,1005,-149.7448,61.223892000000006
7557,110 OKLAHOMA ST,Anchorage,AK,99504,"110 OKLAHOMA ST, Anchorage, AK, 99504",Match,Exact,"110 OKLAHOMA ST, ANCHORAGE, AK, 99504",190802852,R,02,020,000702,1005,-149.7448,61.223892000000006
7558,110 OKLAHOMA ST,Anchorage,AK,99504,"110 OKLAHOMA ST, Anchorage, AK, 99504",Match,Exact,"110 OKLAHOMA ST, ANCHORAGE, AK, 99504",190802852,R,02,020,000702,1005,-149.7448,61.223892000000006
7559,110 OKLAHOMA ST,Anchorage,AK,99504,"110 OKLAHOMA ST, Anchorage, AK, 99504",Match,Exact,"110 OKLAHOMA ST, ANCHORAGE, AK, 99504",190802852,R,02,020,000702,1005,-149.7448,61.223892000000006
7560,110 OKLAHOMA ST,Anchorage,AK,99504,"110 OKLAHOMA ST, Anchorage, AK, 99504",Match,Exact,"110 OKLAHOMA ST, ANCHORAGE, AK, 99504",190802852,R,02,020,000702,1005,-149.7448,61.223892000000006
7561,110 OKLAHOMA ST,Anchorage,AK,99504,"110 OKLAHOMA ST, Anchorage, AK, 99504",Match,Exact,"110 OKLAHOMA ST, ANCHORAGE, AK, 99504",190802852,R,02,020,000702,1005,-149.7448,61.223892000000006
7562,110 OKLAHOMA ST,Anchorage,AK,99504,"110 OKLAHOMA ST, Anchorage, AK, 99504",Match,Exact,"110 OKLAHOMA ST, ANCHORAGE, AK, 99504",190802852,R,02,020,000702,1005,-149.7448,61.223892000000006
7563,110 OKLAHOMA ST,Anchorage,AK,99504,"110 OKLAHOMA ST, Anchorage, AK, 99504",Match,Exact,"110 OKLAHOMA ST, ANCHORAGE, AK, 99504",190802852,R,02,020,000702,1005,-149.7448,61.223892000000006
7564,110 OKLAHOMA ST,Anchorage,AK,99504,"110 OKLAHOMA ST, Anchorage, AK, 99504",Match,Exact,"110 OKLAHOMA ST, ANCHORAGE, AK, 99504",190802852,R,02,020,000702,1005,-149.7448,61.223892000000006
7565,110 OKLAHOMA ST,Anchorage,AK,99504,"110 OKLAHOMA ST, Anchorage, AK, 99504",Match,Exact,"110 OKLAHOMA ST, ANCHORAGE, AK, 99504",190802852,R,02,020,000702,1005,-149.7448,61.223892000000006
7566,110 OKLAHOMA ST,Anchorage,AK,99504,"110 OKLAHOMA ST, Anchorage, AK, 99504",Match,Exact,"110 OKLAHOMA ST, ANCHORAGE, AK, 99504",190802852,R,02,020,000702,1005,-149.7448,61.223892000000006
7567,110 OKLAHOMA ST,Anchorage,AK,99504,"110 OKLAHOMA ST, Anchorage, AK, 99504",Match,Exact,"110 OKLAHOMA ST, ANCHORAGE, AK, 99504",190802852,R,02,020,000702,1005,-149.7448,61.223892000000006
7568,110 OKLAHOMA ST,Anchorage,AK,99504,"110 OKLAHOMA ST, Anchorage, AK, 99504",Match,Exact,"110 OKLAHOMA ST, ANCHORAGE, AK, 99504",190802852,R,02,020,000702,1005,-149.7448,61.223892000000006
7569,110 OKLAHOMA ST,Anchorage,AK,99504,"110 OKLAHOMA ST, Anchorage, AK, 99504",Match,Exact,"110 OKLAHOMA ST, ANCHORAGE, AK, 99504",190802852,R,02,020,000702,1005,-149.7448,61.223892000000006
7570,110 OKLAHOMA ST,Anchorage,AK,99504,"110 OKLAHOMA ST, Anchorage, AK, 99504",Match,Exact,"110 OKLAHOMA ST, ANCHORAGE, AK, 99504",190802852,R,02,020,000702,1005,-149.7448,61.223892000000006
7571,20244 GLACIER PARK CIR,Anchorage,AK,99577,"20244 GLACIER PARK CIR, Anchorage, AK, 99577",Match,Non_Exact,"20244 GLACIER PARK CIR, EAGLE RIVER, AK, 99577",605336517,R,02,020,000203,3002,-149.50486999999998,61.300316
7572,20602 DRIFTWOOD BAY DR,Anchorage,AK,99577,"20602 DRIFTWOOD BAY DR, Anchorage, AK, 99577",Match,Non_Exact,"20602 DRIFTWOOD BAY DR, EAGLE RIVER, AK, 99577",625727882,L,02,020,000203,3000,-149.49763000000002,61.30040699999999
7573,20306 GLACIER PARK CIR,Anchorage,AK,99577,"20306 GLACIER PARK CIR, Anchorage, AK, 99577",Match,Non_Exact,"20306 GLACIER PARK CIR, EAGLE RIVER, AK, 99577",605336517,R,02,020,000203,3002,-149.50354,61.300290000000004
7574,20544 DRIFTWOOD BAY DR,Anchorage,AK,99577,"20544 DRIFTWOOD BAY DR, Anchorage, AK, 99577",Match,Non_Exact,"20544 DRIFTWOOD BAY DR, EAGLE RIVER, AK, 99577",625727883,L,02,020,000203,3000,-149.49948,61.30025500000001
7575,20248 GLACIER PARK CIR,Anchorage,AK,99577,"20248 GLACIER PARK CIR, Anchorage, AK, 99577",Match,Non_Exact,"20248 GLACIER PARK CIR, EAGLE RIVER, AK, 99577",605336517,R,02,020,000203,3002,-149.50478999999999,61.3003
7576,20302 GLACIER PARK CIR,Anchorage,AK,99577,"20302 GLACIER PARK CIR, Anchorage, AK, 99577",Match,Non_Exact,"20302 GLACIER PARK CIR, EAGLE RIVER, AK, 99577",605336517,R,02,020,000203,3002,-149.50361999999998,61.300284999999995
7577,8803 DOME CIR,Anchorage,AK,99577,"8803 DOME CIR, Anchorage, AK, 99577",Match,Non_Exact,"8803 DOME CIR, EAGLE RIVER, AK, 99577",190805577,R,02,020,000203,3014,-149.53491,61.300175
7578,19529 TRAIL BAY DR,Anchorage,AK,99577,"19529 TRAIL BAY DR, Anchorage, AK, 99577",Match,Non_Exact,"19529 TRAIL BAY DR, EAGLE RIVER, AK, 99577",190827417,L,02,020,000203,3023,-149.5185,61.29995
7579,20252 GLACIER PARK CIR,Anchorage,AK,99577,"20252 GLACIER PARK CIR, Anchorage, AK, 99577",Match,Non_Exact,"20252 GLACIER PARK CIR, EAGLE RIVER, AK, 99577",605336517,R,02,020,000203,3002,-149.5047,61.300284999999995
7580,20256 GLACIER PARK CIR,Anchorage,AK,99577,"20256 GLACIER PARK CIR, Anchorage, AK, 99577",Match,Non_Exact,"20256 GLACIER PARK CIR, EAGLE RIVER, AK, 99577",605336517,R,02,020,000203,3002,-149.50462,61.300274
7581,20522 DRIFTWOOD BAY DR,Anchorage,AK,99577,"20522 DRIFTWOOD BAY DR, Anchorage, AK, 99577",Match,Non_Exact,"20522 DRIFTWOOD BAY DR, EAGLE RIVER, AK, 99577",625727883,L,02,020,000203,3000,-149.49973,61.300243
7582,8823 JULY CREEK CIR,Anchorage,AK,99577,"8823 JULY CREEK CIR, Anchorage, AK, 99577",Match,Non_Exact,"8823 JULY CREEK CIR, EAGLE RIVER, AK, 99577",190805575,R,02,020,000203,3014,-149.53235,61.29991999999999
7583,20500 DRIFTWOOD BAY DR,Anchorage,AK,99577,"20500 DRIFTWOOD BAY DR, Anchorage, AK, 99577",Match,Non_Exact,"20500 DRIFTWOOD BAY DR, EAGLE RIVER, AK, 99577",625727883,L,02,020,000203,3000,-149.49998,61.300231999999994
7584,8842 KAK ISLAND ST,Anchorage,AK,99577,"8842 KAK ISLAND ST, Anchorage, AK, 99577",Match,Non_Exact,"8842 KAK ISLAND ST, EAGLE RIVER, AK, 99577",190818618,R,02,020,000203,3014,-149.53069,61.300312
7585,18909 CHRYSTAL ISLAND DR,Anchorage,AK,99577,"18909 CHRYSTAL ISLAND DR, Anchorage, AK, 99577",Match,Non_Exact,"18909 CHRYSTAL ISLAND DR, EAGLE RIVER, AK, 99577",190818620,L,02,020,000203,3023,-149.53015,61.300163
7586,20484 DRIFTWOOD BAY DR,Anchorage,AK,99577,"20484 DRIFTWOOD BAY DR, Anchorage, AK, 99577",Match,Non_Exact,"20484 DRIFTWOOD BAY DR, EAGLE RIVER, AK, 99577",625727883,L,02,020,000203,3000,-149.50017,61.300224
7587,18917 CHRYSTAL ISLAND DR,Anchorage,AK,99577,"18917 CHRYSTAL ISLAND DR, Anchorage, AK, 99577",Match,Non_Exact,"18917 CHRYSTAL ISLAND DR, EAGLE RIVER, AK, 99577",190818620,L,02,020,000203,3023,-149.52998,61.30015
7588,22301 ELKHORN CIR,Anchorage,AK,99577,"22301 ELKHORN CIR, Anchorage, AK, 99577",Match,Non_Exact,"22301 ELKHORN CIR, EAGLE RIVER, AK, 99577",190815048,L,02,020,000204,2004,-149.46632,61.258003
7589,4039 BIRDSONG DR,Anchorage,AK,99577,"4039 BIRDSONG DR, Anchorage, AK, 99577",Match,Non_Exact,"4039 BIRDSONG DR, EAGLE RIVER, AK, 99577",190827241,L,02,020,000204,2013,-149.47363,61.256786
7590,22350 ELKHORN CIR,Anchorage,AK,99577,"22350 ELKHORN CIR, Anchorage, AK, 99577",Match,Non_Exact,"22350 ELKHORN CIR, EAGLE RIVER, AK, 99577",190815048,R,02,020,000204,2004,-149.4658,61.257713
7591,22339 ELKHORN CIR,Anchorage,AK,99577,"22339 ELKHORN CIR, Anchorage, AK, 99577",Match,Non_Exact,"22339 ELKHORN CIR, EAGLE RIVER, AK, 99577",190815048,L,02,020,000204,2004,-149.46652,61.258266000000006
7592,4044 ELKHORN DR,Anchorage,AK,99577,"4044 ELKHORN DR, Anchorage, AK, 99577",Match,Non_Exact,"4044 ELKHORN DR, EAGLE RIVER, AK, 99577",190827250,L,02,020,000204,2004,-149.468,61.256725
7593,4027 JOHNNY DR,Anchorage,AK,99577,"4027 JOHNNY DR, Anchorage, AK, 99577",Match,Non_Exact,"4027 JOHNNY DR, EAGLE RIVER, AK, 99577",190826099,L,02,020,000204,2013,-149.47716,61.256780000000006
7594,4025 COTTON GRASS DR,Anchorage,AK,99577,"4025 COTTON GRASS DR, Anchorage, AK, 99577",Match,Non_Exact,"4025 COTTON GRASS DR, EAGLE RIVER, AK, 99577",190827692,R,02,020,000204,2004,-149.46347,61.257748
7595,4027 BIRDSONG DR,Anchorage,AK,99577,"4027 BIRDSONG DR, Anchorage, AK, 99577",Match,Non_Exact,"4027 BIRDSONG DR, EAGLE RIVER, AK, 99577",190827241,L,02,020,000204,2013,-149.47363,61.256668000000005
7596,3931 JOHNNY DR,Anchorage,AK,99577,"3931 JOHNNY DR, Anchorage, AK, 99577",Match,Non_Exact,"3931 JOHNNY DR, EAGLE RIVER, AK, 99577",190826099,L,02,020,000204,2013,-149.47717,61.256069999999994
7597,3915 HILAND RD,Anchorage,AK,99577,"3915 HILAND RD, Anchorage, AK, 99577",Match,Non_Exact,"3915 HILAND RD, EAGLE RIVER, AK, 99577",190815049,L,02,020,000204,2004,-149.4659,61.2549
7598,3920 BIRDSONG DR,Anchorage,AK,99577,"3920 BIRDSONG DR, Anchorage, AK, 99577",Match,Non_Exact,"3920 BIRDSONG DR, EAGLE RIVER, AK, 99577",190827241,R,02,020,000204,2013,-149.47368,61.255630000000004
7599,3923 BIRDSONG DR,Anchorage,AK,99577,"3923 BIRDSONG DR, Anchorage, AK, 99577",Match,Non_Exact,"3923 BIRDSONG DR, EAGLE RIVER, AK, 99577",190827241,L,02,020,000204,2013,-149.47365,61.25565
7600,3839 COTTON GRASS DR,Anchorage,AK,99577,"3839 COTTON GRASS DR, Anchorage, AK, 99577",Match,Non_Exact,"3839 COTTON GRASS DR, EAGLE RIVER, AK, 99577",190827692,R,02,020,000204,2004,-149.46341999999999,61.25577
7601,3828 BIRDSONG DR,Anchorage,AK,99577,"3828 BIRDSONG DR, Anchorage, AK, 99577",Match,Non_Exact,"3828 BIRDSONG DR, EAGLE RIVER, AK, 99577",190827241,R,02,020,000204,2013,-149.47368,61.254726
7602,3830 JOHNNY DR,Anchorage,AK,99577,"3830 JOHNNY DR, Anchorage, AK, 99577",Match,Non_Exact,"3830 JOHNNY DR, EAGLE RIVER, AK, 99577",190826099,R,02,020,000204,2013,-149.4772,61.255325
7603,3809 JOHNNY DR,Anchorage,AK,99577,"3809 JOHNNY DR, Anchorage, AK, 99577",Match,Non_Exact,"3809 JOHNNY DR, EAGLE RIVER, AK, 99577",190826099,L,02,020,000204,2013,-149.47717,61.255165000000005
7604,3809 HILAND RD,Anchorage,AK,99577,"3809 HILAND RD, Anchorage, AK, 99577",Match,Non_Exact,"3809 HILAND RD, EAGLE RIVER, AK, 99577",190815049,L,02,020,000204,2004,-149.46527,61.253212
7605,3728 COTTON GRASS DR,Anchorage,AK,99577,"3728 COTTON GRASS DR, Anchorage, AK, 99577",Match,Non_Exact,"3728 COTTON GRASS DR, EAGLE RIVER, AK, 99577",190827692,L,02,020,000204,2004,-149.46393999999998,61.253536
7606,3743 COTTON GRASS DR,Anchorage,AK,99577,"3743 COTTON GRASS DR, Anchorage, AK, 99577",Match,Non_Exact,"3743 COTTON GRASS DR, EAGLE RIVER, AK, 99577",190827692,R,02,020,000204,2004,-149.4634,61.254753
7607,3751 BIRDSONG DR,Anchorage,AK,99577,"3751 BIRDSONG DR, Anchorage, AK, 99577",Match,Non_Exact,"3751 BIRDSONG DR, EAGLE RIVER, AK, 99577",190827241,L,02,020,000204,2013,-149.47366,61.253963
7608,5800 BOUNDARY AVE,Anchorage,AK,99504,"5800 BOUNDARY AVE, Anchorage, AK, 99504",Match,Exact,"5800 BOUNDARY AVE, ANCHORAGE, AK, 99504",614864902,R,02,020,000701,1000,-149.7759,61.224155
7609,5800 BOUNDARY AVE,Anchorage,AK,99504,"5800 BOUNDARY AVE, Anchorage, AK, 99504",Match,Exact,"5800 BOUNDARY AVE, ANCHORAGE, AK, 99504",614864902,R,02,020,000701,1000,-149.7759,61.224155
7610,5800 BOUNDARY AVE,Anchorage,AK,99504,"5800 BOUNDARY AVE, Anchorage, AK, 99504",Match,Exact,"5800 BOUNDARY AVE, ANCHORAGE, AK, 99504",614864902,R,02,020,000701,1000,-149.7759,61.224155
7611,5800 BOUNDARY AVE,Anchorage,AK,99504,"5800 BOUNDARY AVE, Anchorage, AK, 99504",Match,Exact,"5800 BOUNDARY AVE, ANCHORAGE, AK, 99504",614864902,R,02,020,000701,1000,-149.7759,61.224155
7612,5800 BOUNDARY AVE,Anchorage,AK,99504,"5800 BOUNDARY AVE, Anchorage, AK, 99504",Match,Exact,"5800 BOUNDARY AVE, ANCHORAGE, AK, 99504",614864902,R,02,020,000701,1000,-149.7759,61.224155
7613,5800 BOUNDARY AVE,Anchorage,AK,99504,"5800 BOUNDARY AVE, Anchorage, AK, 99504",Match,Exact,"5800 BOUNDARY AVE, ANCHORAGE, AK, 99504",614864902,R,02,020,000701,1000,-149.7759,61.224155
7614,5800 BOUNDARY AVE,Anchorage,AK,99504,"5800 BOUNDARY AVE, Anchorage, AK, 99504",Match,Exact,"5800 BOUNDARY AVE, ANCHORAGE, AK, 99504",614864902,R,02,020,000701,1000,-149.7759,61.224155
7615,5800 BOUNDARY AVE,Anchorage,AK,99504,"5800 BOUNDARY AVE, Anchorage, AK, 99504",Match,Exact,"5800 BOUNDARY AVE, ANCHORAGE, AK, 99504",614864902,R,02,020,000701,1000,-149.7759,61.224155
7616,5800 BOUNDARY AVE,Anchorage,AK,99504,"5800 BOUNDARY AVE, Anchorage, AK, 99504",Match,Exact,"5800 BOUNDARY AVE, ANCHORAGE, AK, 99504",614864902,R,02,020,000701,1000,-149.7759,61.224155
7617,5800 BOUNDARY AVE,Anchorage,AK,99504,"5800 BOUNDARY AVE, Anchorage, AK, 99504",Match,Exact,"5800 BOUNDARY AVE, ANCHORAGE, AK, 99504",614864902,R,02,020,000701,1000,-149.7759,61.224155
7618,5800 BOUNDARY AVE,Anchorage,AK,99504,"5800 BOUNDARY AVE, Anchorage, AK, 99504",Match,Exact,"5800 BOUNDARY AVE, ANCHORAGE, AK, 99504",614864902,R,02,020,000701,1000,-149.7759,61.224155
7619,5800 BOUNDARY AVE,Anchorage,AK,99504,"5800 BOUNDARY AVE, Anchorage, AK, 99504",Match,Exact,"5800 BOUNDARY AVE, ANCHORAGE, AK, 99504",614864902,R,02,020,000701,1000,-149.7759,61.224155
7620,5800 BOUNDARY AVE,Anchorage,AK,99504,"5800 BOUNDARY AVE, Anchorage, AK, 99504",Match,Exact,"5800 BOUNDARY AVE, ANCHORAGE, AK, 99504",614864902,R,02,020,000701,1000,-149.7759,61.224155
7621,8507 PECK AVE,Anchorage,AK,99504,"8507 PECK AVE, Anchorage, AK, 99504",Match,Exact,"8507 PECK AVE, ANCHORAGE, AK, 99504",190803305,L,02,020,000703,1012,-149.72168,61.222384999999996
7622,141 ACES CIR,Anchorage,AK,99504,"141 ACES CIR, Anchorage, AK, 99504",Match,Exact,"141 ACES CIR, ANCHORAGE, AK, 99504",190820032,R,02,020,000702,3003,-149.75114,61.222606999999996
7623,8417 PECK AVE,Anchorage,AK,99504,"8417 PECK AVE, Anchorage, AK, 99504",Match,Exact,"8417 PECK AVE, ANCHORAGE, AK, 99504",190812130,L,02,020,000703,1011,-149.72351,61.22238
7624,8409 PECK AVE,Anchorage,AK,99504,"8409 PECK AVE, Anchorage, AK, 99504",Match,Exact,"8409 PECK AVE, ANCHORAGE, AK, 99504",190812130,L,02,020,000703,1011,-149.72365,61.22238
7625,8401 PECK AVE,Anchorage,AK,99504,"8401 PECK AVE, Anchorage, AK, 99504",Match,Exact,"8401 PECK AVE, ANCHORAGE, AK, 99504",190812130,L,02,020,000703,1011,-149.72378999999998,61.22238
7626,8101 PECK AVE,Anchorage,AK,99504,"8101 PECK AVE, Anchorage, AK, 99504",Match,Exact,"8101 PECK AVE, ANCHORAGE, AK, 99504",190803203,L,02,020,000703,2000,-149.72781,61.222378000000006
7627,8101 PECK AVE,Anchorage,AK,99504,"8101 PECK AVE, Anchorage, AK, 99504",Match,Exact,"8101 PECK AVE, ANCHORAGE, AK, 99504",190803203,L,02,020,000703,2000,-149.72781,61.222378000000006
7628,8101 PECK AVE,Anchorage,AK,99504,"8101 PECK AVE, Anchorage, AK, 99504",Match,Exact,"8101 PECK AVE, ANCHORAGE, AK, 99504",190803203,L,02,020,000703,2000,-149.72781,61.222378000000006
7629,8101 PECK AVE,Anchorage,AK,99504,"8101 PECK AVE, Anchorage, AK, 99504",Match,Exact,"8101 PECK AVE, ANCHORAGE, AK, 99504",190803203,L,02,020,000703,2000,-149.72781,61.222378000000006
7630,8101 PECK AVE,Anchorage,AK,99504,"8101 PECK AVE, Anchorage, AK, 99504",Match,Exact,"8101 PECK AVE, ANCHORAGE, AK, 99504",190803203,L,02,020,000703,2000,-149.72781,61.222378000000006
7631,8101 PECK AVE,Anchorage,AK,99504,"8101 PECK AVE, Anchorage, AK, 99504",Match,Exact,"8101 PECK AVE, ANCHORAGE, AK, 99504",190803203,L,02,020,000703,2000,-149.72781,61.222378000000006
7632,8101 PECK AVE,Anchorage,AK,99504,"8101 PECK AVE, Anchorage, AK, 99504",Match,Exact,"8101 PECK AVE, ANCHORAGE, AK, 99504",190803203,L,02,020,000703,2000,-149.72781,61.222378000000006
7633,8101 PECK AVE,Anchorage,AK,99504,"8101 PECK AVE, Anchorage, AK, 99504",Match,Exact,"8101 PECK AVE, ANCHORAGE, AK, 99504",190803203,L,02,020,000703,2000,-149.72781,61.222378000000006
7634,8101 PECK AVE,Anchorage,AK,99504,"8101 PECK AVE, Anchorage, AK, 99504",Match,Exact,"8101 PECK AVE, ANCHORAGE, AK, 99504",190803203,L,02,020,000703,2000,-149.72781,61.222378000000006
7635,8101 PECK AVE,Anchorage,AK,99504,"8101 PECK AVE, Anchorage, AK, 99504",Match,Exact,"8101 PECK AVE, ANCHORAGE, AK, 99504",190803203,L,02,020,000703,2000,-149.72781,61.222378000000006
7636,8101 PECK AVE,Anchorage,AK,99504,"8101 PECK AVE, Anchorage, AK, 99504",Match,Exact,"8101 PECK AVE, ANCHORAGE, AK, 99504",190803203,L,02,020,000703,2000,-149.72781,61.222378000000006
7637,8101 PECK AVE,Anchorage,AK,99504,"8101 PECK AVE, Anchorage, AK, 99504",Match,Exact,"8101 PECK AVE, ANCHORAGE, AK, 99504",190803203,L,02,020,000703,2000,-149.72781,61.222378000000006
7638,8101 PECK AVE,Anchorage,AK,99504,"8101 PECK AVE, Anchorage, AK, 99504",Match,Exact,"8101 PECK AVE, ANCHORAGE, AK, 99504",190803203,L,02,020,000703,2000,-149.72781,61.222378000000006
7639,8101 PECK AVE,Anchorage,AK,99504,"8101 PECK AVE, Anchorage, AK, 99504",Match,Exact,"8101 PECK AVE, ANCHORAGE, AK, 99504",190803203,L,02,020,000703,2000,-149.72781,61.222378000000006
7640,8101 PECK AVE,Anchorage,AK,99504,"8101 PECK AVE, Anchorage, AK, 99504",Match,Exact,"8101 PECK AVE, ANCHORAGE, AK, 99504",190803203,L,02,020,000703,2000,-149.72781,61.222378000000006
7641,8101 PECK AVE,Anchorage,AK,99504,"8101 PECK AVE, Anchorage, AK, 99504",Match,Exact,"8101 PECK AVE, ANCHORAGE, AK, 99504",190803203,L,02,020,000703,2000,-149.72781,61.222378000000006
7642,8101 PECK AVE,Anchorage,AK,99504,"8101 PECK AVE, Anchorage, AK, 99504",Match,Exact,"8101 PECK AVE, ANCHORAGE, AK, 99504",190803203,L,02,020,000703,2000,-149.72781,61.222378000000006
7643,8101 PECK AVE,Anchorage,AK,99504,"8101 PECK AVE, Anchorage, AK, 99504",Match,Exact,"8101 PECK AVE, ANCHORAGE, AK, 99504",190803203,L,02,020,000703,2000,-149.72781,61.222378000000006
7644,227 NEWELL ST,Anchorage,AK,99504,"227 NEWELL ST, Anchorage, AK, 99504",Match,Exact,"227 NEWELL ST, ANCHORAGE, AK, 99504",605167293,R,02,020,000701,1000,-149.77095,61.222637
7645,227 NEWELL ST,Anchorage,AK,99504,"227 NEWELL ST, Anchorage, AK, 99504",Match,Exact,"227 NEWELL ST, ANCHORAGE, AK, 99504",605167293,R,02,020,000701,1000,-149.77095,61.222637
7646,227 NEWELL ST,Anchorage,AK,99504,"227 NEWELL ST, Anchorage, AK, 99504",Match,Exact,"227 NEWELL ST, ANCHORAGE, AK, 99504",605167293,R,02,020,000701,1000,-149.77095,61.222637
7647,6695 WHISPERING LOOP,Anchorage,AK,99504,"6695 WHISPERING LOOP, Anchorage, AK, 99504",Match,Exact,"6695 WHISPERING LOOP, ANCHORAGE, AK, 99504",624788736,R,02,020,000701,1013,-149.75711,61.221672
7648,6695 WHISPERING LOOP,Anchorage,AK,99504,"6695 WHISPERING LOOP, Anchorage, AK, 99504",Match,Exact,"6695 WHISPERING LOOP, ANCHORAGE, AK, 99504",624788736,R,02,020,000701,1013,-149.75711,61.221672
7649,236 OKLAHOMA ST,Anchorage,AK,99504,"236 OKLAHOMA ST, Anchorage, AK, 99504",Match,Exact,"236 OKLAHOMA ST, ANCHORAGE, AK, 99504",190802855,R,02,020,000702,2008,-149.74477,61.221664000000004
7650,229 1/2 PATTERSON ST,Anchorage,AK,99504,"229 1/2 PATTERSON ST, Anchorage, AK, 99504",Match,Exact,"229 PATTERSON ST, ANCHORAGE, AK, 99504",190802844,L,02,020,000702,2007,-149.7485,61.221793999999996
7651,259 WHISPER RIDGE CIR,Anchorage,AK,99504,"259 WHISPER RIDGE CIR, Anchorage, AK, 99504",Match,Exact,"259 WHISPER RIDGE CIR, ANCHORAGE, AK, 99504",624788767,R,02,020,000701,1013,-149.75891000000001,61.222168
7652,259 WHISPER RIDGE CIR,Anchorage,AK,99504,"259 WHISPER RIDGE CIR, Anchorage, AK, 99504",Match,Exact,"259 WHISPER RIDGE CIR, ANCHORAGE, AK, 99504",624788767,R,02,020,000701,1013,-149.75891000000001,61.222168
7653,7632 MELODY COMMONS CT,Anchorage,AK,99504,"7632 MELODY COMMONS CT, Anchorage, AK, 99504",Match,Exact,"7632 MELODY COMMONS CT, ANCHORAGE, AK, 99504",605182954,R,02,020,000702,2000,-149.73889,61.221676
7654,6920 TRAFFORD DR,Anchorage,AK,99504,"6920 TRAFFORD DR, Anchorage, AK, 99504",Match,Exact,"6920 TRAFFORD DR, ANCHORAGE, AK, 99504",638994280,L,02,020,000702,3004,-149.75204,61.22146
7655,6910 TRAFFORD DR,Anchorage,AK,99504,"6910 TRAFFORD DR, Anchorage, AK, 99504",Match,Exact,"6910 TRAFFORD DR, ANCHORAGE, AK, 99504",638994280,L,02,020,000702,3004,-149.75223,61.221455000000006
7656,247 PATTERSON ST,Anchorage,AK,99504,"247 PATTERSON ST, Anchorage, AK, 99504",Match,Exact,"247 PATTERSON ST, ANCHORAGE, AK, 99504",190802866,L,02,020,000702,2007,-149.7485,61.221396999999996
7657,8401 DUBEN AVE,Anchorage,AK,99504,"8401 DUBEN AVE, Anchorage, AK, 99504",Match,Exact,"8401 DUBEN AVE, ANCHORAGE, AK, 99504",605183645,L,02,020,000703,1013,-149.72345,61.22062
7658,268 GRAND LARRY ST,Anchorage,AK,99504,"268 GRAND LARRY ST, Anchorage, AK, 99504",Match,Exact,"268 GRAND LARRY ST, ANCHORAGE, AK, 99504",190803200,R,02,020,000703,2002,-149.72978,61.221203
7659,268 GRAND LARRY ST,Anchorage,AK,99504,"268 GRAND LARRY ST, Anchorage, AK, 99504",Match,Exact,"268 GRAND LARRY ST, ANCHORAGE, AK, 99504",190803200,R,02,020,000703,2002,-149.72978,61.221203
7660,268 GRAND LARRY ST,Anchorage,AK,99504,"268 GRAND LARRY ST, Anchorage, AK, 99504",Match,Exact,"268 GRAND LARRY ST, ANCHORAGE, AK, 99504",190803200,R,02,020,000703,2002,-149.72978,61.221203
7661,253 IDAHO ST,Anchorage,AK,99504,"253 IDAHO ST, Anchorage, AK, 99504",Match,Exact,"253 IDAHO ST, ANCHORAGE, AK, 99504",190808929,R,02,020,000702,2000,-149.73713999999998,61.220985
7662,238 MELODY PL,Anchorage,AK,99504,"238 MELODY PL, Anchorage, AK, 99504",Match,Exact,"238 MELODY PL, ANCHORAGE, AK, 99504",190802898,R,02,020,000702,2001,-149.73914,61.220703
7663,238 MELODY PL,Anchorage,AK,99504,"238 MELODY PL, Anchorage, AK, 99504",Match,Exact,"238 MELODY PL, ANCHORAGE, AK, 99504",190802898,R,02,020,000702,2001,-149.73914,61.220703
7664,18541 JUDE ISLAND CIR,Anchorage,AK,99577,"18541 JUDE ISLAND CIR, Anchorage, AK, 99577",Match,Non_Exact,"18541 JUDE ISLAND CIR, EAGLE RIVER, AK, 99577",190805567,R,02,020,000203,3014,-149.53717,61.30149
7665,18761 KATELYN CIR,Anchorage,AK,99577,"18761 KATELYN CIR, Anchorage, AK, 99577",Match,Non_Exact,"18761 KATELYN CIR, EAGLE RIVER, AK, 99577",190818650,R,02,020,000203,3021,-149.53256000000002,61.30197
7666,18343 CACHE CREEK CIR,Anchorage,AK,99577,"18343 CACHE CREEK CIR, Anchorage, AK, 99577",Match,Non_Exact,"18343 CACHE CREEK CIR, EAGLE RIVER, AK, 99577",190805556,L,02,020,000203,5004,-149.54077,61.30191
7667,20658 MOUNTAINSIDE DR,Anchorage,AK,99577,"20658 MOUNTAINSIDE DR, Anchorage, AK, 99577",Match,Non_Exact,"20658 MOUNTAINSIDE DR, EAGLE RIVER, AK, 99577",625731930,R,02,020,000203,3000,-149.49739,61.30198299999999
7668,18303 CACHE CREEK CIR,Anchorage,AK,99577,"18303 CACHE CREEK CIR, Anchorage, AK, 99577",Match,Non_Exact,"18303 CACHE CREEK CIR, EAGLE RIVER, AK, 99577",190805556,L,02,020,000203,5004,-149.54115,61.30186
7669,18771 KATELYN CIR,Anchorage,AK,99577,"18771 KATELYN CIR, Anchorage, AK, 99577",Match,Non_Exact,"18771 KATELYN CIR, EAGLE RIVER, AK, 99577",190818650,R,02,020,000203,3021,-149.53238000000002,61.30196
7670,19503 HIGHLAND RIDGE DR,Anchorage,AK,99577,"19503 HIGHLAND RIDGE DR, Anchorage, AK, 99577",Match,Non_Exact,"19503 HIGHLAND RIDGE DR, EAGLE RIVER, AK, 99577",190819652,L,02,020,000203,3015,-149.51923,61.30169
7671,20670 MOUNTAINSIDE DR,Anchorage,AK,99577,"20670 MOUNTAINSIDE DR, Anchorage, AK, 99577",Match,Non_Exact,"20670 MOUNTAINSIDE DR, EAGLE RIVER, AK, 99577",625731930,R,02,020,000203,3000,-149.49718000000001,61.301956000000004
7672,18432 JUDE ISLAND CIR,Anchorage,AK,99577,"18432 JUDE ISLAND CIR, Anchorage, AK, 99577",Match,Non_Exact,"18432 JUDE ISLAND CIR, EAGLE RIVER, AK, 99577",190805567,L,02,020,000203,3014,-149.5377,61.30177
7673,18801 KATELYN CIR,Anchorage,AK,99577,"18801 KATELYN CIR, Anchorage, AK, 99577",Match,Non_Exact,"18801 KATELYN CIR, EAGLE RIVER, AK, 99577",190818650,R,02,020,000203,3021,-149.53185,61.301919999999996
7674,20682 MOUNTAINSIDE DR,Anchorage,AK,99577,"20682 MOUNTAINSIDE DR, Anchorage, AK, 99577",Match,Non_Exact,"20682 MOUNTAINSIDE DR, EAGLE RIVER, AK, 99577",625731930,R,02,020,000203,3000,-149.49696,61.301933
7675,18811 KATELYN CIR,Anchorage,AK,99577,"18811 KATELYN CIR, Anchorage, AK, 99577",Match,Non_Exact,"18811 KATELYN CIR, EAGLE RIVER, AK, 99577",190818650,R,02,020,000203,3021,-149.53166000000002,61.30191
7676,18344 CACHE CREEK CIR,Anchorage,AK,99577,"18344 CACHE CREEK CIR, Anchorage, AK, 99577",Match,Non_Exact,"18344 CACHE CREEK CIR, EAGLE RIVER, AK, 99577",190805556,R,02,020,000203,5004,-149.54074,61.301903
7677,9004 W PARKVIEW TERRACE LOOP,Anchorage,AK,99577,"9004 W PARKVIEW TERRACE LOOP, Anchorage, AK, 99577",Match,Non_Exact,"9004 W PARKVIEW TER LP, EAGLE RIVER, AK, 99577",190805555,L,02,020,000203,5000,-149.54211,61.302395
7678,20694 MOUNTAINSIDE DR,Anchorage,AK,99577,"20694 MOUNTAINSIDE DR, Anchorage, AK, 99577",Match,Non_Exact,"20694 MOUNTAINSIDE DR, EAGLE RIVER, AK, 99577",625731930,R,02,020,000203,3000,-149.49675,61.30191
7679,18821 KATELYN CIR,Anchorage,AK,99577,"18821 KATELYN CIR, Anchorage, AK, 99577",Match,Non_Exact,"18821 KATELYN CIR, EAGLE RIVER, AK, 99577",190818650,R,02,020,000203,3021,-149.53148000000002,61.3019
7680,20706 MOUNTAINSIDE DR,Anchorage,AK,99577,"20706 MOUNTAINSIDE DR, Anchorage, AK, 99577",Match,Non_Exact,"20706 MOUNTAINSIDE DR, EAGLE RIVER, AK, 99577",625731930,R,02,020,000203,3000,-149.49653999999998,61.301888
7681,18551 JUDE ISLAND CIR,Anchorage,AK,99577,"18551 JUDE ISLAND CIR, Anchorage, AK, 99577",Match,Non_Exact,"18551 JUDE ISLAND CIR, EAGLE RIVER, AK, 99577",190805567,R,02,020,000203,3014,-149.53691,61.301464
7682,20718 MOUNTAINSIDE DR,Anchorage,AK,99577,"20718 MOUNTAINSIDE DR, Anchorage, AK, 99577",Match,Non_Exact,"20718 MOUNTAINSIDE DR, EAGLE RIVER, AK, 99577",625731930,R,02,020,000203,3000,-149.49634,61.30186
7683,6835 ALL STAR CIR,Anchorage,AK,99504,"6835 ALL STAR CIR, Anchorage, AK, 99504",Match,Exact,"6835 ALL STAR CIR, ANCHORAGE, AK, 99504",190819820,R,02,020,000702,3002,-149.75386,61.222862
7684,110 STEWART ST,Anchorage,AK,99508,"110 STEWART ST, Anchorage, AK, 99508",Match,Exact,"110 STEWART ST, ANCHORAGE, AK, 99508",190801683,R,02,020,000801,2001,-149.78791999999999,61.22395
7685,6845 ALL STAR CIR,Anchorage,AK,99504,"6845 ALL STAR CIR, Anchorage, AK, 99504",Match,Exact,"6845 ALL STAR CIR, ANCHORAGE, AK, 99504",190819820,R,02,020,000702,3002,-149.75371,61.222866
7686,6855 ALL STAR CIR,Anchorage,AK,99504,"6855 ALL STAR CIR, Anchorage, AK, 99504",Match,Exact,"6855 ALL STAR CIR, ANCHORAGE, AK, 99504",190819820,R,02,020,000702,3002,-149.75354,61.222866
7687,7505 BOUNDARY AVE,Anchorage,AK,99504,"7505 BOUNDARY AVE, Anchorage, AK, 99504",Match,Exact,"7505 BOUNDARY AVE, ANCHORAGE, AK, 99504",605167228,L,02,020,000702,1001,-149.74295,61.224180000000004
7688,7505 BOUNDARY AVE,Anchorage,AK,99504,"7505 BOUNDARY AVE, Anchorage, AK, 99504",Match,Exact,"7505 BOUNDARY AVE, ANCHORAGE, AK, 99504",605167228,L,02,020,000702,1001,-149.74295,61.224180000000004
7689,7505 BOUNDARY AVE,Anchorage,AK,99504,"7505 BOUNDARY AVE, Anchorage, AK, 99504",Match,Exact,"7505 BOUNDARY AVE, ANCHORAGE, AK, 99504",605167228,L,02,020,000702,1001,-149.74295,61.224180000000004
7690,7505 BOUNDARY AVE,Anchorage,AK,99504,"7505 BOUNDARY AVE, Anchorage, AK, 99504",Match,Exact,"7505 BOUNDARY AVE, ANCHORAGE, AK, 99504",605167228,L,02,020,000702,1001,-149.74295,61.224180000000004
7691,7505 BOUNDARY AVE,Anchorage,AK,99504,"7505 BOUNDARY AVE, Anchorage, AK, 99504",Match,Exact,"7505 BOUNDARY AVE, ANCHORAGE, AK, 99504",605167228,L,02,020,000702,1001,-149.74295,61.224180000000004
7692,7505 BOUNDARY AVE,Anchorage,AK,99504,"7505 BOUNDARY AVE, Anchorage, AK, 99504",Match,Exact,"7505 BOUNDARY AVE, ANCHORAGE, AK, 99504",605167228,L,02,020,000702,1001,-149.74295,61.224180000000004
7693,7505 BOUNDARY AVE,Anchorage,AK,99504,"7505 BOUNDARY AVE, Anchorage, AK, 99504",Match,Exact,"7505 BOUNDARY AVE, ANCHORAGE, AK, 99504",605167228,L,02,020,000702,1001,-149.74295,61.224180000000004
7694,7505 BOUNDARY AVE,Anchorage,AK,99504,"7505 BOUNDARY AVE, Anchorage, AK, 99504",Match,Exact,"7505 BOUNDARY AVE, ANCHORAGE, AK, 99504",605167228,L,02,020,000702,1001,-149.74295,61.224180000000004
7695,7505 BOUNDARY AVE,Anchorage,AK,99504,"7505 BOUNDARY AVE, Anchorage, AK, 99504",Match,Exact,"7505 BOUNDARY AVE, ANCHORAGE, AK, 99504",605167228,L,02,020,000702,1001,-149.74295,61.224180000000004
7696,7505 BOUNDARY AVE,Anchorage,AK,99504,"7505 BOUNDARY AVE, Anchorage, AK, 99504",Match,Exact,"7505 BOUNDARY AVE, ANCHORAGE, AK, 99504",605167228,L,02,020,000702,1001,-149.74295,61.224180000000004
7697,7505 BOUNDARY AVE,Anchorage,AK,99504,"7505 BOUNDARY AVE, Anchorage, AK, 99504",Match,Exact,"7505 BOUNDARY AVE, ANCHORAGE, AK, 99504",605167228,L,02,020,000702,1001,-149.74295,61.224180000000004
7698,7505 BOUNDARY AVE,Anchorage,AK,99504,"7505 BOUNDARY AVE, Anchorage, AK, 99504",Match,Exact,"7505 BOUNDARY AVE, ANCHORAGE, AK, 99504",605167228,L,02,020,000702,1001,-149.74295,61.224180000000004
7699,7505 BOUNDARY AVE,Anchorage,AK,99504,"7505 BOUNDARY AVE, Anchorage, AK, 99504",Match,Exact,"7505 BOUNDARY AVE, ANCHORAGE, AK, 99504",605167228,L,02,020,000702,1001,-149.74295,61.224180000000004
7700,7505 BOUNDARY AVE,Anchorage,AK,99504,"7505 BOUNDARY AVE, Anchorage, AK, 99504",Match,Exact,"7505 BOUNDARY AVE, ANCHORAGE, AK, 99504",605167228,L,02,020,000702,1001,-149.74295,61.224180000000004
7701,7505 BOUNDARY AVE,Anchorage,AK,99504,"7505 BOUNDARY AVE, Anchorage, AK, 99504",Match,Exact,"7505 BOUNDARY AVE, ANCHORAGE, AK, 99504",605167228,L,02,020,000702,1001,-149.74295,61.224180000000004
7702,7505 BOUNDARY AVE,Anchorage,AK,99504,"7505 BOUNDARY AVE, Anchorage, AK, 99504",Match,Exact,"7505 BOUNDARY AVE, ANCHORAGE, AK, 99504",605167228,L,02,020,000702,1001,-149.74295,61.224180000000004
7703,7505 BOUNDARY AVE,Anchorage,AK,99504,"7505 BOUNDARY AVE, Anchorage, AK, 99504",Match,Exact,"7505 BOUNDARY AVE, ANCHORAGE, AK, 99504",605167228,L,02,020,000702,1001,-149.74295,61.224180000000004
7704,7505 BOUNDARY AVE,Anchorage,AK,99504,"7505 BOUNDARY AVE, Anchorage, AK, 99504",Match,Exact,"7505 BOUNDARY AVE, ANCHORAGE, AK, 99504",605167228,L,02,020,000702,1001,-149.74295,61.224180000000004
7705,7505 BOUNDARY AVE,Anchorage,AK,99504,"7505 BOUNDARY AVE, Anchorage, AK, 99504",Match,Exact,"7505 BOUNDARY AVE, ANCHORAGE, AK, 99504",605167228,L,02,020,000702,1001,-149.74295,61.224180000000004
7706,102 FIREOVED DR,Anchorage,AK,99508,"102 FIREOVED DR, Anchorage, AK, 99508",Match,Exact,"102 FIREOVED DR, ANCHORAGE, AK, 99508",624091015,R,02,020,000801,3004,-149.78264,61.22373
7707,102 FIREOVED DR,Anchorage,AK,99508,"102 FIREOVED DR, Anchorage, AK, 99508",Match,Exact,"102 FIREOVED DR, ANCHORAGE, AK, 99508",624091015,R,02,020,000801,3004,-149.78264,61.22373
7708,100 MC CARREY ST,Anchorage,AK,99508,"100 MC CARREY ST, Anchorage, AK, 99508",Match,Exact,"100 MC CARREY ST, ANCHORAGE, AK, 99508",605167268,R,02,020,000801,1000,-149.79173,61.223273999999996
7709,101 DAVIS ST,Anchorage,AK,99508,"101 DAVIS ST, Anchorage, AK, 99508",Match,Exact,"101 DAVIS ST, ANCHORAGE, AK, 99508",190801934,L,02,020,000801,3004,-149.78609,61.2241
7710,100 MC CARREY ST,Anchorage,AK,99508,"100 MC CARREY ST, Anchorage, AK, 99508",Match,Exact,"100 MC CARREY ST, ANCHORAGE, AK, 99508",605167268,R,02,020,000801,1000,-149.79173,61.223273999999996
7711,110 OKLAHOMA ST,Anchorage,AK,99504,"110 OKLAHOMA ST, Anchorage, AK, 99504",Match,Exact,"110 OKLAHOMA ST, ANCHORAGE, AK, 99504",190802852,R,02,020,000702,1005,-149.7448,61.223892000000006
7712,110 OKLAHOMA ST,Anchorage,AK,99504,"110 OKLAHOMA ST, Anchorage, AK, 99504",Match,Exact,"110 OKLAHOMA ST, ANCHORAGE, AK, 99504",190802852,R,02,020,000702,1005,-149.7448,61.223892000000006
7713,110 OKLAHOMA ST,Anchorage,AK,99504,"110 OKLAHOMA ST, Anchorage, AK, 99504",Match,Exact,"110 OKLAHOMA ST, ANCHORAGE, AK, 99504",190802852,R,02,020,000702,1005,-149.7448,61.223892000000006
7714,110 OKLAHOMA ST,Anchorage,AK,99504,"110 OKLAHOMA ST, Anchorage, AK, 99504",Match,Exact,"110 OKLAHOMA ST, ANCHORAGE, AK, 99504",190802852,R,02,020,000702,1005,-149.7448,61.223892000000006
7715,110 OKLAHOMA ST,Anchorage,AK,99504,"110 OKLAHOMA ST, Anchorage, AK, 99504",Match,Exact,"110 OKLAHOMA ST, ANCHORAGE, AK, 99504",190802852,R,02,020,000702,1005,-149.7448,61.223892000000006
7716,110 OKLAHOMA ST,Anchorage,AK,99504,"110 OKLAHOMA ST, Anchorage, AK, 99504",Match,Exact,"110 OKLAHOMA ST, ANCHORAGE, AK, 99504",190802852,R,02,020,000702,1005,-149.7448,61.223892000000006
7717,110 OKLAHOMA ST,Anchorage,AK,99504,"110 OKLAHOMA ST, Anchorage, AK, 99504",Match,Exact,"110 OKLAHOMA ST, ANCHORAGE, AK, 99504",190802852,R,02,020,000702,1005,-149.7448,61.223892000000006
7718,110 OKLAHOMA ST,Anchorage,AK,99504,"110 OKLAHOMA ST, Anchorage, AK, 99504",Match,Exact,"110 OKLAHOMA ST, ANCHORAGE, AK, 99504",190802852,R,02,020,000702,1005,-149.7448,61.223892000000006
7719,110 OKLAHOMA ST,Anchorage,AK,99504,"110 OKLAHOMA ST, Anchorage, AK, 99504",Match,Exact,"110 OKLAHOMA ST, ANCHORAGE, AK, 99504",190802852,R,02,020,000702,1005,-149.7448,61.223892000000006
7720,5800 BOUNDARY AVE,Anchorage,AK,99504,"5800 BOUNDARY AVE, Anchorage, AK, 99504",Match,Exact,"5800 BOUNDARY AVE, ANCHORAGE, AK, 99504",614864902,R,02,020,000701,1000,-149.7759,61.224155
7721,5800 BOUNDARY AVE,Anchorage,AK,99504,"5800 BOUNDARY AVE, Anchorage, AK, 99504",Match,Exact,"5800 BOUNDARY AVE, ANCHORAGE, AK, 99504",614864902,R,02,020,000701,1000,-149.7759,61.224155
7722,5800 BOUNDARY AVE,Anchorage,AK,99504,"5800 BOUNDARY AVE, Anchorage, AK, 99504",Match,Exact,"5800 BOUNDARY AVE, ANCHORAGE, AK, 99504",614864902,R,02,020,000701,1000,-149.7759,61.224155
7723,5800 BOUNDARY AVE,Anchorage,AK,99504,"5800 BOUNDARY AVE, Anchorage, AK, 99504",Match,Exact,"5800 BOUNDARY AVE, ANCHORAGE, AK, 99504",614864902,R,02,020,000701,1000,-149.7759,61.224155
7724,5800 BOUNDARY AVE,Anchorage,AK,99504,"5800 BOUNDARY AVE, Anchorage, AK, 99504",Match,Exact,"5800 BOUNDARY AVE, ANCHORAGE, AK, 99504",614864902,R,02,020,000701,1000,-149.7759,61.224155
7725,5800 BOUNDARY AVE,Anchorage,AK,99504,"5800 BOUNDARY AVE, Anchorage, AK, 99504",Match,Exact,"5800 BOUNDARY AVE, ANCHORAGE, AK, 99504",614864902,R,02,020,000701,1000,-149.7759,61.224155
7726,5800 BOUNDARY AVE,Anchorage,AK,99504,"5800 BOUNDARY AVE, Anchorage, AK, 99504",Match,Exact,"5800 BOUNDARY AVE, ANCHORAGE, AK, 99504",614864902,R,02,020,000701,1000,-149.7759,61.224155
7727,5800 BOUNDARY AVE,Anchorage,AK,99504,"5800 BOUNDARY AVE, Anchorage, AK, 99504",Match,Exact,"5800 BOUNDARY AVE, ANCHORAGE, AK, 99504",614864902,R,02,020,000701,1000,-149.7759,61.224155
7728,5800 BOUNDARY AVE,Anchorage,AK,99504,"5800 BOUNDARY AVE, Anchorage, AK, 99504",Match,Exact,"5800 BOUNDARY AVE, ANCHORAGE, AK, 99504",614864902,R,02,020,000701,1000,-149.7759,61.224155
7729,5190 TAKU DR,Anchorage,AK,99508,"5190 TAKU DR, Anchorage, AK, 99508",Match,Exact,"5190 TAKU DR, ANCHORAGE, AK, 99508",190801940,R,02,020,000801,3004,-149.7845,61.224167
7730,5190 TAKU DR,Anchorage,AK,99508,"5190 TAKU DR, Anchorage, AK, 99508",Match,Exact,"5190 TAKU DR, ANCHORAGE, AK, 99508",190801940,R,02,020,000801,3004,-149.7845,61.224167
7731,5190 TAKU DR,Anchorage,AK,99508,"5190 TAKU DR, Anchorage, AK, 99508",Match,Exact,"5190 TAKU DR, ANCHORAGE, AK, 99508",190801940,R,02,020,000801,3004,-149.7845,61.224167
7732,5190 TAKU DR,Anchorage,AK,99508,"5190 TAKU DR, Anchorage, AK, 99508",Match,Exact,"5190 TAKU DR, ANCHORAGE, AK, 99508",190801940,R,02,020,000801,3004,-149.7845,61.224167
7733,5190 TAKU DR,Anchorage,AK,99508,"5190 TAKU DR, Anchorage, AK, 99508",Match,Exact,"5190 TAKU DR, ANCHORAGE, AK, 99508",190801940,R,02,020,000801,3004,-149.7845,61.224167
7734,5190 TAKU DR,Anchorage,AK,99508,"5190 TAKU DR, Anchorage, AK, 99508",Match,Exact,"5190 TAKU DR, ANCHORAGE, AK, 99508",190801940,R,02,020,000801,3004,-149.7845,61.224167
7735,5160 TAKU DR,Anchorage,AK,99508,"5160 TAKU DR, Anchorage, AK, 99508",Match,Exact,"5160 TAKU DR, ANCHORAGE, AK, 99508",190801940,R,02,020,000801,3004,-149.78493999999998,61.224167
7736,5160 TAKU DR,Anchorage,AK,99508,"5160 TAKU DR, Anchorage, AK, 99508",Match,Exact,"5160 TAKU DR, ANCHORAGE, AK, 99508",190801940,R,02,020,000801,3004,-149.78493999999998,61.224167
7737,5160 TAKU DR,Anchorage,AK,99508,"5160 TAKU DR, Anchorage, AK, 99508",Match,Exact,"5160 TAKU DR, ANCHORAGE, AK, 99508",190801940,R,02,020,000801,3004,-149.78493999999998,61.224167
7738,5160 TAKU DR,Anchorage,AK,99508,"5160 TAKU DR, Anchorage, AK, 99508",Match,Exact,"5160 TAKU DR, ANCHORAGE, AK, 99508",190801940,R,02,020,000801,3004,-149.78493999999998,61.224167
7739,5160 TAKU DR,Anchorage,AK,99508,"5160 TAKU DR, Anchorage, AK, 99508",Match,Exact,"5160 TAKU DR, ANCHORAGE, AK, 99508",190801940,R,02,020,000801,3004,-149.78493999999998,61.224167
7740,5160 TAKU DR,Anchorage,AK,99508,"5160 TAKU DR, Anchorage, AK, 99508",Match,Exact,"5160 TAKU DR, ANCHORAGE, AK, 99508",190801940,R,02,020,000801,3004,-149.78493999999998,61.224167
7741,6842 PECK AVE,Anchorage,AK,99504,"6842 PECK AVE, Anchorage, AK, 99504",Match,Exact,"6842 PECK AVE, ANCHORAGE, AK, 99504",190820031,L,02,020,000702,3002,-149.75253,61.222485
7742,180 OKLAHOMA ST,Anchorage,AK,99504,"180 OKLAHOMA ST, Anchorage, AK, 99504",Match,Exact,"180 OKLAHOMA ST, ANCHORAGE, AK, 99504",190802853,R,02,020,000702,1005,-149.74478,61.222668000000006
7743,227 NEWELL ST,Anchorage,AK,99504,"227 NEWELL ST, Anchorage, AK, 99504",Match,Exact,"227 NEWELL ST, ANCHORAGE, AK, 99504",605167293,R,02,020,000701,1000,-149.77095,61.222637
7744,5004 CHENA AVE,Anchorage,AK,99508,"5004 CHENA AVE, Anchorage, AK, 99508",Match,Exact,"5004 CHENA AVE, ANCHORAGE, AK, 99508",190801688,R,02,020,000801,2003,-149.78769,61.222828
7745,5000 CHENA AVE,Anchorage,AK,99508,"5000 CHENA AVE, Anchorage, AK, 99508",Match,Exact,"5000 CHENA AVE, ANCHORAGE, AK, 99508",190801688,R,02,020,000801,2003,-149.78775,61.222828
7746,4964 CHENA AVE,Anchorage,AK,99508,"4964 CHENA AVE, Anchorage, AK, 99508",Match,Exact,"4964 CHENA AVE, ANCHORAGE, AK, 99508",190801686,R,02,020,000801,2004,-149.78857,61.222823999999996
7747,192 RUSTY ALLEN PL,Anchorage,AK,99504,"192 RUSTY ALLEN PL, Anchorage, AK, 99504",Match,Exact,"192 RUSTY ALLEN PL, ANCHORAGE, AK, 99504",605185494,R,02,020,000701,1000,-149.76064,61.222675
7748,227 NEWELL ST,Anchorage,AK,99504,"227 NEWELL ST, Anchorage, AK, 99504",Match,Exact,"227 NEWELL ST, ANCHORAGE, AK, 99504",605167293,R,02,020,000701,1000,-149.77095,61.222637
7749,227 NEWELL ST,Anchorage,AK,99504,"227 NEWELL ST, Anchorage, AK, 99504",Match,Exact,"227 NEWELL ST, ANCHORAGE, AK, 99504",605167293,R,02,020,000701,1000,-149.77095,61.222637
7750,130 ACES CIR,Anchorage,AK,99504,"130 ACES CIR, Anchorage, AK, 99504",Match,Exact,"130 ACES CIR, ANCHORAGE, AK, 99504",190820032,L,02,020,000702,3003,-149.75117,61.22264499999999
7751,131 ACES CIR,Anchorage,AK,99504,"131 ACES CIR, Anchorage, AK, 99504",Match,Exact,"131 ACES CIR, ANCHORAGE, AK, 99504",190820032,R,02,020,000702,3003,-149.75114,61.22264499999999
7752,132 NANOOK CIR,Anchorage,AK,99504,"132 NANOOK CIR, Anchorage, AK, 99504",Match,Exact,"132 NANOOK CIR, ANCHORAGE, AK, 99504",190820035,L,02,020,000702,3003,-149.74954,61.222632999999995
7753,178 DEAN PL,Anchorage,AK,99504,"178 DEAN PL, Anchorage, AK, 99504",Match,Exact,"178 DEAN PL, ANCHORAGE, AK, 99504",190802859,R,02,020,000702,2000,-149.74008,61.222694
7754,224 WHISPER RIDGE CIR,Anchorage,AK,99504,"224 WHISPER RIDGE CIR, Anchorage, AK, 99504",Match,Exact,"224 WHISPER RIDGE CIR, ANCHORAGE, AK, 99504",624788767,L,02,020,000701,1013,-149.75894,61.222243999999996
7755,266 WHISPER KNOLL CIR,Anchorage,AK,99504,"266 WHISPER KNOLL CIR, Anchorage, AK, 99504",Match,Exact,"266 WHISPER KNOLL CIR, ANCHORAGE, AK, 99504",605185014,R,02,020,000701,1013,-149.76091,61.22195
7756,266 WHISPER KNOLL CIR,Anchorage,AK,99504,"266 WHISPER KNOLL CIR, Anchorage, AK, 99504",Match,Exact,"266 WHISPER KNOLL CIR, ANCHORAGE, AK, 99504",605185014,R,02,020,000701,1013,-149.76091,61.22195
7757,7602 MELODY COMMONS CT,Anchorage,AK,99504,"7602 MELODY COMMONS CT, Anchorage, AK, 99504",Match,Exact,"7602 MELODY COMMONS CT, ANCHORAGE, AK, 99504",605182954,R,02,020,000702,2000,-149.73895,61.221669999999996
7758,7604 MELODY COMMONS CT,Anchorage,AK,99504,"7604 MELODY COMMONS CT, Anchorage, AK, 99504",Match,Exact,"7604 MELODY COMMONS CT, ANCHORAGE, AK, 99504",605182954,R,02,020,000702,2000,-149.73868000000002,61.221680000000006
7759,7630 MELODY COMMONS CT,Anchorage,AK,99504,"7630 MELODY COMMONS CT, Anchorage, AK, 99504",Match,Exact,"7630 MELODY COMMONS CT, ANCHORAGE, AK, 99504",605182954,R,02,020,000702,2000,-149.73895,61.221672
7760,7616 MELODY COMMONS CT,Anchorage,AK,99504,"7616 MELODY COMMONS CT, Anchorage, AK, 99504",Match,Exact,"7616 MELODY COMMONS CT, ANCHORAGE, AK, 99504",605182954,R,02,020,000702,2000,-149.7373,61.221943
7761,6594 WHISPERING LOOP,Anchorage,AK,99504,"6594 WHISPERING LOOP, Anchorage, AK, 99504",Match,Exact,"6594 WHISPERING LOOP, ANCHORAGE, AK, 99504",624788736,L,02,020,000701,1000,-149.75822,61.220978
7762,8383 DUBEN AVE,Anchorage,AK,99504,"8383 DUBEN AVE, Anchorage, AK, 99504",Match,Exact,"8383 DUBEN AVE, ANCHORAGE, AK, 99504",605183644,L,02,020,000703,1013,-149.72417,61.22062
7763,6496 WHISPERING LOOP,Anchorage,AK,99504,"6496 WHISPERING LOOP, Anchorage, AK, 99504",Match,Exact,"6496 WHISPERING LOOP, ANCHORAGE, AK, 99504",624788733,R,02,020,000701,1000,-149.76111,61.220966000000004
7764,6496 WHISPERING LOOP,Anchorage,AK,99504,"6496 WHISPERING LOOP, Anchorage, AK, 99504",Match,Exact,"6496 WHISPERING LOOP, ANCHORAGE, AK, 99504",624788733,R,02,020,000701,1000,-149.76111,61.220966000000004
7765,6482 WHISPERING LOOP,Anchorage,AK,99504,"6482 WHISPERING LOOP, Anchorage, AK, 99504",Match,Exact,"6482 WHISPERING LOOP, ANCHORAGE, AK, 99504",624788733,R,02,020,000701,1000,-149.76138,61.220946999999995
7766,6482 WHISPERING LOOP,Anchorage,AK,99504,"6482 WHISPERING LOOP, Anchorage, AK, 99504",Match,Exact,"6482 WHISPERING LOOP, ANCHORAGE, AK, 99504",624788733,R,02,020,000701,1000,-149.76138,61.220946999999995
7767,273 FALL LEAF CIR,Anchorage,AK,99504,"273 FALL LEAF CIR, Anchorage, AK, 99504",Match,Exact,"273 FALL LEAF CIR, ANCHORAGE, AK, 99504",190803320,L,02,020,000703,1013,-149.72128,61.220721999999995
7768,6586 WHISPERING LOOP,Anchorage,AK,99504,"6586 WHISPERING LOOP, Anchorage, AK, 99504",Match,Exact,"6586 WHISPERING LOOP, ANCHORAGE, AK, 99504",624788736,L,02,020,000701,1000,-149.7584,61.220969999999994
7769,6586 WHISPERING LOOP,Anchorage,AK,99504,"6586 WHISPERING LOOP, Anchorage, AK, 99504",Match,Exact,"6586 WHISPERING LOOP, ANCHORAGE, AK, 99504",624788736,L,02,020,000701,1000,-149.7584,61.220969999999994
7770,6510 WHISPERING LOOP,Anchorage,AK,99504,"6510 WHISPERING LOOP, Anchorage, AK, 99504",Match,Exact,"6510 WHISPERING LOOP, ANCHORAGE, AK, 99504",624788733,R,02,020,000701,1000,-149.76083,61.220974
7771,6510 WHISPERING LOOP,Anchorage,AK,99504,"6510 WHISPERING LOOP, Anchorage, AK, 99504",Match,Exact,"6510 WHISPERING LOOP, ANCHORAGE, AK, 99504",624788733,R,02,020,000701,1000,-149.76083,61.220974
7772,276 CREEKSIDE ST,Anchorage,AK,99504,"276 CREEKSIDE ST, Anchorage, AK, 99504",Match,Exact,"276 CREEKSIDE ST, ANCHORAGE, AK, 99504",190816630,L,02,020,000702,2001,-149.74101000000002,61.220802
7773,6468 WHISPERING LOOP,Anchorage,AK,99504,"6468 WHISPERING LOOP, Anchorage, AK, 99504",Match,Exact,"6468 WHISPERING LOOP, ANCHORAGE, AK, 99504",624788733,R,02,020,000701,1000,-149.76166,61.220924
7774,6468 WHISPERING LOOP,Anchorage,AK,99504,"6468 WHISPERING LOOP, Anchorage, AK, 99504",Match,Exact,"6468 WHISPERING LOOP, ANCHORAGE, AK, 99504",624788733,R,02,020,000701,1000,-149.76166,61.220924
7775,306 BUNNELL ST,Anchorage,AK,99508,"306 BUNNELL ST, Anchorage, AK, 99508",Match,Exact,"306 BUNNELL ST, ANCHORAGE, AK, 99508",624266934,R,02,020,000801,2005,-149.78972,61.220867000000005
7776,8421 DUBEN AVE,Anchorage,AK,99504,"8421 DUBEN AVE, Anchorage, AK, 99504",Match,Exact,"8421 DUBEN AVE, ANCHORAGE, AK, 99504",605183645,L,02,020,000703,1013,-149.72304,61.22062
7777,6574 WHISPERING LOOP,Anchorage,AK,99504,"6574 WHISPERING LOOP, Anchorage, AK, 99504",Match,Exact,"6574 WHISPERING LOOP, ANCHORAGE, AK, 99504",624788736,L,02,020,000701,1000,-149.75868,61.22096
7778,6574 WHISPERING LOOP,Anchorage,AK,99504,"6574 WHISPERING LOOP, Anchorage, AK, 99504",Match,Exact,"6574 WHISPERING LOOP, ANCHORAGE, AK, 99504",624788736,L,02,020,000701,1000,-149.75868,61.22096
7779,6524 WHISPERING LOOP,Anchorage,AK,99504,"6524 WHISPERING LOOP, Anchorage, AK, 99504",Match,Exact,"6524 WHISPERING LOOP, ANCHORAGE, AK, 99504",624788736,L,02,020,000701,1000,-149.7598,61.220955000000004
7780,6524 WHISPERING LOOP,Anchorage,AK,99504,"6524 WHISPERING LOOP, Anchorage, AK, 99504",Match,Exact,"6524 WHISPERING LOOP, ANCHORAGE, AK, 99504",624788736,L,02,020,000701,1000,-149.7598,61.220955000000004
7781,280 SKYHAVEN CIR,Anchorage,AK,99504,"280 SKYHAVEN CIR, Anchorage, AK, 99504",Match,Exact,"280 SKYHAVEN CIR, ANCHORAGE, AK, 99504",190816627,L,02,020,000702,2001,-149.74286999999998,61.220676
7782,281 SKYHAVEN CIR,Anchorage,AK,99504,"281 SKYHAVEN CIR, Anchorage, AK, 99504",Match,Exact,"281 SKYHAVEN CIR, ANCHORAGE, AK, 99504",190816627,R,02,020,000702,2001,-149.74284,61.220676
7783,280 ALASKA PL,Anchorage,AK,99504,"280 ALASKA PL, Anchorage, AK, 99504",Match,Exact,"280 ALASKA PL, ANCHORAGE, AK, 99504",190810872,R,02,020,000702,2007,-149.74663999999999,61.220980000000004
7784,6562 WHISPERING LOOP,Anchorage,AK,99504,"6562 WHISPERING LOOP, Anchorage, AK, 99504",Match,Exact,"6562 WHISPERING LOOP, ANCHORAGE, AK, 99504",624788736,L,02,020,000701,1000,-149.75894,61.220943000000005
7785,6562 WHISPERING LOOP,Anchorage,AK,99504,"6562 WHISPERING LOOP, Anchorage, AK, 99504",Match,Exact,"6562 WHISPERING LOOP, ANCHORAGE, AK, 99504",624788736,L,02,020,000701,1000,-149.75894,61.220943000000005
7786,6865 ALL STAR CIR,Anchorage,AK,99504,"6865 ALL STAR CIR, Anchorage, AK, 99504",Match,Exact,"6865 ALL STAR CIR, ANCHORAGE, AK, 99504",190819820,R,02,020,000702,3002,-149.75339,61.222866
7787,101 ACES CIR,Anchorage,AK,99504,"101 ACES CIR, Anchorage, AK, 99504",Match,Exact,"101 ACES CIR, ANCHORAGE, AK, 99504",190820032,R,02,020,000702,3003,-149.75114,61.22275500000001
7788,100 ACES CIR,Anchorage,AK,99504,"100 ACES CIR, Anchorage, AK, 99504",Match,Exact,"100 ACES CIR, ANCHORAGE, AK, 99504",190820032,L,02,020,000702,3003,-149.75117,61.22275500000001
7789,102 NANOOK CIR,Anchorage,AK,99504,"102 NANOOK CIR, Anchorage, AK, 99504",Match,Exact,"102 NANOOK CIR, ANCHORAGE, AK, 99504",190820035,L,02,020,000702,3003,-149.74954,61.22274399999999
7790,103 NANOOK CIR,Anchorage,AK,99504,"103 NANOOK CIR, Anchorage, AK, 99504",Match,Exact,"103 NANOOK CIR, ANCHORAGE, AK, 99504",190820035,R,02,020,000702,3003,-149.74951000000001,61.22274399999999
7791,227 NEWELL ST,Anchorage,AK,99504,"227 NEWELL ST, Anchorage, AK, 99504",Match,Exact,"227 NEWELL ST, ANCHORAGE, AK, 99504",605167293,R,02,020,000701,1000,-149.77095,61.222637
7792,6537 KARA SUE LOOP,Anchorage,AK,99504,"6537 KARA SUE LOOP, Anchorage, AK, 99504",Match,Exact,"6537 KARA SUE LOOP, ANCHORAGE, AK, 99504",605185502,L,02,020,000701,1000,-149.7594,61.222626
7793,8101 PECK AVE,Anchorage,AK,99504,"8101 PECK AVE, Anchorage, AK, 99504",Match,Exact,"8101 PECK AVE, ANCHORAGE, AK, 99504",190803203,L,02,020,000703,2000,-149.72781,61.222378000000006
7794,8101 PECK AVE,Anchorage,AK,99504,"8101 PECK AVE, Anchorage, AK, 99504",Match,Exact,"8101 PECK AVE, ANCHORAGE, AK, 99504",190803203,L,02,020,000703,2000,-149.72781,61.222378000000006
7795,8101 PECK AVE,Anchorage,AK,99504,"8101 PECK AVE, Anchorage, AK, 99504",Match,Exact,"8101 PECK AVE, ANCHORAGE, AK, 99504",190803203,L,02,020,000703,2000,-149.72781,61.222378000000006
7796,8101 PECK AVE,Anchorage,AK,99504,"8101 PECK AVE, Anchorage, AK, 99504",Match,Exact,"8101 PECK AVE, ANCHORAGE, AK, 99504",190803203,L,02,020,000703,2000,-149.72781,61.222378000000006
7797,8101 PECK AVE,Anchorage,AK,99504,"8101 PECK AVE, Anchorage, AK, 99504",Match,Exact,"8101 PECK AVE, ANCHORAGE, AK, 99504",190803203,L,02,020,000703,2000,-149.72781,61.222378000000006
7798,8101 PECK AVE,Anchorage,AK,99504,"8101 PECK AVE, Anchorage, AK, 99504",Match,Exact,"8101 PECK AVE, ANCHORAGE, AK, 99504",190803203,L,02,020,000703,2000,-149.72781,61.222378000000006
7799,8101 PECK AVE,Anchorage,AK,99504,"8101 PECK AVE, Anchorage, AK, 99504",Match,Exact,"8101 PECK AVE, ANCHORAGE, AK, 99504",190803203,L,02,020,000703,2000,-149.72781,61.222378000000006
7800,8101 PECK AVE,Anchorage,AK,99504,"8101 PECK AVE, Anchorage, AK, 99504",Match,Exact,"8101 PECK AVE, ANCHORAGE, AK, 99504",190803203,L,02,020,000703,2000,-149.72781,61.222378000000006
7801,8101 PECK AVE,Anchorage,AK,99504,"8101 PECK AVE, Anchorage, AK, 99504",Match,Exact,"8101 PECK AVE, ANCHORAGE, AK, 99504",190803203,L,02,020,000703,2000,-149.72781,61.222378000000006
7802,7520 PECK AVE,Anchorage,AK,99504,"7520 PECK AVE, Anchorage, AK, 99504",Match,Exact,"7520 PECK AVE, ANCHORAGE, AK, 99504",190812117,R,02,020,000702,2001,-149.73993000000002,61.222359999999995
7803,7510 PECK AVE,Anchorage,AK,99504,"7510 PECK AVE, Anchorage, AK, 99504",Match,Exact,"7510 PECK AVE, ANCHORAGE, AK, 99504",190802860,R,02,020,000702,2001,-149.74036999999998,61.222359999999995
7804,7020 PECK AVE,Anchorage,AK,99504,"7020 PECK AVE, Anchorage, AK, 99504",Match,Exact,"7020 PECK AVE, ANCHORAGE, AK, 99504",190820033,L,02,020,000702,3002,-149.74945,61.22235500000001
7805,7500 PECK AVE,Anchorage,AK,99504,"7500 PECK AVE, Anchorage, AK, 99504",Match,Exact,"7500 PECK AVE, ANCHORAGE, AK, 99504",190802860,R,02,020,000702,2001,-149.74055,61.222359999999995
7806,7500 PECK AVE,Anchorage,AK,99504,"7500 PECK AVE, Anchorage, AK, 99504",Match,Exact,"7500 PECK AVE, ANCHORAGE, AK, 99504",190802860,R,02,020,000702,2001,-149.74055,61.222359999999995
7807,7010 PECK AVE,Anchorage,AK,99504,"7010 PECK AVE, Anchorage, AK, 99504",Match,Exact,"7010 PECK AVE, ANCHORAGE, AK, 99504",190820034,L,02,020,000702,3002,-149.74976999999998,61.22235500000001
7808,7000 PECK AVE,Anchorage,AK,99504,"7000 PECK AVE, Anchorage, AK, 99504",Match,Exact,"7000 PECK AVE, ANCHORAGE, AK, 99504",190820034,L,02,020,000702,3002,-149.74992,61.22235500000001
7809,7038 PECK AVE,Anchorage,AK,99504,"7038 PECK AVE, Anchorage, AK, 99504",Match,Exact,"7038 PECK AVE, ANCHORAGE, AK, 99504",190820033,L,02,020,000702,3002,-149.74925,61.22235500000001
7810,6940 PECK AVE,Anchorage,AK,99504,"6940 PECK AVE, Anchorage, AK, 99504",Match,Exact,"6940 PECK AVE, ANCHORAGE, AK, 99504",190820034,L,02,020,000702,3002,-149.75083999999998,61.222359999999995
7811,6930 PECK AVE,Anchorage,AK,99504,"6930 PECK AVE, Anchorage, AK, 99504",Match,Exact,"6930 PECK AVE, ANCHORAGE, AK, 99504",190820034,L,02,020,000702,3002,-149.75099,61.222359999999995
7812,6920 PECK AVE,Anchorage,AK,99504,"6920 PECK AVE, Anchorage, AK, 99504",Match,Exact,"6920 PECK AVE, ANCHORAGE, AK, 99504",190820031,L,02,020,000702,3002,-149.75143,61.222359999999995
7813,6910 PECK AVE,Anchorage,AK,99504,"6910 PECK AVE, Anchorage, AK, 99504",Match,Exact,"6910 PECK AVE, ANCHORAGE, AK, 99504",190820031,L,02,020,000702,3002,-149.75159,61.222359999999995
7814,6900 PECK AVE,Anchorage,AK,99504,"6900 PECK AVE, Anchorage, AK, 99504",Match,Exact,"6900 PECK AVE, ANCHORAGE, AK, 99504",190820031,L,02,020,000702,3002,-149.75172,61.222359999999995
7815,7132 PECK AVE,Anchorage,AK,99504,"7132 PECK AVE, Anchorage, AK, 99504",Match,Exact,"7132 PECK AVE, ANCHORAGE, AK, 99504",190802845,R,02,020,000702,2007,-149.74786,61.222359999999995
7816,7132 PECK AVE,Anchorage,AK,99504,"7132 PECK AVE, Anchorage, AK, 99504",Match,Exact,"7132 PECK AVE, ANCHORAGE, AK, 99504",190802845,R,02,020,000702,2007,-149.74786,61.222359999999995
7817,7122 PECK AVE,Anchorage,AK,99504,"7122 PECK AVE, Anchorage, AK, 99504",Match,Exact,"7122 PECK AVE, ANCHORAGE, AK, 99504",190802845,R,02,020,000702,2007,-149.74802,61.222359999999995
7818,7122 PECK AVE,Anchorage,AK,99504,"7122 PECK AVE, Anchorage, AK, 99504",Match,Exact,"7122 PECK AVE, ANCHORAGE, AK, 99504",190802845,R,02,020,000702,2007,-149.74802,61.222359999999995
7819,7112 PECK AVE,Anchorage,AK,99504,"7112 PECK AVE, Anchorage, AK, 99504",Match,Exact,"7112 PECK AVE, ANCHORAGE, AK, 99504",190802845,R,02,020,000702,2007,-149.74818,61.222359999999995
7820,7112 PECK AVE,Anchorage,AK,99504,"7112 PECK AVE, Anchorage, AK, 99504",Match,Exact,"7112 PECK AVE, ANCHORAGE, AK, 99504",190802845,R,02,020,000702,2007,-149.74818,61.222359999999995
7821,7102 PECK AVE,Anchorage,AK,99504,"7102 PECK AVE, Anchorage, AK, 99504",Match,Exact,"7102 PECK AVE, ANCHORAGE, AK, 99504",190802845,R,02,020,000702,2007,-149.74833999999998,61.222359999999995
7822,20460 DRIFTWOOD BAY DR,Anchorage,AK,99577,"20460 DRIFTWOOD BAY DR, Anchorage, AK, 99577",Match,Non_Exact,"20460 DRIFTWOOD BAY DR, EAGLE RIVER, AK, 99577",625727883,L,02,020,000203,3000,-149.50044,61.30021
7823,19027 CHRYSTAL ISLAND DR,Anchorage,AK,99577,"19027 CHRYSTAL ISLAND DR, Anchorage, AK, 99577",Match,Non_Exact,"19027 CHRYSTAL ISLAND DR, EAGLE RIVER, AK, 99577",190818620,L,02,020,000203,3023,-149.52771,61.300006999999994
7824,3828 DELORES DR,Anchorage,AK,99577,"3828 DELORES DR, Anchorage, AK, 99577",Match,Non_Exact,"3828 DELORES DR, EAGLE RIVER, AK, 99577",190818939,L,02,020,000204,1032,-149.2932,61.255221999999996
7825,3820 DELORES DR,Anchorage,AK,99577,"3820 DELORES DR, Anchorage, AK, 99577",Match,Non_Exact,"3820 DELORES DR, EAGLE RIVER, AK, 99577",190818939,L,02,020,000204,1032,-149.29308999999998,61.255173
7826,30505 PRUDHOE BAY AVE,Anchorage,AK,99577,"30505 PRUDHOE BAY AVE, Anchorage, AK, 99577",Match,Non_Exact,"30505 PRUDHOE BAY AVE, EAGLE RIVER, AK, 99577",645481794,L,02,020,000204,1005,-149.31201000000001,61.254706999999996
7827,3851 MARIAH DR,Anchorage,AK,99577,"3851 MARIAH DR, Anchorage, AK, 99577",Match,Non_Exact,"3851 MARIAH DR, EAGLE RIVER, AK, 99577",190820019,L,02,020,000204,1006,-149.2897,61.25431
7828,7505 BOUNDARY AVE,Anchorage,AK,99504,"7505 BOUNDARY AVE, Anchorage, AK, 99504",Match,Exact,"7505 BOUNDARY AVE, ANCHORAGE, AK, 99504",605167228,L,02,020,000702,1001,-149.74295,61.224180000000004
7829,7505 BOUNDARY AVE,Anchorage,AK,99504,"7505 BOUNDARY AVE, Anchorage, AK, 99504",Match,Exact,"7505 BOUNDARY AVE, ANCHORAGE, AK, 99504",605167228,L,02,020,000702,1001,-149.74295,61.224180000000004
7830,7505 BOUNDARY AVE,Anchorage,AK,99504,"7505 BOUNDARY AVE, Anchorage, AK, 99504",Match,Exact,"7505 BOUNDARY AVE, ANCHORAGE, AK, 99504",605167228,L,02,020,000702,1001,-149.74295,61.224180000000004
7831,7505 BOUNDARY AVE,Anchorage,AK,99504,"7505 BOUNDARY AVE, Anchorage, AK, 99504",Match,Exact,"7505 BOUNDARY AVE, ANCHORAGE, AK, 99504",605167228,L,02,020,000702,1001,-149.74295,61.224180000000004
7832,7505 BOUNDARY AVE,Anchorage,AK,99504,"7505 BOUNDARY AVE, Anchorage, AK, 99504",Match,Exact,"7505 BOUNDARY AVE, ANCHORAGE, AK, 99504",605167228,L,02,020,000702,1001,-149.74295,61.224180000000004
7833,7505 BOUNDARY AVE,Anchorage,AK,99504,"7505 BOUNDARY AVE, Anchorage, AK, 99504",Match,Exact,"7505 BOUNDARY AVE, ANCHORAGE, AK, 99504",605167228,L,02,020,000702,1001,-149.74295,61.224180000000004
7834,7505 BOUNDARY AVE,Anchorage,AK,99504,"7505 BOUNDARY AVE, Anchorage, AK, 99504",Match,Exact,"7505 BOUNDARY AVE, ANCHORAGE, AK, 99504",605167228,L,02,020,000702,1001,-149.74295,61.224180000000004
7835,7909 BOUNDARY AVE,Anchorage,AK,99504,"7909 BOUNDARY AVE, Anchorage, AK, 99504",Match,Exact,"7909 BOUNDARY AVE, ANCHORAGE, AK, 99504",190803197,L,02,020,000703,1010,-149.7332,61.224136
7836,8528 BOUNDARY AVE,Anchorage,AK,99504,"8528 BOUNDARY AVE, Anchorage, AK, 99504",Match,Exact,"8528 BOUNDARY AVE, ANCHORAGE, AK, 99504",639710376,R,02,020,000703,1011,-149.7224,61.224136
7837,8528 BOUNDARY AVE,Anchorage,AK,99504,"8528 BOUNDARY AVE, Anchorage, AK, 99504",Match,Exact,"8528 BOUNDARY AVE, ANCHORAGE, AK, 99504",639710376,R,02,020,000703,1011,-149.7224,61.224136
7838,8528 BOUNDARY AVE,Anchorage,AK,99504,"8528 BOUNDARY AVE, Anchorage, AK, 99504",Match,Exact,"8528 BOUNDARY AVE, ANCHORAGE, AK, 99504",639710376,R,02,020,000703,1011,-149.7224,61.224136
7839,8528 BOUNDARY AVE,Anchorage,AK,99504,"8528 BOUNDARY AVE, Anchorage, AK, 99504",Match,Exact,"8528 BOUNDARY AVE, ANCHORAGE, AK, 99504",639710376,R,02,020,000703,1011,-149.7224,61.224136
7840,8528 BOUNDARY AVE,Anchorage,AK,99504,"8528 BOUNDARY AVE, Anchorage, AK, 99504",Match,Exact,"8528 BOUNDARY AVE, ANCHORAGE, AK, 99504",639710376,R,02,020,000703,1011,-149.7224,61.224136
7841,8528 BOUNDARY AVE,Anchorage,AK,99504,"8528 BOUNDARY AVE, Anchorage, AK, 99504",Match,Exact,"8528 BOUNDARY AVE, ANCHORAGE, AK, 99504",639710376,R,02,020,000703,1011,-149.7224,61.224136
7842,8524 BOUNDARY AVE,Anchorage,AK,99504,"8524 BOUNDARY AVE, Anchorage, AK, 99504",Match,Exact,"8524 BOUNDARY AVE, ANCHORAGE, AK, 99504",639710376,R,02,020,000703,1011,-149.72246,61.224136
7843,8524 BOUNDARY AVE,Anchorage,AK,99504,"8524 BOUNDARY AVE, Anchorage, AK, 99504",Match,Exact,"8524 BOUNDARY AVE, ANCHORAGE, AK, 99504",639710376,R,02,020,000703,1011,-149.72246,61.224136
7844,8524 BOUNDARY AVE,Anchorage,AK,99504,"8524 BOUNDARY AVE, Anchorage, AK, 99504",Match,Exact,"8524 BOUNDARY AVE, ANCHORAGE, AK, 99504",639710376,R,02,020,000703,1011,-149.72246,61.224136
7845,8524 BOUNDARY AVE,Anchorage,AK,99504,"8524 BOUNDARY AVE, Anchorage, AK, 99504",Match,Exact,"8524 BOUNDARY AVE, ANCHORAGE, AK, 99504",639710376,R,02,020,000703,1011,-149.72246,61.224136
7846,8524 BOUNDARY AVE,Anchorage,AK,99504,"8524 BOUNDARY AVE, Anchorage, AK, 99504",Match,Exact,"8524 BOUNDARY AVE, ANCHORAGE, AK, 99504",639710376,R,02,020,000703,1011,-149.72246,61.224136
7847,8524 BOUNDARY AVE,Anchorage,AK,99504,"8524 BOUNDARY AVE, Anchorage, AK, 99504",Match,Exact,"8524 BOUNDARY AVE, ANCHORAGE, AK, 99504",639710376,R,02,020,000703,1011,-149.72246,61.224136
7848,8520 BOUNDARY AVE,Anchorage,AK,99504,"8520 BOUNDARY AVE, Anchorage, AK, 99504",Match,Exact,"8520 BOUNDARY AVE, ANCHORAGE, AK, 99504",639710376,R,02,020,000703,1011,-149.72253,61.224136
7849,8520 BOUNDARY AVE,Anchorage,AK,99504,"8520 BOUNDARY AVE, Anchorage, AK, 99504",Match,Exact,"8520 BOUNDARY AVE, ANCHORAGE, AK, 99504",639710376,R,02,020,000703,1011,-149.72253,61.224136
7850,8520 BOUNDARY AVE,Anchorage,AK,99504,"8520 BOUNDARY AVE, Anchorage, AK, 99504",Match,Exact,"8520 BOUNDARY AVE, ANCHORAGE, AK, 99504",639710376,R,02,020,000703,1011,-149.72253,61.224136
7851,8520 BOUNDARY AVE,Anchorage,AK,99504,"8520 BOUNDARY AVE, Anchorage, AK, 99504",Match,Exact,"8520 BOUNDARY AVE, ANCHORAGE, AK, 99504",639710376,R,02,020,000703,1011,-149.72253,61.224136
7852,8520 BOUNDARY AVE,Anchorage,AK,99504,"8520 BOUNDARY AVE, Anchorage, AK, 99504",Match,Exact,"8520 BOUNDARY AVE, ANCHORAGE, AK, 99504",639710376,R,02,020,000703,1011,-149.72253,61.224136
7853,224 WHISPER RIDGE CIR,Anchorage,AK,99504,"224 WHISPER RIDGE CIR, Anchorage, AK, 99504",Match,Exact,"224 WHISPER RIDGE CIR, ANCHORAGE, AK, 99504",624788767,L,02,020,000701,1013,-149.75894,61.222243999999996
7854,220 ORANGE LEAF CIR,Anchorage,AK,99504,"220 ORANGE LEAF CIR, Anchorage, AK, 99504",Match,Exact,"220 ORANGE LEAF CIR, ANCHORAGE, AK, 99504",190803309,L,02,020,000703,1013,-149.71944,61.22225600000001
7855,233 WHISPER KNOLL CIR,Anchorage,AK,99504,"233 WHISPER KNOLL CIR, Anchorage, AK, 99504",Match,Exact,"233 WHISPER KNOLL CIR, ANCHORAGE, AK, 99504",605185014,L,02,020,000701,1013,-149.76085,61.222115
7856,233 WHISPER KNOLL CIR,Anchorage,AK,99504,"233 WHISPER KNOLL CIR, Anchorage, AK, 99504",Match,Exact,"233 WHISPER KNOLL CIR, ANCHORAGE, AK, 99504",605185014,L,02,020,000701,1013,-149.76085,61.222115
7857,220 RED LEAF CIR,Anchorage,AK,99504,"220 RED LEAF CIR, Anchorage, AK, 99504",Match,Exact,"220 RED LEAF CIR, ANCHORAGE, AK, 99504",190803306,L,02,020,000703,1013,-149.72131000000002,61.22225600000001
7858,6317 WHISPERING LOOP,Anchorage,AK,99504,"6317 WHISPERING LOOP, Anchorage, AK, 99504",Match,Exact,"6317 WHISPERING LOOP, ANCHORAGE, AK, 99504",624788733,L,02,020,000701,1013,-149.76253,61.221973
7859,6317 WHISPERING LOOP,Anchorage,AK,99504,"6317 WHISPERING LOOP, Anchorage, AK, 99504",Match,Exact,"6317 WHISPERING LOOP, ANCHORAGE, AK, 99504",624788733,L,02,020,000701,1013,-149.76253,61.221973
7860,208 ZAPPA PL,Anchorage,AK,99504,"208 ZAPPA PL, Anchorage, AK, 99504",Match,Exact,"208 ZAPPA PL, ANCHORAGE, AK, 99504",190803204,R,02,020,000703,2003,-149.72603,61.222115
7861,208 ZAPPA PL,Anchorage,AK,99504,"208 ZAPPA PL, Anchorage, AK, 99504",Match,Exact,"208 ZAPPA PL, ANCHORAGE, AK, 99504",190803204,R,02,020,000703,2003,-149.72603,61.222115
7862,208 ZAPPA PL,Anchorage,AK,99504,"208 ZAPPA PL, Anchorage, AK, 99504",Match,Exact,"208 ZAPPA PL, ANCHORAGE, AK, 99504",190803204,R,02,020,000703,2003,-149.72603,61.222115
7863,208 ZAPPA PL,Anchorage,AK,99504,"208 ZAPPA PL, Anchorage, AK, 99504",Match,Exact,"208 ZAPPA PL, ANCHORAGE, AK, 99504",190803204,R,02,020,000703,2003,-149.72603,61.222115
7864,332 BONIFACE PKWY,Anchorage,AK,99504,"332 BONIFACE PKWY, Anchorage, AK, 99504",Match,Exact,"332 BONIFACE PKWY, ANCHORAGE, AK, 99504",190801982,R,02,020,000801,4000,-149.77841,61.219756999999994
7865,6811 DICKERSON DR,Anchorage,AK,99504,"6811 DICKERSON DR, Anchorage, AK, 99504",Match,Exact,"6811 DICKERSON DR, ANCHORAGE, AK, 99504",190802757,L,02,020,000702,3002,-149.75398,61.221855000000005
7866,210 MULDOON RD,Anchorage,AK,99504,"210 MULDOON RD, Anchorage, AK, 99504",Match,Exact,"210 MULDOON RD, ANCHORAGE, AK, 99504",190803191,R,02,020,000702,2000,-149.73352,61.222069999999995
7867,220 ALASKA PL,Anchorage,AK,99504,"220 ALASKA PL, Anchorage, AK, 99504",Match,Exact,"220 ALASKA PL, ANCHORAGE, AK, 99504",190810872,R,02,020,000702,2008,-149.74663999999999,61.221911999999996
7868,220 ALASKA PL,Anchorage,AK,99504,"220 ALASKA PL, Anchorage, AK, 99504",Match,Exact,"220 ALASKA PL, ANCHORAGE, AK, 99504",190810872,R,02,020,000702,2008,-149.74663999999999,61.221911999999996
7869,201 OKLAHOMA ST,Anchorage,AK,99504,"201 OKLAHOMA ST, Anchorage, AK, 99504",Match,Exact,"201 OKLAHOMA ST, ANCHORAGE, AK, 99504",190802855,L,02,020,000702,2001,-149.74475,61.22221999999999
7870,8330 PECK AVE,Anchorage,AK,99504,"8330 PECK AVE, Anchorage, AK, 99504",Match,Exact,"8330 PECK AVE, ANCHORAGE, AK, 99504",190812129,R,02,020,000703,1013,-149.7249,61.22237
7871,227 GRAND LARRY ST,Anchorage,AK,99504,"227 GRAND LARRY ST, Anchorage, AK, 99504",Match,Exact,"227 GRAND LARRY ST, ANCHORAGE, AK, 99504",190803200,L,02,020,000703,2003,-149.72975,61.22184
7872,263 TURPIN ST,Anchorage,AK,99504,"263 TURPIN ST, Anchorage, AK, 99504",Match,Exact,"263 TURPIN ST, ANCHORAGE, AK, 99504",190802739,L,02,020,000702,3005,-149.75597,61.221043
7873,323 DAVIS ST,Anchorage,AK,99508,"323 DAVIS ST, Anchorage, AK, 99508",Match,Exact,"323 DAVIS ST, ANCHORAGE, AK, 99508",190801967,L,02,020,000801,3009,-149.78607,61.22128000000001
7874,269 KESTER CIR,Anchorage,AK,99504,"269 KESTER CIR, Anchorage, AK, 99504",Match,Exact,"269 KESTER CIR, ANCHORAGE, AK, 99504",190803210,R,02,020,000702,2000,-149.73619,61.22081800000001
7875,302 DAVIS ST,Anchorage,AK,99508,"302 DAVIS ST, Anchorage, AK, 99508",Match,Exact,"302 DAVIS ST, ANCHORAGE, AK, 99508",190801967,R,02,020,000801,2010,-149.78609,61.22144300000001
7876,6823 ELMRICH CT,Anchorage,AK,99504,"6823 ELMRICH CT, Anchorage, AK, 99504",Match,Exact,"6823 ELMRICH CT, ANCHORAGE, AK, 99504",190802809,L,02,020,000702,3005,-149.75381000000002,61.22099
7877,263 IDAHO ST,Anchorage,AK,99504,"263 IDAHO ST, Anchorage, AK, 99504",Match,Exact,"263 IDAHO ST, ANCHORAGE, AK, 99504",190808929,R,02,020,000702,2000,-149.73713999999998,61.220909999999996
7878,263 IDAHO ST,Anchorage,AK,99504,"263 IDAHO ST, Anchorage, AK, 99504",Match,Exact,"263 IDAHO ST, ANCHORAGE, AK, 99504",190808929,R,02,020,000702,2000,-149.73713999999998,61.220909999999996
7879,321 FIREOVED DR,Anchorage,AK,99508,"321 FIREOVED DR, Anchorage, AK, 99508",Match,Exact,"321 FIREOVED DR, ANCHORAGE, AK, 99508",643733471,L,02,020,000801,3008,-149.78418,61.221462
7880,261 FALL LEAF CIR,Anchorage,AK,99504,"261 FALL LEAF CIR, Anchorage, AK, 99504",Match,Exact,"261 FALL LEAF CIR, ANCHORAGE, AK, 99504",190803320,L,02,020,000703,1013,-149.72128,61.220776
7881,6901 DICKERSON DR,Anchorage,AK,99504,"6901 DICKERSON DR, Anchorage, AK, 99504",Match,Exact,"6901 DICKERSON DR, ANCHORAGE, AK, 99504",638990933,L,02,020,000702,3004,-149.75271999999998,61.221424
7882,6489 WHISPERING LOOP,Anchorage,AK,99504,"6489 WHISPERING LOOP, Anchorage, AK, 99504",Match,Exact,"6489 WHISPERING LOOP, ANCHORAGE, AK, 99504",624788733,L,02,020,000701,1013,-149.76068,61.220985
7883,6489 WHISPERING LOOP,Anchorage,AK,99504,"6489 WHISPERING LOOP, Anchorage, AK, 99504",Match,Exact,"6489 WHISPERING LOOP, ANCHORAGE, AK, 99504",624788733,L,02,020,000701,1013,-149.76068,61.220985
7884,265 OKLAHOMA ST,Anchorage,AK,99504,"265 OKLAHOMA ST, Anchorage, AK, 99504",Match,Exact,"265 OKLAHOMA ST, ANCHORAGE, AK, 99504",190802855,L,02,020,000702,2001,-149.74475,61.221230000000006
7885,6501 WHISPERING LOOP,Anchorage,AK,99504,"6501 WHISPERING LOOP, Anchorage, AK, 99504",Match,Exact,"6501 WHISPERING LOOP, ANCHORAGE, AK, 99504",624788733,L,02,020,000701,1013,-149.76256,61.221619999999994
7886,6501 WHISPERING LOOP,Anchorage,AK,99504,"6501 WHISPERING LOOP, Anchorage, AK, 99504",Match,Exact,"6501 WHISPERING LOOP, ANCHORAGE, AK, 99504",624788733,L,02,020,000701,1013,-149.76256,61.221619999999994
7887,6538 WHISPERING LOOP,Anchorage,AK,99504,"6538 WHISPERING LOOP, Anchorage, AK, 99504",Match,Exact,"6538 WHISPERING LOOP, ANCHORAGE, AK, 99504",624788736,L,02,020,000701,1000,-149.75949,61.220943000000005
7888,6538 WHISPERING LOOP,Anchorage,AK,99504,"6538 WHISPERING LOOP, Anchorage, AK, 99504",Match,Exact,"6538 WHISPERING LOOP, ANCHORAGE, AK, 99504",624788736,L,02,020,000701,1000,-149.75949,61.220943000000005
7889,6426 WHISPERING LOOP,Anchorage,AK,99504,"6426 WHISPERING LOOP, Anchorage, AK, 99504",Match,Exact,"6426 WHISPERING LOOP, ANCHORAGE, AK, 99504",624788733,R,02,020,000701,1000,-149.76244,61.221004
7890,6426 WHISPERING LOOP,Anchorage,AK,99504,"6426 WHISPERING LOOP, Anchorage, AK, 99504",Match,Exact,"6426 WHISPERING LOOP, ANCHORAGE, AK, 99504",624788733,R,02,020,000701,1000,-149.76244,61.221004
7891,6454 WHISPERING LOOP,Anchorage,AK,99504,"6454 WHISPERING LOOP, Anchorage, AK, 99504",Match,Exact,"6454 WHISPERING LOOP, ANCHORAGE, AK, 99504",624788733,R,02,020,000701,1000,-149.76193,61.220909999999996
7892,6454 WHISPERING LOOP,Anchorage,AK,99504,"6454 WHISPERING LOOP, Anchorage, AK, 99504",Match,Exact,"6454 WHISPERING LOOP, ANCHORAGE, AK, 99504",624788733,R,02,020,000701,1000,-149.76193,61.220909999999996
7893,171 MULDOON RD,Anchorage,AK,99504,"171 MULDOON RD, Anchorage, AK, 99504",Match,Exact,"171 MULDOON RD, ANCHORAGE, AK, 99504",638990398,L,02,020,000703,2001,-149.7335,61.22294599999999
7894,171 MULDOON RD,Anchorage,AK,99504,"171 MULDOON RD, Anchorage, AK, 99504",Match,Exact,"171 MULDOON RD, ANCHORAGE, AK, 99504",638990398,L,02,020,000703,2001,-149.7335,61.22294599999999
7895,171 MULDOON RD,Anchorage,AK,99504,"171 MULDOON RD, Anchorage, AK, 99504",Match,Exact,"171 MULDOON RD, ANCHORAGE, AK, 99504",638990398,L,02,020,000703,2001,-149.7335,61.22294599999999
7896,171 MULDOON RD,Anchorage,AK,99504,"171 MULDOON RD, Anchorage, AK, 99504",Match,Exact,"171 MULDOON RD, ANCHORAGE, AK, 99504",638990398,L,02,020,000703,2001,-149.7335,61.22294599999999
7897,171 MULDOON RD,Anchorage,AK,99504,"171 MULDOON RD, Anchorage, AK, 99504",Match,Exact,"171 MULDOON RD, ANCHORAGE, AK, 99504",638990398,L,02,020,000703,2001,-149.7335,61.22294599999999
7898,171 MULDOON RD,Anchorage,AK,99504,"171 MULDOON RD, Anchorage, AK, 99504",Match,Exact,"171 MULDOON RD, ANCHORAGE, AK, 99504",638990398,L,02,020,000703,2001,-149.7335,61.22294599999999
7899,171 MULDOON RD,Anchorage,AK,99504,"171 MULDOON RD, Anchorage, AK, 99504",Match,Exact,"171 MULDOON RD, ANCHORAGE, AK, 99504",638990398,L,02,020,000703,2001,-149.7335,61.22294599999999
7900,171 MULDOON RD,Anchorage,AK,99504,"171 MULDOON RD, Anchorage, AK, 99504",Match,Exact,"171 MULDOON RD, ANCHORAGE, AK, 99504",638990398,L,02,020,000703,2001,-149.7335,61.22294599999999
7901,171 MULDOON RD,Anchorage,AK,99504,"171 MULDOON RD, Anchorage, AK, 99504",Match,Exact,"171 MULDOON RD, ANCHORAGE, AK, 99504",638990398,L,02,020,000703,2001,-149.7335,61.22294599999999
7902,171 MULDOON RD,Anchorage,AK,99504,"171 MULDOON RD, Anchorage, AK, 99504",Match,Exact,"171 MULDOON RD, ANCHORAGE, AK, 99504",638990398,L,02,020,000703,2001,-149.7335,61.22294599999999
7903,171 MULDOON RD,Anchorage,AK,99504,"171 MULDOON RD, Anchorage, AK, 99504",Match,Exact,"171 MULDOON RD, ANCHORAGE, AK, 99504",638990398,L,02,020,000703,2001,-149.7335,61.22294599999999
7904,171 MULDOON RD,Anchorage,AK,99504,"171 MULDOON RD, Anchorage, AK, 99504",Match,Exact,"171 MULDOON RD, ANCHORAGE, AK, 99504",638990398,L,02,020,000703,2001,-149.7335,61.22294599999999
7905,171 MULDOON RD,Anchorage,AK,99504,"171 MULDOON RD, Anchorage, AK, 99504",Match,Exact,"171 MULDOON RD, ANCHORAGE, AK, 99504",638990398,L,02,020,000703,2001,-149.7335,61.22294599999999
7906,198 RUSTY ALLEN PL,Anchorage,AK,99504,"198 RUSTY ALLEN PL, Anchorage, AK, 99504",Match,Exact,"198 RUSTY ALLEN PL, ANCHORAGE, AK, 99504",605185494,R,02,020,000701,1000,-149.76062,61.222621999999994
7907,8101 PECK AVE,Anchorage,AK,99504,"8101 PECK AVE, Anchorage, AK, 99504",Match,Exact,"8101 PECK AVE, ANCHORAGE, AK, 99504",190803203,L,02,020,000703,2000,-149.72781,61.222378000000006
7908,8101 PECK AVE,Anchorage,AK,99504,"8101 PECK AVE, Anchorage, AK, 99504",Match,Exact,"8101 PECK AVE, ANCHORAGE, AK, 99504",190803203,L,02,020,000703,2000,-149.72781,61.222378000000006
7909,8101 PECK AVE,Anchorage,AK,99504,"8101 PECK AVE, Anchorage, AK, 99504",Match,Exact,"8101 PECK AVE, ANCHORAGE, AK, 99504",190803203,L,02,020,000703,2000,-149.72781,61.222378000000006
7910,8101 PECK AVE,Anchorage,AK,99504,"8101 PECK AVE, Anchorage, AK, 99504",Match,Exact,"8101 PECK AVE, ANCHORAGE, AK, 99504",190803203,L,02,020,000703,2000,-149.72781,61.222378000000006
7911,8101 PECK AVE,Anchorage,AK,99504,"8101 PECK AVE, Anchorage, AK, 99504",Match,Exact,"8101 PECK AVE, ANCHORAGE, AK, 99504",190803203,L,02,020,000703,2000,-149.72781,61.222378000000006
7912,8101 PECK AVE,Anchorage,AK,99504,"8101 PECK AVE, Anchorage, AK, 99504",Match,Exact,"8101 PECK AVE, ANCHORAGE, AK, 99504",190803203,L,02,020,000703,2000,-149.72781,61.222378000000006
7913,8101 PECK AVE,Anchorage,AK,99504,"8101 PECK AVE, Anchorage, AK, 99504",Match,Exact,"8101 PECK AVE, ANCHORAGE, AK, 99504",190803203,L,02,020,000703,2000,-149.72781,61.222378000000006
7914,8101 PECK AVE,Anchorage,AK,99504,"8101 PECK AVE, Anchorage, AK, 99504",Match,Exact,"8101 PECK AVE, ANCHORAGE, AK, 99504",190803203,L,02,020,000703,2000,-149.72781,61.222378000000006
7915,8101 PECK AVE,Anchorage,AK,99504,"8101 PECK AVE, Anchorage, AK, 99504",Match,Exact,"8101 PECK AVE, ANCHORAGE, AK, 99504",190803203,L,02,020,000703,2000,-149.72781,61.222378000000006
7916,8101 PECK AVE,Anchorage,AK,99504,"8101 PECK AVE, Anchorage, AK, 99504",Match,Exact,"8101 PECK AVE, ANCHORAGE, AK, 99504",190803203,L,02,020,000703,2000,-149.72781,61.222378000000006
7917,8101 PECK AVE,Anchorage,AK,99504,"8101 PECK AVE, Anchorage, AK, 99504",Match,Exact,"8101 PECK AVE, ANCHORAGE, AK, 99504",190803203,L,02,020,000703,2000,-149.72781,61.222378000000006
7918,8101 PECK AVE,Anchorage,AK,99504,"8101 PECK AVE, Anchorage, AK, 99504",Match,Exact,"8101 PECK AVE, ANCHORAGE, AK, 99504",190803203,L,02,020,000703,2000,-149.72781,61.222378000000006
7919,8101 PECK AVE,Anchorage,AK,99504,"8101 PECK AVE, Anchorage, AK, 99504",Match,Exact,"8101 PECK AVE, ANCHORAGE, AK, 99504",190803203,L,02,020,000703,2000,-149.72781,61.222378000000006
7920,227 NEWELL ST,Anchorage,AK,99504,"227 NEWELL ST, Anchorage, AK, 99504",Match,Exact,"227 NEWELL ST, ANCHORAGE, AK, 99504",605167293,R,02,020,000701,1000,-149.77095,61.222637
7921,7230 PECK AVE,Anchorage,AK,99504,"7230 PECK AVE, Anchorage, AK, 99504",Match,Exact,"7230 PECK AVE, ANCHORAGE, AK, 99504",190802854,R,02,020,000702,2008,-149.74602,61.222359999999995
7922,7220 PECK AVE,Anchorage,AK,99504,"7220 PECK AVE, Anchorage, AK, 99504",Match,Exact,"7220 PECK AVE, ANCHORAGE, AK, 99504",190802854,R,02,020,000702,2008,-149.74617,61.222359999999995
7923,5240 CARIBOU AVE,Anchorage,AK,99508,"5240 CARIBOU AVE, Anchorage, AK, 99508",Match,Exact,"5240 CARIBOU AVE, ANCHORAGE, AK, 99508",190801938,R,02,020,000801,3009,-149.78375,61.22238
7924,5306 CARIBOU AVE,Anchorage,AK,99508,"5306 CARIBOU AVE, Anchorage, AK, 99508",Match,Exact,"5306 CARIBOU AVE, ANCHORAGE, AK, 99508",190820388,R,02,020,000801,3008,-149.78226,61.22238
7925,6384 WHISPERWOOD PARK DR,Anchorage,AK,99504,"6384 WHISPERWOOD PARK DR, Anchorage, AK, 99504",Match,Exact,"6384 WHISPERWOOD PARK DR, ANCHORAGE, AK, 99504",624788671,R,02,020,000701,1013,-149.76175,61.222374
7926,6384 WHISPERWOOD PARK DR,Anchorage,AK,99504,"6384 WHISPERWOOD PARK DR, Anchorage, AK, 99504",Match,Exact,"6384 WHISPERWOOD PARK DR, ANCHORAGE, AK, 99504",624788671,R,02,020,000701,1013,-149.76175,61.222374
7927,5226 CARIBOU AVE,Anchorage,AK,99508,"5226 CARIBOU AVE, Anchorage, AK, 99508",Match,Exact,"5226 CARIBOU AVE, ANCHORAGE, AK, 99508",190801938,R,02,020,000801,3009,-149.78395,61.22238
7928,5216 CARIBOU AVE,Anchorage,AK,99508,"5216 CARIBOU AVE, Anchorage, AK, 99508",Match,Exact,"5216 CARIBOU AVE, ANCHORAGE, AK, 99508",190801938,R,02,020,000801,3009,-149.7841,61.22238
7929,5206 CARIBOU AVE,Anchorage,AK,99508,"5206 CARIBOU AVE, Anchorage, AK, 99508",Match,Exact,"5206 CARIBOU AVE, ANCHORAGE, AK, 99508",190801938,R,02,020,000801,3009,-149.78426000000002,61.22238
7930,5136 CARIBOU AVE,Anchorage,AK,99508,"5136 CARIBOU AVE, Anchorage, AK, 99508",Match,Exact,"5136 CARIBOU AVE, ANCHORAGE, AK, 99508",190801938,R,02,020,000801,3009,-149.78528,61.22238
7931,238 MELODY PL,Anchorage,AK,99504,"238 MELODY PL, Anchorage, AK, 99504",Match,Exact,"238 MELODY PL, ANCHORAGE, AK, 99504",190802898,R,02,020,000702,2001,-149.73914,61.220703
7932,8397 DUBEN AVE,Anchorage,AK,99504,"8397 DUBEN AVE, Anchorage, AK, 99504",Match,Exact,"8397 DUBEN AVE, ANCHORAGE, AK, 99504",605183644,L,02,020,000703,1013,-149.72374,61.22062
7933,249 OKLAHOMA ST,Anchorage,AK,99504,"249 OKLAHOMA ST, Anchorage, AK, 99504",Match,Exact,"249 OKLAHOMA ST, ANCHORAGE, AK, 99504",190802855,L,02,020,000702,2001,-149.74475,61.221478000000005
7934,249 OKLAHOMA ST,Anchorage,AK,99504,"249 OKLAHOMA ST, Anchorage, AK, 99504",Match,Exact,"249 OKLAHOMA ST, ANCHORAGE, AK, 99504",190802855,L,02,020,000702,2001,-149.74475,61.221478000000005
7935,249 OKLAHOMA ST,Anchorage,AK,99504,"249 OKLAHOMA ST, Anchorage, AK, 99504",Match,Exact,"249 OKLAHOMA ST, ANCHORAGE, AK, 99504",190802855,L,02,020,000702,2001,-149.74475,61.221478000000005
7936,249 OKLAHOMA ST,Anchorage,AK,99504,"249 OKLAHOMA ST, Anchorage, AK, 99504",Match,Exact,"249 OKLAHOMA ST, ANCHORAGE, AK, 99504",190802855,L,02,020,000702,2001,-149.74475,61.221478000000005
7937,300 BUNNELL ST,Anchorage,AK,99508,"300 BUNNELL ST, Anchorage, AK, 99508",Match,Exact,"300 BUNNELL ST, ANCHORAGE, AK, 99508",624266934,R,02,020,000801,2005,-149.78972,61.221455000000006
7938,243 CREEKSIDE ST,Anchorage,AK,99504,"243 CREEKSIDE ST, Anchorage, AK, 99504",Match,Exact,"243 CREEKSIDE ST, ANCHORAGE, AK, 99504",190816630,R,02,020,000702,2001,-149.741,61.221059999999994
7939,244 CREEKSIDE ST,Anchorage,AK,99504,"244 CREEKSIDE ST, Anchorage, AK, 99504",Match,Exact,"244 CREEKSIDE ST, ANCHORAGE, AK, 99504",190816630,L,02,020,000702,2001,-149.74101000000002,61.221045999999994
7940,6670 WHISPERING LOOP,Anchorage,AK,99504,"6670 WHISPERING LOOP, Anchorage, AK, 99504",Match,Exact,"6670 WHISPERING LOOP, ANCHORAGE, AK, 99504",624788736,L,02,020,000701,1000,-149.75705,61.22141
7941,6670 WHISPERING LOOP,Anchorage,AK,99504,"6670 WHISPERING LOOP, Anchorage, AK, 99504",Match,Exact,"6670 WHISPERING LOOP, ANCHORAGE, AK, 99504",624788736,L,02,020,000701,1000,-149.75705,61.22141
7942,303 FIREOVED DR,Anchorage,AK,99508,"303 FIREOVED DR, Anchorage, AK, 99508",Match,Exact,"303 FIREOVED DR, ANCHORAGE, AK, 99508",643733471,L,02,020,000801,3008,-149.78394,61.22158
7943,303 FIREOVED DR,Anchorage,AK,99508,"303 FIREOVED DR, Anchorage, AK, 99508",Match,Exact,"303 FIREOVED DR, ANCHORAGE, AK, 99508",643733471,L,02,020,000801,3008,-149.78394,61.22158
7944,303 FIREOVED DR,Anchorage,AK,99508,"303 FIREOVED DR, Anchorage, AK, 99508",Match,Exact,"303 FIREOVED DR, ANCHORAGE, AK, 99508",643733471,L,02,020,000801,3008,-149.78394,61.22158
7945,268 ALASKA PL,Anchorage,AK,99504,"268 ALASKA PL, Anchorage, AK, 99504",Match,Exact,"268 ALASKA PL, ANCHORAGE, AK, 99504",190810872,R,02,020,000702,2007,-149.74663999999999,61.221169999999994
7946,268 ALASKA PL,Anchorage,AK,99504,"268 ALASKA PL, Anchorage, AK, 99504",Match,Exact,"268 ALASKA PL, ANCHORAGE, AK, 99504",190810872,R,02,020,000702,2007,-149.74663999999999,61.221169999999994
7947,268 ALASKA PL,Anchorage,AK,99504,"268 ALASKA PL, Anchorage, AK, 99504",Match,Exact,"268 ALASKA PL, ANCHORAGE, AK, 99504",190810872,R,02,020,000702,2007,-149.74663999999999,61.221169999999994
7948,268 ALASKA PL,Anchorage,AK,99504,"268 ALASKA PL, Anchorage, AK, 99504",Match,Exact,"268 ALASKA PL, ANCHORAGE, AK, 99504",190810872,R,02,020,000702,2007,-149.74663999999999,61.221169999999994
7949,8403 DUBEN AVE,Anchorage,AK,99504,"8403 DUBEN AVE, Anchorage, AK, 99504",Match,Exact,"8403 DUBEN AVE, ANCHORAGE, AK, 99504",605183645,L,02,020,000703,1013,-149.7234,61.22062
7950,339 BONIFACE PKWY,Anchorage,AK,99504,"339 BONIFACE PKWY, Anchorage, AK, 99504",Match,Exact,"339 BONIFACE PKWY, ANCHORAGE, AK, 99504",190812090,L,02,020,000701,1000,-149.7784,61.220367
7951,244 MELODY PL,Anchorage,AK,99504,"244 MELODY PL, Anchorage, AK, 99504",No_Match,,,,,,,,,,
7952,244 MELODY PL,Anchorage,AK,99504,"244 MELODY PL, Anchorage, AK, 99504",No_Match,,,,,,,,,,
7953,244 MELODY PL,Anchorage,AK,99504,"244 MELODY PL, Anchorage, AK, 99504",No_Match,,,,,,,,,,
7954,8520 BOUNDARY AVE,Anchorage,AK,99504,"8520 BOUNDARY AVE, Anchorage, AK, 99504",Match,Exact,"8520 BOUNDARY AVE, ANCHORAGE, AK, 99504",639710376,R,02,020,000703,1011,-149.72253,61.224136
7955,8516 BOUNDARY AVE,Anchorage,AK,99504,"8516 BOUNDARY AVE, Anchorage, AK, 99504",Match,Exact,"8516 BOUNDARY AVE, ANCHORAGE, AK, 99504",639710376,R,02,020,000703,1011,-149.7226,61.224136
7956,8516 BOUNDARY AVE,Anchorage,AK,99504,"8516 BOUNDARY AVE, Anchorage, AK, 99504",Match,Exact,"8516 BOUNDARY AVE, ANCHORAGE, AK, 99504",639710376,R,02,020,000703,1011,-149.7226,61.224136
7957,8516 BOUNDARY AVE,Anchorage,AK,99504,"8516 BOUNDARY AVE, Anchorage, AK, 99504",Match,Exact,"8516 BOUNDARY AVE, ANCHORAGE, AK, 99504",639710376,R,02,020,000703,1011,-149.7226,61.224136
7958,8516 BOUNDARY AVE,Anchorage,AK,99504,"8516 BOUNDARY AVE, Anchorage, AK, 99504",Match,Exact,"8516 BOUNDARY AVE, ANCHORAGE, AK, 99504",639710376,R,02,020,000703,1011,-149.7226,61.224136
7959,8516 BOUNDARY AVE,Anchorage,AK,99504,"8516 BOUNDARY AVE, Anchorage, AK, 99504",Match,Exact,"8516 BOUNDARY AVE, ANCHORAGE, AK, 99504",639710376,R,02,020,000703,1011,-149.7226,61.224136
7960,7035 GOLD KINGS AVE,Anchorage,AK,99504,"7035 GOLD KINGS AVE, Anchorage, AK, 99504",Match,Exact,"7035 GOLD KINGS AVE, ANCHORAGE, AK, 99504",190820028,R,02,020,000702,3002,-149.74962,61.223614000000005
7961,7025 GOLD KINGS AVE,Anchorage,AK,99504,"7025 GOLD KINGS AVE, Anchorage, AK, 99504",Match,Exact,"7025 GOLD KINGS AVE, ANCHORAGE, AK, 99504",190820028,R,02,020,000702,3002,-149.74974,61.223614000000005
7962,7015 GOLD KINGS AVE,Anchorage,AK,99504,"7015 GOLD KINGS AVE, Anchorage, AK, 99504",Match,Exact,"7015 GOLD KINGS AVE, ANCHORAGE, AK, 99504",190820028,R,02,020,000702,3002,-149.74986,61.223614000000005
7963,7005 GOLD KINGS AVE,Anchorage,AK,99504,"7005 GOLD KINGS AVE, Anchorage, AK, 99504",Match,Exact,"7005 GOLD KINGS AVE, ANCHORAGE, AK, 99504",190820028,R,02,020,000702,3002,-149.74997,61.223618
7964,6953 GOLD KINGS AVE,Anchorage,AK,99504,"6953 GOLD KINGS AVE, Anchorage, AK, 99504",Match,Exact,"6953 GOLD KINGS AVE, ANCHORAGE, AK, 99504",190820028,R,02,020,000702,3002,-149.7506,61.223618
7965,6943 GOLD KINGS AVE,Anchorage,AK,99504,"6943 GOLD KINGS AVE, Anchorage, AK, 99504",Match,Exact,"6943 GOLD KINGS AVE, ANCHORAGE, AK, 99504",190820028,R,02,020,000702,3002,-149.7507,61.223618
7966,6933 GOLD KINGS AVE,Anchorage,AK,99504,"6933 GOLD KINGS AVE, Anchorage, AK, 99504",Match,Exact,"6933 GOLD KINGS AVE, ANCHORAGE, AK, 99504",190820028,R,02,020,000702,3002,-149.75082,61.223618
7967,6923 GOLD KINGS AVE,Anchorage,AK,99504,"6923 GOLD KINGS AVE, Anchorage, AK, 99504",Match,Exact,"6923 GOLD KINGS AVE, ANCHORAGE, AK, 99504",190820028,R,02,020,000702,3002,-149.75095,61.223618
7968,6923 GOLD KINGS AVE,Anchorage,AK,99504,"6923 GOLD KINGS AVE, Anchorage, AK, 99504",Match,Exact,"6923 GOLD KINGS AVE, ANCHORAGE, AK, 99504",190820028,R,02,020,000702,3002,-149.75095,61.223618
7969,6923 GOLD KINGS AVE,Anchorage,AK,99504,"6923 GOLD KINGS AVE, Anchorage, AK, 99504",Match,Exact,"6923 GOLD KINGS AVE, ANCHORAGE, AK, 99504",190820028,R,02,020,000702,3002,-149.75095,61.223618
7970,6923 GOLD KINGS AVE,Anchorage,AK,99504,"6923 GOLD KINGS AVE, Anchorage, AK, 99504",Match,Exact,"6923 GOLD KINGS AVE, ANCHORAGE, AK, 99504",190820028,R,02,020,000702,3002,-149.75095,61.223618
7971,7640 BOUNDARY AVE,Anchorage,AK,99504,"7640 BOUNDARY AVE, Anchorage, AK, 99504",Match,Exact,"7640 BOUNDARY AVE, ANCHORAGE, AK, 99504",605167217,R,02,020,000702,2000,-149.73871,61.224169999999994
7972,6913 GOLD KINGS AVE,Anchorage,AK,99504,"6913 GOLD KINGS AVE, Anchorage, AK, 99504",Match,Exact,"6913 GOLD KINGS AVE, ANCHORAGE, AK, 99504",190820028,R,02,020,000702,3002,-149.75105,61.223618
7973,6913 GOLD KINGS AVE,Anchorage,AK,99504,"6913 GOLD KINGS AVE, Anchorage, AK, 99504",Match,Exact,"6913 GOLD KINGS AVE, ANCHORAGE, AK, 99504",190820028,R,02,020,000702,3002,-149.75105,61.223618
7974,6913 GOLD KINGS AVE,Anchorage,AK,99504,"6913 GOLD KINGS AVE, Anchorage, AK, 99504",Match,Exact,"6913 GOLD KINGS AVE, ANCHORAGE, AK, 99504",190820028,R,02,020,000702,3002,-149.75105,61.223618
7975,6913 GOLD KINGS AVE,Anchorage,AK,99504,"6913 GOLD KINGS AVE, Anchorage, AK, 99504",Match,Exact,"6913 GOLD KINGS AVE, ANCHORAGE, AK, 99504",190820028,R,02,020,000702,3002,-149.75105,61.223618
7976,6903 GOLD KINGS AVE,Anchorage,AK,99504,"6903 GOLD KINGS AVE, Anchorage, AK, 99504",Match,Exact,"6903 GOLD KINGS AVE, ANCHORAGE, AK, 99504",190820028,R,02,020,000702,3002,-149.75117,61.223618
7977,6831 GOLD KINGS CIR,Anchorage,AK,99504,"6831 GOLD KINGS CIR, Anchorage, AK, 99504",Match,Exact,"6831 GOLD KINGS CIR, ANCHORAGE, AK, 99504",190820029,R,02,020,000702,3002,-149.75371,61.22362
7978,6831 GOLD KINGS CIR,Anchorage,AK,99504,"6831 GOLD KINGS CIR, Anchorage, AK, 99504",Match,Exact,"6831 GOLD KINGS CIR, ANCHORAGE, AK, 99504",190820029,R,02,020,000702,3002,-149.75371,61.22362
7979,6831 GOLD KINGS CIR,Anchorage,AK,99504,"6831 GOLD KINGS CIR, Anchorage, AK, 99504",Match,Exact,"6831 GOLD KINGS CIR, ANCHORAGE, AK, 99504",190820029,R,02,020,000702,3002,-149.75371,61.22362
7980,6831 GOLD KINGS CIR,Anchorage,AK,99504,"6831 GOLD KINGS CIR, Anchorage, AK, 99504",Match,Exact,"6831 GOLD KINGS CIR, ANCHORAGE, AK, 99504",190820029,R,02,020,000702,3002,-149.75371,61.22362
7981,6821 GOLD KINGS CIR,Anchorage,AK,99504,"6821 GOLD KINGS CIR, Anchorage, AK, 99504",Match,Exact,"6821 GOLD KINGS CIR, ANCHORAGE, AK, 99504",190820029,R,02,020,000702,3002,-149.75383,61.22362
7982,6821 GOLD KINGS CIR,Anchorage,AK,99504,"6821 GOLD KINGS CIR, Anchorage, AK, 99504",Match,Exact,"6821 GOLD KINGS CIR, ANCHORAGE, AK, 99504",190820029,R,02,020,000702,3002,-149.75383,61.22362
7983,6821 GOLD KINGS CIR,Anchorage,AK,99504,"6821 GOLD KINGS CIR, Anchorage, AK, 99504",Match,Exact,"6821 GOLD KINGS CIR, ANCHORAGE, AK, 99504",190820029,R,02,020,000702,3002,-149.75383,61.22362
7984,6821 GOLD KINGS CIR,Anchorage,AK,99504,"6821 GOLD KINGS CIR, Anchorage, AK, 99504",Match,Exact,"6821 GOLD KINGS CIR, ANCHORAGE, AK, 99504",190820029,R,02,020,000702,3002,-149.75383,61.22362
7985,272 ALASKA PL,Anchorage,AK,99504,"272 ALASKA PL, Anchorage, AK, 99504",Match,Exact,"272 ALASKA PL, ANCHORAGE, AK, 99504",190810872,R,02,020,000702,2007,-149.74663999999999,61.221104000000004
7986,272 ALASKA PL,Anchorage,AK,99504,"272 ALASKA PL, Anchorage, AK, 99504",Match,Exact,"272 ALASKA PL, ANCHORAGE, AK, 99504",190810872,R,02,020,000702,2007,-149.74663999999999,61.221104000000004
7987,272 ALASKA PL,Anchorage,AK,99504,"272 ALASKA PL, Anchorage, AK, 99504",Match,Exact,"272 ALASKA PL, ANCHORAGE, AK, 99504",190810872,R,02,020,000702,2007,-149.74663999999999,61.221104000000004
7988,272 ALASKA PL,Anchorage,AK,99504,"272 ALASKA PL, Anchorage, AK, 99504",Match,Exact,"272 ALASKA PL, ANCHORAGE, AK, 99504",190810872,R,02,020,000702,2007,-149.74663999999999,61.221104000000004
7989,6833 ELMRICH CT,Anchorage,AK,99504,"6833 ELMRICH CT, Anchorage, AK, 99504",Match,Exact,"6833 ELMRICH CT, ANCHORAGE, AK, 99504",190802809,L,02,020,000702,3005,-149.75366,61.22099
7990,322 FIREOVED DR,Anchorage,AK,99508,"322 FIREOVED DR, Anchorage, AK, 99508",Match,Exact,"322 FIREOVED DR, ANCHORAGE, AK, 99508",643733471,R,02,020,000801,3009,-149.78421,61.22145
7991,6811 ELMRICH CT,Anchorage,AK,99504,"6811 ELMRICH CT, Anchorage, AK, 99504",Match,Exact,"6811 ELMRICH CT, ANCHORAGE, AK, 99504",190802809,L,02,020,000702,3005,-149.754,61.22099
7992,360 BONIFACE PKWY,Anchorage,AK,99504,"360 BONIFACE PKWY, Anchorage, AK, 99504",Match,Exact,"360 BONIFACE PKWY, ANCHORAGE, AK, 99504",190801982,R,02,020,000801,4000,-149.77841,61.219356999999995
7993,360 BONIFACE PKWY,Anchorage,AK,99504,"360 BONIFACE PKWY, Anchorage, AK, 99504",Match,Exact,"360 BONIFACE PKWY, ANCHORAGE, AK, 99504",190801982,R,02,020,000801,4000,-149.77841,61.219356999999995
7994,360 BONIFACE PKWY,Anchorage,AK,99504,"360 BONIFACE PKWY, Anchorage, AK, 99504",Match,Exact,"360 BONIFACE PKWY, ANCHORAGE, AK, 99504",190801982,R,02,020,000801,4000,-149.77841,61.219356999999995
7995,360 BONIFACE PKWY,Anchorage,AK,99504,"360 BONIFACE PKWY, Anchorage, AK, 99504",Match,Exact,"360 BONIFACE PKWY, ANCHORAGE, AK, 99504",190801982,R,02,020,000801,4000,-149.77841,61.219356999999995
7996,360 BONIFACE PKWY,Anchorage,AK,99504,"360 BONIFACE PKWY, Anchorage, AK, 99504",Match,Exact,"360 BONIFACE PKWY, ANCHORAGE, AK, 99504",190801982,R,02,020,000801,4000,-149.77841,61.219356999999995
7997,360 BONIFACE PKWY,Anchorage,AK,99504,"360 BONIFACE PKWY, Anchorage, AK, 99504",Match,Exact,"360 BONIFACE PKWY, ANCHORAGE, AK, 99504",190801982,R,02,020,000801,4000,-149.77841,61.219356999999995
7998,360 BONIFACE PKWY,Anchorage,AK,99504,"360 BONIFACE PKWY, Anchorage, AK, 99504",Match,Exact,"360 BONIFACE PKWY, ANCHORAGE, AK, 99504",190801982,R,02,020,000801,4000,-149.77841,61.219356999999995
7999,360 BONIFACE PKWY,Anchorage,AK,99504,"360 BONIFACE PKWY, Anchorage, AK, 99504",Match,Exact,"360 BONIFACE PKWY, ANCHORAGE, AK, 99504",190801982,R,02,020,000801,4000,-149.77841,61.219356999999995
